{
 "type": "FeatureCollection",
 "generated": "2025-06-18T20:58:40.756294",
 "suburb": "ARDATH",
 "features": [
  {
   "type": "Feature",
   "geometry": {
    "type": "Point",
    "coordinates": [
     118.0943702,
     -32.0299892
    ]
   },
   "properties": {
    "name": "15 CUMBERLAND STREET ARDATH 6419",
    "locID": "LOC000071594287",
    "tech": "NULL",
    "upgrade": "NULL_NA",
    "gnaf_pid": "GAWA_147040617",
    "ee": false,
    "tech_change_status": "Not Planned"
   }
  },
  {
   "type": "Feature",
   "geometry": {
    "type": "Point",
    "coordinates": [
     118.09513,
     -32.02963
    ]
   },
   "properties": {
    "name": "106 MAIN STREET ARDATH 6419",
    "locID": "LOC000079843084",
    "tech": "SATELLITE",
    "upgrade": "NULL_NA",
    "gnaf_pid": "GAWA_147049447",
    "ee": false,
    "tech_change_status": "Not Planned"
   }
  },
  {
   "type": "Feature",
   "geometry": {
    "type": "Point",
    "coordinates": [
     118.09689089,
     -32.02649763
    ]
   },
   "properties": {
    "name": "50 MAIN STREET ARDATH 6419",
    "locID": "LOC000015403616",
    "tech": "NULL",
    "upgrade": "NULL_NA",
    "gnaf_pid": "GAWA_147049457",
    "ee": false,
    "tech_change_status": "Not Planned"
   }
  },
  {
   "type": "Feature",
   "geometry": {
    "type": "Point",
    "coordinates": [
     118.09322,
     -32.02668
    ]
   },
   "properties": {
    "name": "20 YORK STREET ARDATH 6419",
    "locID": "LOC000017917125",
    "tech": "NULL",
    "upgrade": "NULL_NA",
    "gnaf_pid": "GAWA_147051818",
    "ee": false,
    "tech_change_status": "Not Planned"
   }
  },
  {
   "type": "Feature",
   "geometry": {
    "type": "Point",
    "coordinates": [
     118.09366843,
     -32.02908103
    ]
   },
   "properties": {
    "name": "10 YORK STREET ARDATH 6419",
    "locID": "LOC000025631233",
    "tech": "NULL",
    "upgrade": "NULL_NA",
    "gnaf_pid": "GAWA_147051819",
    "ee": false,
    "tech_change_status": "Not Planned"
   }
  },
  {
   "type": "Feature",
   "geometry": {
    "type": "Point",
    "coordinates": [
     118.0930576,
     -32.02948526
    ]
   },
   "properties": {
    "name": "18 YORK STREET ARDATH 6419",
    "locID": "LOC000085386042",
    "tech": "NULL",
    "upgrade": "NULL_NA",
    "gnaf_pid": "GAWA_147051820",
    "ee": false,
    "tech_change_status": "Not Planned"
   }
  },
  {
   "type": "Feature",
   "geometry": {
    "type": "Point",
    "coordinates": [
     118.09396942,
     -32.03107045
    ]
   },
   "properties": {
    "name": "27 CUMBERLAND STREET ARDATH 6419",
    "locID": "LOC000077390927",
    "tech": "NULL",
    "upgrade": "NULL_NA",
    "gnaf_pid": "GAWA_147067885",
    "ee": false,
    "tech_change_status": "Not Planned"
   }
  },
  {
   "type": "Feature",
   "geometry": {
    "type": "Point",
    "coordinates": [
     118.09447,
     -32.0314
    ]
   },
   "properties": {
    "name": "124 MAIN STREET ARDATH 6419",
    "locID": "LOC000100483739",
    "tech": "NULL",
    "upgrade": "NULL_NA",
    "gnaf_pid": "GAWA_147067891",
    "ee": false,
    "tech_change_status": "Not Planned"
   }
  },
  {
   "type": "Feature",
   "geometry": {
    "type": "Point",
    "coordinates": [
     118.09439972,
     -32.03156658
    ]
   },
   "properties": {
    "name": "126 MAIN STREET ARDATH 6419",
    "locID": "LOC000006534696",
    "tech": "NULL",
    "upgrade": "NULL_NA",
    "gnaf_pid": "GAWA_147067892",
    "ee": false,
    "tech_change_status": "Not Planned"
   }
  },
  {
   "type": "Feature",
   "geometry": {
    "type": "Point",
    "coordinates": [
     118.09422599,
     -32.03037861
    ]
   },
   "properties": {
    "name": "19 CUMBERLAND STREET ARDATH 6419",
    "locID": "LOC000037799104",
    "tech": "SATELLITE",
    "upgrade": "NULL_NA",
    "gnaf_pid": "GAWA_147067893",
    "ee": false,
    "tech_change_status": "Not Planned"
   }
  },
  {
   "type": "Feature",
   "geometry": {
    "type": "Point",
    "coordinates": [
     118.09453,
     -32.03123
    ]
   },
   "properties": {
    "name": "122 MAIN STREET ARDATH 6419",
    "locID": "LOC000056315988",
    "tech": "NULL",
    "upgrade": "NULL_NA",
    "gnaf_pid": "GAWA_147077391",
    "ee": false,
    "tech_change_status": "Not Planned"
   }
  },
  {
   "type": "Feature",
   "geometry": {
    "type": "Point",
    "coordinates": [
     118.0972654,
     -32.02301406
    ]
   },
   "properties": {
    "name": "2 MAIN STREET ARDATH 6419",
    "locID": "LOC000167660785",
    "tech": "SATELLITE",
    "upgrade": "NULL_NA",
    "gnaf_pid": "GAWA_147077443",
    "ee": false,
    "tech_change_status": "Not Planned"
   }
  },
  {
   "type": "Feature",
   "geometry": {
    "type": "Point",
    "coordinates": [
     118.09471997,
     -32.0307018
    ]
   },
   "properties": {
    "name": "116 MAIN STREET ARDATH 6419",
    "locID": "LOC000041757596",
    "tech": "NULL",
    "upgrade": "NULL_NA",
    "gnaf_pid": "GAWA_147232057",
    "ee": false,
    "tech_change_status": "Not Planned"
   }
  },
  {
   "type": "Feature",
   "geometry": {
    "type": "Point",
    "coordinates": [
     118.094784,
     -32.0305286
    ]
   },
   "properties": {
    "name": "114 MAIN STREET ARDATH 6419",
    "locID": "LOC000002942797",
    "tech": "NULL",
    "upgrade": "NULL_NA",
    "gnaf_pid": "GAWA_147258266",
    "ee": false,
    "tech_change_status": "Not Planned"
   }
  },
  {
   "type": "Feature",
   "geometry": {
    "type": "Point",
    "coordinates": [
     118.09707343,
     -32.02050008
    ]
   },
   "properties": {
    "name": "LOT 2 BRUCE ROCK-CORRIGIN ROAD ARDATH 6419",
    "locID": "LOC000142961052",
    "tech": "SATELLITE",
    "upgrade": "NULL_NA",
    "gnaf_pid": "GAWA_162776122",
    "ee": false,
    "tech_change_status": "Not Planned"
   }
  },
  {
   "type": "Feature",
   "geometry": {
    "type": "Point",
    "coordinates": [
     118.07740714,
     -32.03717716
    ]
   },
   "properties": {
    "name": "LOT 44 ARDATH SOUTH WEST ROAD ARDATH 6419",
    "locID": "LOC000152755962",
    "tech": "SATELLITE",
    "upgrade": "NULL_NA",
    "gnaf_pid": "GAWA_162816781",
    "ee": false,
    "tech_change_status": "Not Planned"
   }
  },
  {
   "type": "Feature",
   "geometry": {
    "type": "Point",
    "coordinates": [
     118.08479838,
     -32.09497217
    ]
   },
   "properties": {
    "name": "LOT 2 OLD BEVERLEY ROAD ARDATH 6419",
    "locID": "LOC000012905511",
    "tech": "NULL",
    "upgrade": "NULL_NA",
    "gnaf_pid": "GAWA_163382816",
    "ee": false,
    "tech_change_status": "Not Planned"
   }
  },
  {
   "type": "Feature",
   "geometry": {
    "type": "Point",
    "coordinates": [
     118.1038916,
     -32.04275871
    ]
   },
   "properties": {
    "name": "14541 BRUCE ROCK-CORRIGIN ROAD ARDATH 6419",
    "locID": "LOC000114869297",
    "tech": "SATELLITE",
    "upgrade": "NULL_NA",
    "gnaf_pid": "GAWA_163387383",
    "ee": false,
    "tech_change_status": "Not Planned"
   }
  },
  {
   "type": "Feature",
   "geometry": {
    "type": "Point",
    "coordinates": [
     118.05925101,
     -32.02600404
    ]
   },
   "properties": {
    "name": "14546 EUJINYN SOUTH ROAD ARDATH 6419",
    "locID": "LOC000114554531",
    "tech": "SATELLITE",
    "upgrade": "NULL_NA",
    "gnaf_pid": "GAWA_163388682",
    "ee": false,
    "tech_change_status": "Not Planned"
   }
  },
  {
   "type": "Feature",
   "geometry": {
    "type": "Point",
    "coordinates": [
     118.05925101,
     -32.02600404
    ]
   },
   "properties": {
    "name": "22647 EUJINYN SOUTH ROAD ARDATH 6419",
    "locID": "LOC000148160463",
    "tech": "SATELLITE",
    "upgrade": "NULL_NA",
    "gnaf_pid": "GAWA_163388683",
    "ee": false,
    "tech_change_status": "Not Planned"
   }
  },
  {
   "type": "Feature",
   "geometry": {
    "type": "Point",
    "coordinates": [
     117.96007315,
     -32.01877326
    ]
   },
   "properties": {
    "name": "15430 YARDING SOUTH ROAD ARDATH 6419",
    "locID": "LOC000148165801",
    "tech": "SATELLITE",
    "upgrade": "NULL_NA",
    "gnaf_pid": "GAWA_163393598",
    "ee": false,
    "tech_change_status": "Not Planned"
   }
  },
  {
   "type": "Feature",
   "geometry": {
    "type": "Point",
    "coordinates": [
     118.06625289,
     -32.00194143
    ]
   },
   "properties": {
    "name": "LOT 2 ARDATH NORTH WEST ROAD ARDATH 6419",
    "locID": "LOC000109700809",
    "tech": "SATELLITE",
    "upgrade": "NULL_NA",
    "gnaf_pid": "GAWA_718548262",
    "ee": false,
    "tech_change_status": "Not Planned"
   }
  },
  {
   "type": "Feature",
   "geometry": {
    "type": "Point",
    "coordinates": [
     118.08839255,
     -31.9944825
    ]
   },
   "properties": {
    "name": "LOT 14541 BRUCE ROCK-CORRIGIN ROAD ARDATH 6419",
    "locID": "LOC000114869297",
    "tech": "SATELLITE",
    "upgrade": "NULL_NA",
    "gnaf_pid": "GAWA_718548845",
    "ee": false,
    "tech_change_status": "Not Planned"
   }
  },
  {
   "type": "Feature",
   "geometry": {
    "type": "Point",
    "coordinates": [
     118.08472315,
     -32.01192319
    ]
   },
   "properties": {
    "name": "LOT 1 BRUCE ROCK-CORRIGIN ROAD ARDATH 6419",
    "locID": "LOC000094214489",
    "tech": "NULL",
    "upgrade": "NULL_NA",
    "gnaf_pid": "GAWA_718548846",
    "ee": false,
    "tech_change_status": "Not Planned"
   }
  },
  {
   "type": "Feature",
   "geometry": {
    "type": "Point",
    "coordinates": [
     118.06907277,
     -32.06029541
    ]
   },
   "properties": {
    "name": "LOT 14521 EUJINYN SOUTH ROAD ARDATH 6419",
    "locID": "LOC000148160459",
    "tech": "SATELLITE",
    "upgrade": "NULL_NA",
    "gnaf_pid": "GAWA_718549755",
    "ee": false,
    "tech_change_status": "Not Planned"
   }
  },
  {
   "type": "Feature",
   "geometry": {
    "type": "Point",
    "coordinates": [
     118.04763724,
     -32.01510753
    ]
   },
   "properties": {
    "name": "LOT 14546 EUJINYN SOUTH ROAD ARDATH 6419",
    "locID": "LOC000150284728",
    "tech": "SATELLITE",
    "upgrade": "NULL_NA",
    "gnaf_pid": "GAWA_718549756",
    "ee": false,
    "tech_change_status": "Not Planned"
   }
  },
  {
   "type": "Feature",
   "geometry": {
    "type": "Point",
    "coordinates": [
     118.02911301,
     -31.9888797
    ]
   },
   "properties": {
    "name": "785 ARDATH-YARDING ROAD ARDATH 6419",
    "locID": "LOC000142454586",
    "tech": "SATELLITE",
    "upgrade": "NULL_NA",
    "gnaf_pid": "GAWA_719675713",
    "ee": false,
    "tech_change_status": "Not Planned"
   }
  },
  {
   "type": "Feature",
   "geometry": {
    "type": "Point",
    "coordinates": [
     118.09367814,
     -32.03416858
    ]
   },
   "properties": {
    "name": "54 ARDATH SOUTH WEST ROAD ARDATH 6419",
    "locID": "LOC000107785594",
    "tech": "SATELLITE",
    "upgrade": "NULL_NA",
    "gnaf_pid": "GAWA_719676693",
    "ee": false,
    "tech_change_status": "Not Planned"
   }
  },
  {
   "type": "Feature",
   "geometry": {
    "type": "Point",
    "coordinates": [
     118.23221721,
     -31.99392452
    ]
   },
   "properties": {
    "name": "13 LAWRIE ROAD ARDATH 6419",
    "locID": "LOC000142445464",
    "tech": "SATELLITE",
    "upgrade": "NULL_NA",
    "gnaf_pid": "GAWA_719678085",
    "ee": false,
    "tech_change_status": "Not Planned"
   }
  },
  {
   "type": "Feature",
   "geometry": {
    "type": "Point",
    "coordinates": [
     118.07078871,
     -32.01702737
    ]
   },
   "properties": {
    "name": "341 ARDATH NORTH WEST ROAD ARDATH 6419",
    "locID": "LOC000109700809",
    "tech": "SATELLITE",
    "upgrade": "NULL_NA",
    "gnaf_pid": "GAWA_719678361",
    "ee": false,
    "tech_change_status": "Not Planned"
   }
  },
  {
   "type": "Feature",
   "geometry": {
    "type": "Point",
    "coordinates": [
     118.1811187,
     -32.07573302
    ]
   },
   "properties": {
    "name": "213 BRUCE ROCK SOUTH ROAD ARDATH 6419",
    "locID": "LOC000152755962",
    "tech": "SATELLITE",
    "upgrade": "NULL_NA",
    "gnaf_pid": "GAWA_719678564",
    "ee": false,
    "tech_change_status": "Not Planned"
   }
  },
  {
   "type": "Feature",
   "geometry": {
    "type": "Point",
    "coordinates": [
     117.97297742,
     -32.01908784
    ]
   },
   "properties": {
    "name": "1003 YARDING SOUTH ROAD ARDATH 6419",
    "locID": "LOC000148165801",
    "tech": "SATELLITE",
    "upgrade": "NULL_NA",
    "gnaf_pid": "GAWA_719967321",
    "ee": false,
    "tech_change_status": "Not Planned"
   }
  },
  {
   "type": "Feature",
   "geometry": {
    "type": "Point",
    "coordinates": [
     118.05492711,
     -32.02937293
    ]
   },
   "properties": {
    "name": "1600 EUJINYN SOUTH ROAD ARDATH 6419",
    "locID": "LOC000148160463",
    "tech": "SATELLITE",
    "upgrade": "NULL_NA",
    "gnaf_pid": "GAWA_720642090",
    "ee": false,
    "tech_change_status": "Not Planned"
   }
  },
  {
   "type": "Feature",
   "geometry": {
    "type": "Point",
    "coordinates": [
     118.1222528,
     -32.07477592
    ]
   },
   "properties": {
    "name": "8669 OLD BEVERLEY ROAD ARDATH 6419",
    "locID": "LOC000133326635",
    "tech": "NULL",
    "upgrade": "NULL_NA",
    "gnaf_pid": "GAWA_720888924",
    "ee": false,
    "tech_change_status": "Not Planned"
   }
  }
 ]
}