{
 "type": "FeatureCollection",
 "generated": "2025-06-18T21:05:22.889930",
 "suburb": "BABAKIN",
 "features": [
  {
   "type": "Feature",
   "geometry": {
    "type": "Point",
    "coordinates": [
     118.02250427,
     -32.12449572
    ]
   },
   "properties": {
    "name": "38 FORREST STREET BABAKIN 6428",
    "locID": "LOC000050578476",
    "tech": "SATELLITE",
    "upgrade": "NULL_NA",
    "gnaf_pid": "GAWA_147051246",
    "ee": false,
    "tech_change_status": "Not Planned"
   }
  },
  {
   "type": "Feature",
   "geometry": {
    "type": "Point",
    "coordinates": [
     118.02048021,
     -32.12644762
    ]
   },
   "properties": {
    "name": "56 FORREST STREET BABAKIN 6428",
    "locID": "LOC000066925023",
    "tech": "NULL",
    "upgrade": "NULL_NA",
    "gnaf_pid": "GAWA_147051814",
    "ee": false,
    "tech_change_status": "Not Planned"
   }
  },
  {
   "type": "Feature",
   "geometry": {
    "type": "Point",
    "coordinates": [
     118.02165284,
     -32.12463752
    ]
   },
   "properties": {
    "name": "6 FARRAR STREET BABAKIN 6428",
    "locID": "LOC000102323543",
    "tech": "NULL",
    "upgrade": "NULL_NA",
    "gnaf_pid": "GAWA_147051817",
    "ee": false,
    "tech_change_status": "Not Planned"
   }
  },
  {
   "type": "Feature",
   "geometry": {
    "type": "Point",
    "coordinates": [
     118.02070565,
     -32.12389408
    ]
   },
   "properties": {
    "name": "7 FARRAR STREET BABAKIN 6428",
    "locID": "LOC000102323543",
    "tech": "NULL",
    "upgrade": "NULL_NA",
    "gnaf_pid": "GAWA_147051822",
    "ee": false,
    "tech_change_status": "Not Planned"
   }
  },
  {
   "type": "Feature",
   "geometry": {
    "type": "Point",
    "coordinates": [
     118.021906,
     -32.12434554
    ]
   },
   "properties": {
    "name": "10 FARRAR STREET BABAKIN 6428",
    "locID": "LOC000018140214",
    "tech": "NULL",
    "upgrade": "NULL_NA",
    "gnaf_pid": "GAWA_147051826",
    "ee": false,
    "tech_change_status": "Not Planned"
   }
  },
  {
   "type": "Feature",
   "geometry": {
    "type": "Point",
    "coordinates": [
     118.02225111,
     -32.1247877
    ]
   },
   "properties": {
    "name": "42 FORREST STREET BABAKIN 6428",
    "locID": "LOC100079107570",
    "tech": "NULL",
    "upgrade": "NULL_NA",
    "gnaf_pid": "GAWA_147051828",
    "ee": false,
    "tech_change_status": "Not Planned"
   }
  },
  {
   "type": "Feature",
   "geometry": {
    "type": "Point",
    "coordinates": [
     118.02215916,
     -32.12405357
    ]
   },
   "properties": {
    "name": "14 FARRAR STREET BABAKIN 6428",
    "locID": "LOC000084474940",
    "tech": "NULL",
    "upgrade": "NULL_NA",
    "gnaf_pid": "GAWA_147051829",
    "ee": false,
    "tech_change_status": "Not Planned"
   }
  },
  {
   "type": "Feature",
   "geometry": {
    "type": "Point",
    "coordinates": [
     118.02203258,
     -32.12419956
    ]
   },
   "properties": {
    "name": "12 FARRAR STREET BABAKIN 6428",
    "locID": "LOC000079423825",
    "tech": "NULL",
    "upgrade": "NULL_NA",
    "gnaf_pid": "GAWA_147057095",
    "ee": false,
    "tech_change_status": "Not Planned"
   }
  },
  {
   "type": "Feature",
   "geometry": {
    "type": "Point",
    "coordinates": [
     118.02263085,
     -32.12434974
    ]
   },
   "properties": {
    "name": "36 FORREST STREET BABAKIN 6428",
    "locID": "LOC000013732879",
    "tech": "NULL",
    "upgrade": "NULL_NA",
    "gnaf_pid": "GAWA_147057097",
    "ee": false,
    "tech_change_status": "Not Planned"
   }
  },
  {
   "type": "Feature",
   "geometry": {
    "type": "Point",
    "coordinates": [
     118.02339027,
     -32.12347388
    ]
   },
   "properties": {
    "name": "24 FORREST STREET BABAKIN 6428",
    "locID": "LOC000098766706",
    "tech": "NULL",
    "upgrade": "NULL_NA",
    "gnaf_pid": "GAWA_147063164",
    "ee": false,
    "tech_change_status": "Not Planned"
   }
  },
  {
   "type": "Feature",
   "geometry": {
    "type": "Point",
    "coordinates": [
     118.02313685,
     -32.12376542
    ]
   },
   "properties": {
    "name": "28 FORREST STREET BABAKIN 6428",
    "locID": "LOC000063892698",
    "tech": "NULL",
    "upgrade": "NULL_NA",
    "gnaf_pid": "GAWA_147063243",
    "ee": false,
    "tech_change_status": "Not Planned"
   }
  },
  {
   "type": "Feature",
   "geometry": {
    "type": "Point",
    "coordinates": [
     118.022666,
     -32.12346975
    ]
   },
   "properties": {
    "name": "22 FARRAR STREET BABAKIN 6428",
    "locID": "LOC000080392514",
    "tech": "NULL",
    "upgrade": "NULL_NA",
    "gnaf_pid": "GAWA_147085528",
    "ee": false,
    "tech_change_status": "Not Planned"
   }
  },
  {
   "type": "Feature",
   "geometry": {
    "type": "Point",
    "coordinates": [
     118.02064735,
     -32.12553074
    ]
   },
   "properties": {
    "name": "50 FORREST STREET BABAKIN 6428",
    "locID": "LOC000042808295",
    "tech": "NULL",
    "upgrade": "NULL_NA",
    "gnaf_pid": "GAWA_147245358",
    "ee": false,
    "tech_change_status": "Not Planned"
   }
  },
  {
   "type": "Feature",
   "geometry": {
    "type": "Point",
    "coordinates": [
     118.02234912,
     -32.12383485
    ]
   },
   "properties": {
    "name": "16 FARRAR STREET BABAKIN 6428",
    "locID": "LOC000046060405",
    "tech": "SATELLITE",
    "upgrade": "NULL_NA",
    "gnaf_pid": "GAWA_147282355",
    "ee": false,
    "tech_change_status": "Not Planned"
   }
  },
  {
   "type": "Feature",
   "geometry": {
    "type": "Point",
    "coordinates": [
     118.14313506,
     -32.20974942
    ]
   },
   "properties": {
    "name": "12503 HEALEY ROAD BABAKIN 6428",
    "locID": "LOC000133324502",
    "tech": "NULL",
    "upgrade": "NULL_NA",
    "gnaf_pid": "GAWA_149110086",
    "ee": false,
    "tech_change_status": "Not Planned"
   }
  },
  {
   "type": "Feature",
   "geometry": {
    "type": "Point",
    "coordinates": [
     118.12531768,
     -32.17376135
    ]
   },
   "properties": {
    "name": "18868 BABAKIN SOUTH EAST ROAD BABAKIN 6428",
    "locID": "LOC100071951569",
    "tech": "NULL",
    "upgrade": "NULL_NA",
    "gnaf_pid": "GAWA_161595298",
    "ee": false,
    "tech_change_status": "Not Planned"
   }
  },
  {
   "type": "Feature",
   "geometry": {
    "type": "Point",
    "coordinates": [
     117.95713472,
     -32.16522439
    ]
   },
   "properties": {
    "name": "18973 CROMBIE ROAD BABAKIN 6428",
    "locID": "LOC000009555645",
    "tech": "SATELLITE",
    "upgrade": "NULL_NA",
    "gnaf_pid": "GAWA_161599268",
    "ee": false,
    "tech_change_status": "Not Planned"
   }
  },
  {
   "type": "Feature",
   "geometry": {
    "type": "Point",
    "coordinates": [
     117.9553251,
     -32.09106366
    ]
   },
   "properties": {
    "name": "10013 OLD BEVERLEY ROAD BABAKIN 6428",
    "locID": "LOC000080980280",
    "tech": "SATELLITE",
    "upgrade": "NULL_NA",
    "gnaf_pid": "GAWA_161607276",
    "ee": false,
    "tech_change_status": "Not Planned"
   }
  },
  {
   "type": "Feature",
   "geometry": {
    "type": "Point",
    "coordinates": [
     117.96825489,
     -32.15740547
    ]
   },
   "properties": {
    "name": "LOT 10017 CROMBIE ROAD BABAKIN 6428",
    "locID": "LOC000108638206",
    "tech": "NULL",
    "upgrade": "NULL_NA",
    "gnaf_pid": "GAWA_162394124",
    "ee": false,
    "tech_change_status": "Not Planned"
   }
  },
  {
   "type": "Feature",
   "geometry": {
    "type": "Point",
    "coordinates": [
     117.94063897,
     -32.15805443
    ]
   },
   "properties": {
    "name": "LOT 26247 CROMBIE ROAD BABAKIN 6428",
    "locID": "LOC000108638206",
    "tech": "NULL",
    "upgrade": "NULL_NA",
    "gnaf_pid": "GAWA_718296410",
    "ee": false,
    "tech_change_status": "Not Planned"
   }
  },
  {
   "type": "Feature",
   "geometry": {
    "type": "Point",
    "coordinates": [
     117.94970781,
     -32.14890683
    ]
   },
   "properties": {
    "name": "LOT 18973 CROMBIE ROAD BABAKIN 6428",
    "locID": "LOC000009555645",
    "tech": "SATELLITE",
    "upgrade": "NULL_NA",
    "gnaf_pid": "GAWA_718338935",
    "ee": false,
    "tech_change_status": "Not Planned"
   }
  },
  {
   "type": "Feature",
   "geometry": {
    "type": "Point",
    "coordinates": [
     118.17920181,
     -32.21704029
    ]
   },
   "properties": {
    "name": "LOT 12503 HEALEY ROAD BABAKIN 6428",
    "locID": "LOC000133324502",
    "tech": "NULL",
    "upgrade": "NULL_NA",
    "gnaf_pid": "GAWA_718339992",
    "ee": false,
    "tech_change_status": "Not Planned"
   }
  },
  {
   "type": "Feature",
   "geometry": {
    "type": "Point",
    "coordinates": [
     118.12531768,
     -32.17376135
    ]
   },
   "properties": {
    "name": "2 BABAKIN SOUTH EAST ROAD BABAKIN 6428",
    "locID": "LOC000148158193",
    "tech": "NULL",
    "upgrade": "NULL_NA",
    "gnaf_pid": "GAWA_719224464",
    "ee": false,
    "tech_change_status": "Not Planned"
   }
  },
  {
   "type": "Feature",
   "geometry": {
    "type": "Point",
    "coordinates": [
     118.00956386,
     -32.15356366
    ]
   },
   "properties": {
    "name": "371 BABAKIN-CORRIGIN ROAD BABAKIN 6428",
    "locID": "LOC000142476937",
    "tech": "SATELLITE",
    "upgrade": "NULL_NA",
    "gnaf_pid": "GAWA_719673688",
    "ee": false,
    "tech_change_status": "Not Planned"
   }
  },
  {
   "type": "Feature",
   "geometry": {
    "type": "Point",
    "coordinates": [
     117.88741453,
     -32.12976444
    ]
   },
   "properties": {
    "name": "1215 BEES ROAD BABAKIN 6428",
    "locID": "LOC100078656217",
    "tech": "NULL",
    "upgrade": "NULL_NA",
    "gnaf_pid": "GAWA_719673979",
    "ee": false,
    "tech_change_status": "Not Planned"
   }
  },
  {
   "type": "Feature",
   "geometry": {
    "type": "Point",
    "coordinates": [
     118.07798662,
     -32.1774057
    ]
   },
   "properties": {
    "name": "830 BABAKIN SOUTH EAST ROAD BABAKIN 6428",
    "locID": "LOC000148158193",
    "tech": "NULL",
    "upgrade": "NULL_NA",
    "gnaf_pid": "GAWA_719674713",
    "ee": false,
    "tech_change_status": "Not Planned"
   }
  },
  {
   "type": "Feature",
   "geometry": {
    "type": "Point",
    "coordinates": [
     118.19924746,
     -32.16637605
    ]
   },
   "properties": {
    "name": "1903 BABAKIN SOUTH EAST ROAD BABAKIN 6428",
    "locID": "LOC100071951962",
    "tech": "NULL",
    "upgrade": "NULL_NA",
    "gnaf_pid": "GAWA_719676003",
    "ee": false,
    "tech_change_status": "Not Planned"
   }
  },
  {
   "type": "Feature",
   "geometry": {
    "type": "Point",
    "coordinates": [
     117.91183587,
     -32.11260964
    ]
   },
   "properties": {
    "name": "1014 BEES ROAD BABAKIN 6428",
    "locID": "LOC100078656201",
    "tech": "NULL",
    "upgrade": "NULL_NA",
    "gnaf_pid": "GAWA_719676035",
    "ee": false,
    "tech_change_status": "Not Planned"
   }
  },
  {
   "type": "Feature",
   "geometry": {
    "type": "Point",
    "coordinates": [
     118.16772013,
     -32.18136765
    ]
   },
   "properties": {
    "name": "1626 BABAKIN SOUTH EAST ROAD BABAKIN 6428",
    "locID": "LOC100078854937",
    "tech": "NULL",
    "upgrade": "NULL_NA",
    "gnaf_pid": "GAWA_719676296",
    "ee": false,
    "tech_change_status": "Not Planned"
   }
  },
  {
   "type": "Feature",
   "geometry": {
    "type": "Point",
    "coordinates": [
     118.07561885,
     -32.16233387
    ]
   },
   "properties": {
    "name": "711 BABAKIN SOUTH EAST ROAD BABAKIN 6428",
    "locID": "LOC100078656240",
    "tech": "NULL",
    "upgrade": "NULL_NA",
    "gnaf_pid": "GAWA_719677392",
    "ee": false,
    "tech_change_status": "Not Planned"
   }
  },
  {
   "type": "Feature",
   "geometry": {
    "type": "Point",
    "coordinates": [
     118.05574383,
     -32.13929087
    ]
   },
   "properties": {
    "name": "149 BABAKIN SOUTH EAST ROAD BABAKIN 6428",
    "locID": "LOC100071951569",
    "tech": "NULL",
    "upgrade": "NULL_NA",
    "gnaf_pid": "GAWA_719779646",
    "ee": false,
    "tech_change_status": "Not Planned"
   }
  },
  {
   "type": "Feature",
   "geometry": {
    "type": "Point",
    "coordinates": [
     118.11410757,
     -32.18792893
    ]
   },
   "properties": {
    "name": "1142 BABAKIN SOUTH EAST ROAD BABAKIN 6428",
    "locID": "LOC100087519883",
    "tech": "NULL",
    "upgrade": "NULL_NA",
    "gnaf_pid": "GAWA_719780004",
    "ee": false,
    "tech_change_status": "Not Planned"
   }
  },
  {
   "type": "Feature",
   "geometry": {
    "type": "Point",
    "coordinates": [
     118.12302873,
     -32.14819409
    ]
   },
   "properties": {
    "name": "2939 BRUCE ROCK-CORRIGIN ROAD BABAKIN 6428",
    "locID": "LOC100078854916",
    "tech": "NULL",
    "upgrade": "NULL_NA",
    "gnaf_pid": "GAWA_719780174",
    "ee": false,
    "tech_change_status": "Not Planned"
   }
  },
  {
   "type": "Feature",
   "geometry": {
    "type": "Point",
    "coordinates": [
     118.00965463,
     -32.10218758
    ]
   },
   "properties": {
    "name": "177 CROOKS ROAD BABAKIN 6428",
    "locID": "LOC000170771846",
    "tech": "SATELLITE",
    "upgrade": "NULL_NA",
    "gnaf_pid": "GAWA_721407622",
    "ee": false,
    "tech_change_status": "Not Planned"
   }
  }
 ]
}