{
 "type": "FeatureCollection",
 "generated": "2025-06-18T21:07:28.201353",
 "suburb": "BADGINGARRA",
 "features": [
  {
   "type": "Feature",
   "geometry": {
    "type": "Point",
    "coordinates": [
     115.50373,
     -30.38861
    ]
   },
   "properties": {
    "name": "25 DODD STREET BADGINGARRA 6521",
    "locID": "LOC000044248807",
    "tech": "NULL",
    "upgrade": "NULL_NA",
    "gnaf_pid": "GAWA_146948585",
    "ee": false,
    "tech_change_status": "Not Planned"
   }
  },
  {
   "type": "Feature",
   "geometry": {
    "type": "Point",
    "coordinates": [
     115.50378,
     -30.38881
    ]
   },
   "properties": {
    "name": "27 DODD STREET BADGINGARRA 6521",
    "locID": "LOC000015654607",
    "tech": "NULL",
    "upgrade": "NULL_NA",
    "gnaf_pid": "GAWA_146948586",
    "ee": false,
    "tech_change_status": "Not Planned"
   }
  },
  {
   "type": "Feature",
   "geometry": {
    "type": "Point",
    "coordinates": [
     115.50383,
     -30.38903
    ]
   },
   "properties": {
    "name": "29 DODD STREET BADGINGARRA 6521",
    "locID": "LOC000102480041",
    "tech": "NULL",
    "upgrade": "NULL_NA",
    "gnaf_pid": "GAWA_146948588",
    "ee": false,
    "tech_change_status": "Not Planned"
   }
  },
  {
   "type": "Feature",
   "geometry": {
    "type": "Point",
    "coordinates": [
     115.50383,
     -30.38929
    ]
   },
   "properties": {
    "name": "27 WHITE DRIVE BADGINGARRA 6521",
    "locID": "LOC000017050883",
    "tech": "SATELLITE",
    "upgrade": "NULL_NA",
    "gnaf_pid": "GAWA_146948589",
    "ee": false,
    "tech_change_status": "Not Planned"
   }
  },
  {
   "type": "Feature",
   "geometry": {
    "type": "Point",
    "coordinates": [
     115.50351,
     -30.38777
    ]
   },
   "properties": {
    "name": "17 DODD STREET BADGINGARRA 6521",
    "locID": "LOC000023730357",
    "tech": "SATELLITE",
    "upgrade": "NULL_NA",
    "gnaf_pid": "GAWA_146949575",
    "ee": false,
    "tech_change_status": "Not Planned"
   }
  },
  {
   "type": "Feature",
   "geometry": {
    "type": "Point",
    "coordinates": [
     115.50359,
     -30.38798
    ]
   },
   "properties": {
    "name": "19 DODD STREET BADGINGARRA 6521",
    "locID": "LOC000107916617",
    "tech": "NULL",
    "upgrade": "NULL_NA",
    "gnaf_pid": "GAWA_146949576",
    "ee": false,
    "tech_change_status": "Not Planned"
   }
  },
  {
   "type": "Feature",
   "geometry": {
    "type": "Point",
    "coordinates": [
     115.50369,
     -30.3884
    ]
   },
   "properties": {
    "name": "23 DODD STREET BADGINGARRA 6521",
    "locID": "LOC000034532723",
    "tech": "NULL",
    "upgrade": "NULL_NA",
    "gnaf_pid": "GAWA_146949578",
    "ee": false,
    "tech_change_status": "Not Planned"
   }
  },
  {
   "type": "Feature",
   "geometry": {
    "type": "Point",
    "coordinates": [
     115.49964,
     -30.3885
    ]
   },
   "properties": {
    "name": "2 NORTH WEST ROAD BADGINGARRA 6521",
    "locID": "LOC000016184122",
    "tech": "NULL",
    "upgrade": "NULL_NA",
    "gnaf_pid": "GAWA_146992771",
    "ee": false,
    "tech_change_status": "Not Planned"
   }
  },
  {
   "type": "Feature",
   "geometry": {
    "type": "Point",
    "coordinates": [
     115.55054502,
     -30.40249411
    ]
   },
   "properties": {
    "name": "42 MCNAMARA ROAD BADGINGARRA 6521",
    "locID": "LOC000049921079",
    "tech": "NULL",
    "upgrade": "NULL_NA",
    "gnaf_pid": "GAWA_146995818",
    "ee": false,
    "tech_change_status": "Not Planned"
   }
  },
  {
   "type": "Feature",
   "geometry": {
    "type": "Point",
    "coordinates": [
     115.55178168,
     -30.39995788
    ]
   },
   "properties": {
    "name": "6 MCNAMARA ROAD BADGINGARRA 6521",
    "locID": "LOC000049921079",
    "tech": "NULL",
    "upgrade": "NULL_NA",
    "gnaf_pid": "GAWA_146995819",
    "ee": false,
    "tech_change_status": "Not Planned"
   }
  },
  {
   "type": "Feature",
   "geometry": {
    "type": "Point",
    "coordinates": [
     115.55054235,
     -30.4036755
    ]
   },
   "properties": {
    "name": "62 MCNAMARA ROAD BADGINGARRA 6521",
    "locID": "LOC000046594206",
    "tech": "SATELLITE",
    "upgrade": "NULL_NA",
    "gnaf_pid": "GAWA_146995820",
    "ee": false,
    "tech_change_status": "Not Planned"
   }
  },
  {
   "type": "Feature",
   "geometry": {
    "type": "Point",
    "coordinates": [
     115.50071,
     -30.3924
    ]
   },
   "properties": {
    "name": "12 MEAGHER DRIVE BADGINGARRA 6521",
    "locID": "LOC000098323272",
    "tech": "SATELLITE",
    "upgrade": "NULL_NA",
    "gnaf_pid": "GAWA_146995822",
    "ee": false,
    "tech_change_status": "Not Planned"
   }
  },
  {
   "type": "Feature",
   "geometry": {
    "type": "Point",
    "coordinates": [
     115.50114,
     -30.39273
    ]
   },
   "properties": {
    "name": "116 LESUEUR DRIVE BADGINGARRA 6521",
    "locID": "LOC000012014750",
    "tech": "NULL",
    "upgrade": "NULL_NA",
    "gnaf_pid": "GAWA_146995823",
    "ee": false,
    "tech_change_status": "Not Planned"
   }
  },
  {
   "type": "Feature",
   "geometry": {
    "type": "Point",
    "coordinates": [
     115.5011,
     -30.39218
    ]
   },
   "properties": {
    "name": "16 MEAGHER DRIVE BADGINGARRA 6521",
    "locID": "LOC000091771540",
    "tech": "SATELLITE",
    "upgrade": "NULL_NA",
    "gnaf_pid": "GAWA_146995824",
    "ee": false,
    "tech_change_status": "Not Planned"
   }
  },
  {
   "type": "Feature",
   "geometry": {
    "type": "Point",
    "coordinates": [
     115.50198,
     -30.38926
    ]
   },
   "properties": {
    "name": "6 LANG STREET BADGINGARRA 6521",
    "locID": "LOC000028589212",
    "tech": "SATELLITE",
    "upgrade": "NULL_NA",
    "gnaf_pid": "GAWA_146995843",
    "ee": false,
    "tech_change_status": "Not Planned"
   }
  },
  {
   "type": "Feature",
   "geometry": {
    "type": "Point",
    "coordinates": [
     115.50286,
     -30.38768
    ]
   },
   "properties": {
    "name": "20 DODD STREET BADGINGARRA 6521",
    "locID": "LOC000099117750",
    "tech": "NULL",
    "upgrade": "NULL_NA",
    "gnaf_pid": "GAWA_146996777",
    "ee": false,
    "tech_change_status": "Not Planned"
   }
  },
  {
   "type": "Feature",
   "geometry": {
    "type": "Point",
    "coordinates": [
     115.50376,
     -30.38637
    ]
   },
   "properties": {
    "name": "6 DODD STREET BADGINGARRA 6521",
    "locID": "LOC000023730357",
    "tech": "SATELLITE",
    "upgrade": "NULL_NA",
    "gnaf_pid": "GAWA_146996786",
    "ee": false,
    "tech_change_status": "Not Planned"
   }
  },
  {
   "type": "Feature",
   "geometry": {
    "type": "Point",
    "coordinates": [
     115.5039,
     -30.38619
    ]
   },
   "properties": {
    "name": "4 DODD STREET BADGINGARRA 6521",
    "locID": "LOC000143003254",
    "tech": "SATELLITE",
    "upgrade": "NULL_NA",
    "gnaf_pid": "GAWA_146996787",
    "ee": false,
    "tech_change_status": "Not Planned"
   }
  },
  {
   "type": "Feature",
   "geometry": {
    "type": "Point",
    "coordinates": [
     115.50143,
     -30.39187
    ]
   },
   "properties": {
    "name": "20 MEAGHER DRIVE BADGINGARRA 6521",
    "locID": "LOC000037355410",
    "tech": "SATELLITE",
    "upgrade": "NULL_NA",
    "gnaf_pid": "GAWA_146999431",
    "ee": false,
    "tech_change_status": "Not Planned"
   }
  },
  {
   "type": "Feature",
   "geometry": {
    "type": "Point",
    "coordinates": [
     115.50223,
     -30.39082
    ]
   },
   "properties": {
    "name": "30 MEAGHER DRIVE BADGINGARRA 6521",
    "locID": "LOC000056179102",
    "tech": "SATELLITE",
    "upgrade": "NULL_NA",
    "gnaf_pid": "GAWA_146999434",
    "ee": false,
    "tech_change_status": "Not Planned"
   }
  },
  {
   "type": "Feature",
   "geometry": {
    "type": "Point",
    "coordinates": [
     115.50229,
     -30.39017
    ]
   },
   "properties": {
    "name": "6 WHITE DRIVE BADGINGARRA 6521",
    "locID": "LOC000002969474",
    "tech": "NULL",
    "upgrade": "NULL_NA",
    "gnaf_pid": "GAWA_146999435",
    "ee": false,
    "tech_change_status": "Not Planned"
   }
  },
  {
   "type": "Feature",
   "geometry": {
    "type": "Point",
    "coordinates": [
     115.50281,
     -30.39007
    ]
   },
   "properties": {
    "name": "10 WHITE DRIVE BADGINGARRA 6521",
    "locID": "LOC000037412113",
    "tech": "NULL",
    "upgrade": "NULL_NA",
    "gnaf_pid": "GAWA_146999438",
    "ee": false,
    "tech_change_status": "Not Planned"
   }
  },
  {
   "type": "Feature",
   "geometry": {
    "type": "Point",
    "coordinates": [
     115.50286,
     -30.39036
    ]
   },
   "properties": {
    "name": "5 BUTLER STREET BADGINGARRA 6521",
    "locID": "LOC000045791866",
    "tech": "NULL",
    "upgrade": "NULL_NA",
    "gnaf_pid": "GAWA_146999440",
    "ee": false,
    "tech_change_status": "Not Planned"
   }
  },
  {
   "type": "Feature",
   "geometry": {
    "type": "Point",
    "coordinates": [
     115.50297,
     -30.39059
    ]
   },
   "properties": {
    "name": "3 BUTLER STREET BADGINGARRA 6521",
    "locID": "LOC000028584885",
    "tech": "SATELLITE",
    "upgrade": "NULL_NA",
    "gnaf_pid": "GAWA_146999441",
    "ee": false,
    "tech_change_status": "Not Planned"
   }
  },
  {
   "type": "Feature",
   "geometry": {
    "type": "Point",
    "coordinates": [
     115.50299,
     -30.39103
    ]
   },
   "properties": {
    "name": "94 LESUEUR DRIVE BADGINGARRA 6521",
    "locID": "LOC000017299147",
    "tech": "SATELLITE",
    "upgrade": "NULL_NA",
    "gnaf_pid": "GAWA_146999442",
    "ee": false,
    "tech_change_status": "Not Planned"
   }
  },
  {
   "type": "Feature",
   "geometry": {
    "type": "Point",
    "coordinates": [
     115.50006,
     -30.39168
    ]
   },
   "properties": {
    "name": "1 MEAGHER DRIVE BADGINGARRA 6521",
    "locID": "LOC000091771540",
    "tech": "SATELLITE",
    "upgrade": "NULL_NA",
    "gnaf_pid": "GAWA_146999446",
    "ee": false,
    "tech_change_status": "Not Planned"
   }
  },
  {
   "type": "Feature",
   "geometry": {
    "type": "Point",
    "coordinates": [
     115.5029,
     -30.38553
    ]
   },
   "properties": {
    "name": "10 LESUEUR DRIVE BADGINGARRA 6521",
    "locID": "LOC000071348497",
    "tech": "NULL",
    "upgrade": "NULL_NA",
    "gnaf_pid": "GAWA_146999449",
    "ee": false,
    "tech_change_status": "Not Planned"
   }
  },
  {
   "type": "Feature",
   "geometry": {
    "type": "Point",
    "coordinates": [
     115.50261066,
     -30.38853196
    ]
   },
   "properties": {
    "name": "11 LANG STREET BADGINGARRA 6521",
    "locID": "LOC000082243154",
    "tech": "NULL",
    "upgrade": "NULL_NA",
    "gnaf_pid": "GAWA_147002419",
    "ee": false,
    "tech_change_status": "Not Planned"
   }
  },
  {
   "type": "Feature",
   "geometry": {
    "type": "Point",
    "coordinates": [
     115.50154,
     -30.38874
    ]
   },
   "properties": {
    "name": "1 LANG STREET BADGINGARRA 6521",
    "locID": "LOC000028589212",
    "tech": "SATELLITE",
    "upgrade": "NULL_NA",
    "gnaf_pid": "GAWA_147118564",
    "ee": false,
    "tech_change_status": "Not Planned"
   }
  },
  {
   "type": "Feature",
   "geometry": {
    "type": "Point",
    "coordinates": [
     115.50149,
     -30.38596
    ]
   },
   "properties": {
    "name": "28 NORTH WEST ROAD BADGINGARRA 6521",
    "locID": "LOC000046225390",
    "tech": "SATELLITE",
    "upgrade": "NULL_NA",
    "gnaf_pid": "GAWA_147133442",
    "ee": false,
    "tech_change_status": "Not Planned"
   }
  },
  {
   "type": "Feature",
   "geometry": {
    "type": "Point",
    "coordinates": [
     115.50193,
     -30.39171
    ]
   },
   "properties": {
    "name": "102 LESUEUR DRIVE BADGINGARRA 6521",
    "locID": "LOC000071348497",
    "tech": "NULL",
    "upgrade": "NULL_NA",
    "gnaf_pid": "GAWA_147198288",
    "ee": false,
    "tech_change_status": "Not Planned"
   }
  },
  {
   "type": "Feature",
   "geometry": {
    "type": "Point",
    "coordinates": [
     115.50353,
     -30.39035
    ]
   },
   "properties": {
    "name": "4 BUTLER STREET BADGINGARRA 6521",
    "locID": "LOC000011189656",
    "tech": "SATELLITE",
    "upgrade": "NULL_NA",
    "gnaf_pid": "GAWA_147224660",
    "ee": false,
    "tech_change_status": "Not Planned"
   }
  },
  {
   "type": "Feature",
   "geometry": {
    "type": "Point",
    "coordinates": [
     115.50368,
     -30.39056
    ]
   },
   "properties": {
    "name": "2 BUTLER STREET BADGINGARRA 6521",
    "locID": "LOC000106448896",
    "tech": "SATELLITE",
    "upgrade": "NULL_NA",
    "gnaf_pid": "GAWA_147224661",
    "ee": false,
    "tech_change_status": "Not Planned"
   }
  },
  {
   "type": "Feature",
   "geometry": {
    "type": "Point",
    "coordinates": [
     115.50374,
     -30.38992
    ]
   },
   "properties": {
    "name": "18 WHITE DRIVE BADGINGARRA 6521",
    "locID": "LOC000046590480",
    "tech": "NULL",
    "upgrade": "NULL_NA",
    "gnaf_pid": "GAWA_147224662",
    "ee": false,
    "tech_change_status": "Not Planned"
   }
  },
  {
   "type": "Feature",
   "geometry": {
    "type": "Point",
    "coordinates": [
     115.50343,
     -30.38987
    ]
   },
   "properties": {
    "name": "8 BUTLER STREET BADGINGARRA 6521",
    "locID": "LOC000012071781",
    "tech": "SATELLITE",
    "upgrade": "NULL_NA",
    "gnaf_pid": "GAWA_147241078",
    "ee": false,
    "tech_change_status": "Not Planned"
   }
  },
  {
   "type": "Feature",
   "geometry": {
    "type": "Point",
    "coordinates": [
     115.50344,
     -30.39013
    ]
   },
   "properties": {
    "name": "6 BUTLER STREET BADGINGARRA 6521",
    "locID": "LOC000019508515",
    "tech": "SATELLITE",
    "upgrade": "NULL_NA",
    "gnaf_pid": "GAWA_147241079",
    "ee": false,
    "tech_change_status": "Not Planned"
   }
  },
  {
   "type": "Feature",
   "geometry": {
    "type": "Point",
    "coordinates": [
     115.50298,
     -30.38812
    ]
   },
   "properties": {
    "name": "24 DODD STREET BADGINGARRA 6521",
    "locID": "LOC000023572105",
    "tech": "NULL",
    "upgrade": "NULL_NA",
    "gnaf_pid": "GAWA_147272523",
    "ee": false,
    "tech_change_status": "Not Planned"
   }
  },
  {
   "type": "Feature",
   "geometry": {
    "type": "Point",
    "coordinates": [
     115.50289,
     -30.38866
    ]
   },
   "properties": {
    "name": "13 LANG STREET BADGINGARRA 6521",
    "locID": "LOC000028589212",
    "tech": "SATELLITE",
    "upgrade": "NULL_NA",
    "gnaf_pid": "GAWA_147272524",
    "ee": false,
    "tech_change_status": "Not Planned"
   }
  },
  {
   "type": "Feature",
   "geometry": {
    "type": "Point",
    "coordinates": [
     115.50303,
     -30.38833
    ]
   },
   "properties": {
    "name": "26 DODD STREET BADGINGARRA 6521",
    "locID": "LOC000049384803",
    "tech": "NULL",
    "upgrade": "NULL_NA",
    "gnaf_pid": "GAWA_147272525",
    "ee": false,
    "tech_change_status": "Not Planned"
   }
  },
  {
   "type": "Feature",
   "geometry": {
    "type": "Point",
    "coordinates": [
     115.50305,
     -30.38729
    ]
   },
   "properties": {
    "name": "16 DODD STREET BADGINGARRA 6521",
    "locID": "LOC000091492541",
    "tech": "NULL",
    "upgrade": "NULL_NA",
    "gnaf_pid": "GAWA_147272526",
    "ee": false,
    "tech_change_status": "Not Planned"
   }
  },
  {
   "type": "Feature",
   "geometry": {
    "type": "Point",
    "coordinates": [
     115.49902,
     -30.37969
    ]
   },
   "properties": {
    "name": "1 NORTH WEST ROAD BADGINGARRA 6521",
    "locID": "LOC000084039587",
    "tech": "NULL",
    "upgrade": "NULL_NA",
    "gnaf_pid": "GAWA_147334911",
    "ee": false,
    "tech_change_status": "Not Planned"
   }
  },
  {
   "type": "Feature",
   "geometry": {
    "type": "Point",
    "coordinates": [
     115.49994,
     -30.39285
    ]
   },
   "properties": {
    "name": "2 MEAGHER DRIVE BADGINGARRA 6521",
    "locID": "LOC000072855330",
    "tech": "SATELLITE",
    "upgrade": "NULL_NA",
    "gnaf_pid": "GAWA_147351825",
    "ee": false,
    "tech_change_status": "Not Planned"
   }
  },
  {
   "type": "Feature",
   "geometry": {
    "type": "Point",
    "coordinates": [
     115.5036364,
     -30.3881901
    ]
   },
   "properties": {
    "name": "21 DODD STREET BADGINGARRA 6521",
    "locID": "LOC000010566069",
    "tech": "NULL",
    "upgrade": "NULL_NA",
    "gnaf_pid": "GAWA_147401825",
    "ee": false,
    "tech_change_status": "Not Planned"
   }
  },
  {
   "type": "Feature",
   "geometry": {
    "type": "Point",
    "coordinates": [
     115.50315797,
     -30.39081633
    ]
   },
   "properties": {
    "name": "1 BUTLER STREET BADGINGARRA 6521",
    "locID": "LOC000105276995",
    "tech": "NULL",
    "upgrade": "NULL_NA",
    "gnaf_pid": "GAWA_147458381",
    "ee": false,
    "tech_change_status": "Not Planned"
   }
  },
  {
   "type": "Feature",
   "geometry": {
    "type": "Point",
    "coordinates": [
     115.85058,
     -30.39619
    ]
   },
   "properties": {
    "name": "2248 AGATON ROAD BADGINGARRA 6521",
    "locID": "LOC000065423324",
    "tech": "NULL",
    "upgrade": "NULL_NA",
    "gnaf_pid": "GAWA_161419900",
    "ee": false,
    "tech_change_status": "Not Planned"
   }
  },
  {
   "type": "Feature",
   "geometry": {
    "type": "Point",
    "coordinates": [
     115.61414,
     -30.5409
    ]
   },
   "properties": {
    "name": "1735 BADGINGARRA ROAD BADGINGARRA 6521",
    "locID": "LOC000058371268",
    "tech": "SATELLITE",
    "upgrade": "NULL_NA",
    "gnaf_pid": "GAWA_161420096",
    "ee": false,
    "tech_change_status": "Not Planned"
   }
  },
  {
   "type": "Feature",
   "geometry": {
    "type": "Point",
    "coordinates": [
     115.62477053,
     -30.48568656
    ]
   },
   "properties": {
    "name": "2150 BADGINGARRA ROAD BADGINGARRA 6521",
    "locID": "LOC000090373886",
    "tech": "NULL",
    "upgrade": "NULL_NA",
    "gnaf_pid": "GAWA_161420098",
    "ee": false,
    "tech_change_status": "Not Planned"
   }
  },
  {
   "type": "Feature",
   "geometry": {
    "type": "Point",
    "coordinates": [
     115.58419646,
     -30.46275404
    ]
   },
   "properties": {
    "name": "2403 BADGINGARRA ROAD BADGINGARRA 6521",
    "locID": "LOC000107562585",
    "tech": "NULL",
    "upgrade": "NULL_NA",
    "gnaf_pid": "GAWA_161420099",
    "ee": false,
    "tech_change_status": "Not Planned"
   }
  },
  {
   "type": "Feature",
   "geometry": {
    "type": "Point",
    "coordinates": [
     115.6079892,
     -30.45293956
    ]
   },
   "properties": {
    "name": "2448 BADGINGARRA ROAD BADGINGARRA 6521",
    "locID": "LOC000019001171",
    "tech": "SATELLITE",
    "upgrade": "NULL_NA",
    "gnaf_pid": "GAWA_161420100",
    "ee": false,
    "tech_change_status": "Not Planned"
   }
  },
  {
   "type": "Feature",
   "geometry": {
    "type": "Point",
    "coordinates": [
     115.58985536,
     -30.42835833
    ]
   },
   "properties": {
    "name": "3030 BADGINGARRA ROAD BADGINGARRA 6521",
    "locID": "LOC000082986516",
    "tech": "SATELLITE",
    "upgrade": "NULL_NA",
    "gnaf_pid": "GAWA_161420101",
    "ee": false,
    "tech_change_status": "Not Planned"
   }
  },
  {
   "type": "Feature",
   "geometry": {
    "type": "Point",
    "coordinates": [
     115.37451,
     -30.45525
    ]
   },
   "properties": {
    "name": "1192 BIBBY ROAD BADGINGARRA 6521",
    "locID": "LOC000089394000",
    "tech": "NULL",
    "upgrade": "NULL_NA",
    "gnaf_pid": "GAWA_161420254",
    "ee": false,
    "tech_change_status": "Not Planned"
   }
  },
  {
   "type": "Feature",
   "geometry": {
    "type": "Point",
    "coordinates": [
     115.45727,
     -30.4705
    ]
   },
   "properties": {
    "name": "200 BIBBY ROAD BADGINGARRA 6521",
    "locID": "LOC000027849245",
    "tech": "SATELLITE",
    "upgrade": "NULL_NA",
    "gnaf_pid": "GAWA_161420255",
    "ee": false,
    "tech_change_status": "Not Planned"
   }
  },
  {
   "type": "Feature",
   "geometry": {
    "type": "Point",
    "coordinates": [
     115.5097,
     -30.48434
    ]
   },
   "properties": {
    "name": "13946 BRAND HIGHWAY BADGINGARRA 6521",
    "locID": "LOC000006555202",
    "tech": "NULL",
    "upgrade": "NULL_NA",
    "gnaf_pid": "GAWA_161420381",
    "ee": false,
    "tech_change_status": "Not Planned"
   }
  },
  {
   "type": "Feature",
   "geometry": {
    "type": "Point",
    "coordinates": [
     115.48171,
     -30.45854
    ]
   },
   "properties": {
    "name": "14313 BRAND HIGHWAY BADGINGARRA 6521",
    "locID": "LOC000089759288",
    "tech": "NULL",
    "upgrade": "NULL_NA",
    "gnaf_pid": "GAWA_161420382",
    "ee": false,
    "tech_change_status": "Not Planned"
   }
  },
  {
   "type": "Feature",
   "geometry": {
    "type": "Point",
    "coordinates": [
     115.5132,
     -30.45217
    ]
   },
   "properties": {
    "name": "14314 BRAND HIGHWAY BADGINGARRA 6521",
    "locID": "LOC000069446554",
    "tech": "NULL",
    "upgrade": "NULL_NA",
    "gnaf_pid": "GAWA_161420383",
    "ee": false,
    "tech_change_status": "Not Planned"
   }
  },
  {
   "type": "Feature",
   "geometry": {
    "type": "Point",
    "coordinates": [
     115.4998,
     -30.43732
    ]
   },
   "properties": {
    "name": "14486 BRAND HIGHWAY BADGINGARRA 6521",
    "locID": "LOC000099338747",
    "tech": "NULL",
    "upgrade": "NULL_NA",
    "gnaf_pid": "GAWA_161420384",
    "ee": false,
    "tech_change_status": "Not Planned"
   }
  },
  {
   "type": "Feature",
   "geometry": {
    "type": "Point",
    "coordinates": [
     115.49539,
     -30.42283
    ]
   },
   "properties": {
    "name": "14628 BRAND HIGHWAY BADGINGARRA 6521",
    "locID": "LOC000065585963",
    "tech": "SATELLITE",
    "upgrade": "NULL_NA",
    "gnaf_pid": "GAWA_161420385",
    "ee": false,
    "tech_change_status": "Not Planned"
   }
  },
  {
   "type": "Feature",
   "geometry": {
    "type": "Point",
    "coordinates": [
     115.48801,
     -30.34234
    ]
   },
   "properties": {
    "name": "15492 BRAND HIGHWAY BADGINGARRA 6521",
    "locID": "LOC000032841234",
    "tech": "NULL",
    "upgrade": "NULL_NA",
    "gnaf_pid": "GAWA_161420386",
    "ee": false,
    "tech_change_status": "Not Planned"
   }
  },
  {
   "type": "Feature",
   "geometry": {
    "type": "Point",
    "coordinates": [
     115.44616,
     -30.36183
    ]
   },
   "properties": {
    "name": "15519 BRAND HIGHWAY BADGINGARRA 6521",
    "locID": "LOC000094177466",
    "tech": "NULL",
    "upgrade": "NULL_NA",
    "gnaf_pid": "GAWA_161420387",
    "ee": false,
    "tech_change_status": "Not Planned"
   }
  },
  {
   "type": "Feature",
   "geometry": {
    "type": "Point",
    "coordinates": [
     115.73200186,
     -30.43752535
    ]
   },
   "properties": {
    "name": "504 COALARA ROAD BADGINGARRA 6521",
    "locID": "LOC000105170722",
    "tech": "SATELLITE",
    "upgrade": "NULL_NA",
    "gnaf_pid": "GAWA_161420795",
    "ee": false,
    "tech_change_status": "Not Planned"
   }
  },
  {
   "type": "Feature",
   "geometry": {
    "type": "Point",
    "coordinates": [
     115.71106751,
     -30.41369104
    ]
   },
   "properties": {
    "name": "765 COALARA ROAD BADGINGARRA 6521",
    "locID": "LOC000045832640",
    "tech": "SATELLITE",
    "upgrade": "NULL_NA",
    "gnaf_pid": "GAWA_161420796",
    "ee": false,
    "tech_change_status": "Not Planned"
   }
  },
  {
   "type": "Feature",
   "geometry": {
    "type": "Point",
    "coordinates": [
     115.75404439,
     -30.40629873
    ]
   },
   "properties": {
    "name": "840 COALARA ROAD BADGINGARRA 6521",
    "locID": "LOC000018101049",
    "tech": "SATELLITE",
    "upgrade": "NULL_NA",
    "gnaf_pid": "GAWA_161420797",
    "ee": false,
    "tech_change_status": "Not Planned"
   }
  },
  {
   "type": "Feature",
   "geometry": {
    "type": "Point",
    "coordinates": [
     115.84972396,
     -30.43685332
    ]
   },
   "properties": {
    "name": "1716 COOMBERDALE WEST ROAD BADGINGARRA 6521",
    "locID": "LOC000066449159",
    "tech": "NULL",
    "upgrade": "NULL_NA",
    "gnaf_pid": "GAWA_161420858",
    "ee": true,
    "tech_change_status": "Not Planned"
   }
  },
  {
   "type": "Feature",
   "geometry": {
    "type": "Point",
    "coordinates": [
     115.805002,
     -30.45220952
    ]
   },
   "properties": {
    "name": "2504 COOMBERDALE WEST ROAD BADGINGARRA 6521",
    "locID": "LOC000030349266",
    "tech": "SATELLITE",
    "upgrade": "NULL_NA",
    "gnaf_pid": "GAWA_161420859",
    "ee": true,
    "tech_change_status": "Not Planned"
   }
  },
  {
   "type": "Feature",
   "geometry": {
    "type": "Point",
    "coordinates": [
     115.75223852,
     -30.45640934
    ]
   },
   "properties": {
    "name": "2832 COOMBERDALE WEST ROAD BADGINGARRA 6521",
    "locID": "LOC000061154213",
    "tech": "SATELLITE",
    "upgrade": "NULL_NA",
    "gnaf_pid": "GAWA_161420860",
    "ee": true,
    "tech_change_status": "Not Planned"
   }
  },
  {
   "type": "Feature",
   "geometry": {
    "type": "Point",
    "coordinates": [
     115.59486763,
     -30.34492965
    ]
   },
   "properties": {
    "name": "312 DINNER HILL ROAD BADGINGARRA 6521",
    "locID": "LOC000059410906",
    "tech": "SATELLITE",
    "upgrade": "NULL_NA",
    "gnaf_pid": "GAWA_161421190",
    "ee": false,
    "tech_change_status": "Not Planned"
   }
  },
  {
   "type": "Feature",
   "geometry": {
    "type": "Point",
    "coordinates": [
     115.59229723,
     -30.36888207
    ]
   },
   "properties": {
    "name": "442 DINNER HILL ROAD BADGINGARRA 6521",
    "locID": "LOC000081286510",
    "tech": "NULL",
    "upgrade": "NULL_NA",
    "gnaf_pid": "GAWA_161421191",
    "ee": false,
    "tech_change_status": "Not Planned"
   }
  },
  {
   "type": "Feature",
   "geometry": {
    "type": "Point",
    "coordinates": [
     115.61683482,
     -30.35413554
    ]
   },
   "properties": {
    "name": "459 DINNER HILL ROAD BADGINGARRA 6521",
    "locID": "LOC000044355883",
    "tech": "SATELLITE",
    "upgrade": "NULL_NA",
    "gnaf_pid": "GAWA_161421192",
    "ee": false,
    "tech_change_status": "Not Planned"
   }
  },
  {
   "type": "Feature",
   "geometry": {
    "type": "Point",
    "coordinates": [
     115.58815,
     -30.51187
    ]
   },
   "properties": {
    "name": "1156 KOONAH ROAD BADGINGARRA 6521",
    "locID": "LOC000044861084",
    "tech": "SATELLITE",
    "upgrade": "NULL_NA",
    "gnaf_pid": "GAWA_161422066",
    "ee": false,
    "tech_change_status": "Not Planned"
   }
  },
  {
   "type": "Feature",
   "geometry": {
    "type": "Point",
    "coordinates": [
     115.54991002,
     -30.50086436
    ]
   },
   "properties": {
    "name": "208 KOONAH ROAD BADGINGARRA 6521",
    "locID": "LOC000189744591",
    "tech": "SATELLITE",
    "upgrade": "NULL_NA",
    "gnaf_pid": "GAWA_161422067",
    "ee": false,
    "tech_change_status": "Not Planned"
   }
  },
  {
   "type": "Feature",
   "geometry": {
    "type": "Point",
    "coordinates": [
     115.53964,
     -30.53007
    ]
   },
   "properties": {
    "name": "522 KOONAH ROAD BADGINGARRA 6521",
    "locID": "LOC000013743838",
    "tech": "NULL",
    "upgrade": "NULL_NA",
    "gnaf_pid": "GAWA_161422069",
    "ee": false,
    "tech_change_status": "Not Planned"
   }
  },
  {
   "type": "Feature",
   "geometry": {
    "type": "Point",
    "coordinates": [
     115.55201764,
     -30.47955033
    ]
   },
   "properties": {
    "name": "821 KOONAH ROAD BADGINGARRA 6521",
    "locID": "LOC000061196042",
    "tech": "SATELLITE",
    "upgrade": "NULL_NA",
    "gnaf_pid": "GAWA_161422070",
    "ee": false,
    "tech_change_status": "Not Planned"
   }
  },
  {
   "type": "Feature",
   "geometry": {
    "type": "Point",
    "coordinates": [
     115.58066,
     -30.50153
    ]
   },
   "properties": {
    "name": "972 KOONAH ROAD BADGINGARRA 6521",
    "locID": "LOC000050606435",
    "tech": "NULL",
    "upgrade": "NULL_NA",
    "gnaf_pid": "GAWA_161422071",
    "ee": false,
    "tech_change_status": "Not Planned"
   }
  },
  {
   "type": "Feature",
   "geometry": {
    "type": "Point",
    "coordinates": [
     115.62719386,
     -30.50694131
    ]
   },
   "properties": {
    "name": "233 MUNGEDAR ROAD BADGINGARRA 6521",
    "locID": "LOC000086317836",
    "tech": "SATELLITE",
    "upgrade": "NULL_NA",
    "gnaf_pid": "GAWA_161422536",
    "ee": false,
    "tech_change_status": "Not Planned"
   }
  },
  {
   "type": "Feature",
   "geometry": {
    "type": "Point",
    "coordinates": [
     115.88153758,
     -30.39819688
    ]
   },
   "properties": {
    "name": "1581 NAMBAN WEST ROAD BADGINGARRA 6521",
    "locID": "LOC000022867088",
    "tech": "NULL",
    "upgrade": "NULL_NA",
    "gnaf_pid": "GAWA_161422560",
    "ee": false,
    "tech_change_status": "Not Planned"
   }
  },
  {
   "type": "Feature",
   "geometry": {
    "type": "Point",
    "coordinates": [
     115.64290135,
     -30.43888103
    ]
   },
   "properties": {
    "name": "1881 NORTH WEST ROAD BADGINGARRA 6521",
    "locID": "LOC000084039587",
    "tech": "NULL",
    "upgrade": "NULL_NA",
    "gnaf_pid": "GAWA_161422603",
    "ee": false,
    "tech_change_status": "Not Planned"
   }
  },
  {
   "type": "Feature",
   "geometry": {
    "type": "Point",
    "coordinates": [
     115.51172,
     -30.3771
    ]
   },
   "properties": {
    "name": "189 NORTH WEST ROAD BADGINGARRA 6521",
    "locID": "LOC000048459769",
    "tech": "SATELLITE",
    "upgrade": "NULL_NA",
    "gnaf_pid": "GAWA_161422604",
    "ee": false,
    "tech_change_status": "Not Planned"
   }
  },
  {
   "type": "Feature",
   "geometry": {
    "type": "Point",
    "coordinates": [
     115.67486044,
     -30.42360243
    ]
   },
   "properties": {
    "name": "1967 NORTH WEST ROAD BADGINGARRA 6521",
    "locID": "LOC000073733271",
    "tech": "SATELLITE",
    "upgrade": "NULL_NA",
    "gnaf_pid": "GAWA_161422605",
    "ee": false,
    "tech_change_status": "Not Planned"
   }
  },
  {
   "type": "Feature",
   "geometry": {
    "type": "Point",
    "coordinates": [
     115.66685129,
     -30.46541135
    ]
   },
   "properties": {
    "name": "2041 NORTH WEST ROAD BADGINGARRA 6521",
    "locID": "LOC000068266800",
    "tech": "NULL",
    "upgrade": "NULL_NA",
    "gnaf_pid": "GAWA_161422606",
    "ee": false,
    "tech_change_status": "Not Planned"
   }
  },
  {
   "type": "Feature",
   "geometry": {
    "type": "Point",
    "coordinates": [
     115.50182,
     -30.38561
    ]
   },
   "properties": {
    "name": "48 NORTH WEST ROAD BADGINGARRA 6521",
    "locID": "LOC000042220037",
    "tech": "NULL",
    "upgrade": "NULL_NA",
    "gnaf_pid": "GAWA_161422608",
    "ee": false,
    "tech_change_status": "Not Planned"
   }
  },
  {
   "type": "Feature",
   "geometry": {
    "type": "Point",
    "coordinates": [
     115.51944,
     -30.40814
    ]
   },
   "properties": {
    "name": "504 NORTH WEST ROAD BADGINGARRA 6521",
    "locID": "LOC000006943106",
    "tech": "SATELLITE",
    "upgrade": "NULL_NA",
    "gnaf_pid": "GAWA_161422609",
    "ee": false,
    "tech_change_status": "Not Planned"
   }
  },
  {
   "type": "Feature",
   "geometry": {
    "type": "Point",
    "coordinates": [
     115.50232369,
     -30.38496732
    ]
   },
   "properties": {
    "name": "54 NORTH WEST ROAD BADGINGARRA 6521",
    "locID": "LOC000094263073",
    "tech": "NULL",
    "upgrade": "NULL_NA",
    "gnaf_pid": "GAWA_161422610",
    "ee": false,
    "tech_change_status": "Not Planned"
   }
  },
  {
   "type": "Feature",
   "geometry": {
    "type": "Point",
    "coordinates": [
     115.53930095,
     -30.37089157
    ]
   },
   "properties": {
    "name": "577 NORTH WEST ROAD BADGINGARRA 6521",
    "locID": "LOC000022060379",
    "tech": "SATELLITE",
    "upgrade": "NULL_NA",
    "gnaf_pid": "GAWA_161422611",
    "ee": false,
    "tech_change_status": "Not Planned"
   }
  },
  {
   "type": "Feature",
   "geometry": {
    "type": "Point",
    "coordinates": [
     115.55599531,
     -30.40100484
    ]
   },
   "properties": {
    "name": "672 NORTH WEST ROAD BADGINGARRA 6521",
    "locID": "LOC000035296113",
    "tech": "NULL",
    "upgrade": "NULL_NA",
    "gnaf_pid": "GAWA_161422612",
    "ee": false,
    "tech_change_status": "Not Planned"
   }
  },
  {
   "type": "Feature",
   "geometry": {
    "type": "Point",
    "coordinates": [
     115.56013396,
     -30.39983003
    ]
   },
   "properties": {
    "name": "709 NORTH WEST ROAD BADGINGARRA 6521",
    "locID": "LOC000022851944",
    "tech": "SATELLITE",
    "upgrade": "NULL_NA",
    "gnaf_pid": "GAWA_161422613",
    "ee": false,
    "tech_change_status": "Not Planned"
   }
  },
  {
   "type": "Feature",
   "geometry": {
    "type": "Point",
    "coordinates": [
     115.58172897,
     -30.40693837
    ]
   },
   "properties": {
    "name": "961 NORTH WEST ROAD BADGINGARRA 6521",
    "locID": "LOC000045601135",
    "tech": "NULL",
    "upgrade": "NULL_NA",
    "gnaf_pid": "GAWA_161422614",
    "ee": false,
    "tech_change_status": "Not Planned"
   }
  },
  {
   "type": "Feature",
   "geometry": {
    "type": "Point",
    "coordinates": [
     115.57715529,
     -30.55366976
    ]
   },
   "properties": {
    "name": "971 WADDI ROAD BADGINGARRA 6521",
    "locID": "LOC000090651575",
    "tech": "NULL",
    "upgrade": "NULL_NA",
    "gnaf_pid": "GAWA_161423589",
    "ee": false,
    "tech_change_status": "Not Planned"
   }
  },
  {
   "type": "Feature",
   "geometry": {
    "type": "Point",
    "coordinates": [
     115.59484015,
     -30.3275128
    ]
   },
   "properties": {
    "name": "1186 WATHEROO ROAD BADGINGARRA 6521",
    "locID": "LOC000010631564",
    "tech": "SATELLITE",
    "upgrade": "NULL_NA",
    "gnaf_pid": "GAWA_161423646",
    "ee": false,
    "tech_change_status": "Not Planned"
   }
  },
  {
   "type": "Feature",
   "geometry": {
    "type": "Point",
    "coordinates": [
     115.61925418,
     -30.32479304
    ]
   },
   "properties": {
    "name": "1364 WATHEROO ROAD BADGINGARRA 6521",
    "locID": "LOC000101935758",
    "tech": "NULL",
    "upgrade": "NULL_NA",
    "gnaf_pid": "GAWA_161423647",
    "ee": false,
    "tech_change_status": "Not Planned"
   }
  },
  {
   "type": "Feature",
   "geometry": {
    "type": "Point",
    "coordinates": [
     115.65171491,
     -30.32606626
    ]
   },
   "properties": {
    "name": "1856 WATHEROO ROAD BADGINGARRA 6521",
    "locID": "LOC000026075972",
    "tech": "NULL",
    "upgrade": "NULL_NA",
    "gnaf_pid": "GAWA_161423648",
    "ee": false,
    "tech_change_status": "Not Planned"
   }
  },
  {
   "type": "Feature",
   "geometry": {
    "type": "Point",
    "coordinates": [
     115.70082992,
     -30.32609145
    ]
   },
   "properties": {
    "name": "2166 WATHEROO ROAD BADGINGARRA 6521",
    "locID": "LOC000003703369",
    "tech": "SATELLITE",
    "upgrade": "NULL_NA",
    "gnaf_pid": "GAWA_161423649",
    "ee": false,
    "tech_change_status": "Not Planned"
   }
  },
  {
   "type": "Feature",
   "geometry": {
    "type": "Point",
    "coordinates": [
     115.64143739,
     -30.39595986
    ]
   },
   "properties": {
    "name": "624 WATHINGARRA ROAD BADGINGARRA 6521",
    "locID": "LOC000002153678",
    "tech": "SATELLITE",
    "upgrade": "NULL_NA",
    "gnaf_pid": "GAWA_161423654",
    "ee": false,
    "tech_change_status": "Not Planned"
   }
  },
  {
   "type": "Feature",
   "geometry": {
    "type": "Point",
    "coordinates": [
     115.56808207,
     -30.37531461
    ]
   },
   "properties": {
    "name": "332 WINJARDIE ROAD BADGINGARRA 6521",
    "locID": "LOC000005706915",
    "tech": "NULL",
    "upgrade": "NULL_NA",
    "gnaf_pid": "GAWA_161423791",
    "ee": false,
    "tech_change_status": "Not Planned"
   }
  },
  {
   "type": "Feature",
   "geometry": {
    "type": "Point",
    "coordinates": [
     115.5376,
     -30.33607
    ]
   },
   "properties": {
    "name": "751 WINJARDIE ROAD BADGINGARRA 6521",
    "locID": "LOC000088609922",
    "tech": "NULL",
    "upgrade": "NULL_NA",
    "gnaf_pid": "GAWA_161423792",
    "ee": false,
    "tech_change_status": "Not Planned"
   }
  },
  {
   "type": "Feature",
   "geometry": {
    "type": "Point",
    "coordinates": [
     115.41053112,
     -30.53775893
    ]
   },
   "properties": {
    "name": "482 WONGONDERRAH ROAD BADGINGARRA 6521",
    "locID": "LOC000044449372",
    "tech": "NULL",
    "upgrade": "NULL_NA",
    "gnaf_pid": "GAWA_161423806",
    "ee": false,
    "tech_change_status": "Not Planned"
   }
  },
  {
   "type": "Feature",
   "geometry": {
    "type": "Point",
    "coordinates": [
     115.36893,
     -30.53759
    ]
   },
   "properties": {
    "name": "762 WONGONDERRAH ROAD BADGINGARRA 6521",
    "locID": "LOC000049548687",
    "tech": "NULL",
    "upgrade": "NULL_NA",
    "gnaf_pid": "GAWA_161423807",
    "ee": false,
    "tech_change_status": "Not Planned"
   }
  },
  {
   "type": "Feature",
   "geometry": {
    "type": "Point",
    "coordinates": [
     115.35099,
     -30.46389
    ]
   },
   "properties": {
    "name": "1038 YERRAMULLAH ROAD BADGINGARRA 6521",
    "locID": "LOC000018648021",
    "tech": "SATELLITE",
    "upgrade": "NULL_NA",
    "gnaf_pid": "GAWA_161423854",
    "ee": false,
    "tech_change_status": "Not Planned"
   }
  },
  {
   "type": "Feature",
   "geometry": {
    "type": "Point",
    "coordinates": [
     115.3645,
     -30.49584
    ]
   },
   "properties": {
    "name": "710 YERRAMULLAH ROAD BADGINGARRA 6521",
    "locID": "LOC000005710892",
    "tech": "NULL",
    "upgrade": "NULL_NA",
    "gnaf_pid": "GAWA_161423855",
    "ee": false,
    "tech_change_status": "Not Planned"
   }
  },
  {
   "type": "Feature",
   "geometry": {
    "type": "Point",
    "coordinates": [
     115.54968359,
     -30.4345644
    ]
   },
   "properties": {
    "name": "2959 BADGINGARRA ROAD BADGINGARRA 6521",
    "locID": "LOC000109050189",
    "tech": "SATELLITE",
    "upgrade": "NULL_NA",
    "gnaf_pid": "GAWA_161511085",
    "ee": false,
    "tech_change_status": "Not Planned"
   }
  },
  {
   "type": "Feature",
   "geometry": {
    "type": "Point",
    "coordinates": [
     115.57715529,
     -30.55366976
    ]
   },
   "properties": {
    "name": "1205 WADDI ROAD BADGINGARRA 6521",
    "locID": "LOC000059722028",
    "tech": "NULL",
    "upgrade": "NULL_NA",
    "gnaf_pid": "GAWA_161612646",
    "ee": false,
    "tech_change_status": "Not Planned"
   }
  },
  {
   "type": "Feature",
   "geometry": {
    "type": "Point",
    "coordinates": [
     115.41053112,
     -30.53775893
    ]
   },
   "properties": {
    "name": "518 WONGONDERRAH ROAD BADGINGARRA 6521",
    "locID": "LOC000003037563",
    "tech": "NULL",
    "upgrade": "NULL_NA",
    "gnaf_pid": "GAWA_161613863",
    "ee": false,
    "tech_change_status": "Not Planned"
   }
  },
  {
   "type": "Feature",
   "geometry": {
    "type": "Point",
    "coordinates": [
     115.50337184,
     -30.38737227
    ]
   },
   "properties": {
    "name": "2 DODD STREET BADGINGARRA 6521",
    "locID": "LOC000099117750",
    "tech": "NULL",
    "upgrade": "NULL_NA",
    "gnaf_pid": "GAWA_162402809",
    "ee": false,
    "tech_change_status": "Not Planned"
   }
  },
  {
   "type": "Feature",
   "geometry": {
    "type": "Point",
    "coordinates": [
     115.5376,
     -30.33607
    ]
   },
   "properties": {
    "name": "UNIT 5, 751 WINJARDIE ROAD BADGINGARRA 6521",
    "locID": "LOC000088674893",
    "tech": "NULL",
    "upgrade": "NULL_NA",
    "gnaf_pid": "GAWA_162492607",
    "ee": false,
    "tech_change_status": "Not Planned"
   }
  },
  {
   "type": "Feature",
   "geometry": {
    "type": "Point",
    "coordinates": [
     115.58188327,
     -30.50342125
    ]
   },
   "properties": {
    "name": "1036 KOONAH ROAD BADGINGARRA 6521",
    "locID": "LOC000012913740",
    "tech": "SATELLITE",
    "upgrade": "NULL_NA",
    "gnaf_pid": "GAWA_162649249",
    "ee": false,
    "tech_change_status": "Not Planned"
   }
  },
  {
   "type": "Feature",
   "geometry": {
    "type": "Point",
    "coordinates": [
     115.805002,
     -30.45220952
    ]
   },
   "properties": {
    "name": "1731 AGATON ROAD BADGINGARRA 6521",
    "locID": "LOC000133398289",
    "tech": "SATELLITE",
    "upgrade": "NULL_NA",
    "gnaf_pid": "GAWA_162753307",
    "ee": true,
    "tech_change_status": "Not Planned"
   }
  },
  {
   "type": "Feature",
   "geometry": {
    "type": "Point",
    "coordinates": [
     115.41351274,
     -30.48271767
    ]
   },
   "properties": {
    "name": "1789 BIBBY ROAD BADGINGARRA 6521",
    "locID": "LOC000077874427",
    "tech": "NULL",
    "upgrade": "NULL_NA",
    "gnaf_pid": "GAWA_163245216",
    "ee": true,
    "tech_change_status": "Not Planned"
   }
  },
  {
   "type": "Feature",
   "geometry": {
    "type": "Point",
    "coordinates": [
     115.54991002,
     -30.50086436
    ]
   },
   "properties": {
    "name": "LOT 55 KOONAH ROAD BADGINGARRA 6521",
    "locID": "LOC000061196042",
    "tech": "SATELLITE",
    "upgrade": "NULL_NA",
    "gnaf_pid": "GAWA_718511661",
    "ee": false,
    "tech_change_status": "Not Planned"
   }
  },
  {
   "type": "Feature",
   "geometry": {
    "type": "Point",
    "coordinates": [
     115.80918665,
     -30.40643828
    ]
   },
   "properties": {
    "name": "1985 AGATON ROAD BADGINGARRA 6521",
    "locID": "LOC100071938246",
    "tech": "NULL",
    "upgrade": "NULL_NA",
    "gnaf_pid": "GAWA_719196985",
    "ee": true,
    "tech_change_status": "Not Planned"
   }
  },
  {
   "type": "Feature",
   "geometry": {
    "type": "Point",
    "coordinates": [
     115.56364024,
     -30.4016077
    ]
   },
   "properties": {
    "name": "789 NORTH WEST ROAD BADGINGARRA 6521",
    "locID": "LOC100078046357",
    "tech": "NULL",
    "upgrade": "NULL_NA",
    "gnaf_pid": "GAWA_719647692",
    "ee": false,
    "tech_change_status": "Not Planned"
   }
  },
  {
   "type": "Feature",
   "geometry": {
    "type": "Point",
    "coordinates": [
     115.55201764,
     -30.47955033
    ]
   },
   "properties": {
    "name": "885 KOONAH ROAD BADGINGARRA 6521",
    "locID": "LOC000044861084",
    "tech": "SATELLITE",
    "upgrade": "NULL_NA",
    "gnaf_pid": "GAWA_720047730",
    "ee": false,
    "tech_change_status": "Not Planned"
   }
  },
  {
   "type": "Feature",
   "geometry": {
    "type": "Point",
    "coordinates": [
     115.55546479,
     -30.4004418
    ]
   },
   "properties": {
    "name": "634 NORTH WEST ROAD BADGINGARRA 6521",
    "locID": "LOC100087878012",
    "tech": "NULL",
    "upgrade": "NULL_NA",
    "gnaf_pid": "GAWA_720645446",
    "ee": false,
    "tech_change_status": "Not Planned"
   }
  }
 ]
}