{
 "type": "FeatureCollection",
 "generated": "2025-06-18T21:06:07.762884",
 "suburb": "BADGIN",
 "features": [
  {
   "type": "Feature",
   "geometry": {
    "type": "Point",
    "coordinates": [
     117.00920244,
     -31.78969344
    ]
   },
   "properties": {
    "name": "595 FLEA POOL ROAD BADGIN 6302",
    "locID": "LOC000013643019",
    "tech": "WIRELESS",
    "upgrade": "NULL_NA",
    "gnaf_pid": "GAWA_162486565",
    "ee": true,
    "tech_change_status": "Not Planned",
    "program_type": "Fixed Wireless and Satellite Upgrade Program",
    "target_eligibility_quarter": "NA"
   }
  },
  {
   "type": "Feature",
   "geometry": {
    "type": "Point",
    "coordinates": [
     117.00920244,
     -31.78969344
    ]
   },
   "properties": {
    "name": "977 FLEA POOL ROAD BADGIN 6302",
    "locID": "LOC000098451253",
    "tech": "WIRELESS",
    "upgrade": "NULL_NA",
    "gnaf_pid": "GAWA_162486566",
    "ee": true,
    "tech_change_status": "Not Planned",
    "program_type": "Fixed Wireless and Satellite Upgrade Program",
    "target_eligibility_quarter": "NA"
   }
  },
  {
   "type": "Feature",
   "geometry": {
    "type": "Point",
    "coordinates": [
     116.99472197,
     -31.83813952
    ]
   },
   "properties": {
    "name": "2001 GOLDFIELDS ROAD BADGIN 6302",
    "locID": "LOC000038248024",
    "tech": "SATELLITE",
    "upgrade": "NULL_NA",
    "gnaf_pid": "GAWA_162486772",
    "ee": true,
    "tech_change_status": "Not Planned"
   }
  },
  {
   "type": "Feature",
   "geometry": {
    "type": "Point",
    "coordinates": [
     117.0429048,
     -31.8238603
    ]
   },
   "properties": {
    "name": "2361 GOLDFIELDS ROAD BADGIN 6302",
    "locID": "LOC000015736309",
    "tech": "WIRELESS",
    "upgrade": "NULL_NA",
    "gnaf_pid": "GAWA_162486774",
    "ee": true,
    "tech_change_status": "Not Planned",
    "program_type": "Fixed Wireless and Satellite Upgrade Program",
    "target_eligibility_quarter": "NA"
   }
  },
  {
   "type": "Feature",
   "geometry": {
    "type": "Point",
    "coordinates": [
     117.0212157,
     -31.82002695
    ]
   },
   "properties": {
    "name": "188 WALLABY ROAD BADGIN 6302",
    "locID": "LOC000007022444",
    "tech": "SATELLITE",
    "upgrade": "NULL_NA",
    "gnaf_pid": "GAWA_162490640",
    "ee": true,
    "tech_change_status": "Not Planned"
   }
  },
  {
   "type": "Feature",
   "geometry": {
    "type": "Point",
    "coordinates": [
     117.05935685,
     -31.78208073
    ]
   },
   "properties": {
    "name": "428 WARDING ROAD BADGIN 6302",
    "locID": "LOC000007863244",
    "tech": "WIRELESS",
    "upgrade": "NULL_NA",
    "gnaf_pid": "GAWA_162490690",
    "ee": true,
    "tech_change_status": "Not Planned",
    "program_type": "Fixed Wireless and Satellite Upgrade Program",
    "target_eligibility_quarter": "NA"
   }
  },
  {
   "type": "Feature",
   "geometry": {
    "type": "Point",
    "coordinates": [
     117.04091019,
     -31.78361866
    ]
   },
   "properties": {
    "name": "LOT 6285 WARDING ROAD BADGIN 6302",
    "locID": "LOC000089413916",
    "tech": "SATELLITE",
    "upgrade": "NULL_NA",
    "gnaf_pid": "GAWA_162695518",
    "ee": true,
    "tech_change_status": "Not Planned"
   }
  },
  {
   "type": "Feature",
   "geometry": {
    "type": "Point",
    "coordinates": [
     116.9627313,
     -31.80904381
    ]
   },
   "properties": {
    "name": "233 FLEA POOL ROAD BADGIN 6302",
    "locID": "LOC000133036831",
    "tech": "WIRELESS",
    "upgrade": "NULL_NA",
    "gnaf_pid": "GAWA_163337581",
    "ee": true,
    "tech_change_status": "Not Planned",
    "program_type": "Fixed Wireless and Satellite Upgrade Program",
    "target_eligibility_quarter": "NA"
   }
  },
  {
   "type": "Feature",
   "geometry": {
    "type": "Point",
    "coordinates": [
     117.0429048,
     -31.8238603
    ]
   },
   "properties": {
    "name": "798 FLEA POOL ROAD BADGIN 6302",
    "locID": "LOC000133055686",
    "tech": "SATELLITE",
    "upgrade": "NULL_NA",
    "gnaf_pid": "GAWA_163337584",
    "ee": true,
    "tech_change_status": "Not Planned"
   }
  },
  {
   "type": "Feature",
   "geometry": {
    "type": "Point",
    "coordinates": [
     117.0466122,
     -31.77873337
    ]
   },
   "properties": {
    "name": "LOT 10689 WARDING ROAD BADGIN 6302",
    "locID": "LOC000089413916",
    "tech": "SATELLITE",
    "upgrade": "NULL_NA",
    "gnaf_pid": "GAWA_718233988",
    "ee": true,
    "tech_change_status": "Not Planned"
   }
  }
 ]
}