{
 "type": "FeatureCollection",
 "generated": "2025-06-18T21:25:20.520452",
 "suburb": "BANDYA",
 "features": [
  {
   "type": "Feature",
   "geometry": {
    "type": "Point",
    "coordinates": [
     122.12630315,
     -27.63639902
    ]
   },
   "properties": {
    "name": "LOT 62 URAREY-WARREN BORE ROAD BANDYA 6440",
    "locID": "LOC000133283677",
    "tech": "NULL",
    "upgrade": "NULL_NA",
    "gnaf_pid": "GAWA_162812279",
    "ee": false,
    "tech_change_status": "Not Planned"
   }
  }
 ]
}