{
 "type": "FeatureCollection",
 "generated": "2025-06-18T21:48:47.302577",
 "suburb": "BINNU",
 "features": [
  {
   "type": "Feature",
   "geometry": {
    "type": "Point",
    "coordinates": [
     114.674637,
     -28.040508
    ]
   },
   "properties": {
    "name": "29 LAUDER STREET BINNU 6532",
    "locID": "LOC000016208280",
    "tech": "SATELLITE",
    "upgrade": "NULL_NA",
    "gnaf_pid": "GAWA_147025433",
    "ee": false,
    "tech_change_status": "Not Planned"
   }
  },
  {
   "type": "Feature",
   "geometry": {
    "type": "Point",
    "coordinates": [
     114.67460074,
     -28.04059404
    ]
   },
   "properties": {
    "name": "27 LAUDER STREET BINNU 6532",
    "locID": "LOC000069365071",
    "tech": "NULL",
    "upgrade": "NULL_NA",
    "gnaf_pid": "GAWA_147025434",
    "ee": false,
    "tech_change_status": "Not Planned"
   }
  },
  {
   "type": "Feature",
   "geometry": {
    "type": "Point",
    "coordinates": [
     114.67431,
     -28.04208
    ]
   },
   "properties": {
    "name": "13 LAUDER STREET BINNU 6532",
    "locID": "LOC000089621565",
    "tech": "NULL",
    "upgrade": "NULL_NA",
    "gnaf_pid": "GAWA_147025441",
    "ee": true,
    "tech_change_status": "Not Planned"
   }
  },
  {
   "type": "Feature",
   "geometry": {
    "type": "Point",
    "coordinates": [
     114.67743909,
     -28.03357733
    ]
   },
   "properties": {
    "name": "6 NORTH WEST COASTAL HIGHWAY BINNU 6532",
    "locID": "LOC000023670465",
    "tech": "NULL",
    "upgrade": "NULL_NA",
    "gnaf_pid": "GAWA_147031616",
    "ee": true,
    "tech_change_status": "Not Planned"
   }
  },
  {
   "type": "Feature",
   "geometry": {
    "type": "Point",
    "coordinates": [
     114.67743909,
     -28.03357733
    ]
   },
   "properties": {
    "name": "8 NORTH WEST COASTAL HIGHWAY BINNU 6532",
    "locID": "LOC000023670465",
    "tech": "NULL",
    "upgrade": "NULL_NA",
    "gnaf_pid": "GAWA_147031617",
    "ee": true,
    "tech_change_status": "Not Planned"
   }
  },
  {
   "type": "Feature",
   "geometry": {
    "type": "Point",
    "coordinates": [
     114.67433,
     -28.04232
    ]
   },
   "properties": {
    "name": "11 LAUDER STREET BINNU 6532",
    "locID": "LOC000066095141",
    "tech": "NULL",
    "upgrade": "NULL_NA",
    "gnaf_pid": "GAWA_147062171",
    "ee": true,
    "tech_change_status": "Not Planned"
   }
  },
  {
   "type": "Feature",
   "geometry": {
    "type": "Point",
    "coordinates": [
     114.67433,
     -28.04268
    ]
   },
   "properties": {
    "name": "7 LAUDER STREET BINNU 6532",
    "locID": "LOC000024537116",
    "tech": "NULL",
    "upgrade": "NULL_NA",
    "gnaf_pid": "GAWA_147062173",
    "ee": true,
    "tech_change_status": "Not Planned"
   }
  },
  {
   "type": "Feature",
   "geometry": {
    "type": "Point",
    "coordinates": [
     114.675589,
     -28.041972
    ]
   },
   "properties": {
    "name": "2 LAUDER STREET BINNU 6532",
    "locID": "LOC000069365071",
    "tech": "NULL",
    "upgrade": "NULL_NA",
    "gnaf_pid": "GAWA_161904452",
    "ee": false,
    "tech_change_status": "Not Planned"
   }
  },
  {
   "type": "Feature",
   "geometry": {
    "type": "Point",
    "coordinates": [
     114.8353256,
     -27.96707683
    ]
   },
   "properties": {
    "name": "1400 AJANA ROAD EAST BINNU 6532",
    "locID": "LOC000028746087",
    "tech": "NULL",
    "upgrade": "NULL_NA",
    "gnaf_pid": "GAWA_162254279",
    "ee": false,
    "tech_change_status": "Not Planned"
   }
  },
  {
   "type": "Feature",
   "geometry": {
    "type": "Point",
    "coordinates": [
     114.956745,
     -28.116386
    ]
   },
   "properties": {
    "name": "2324 BALLA-WHELARRA ROAD BINNU 6532",
    "locID": "LOC000053866313",
    "tech": "NULL",
    "upgrade": "NULL_NA",
    "gnaf_pid": "GAWA_162254437",
    "ee": false,
    "tech_change_status": "Not Planned"
   }
  },
  {
   "type": "Feature",
   "geometry": {
    "type": "Point",
    "coordinates": [
     114.975466,
     -28.065057
    ]
   },
   "properties": {
    "name": "3118 BALLA-WHELARRA ROAD BINNU 6532",
    "locID": "LOC000069105167",
    "tech": "SATELLITE",
    "upgrade": "NULL_NA",
    "gnaf_pid": "GAWA_162254438",
    "ee": false,
    "tech_change_status": "Not Planned"
   }
  },
  {
   "type": "Feature",
   "geometry": {
    "type": "Point",
    "coordinates": [
     115.021676,
     -27.998817
    ]
   },
   "properties": {
    "name": "3810 BALLA-WHELARRA ROAD BINNU 6532",
    "locID": "LOC000142445396",
    "tech": "SATELLITE",
    "upgrade": "NULL_NA",
    "gnaf_pid": "GAWA_162254439",
    "ee": false,
    "tech_change_status": "Not Planned"
   }
  },
  {
   "type": "Feature",
   "geometry": {
    "type": "Point",
    "coordinates": [
     114.998996,
     -27.991927
    ]
   },
   "properties": {
    "name": "4107 BALLA-WHELARRA ROAD BINNU 6532",
    "locID": "LOC000032801181",
    "tech": "NULL",
    "upgrade": "NULL_NA",
    "gnaf_pid": "GAWA_162254440",
    "ee": false,
    "tech_change_status": "Not Planned"
   }
  },
  {
   "type": "Feature",
   "geometry": {
    "type": "Point",
    "coordinates": [
     115.020074,
     -27.976971
    ]
   },
   "properties": {
    "name": "4138 BALLA-WHELARRA ROAD BINNU 6532",
    "locID": "LOC000103280567",
    "tech": "NULL",
    "upgrade": "NULL_NA",
    "gnaf_pid": "GAWA_162254441",
    "ee": false,
    "tech_change_status": "Not Planned"
   }
  },
  {
   "type": "Feature",
   "geometry": {
    "type": "Point",
    "coordinates": [
     115.03938391,
     -27.91550307
    ]
   },
   "properties": {
    "name": "4778 BALLA-WHELARRA ROAD BINNU 6532",
    "locID": "LOC000065067453",
    "tech": "SATELLITE",
    "upgrade": "NULL_NA",
    "gnaf_pid": "GAWA_162254442",
    "ee": false,
    "tech_change_status": "Not Planned"
   }
  },
  {
   "type": "Feature",
   "geometry": {
    "type": "Point",
    "coordinates": [
     114.774513,
     -28.025071
    ]
   },
   "properties": {
    "name": "1003 BINNU ROAD EAST BINNU 6532",
    "locID": "LOC000052874863",
    "tech": "NULL",
    "upgrade": "NULL_NA",
    "gnaf_pid": "GAWA_162254630",
    "ee": false,
    "tech_change_status": "Not Planned"
   }
  },
  {
   "type": "Feature",
   "geometry": {
    "type": "Point",
    "coordinates": [
     114.68627793,
     -28.04280944
    ]
   },
   "properties": {
    "name": "108 BINNU ROAD EAST BINNU 6532",
    "locID": "LOC000090101869",
    "tech": "NULL",
    "upgrade": "NULL_NA",
    "gnaf_pid": "GAWA_162254631",
    "ee": false,
    "tech_change_status": "Not Planned"
   }
  },
  {
   "type": "Feature",
   "geometry": {
    "type": "Point",
    "coordinates": [
     114.793426,
     -28.018721
    ]
   },
   "properties": {
    "name": "1121 BINNU ROAD EAST BINNU 6532",
    "locID": "LOC000023685921",
    "tech": "SATELLITE",
    "upgrade": "NULL_NA",
    "gnaf_pid": "GAWA_162254632",
    "ee": false,
    "tech_change_status": "Not Planned"
   }
  },
  {
   "type": "Feature",
   "geometry": {
    "type": "Point",
    "coordinates": [
     114.814063,
     -28.038302
    ]
   },
   "properties": {
    "name": "1449 BINNU ROAD EAST BINNU 6532",
    "locID": "LOC000100953837",
    "tech": "SATELLITE",
    "upgrade": "NULL_NA",
    "gnaf_pid": "GAWA_162254633",
    "ee": false,
    "tech_change_status": "Not Planned"
   }
  },
  {
   "type": "Feature",
   "geometry": {
    "type": "Point",
    "coordinates": [
     114.833401,
     -28.056797
    ]
   },
   "properties": {
    "name": "1620 BINNU ROAD EAST BINNU 6532",
    "locID": "LOC000099382450",
    "tech": "NULL",
    "upgrade": "NULL_NA",
    "gnaf_pid": "GAWA_162254634",
    "ee": false,
    "tech_change_status": "Not Planned"
   }
  },
  {
   "type": "Feature",
   "geometry": {
    "type": "Point",
    "coordinates": [
     114.849685,
     -28.036215
    ]
   },
   "properties": {
    "name": "1817 BINNU ROAD EAST BINNU 6532",
    "locID": "LOC000086414854",
    "tech": "NULL",
    "upgrade": "NULL_NA",
    "gnaf_pid": "GAWA_162254635",
    "ee": false,
    "tech_change_status": "Not Planned"
   }
  },
  {
   "type": "Feature",
   "geometry": {
    "type": "Point",
    "coordinates": [
     114.866737,
     -28.036211
    ]
   },
   "properties": {
    "name": "1973 BINNU ROAD EAST BINNU 6532",
    "locID": "LOC000007796087",
    "tech": "NULL",
    "upgrade": "NULL_NA",
    "gnaf_pid": "GAWA_162254636",
    "ee": false,
    "tech_change_status": "Not Planned"
   }
  },
  {
   "type": "Feature",
   "geometry": {
    "type": "Point",
    "coordinates": [
     114.966441,
     -28.035316
    ]
   },
   "properties": {
    "name": "2943 BINNU ROAD EAST BINNU 6532",
    "locID": "LOC000054521988",
    "tech": "SATELLITE",
    "upgrade": "NULL_NA",
    "gnaf_pid": "GAWA_162254640",
    "ee": false,
    "tech_change_status": "Not Planned"
   }
  },
  {
   "type": "Feature",
   "geometry": {
    "type": "Point",
    "coordinates": [
     114.70324238,
     -28.02942016
    ]
   },
   "properties": {
    "name": "297 BINNU ROAD EAST BINNU 6532",
    "locID": "LOC000106713123",
    "tech": "SATELLITE",
    "upgrade": "NULL_NA",
    "gnaf_pid": "GAWA_162254641",
    "ee": false,
    "tech_change_status": "Not Planned"
   }
  },
  {
   "type": "Feature",
   "geometry": {
    "type": "Point",
    "coordinates": [
     114.73058419,
     -28.05223576
    ]
   },
   "properties": {
    "name": "406 BINNU ROAD EAST BINNU 6532",
    "locID": "LOC000102148326",
    "tech": "NULL",
    "upgrade": "NULL_NA",
    "gnaf_pid": "GAWA_162254642",
    "ee": false,
    "tech_change_status": "Not Planned"
   }
  },
  {
   "type": "Feature",
   "geometry": {
    "type": "Point",
    "coordinates": [
     114.673012,
     -28.040183
    ]
   },
   "properties": {
    "name": "2 BINNU ROAD WEST BINNU 6532",
    "locID": "LOC000081128638",
    "tech": "NULL",
    "upgrade": "NULL_NA",
    "gnaf_pid": "GAWA_162254643",
    "ee": false,
    "tech_change_status": "Not Planned"
   }
  },
  {
   "type": "Feature",
   "geometry": {
    "type": "Point",
    "coordinates": [
     114.632556,
     -28.061824
    ]
   },
   "properties": {
    "name": "659 BINNU ROAD WEST BINNU 6532",
    "locID": "LOC000053747095",
    "tech": "NULL",
    "upgrade": "NULL_NA",
    "gnaf_pid": "GAWA_162254645",
    "ee": false,
    "tech_change_status": "Not Planned"
   }
  },
  {
   "type": "Feature",
   "geometry": {
    "type": "Point",
    "coordinates": [
     114.90524676,
     -28.08764558
    ]
   },
   "properties": {
    "name": "331 FORD ROAD BINNU 6532",
    "locID": "LOC000071756758",
    "tech": "NULL",
    "upgrade": "NULL_NA",
    "gnaf_pid": "GAWA_162255522",
    "ee": false,
    "tech_change_status": "Not Planned"
   }
  },
  {
   "type": "Feature",
   "geometry": {
    "type": "Point",
    "coordinates": [
     114.680075,
     -28.095025
    ]
   },
   "properties": {
    "name": "8316 NORTH WEST COASTAL HIGHWAY BINNU 6532",
    "locID": "LOC000009565324",
    "tech": "SATELLITE",
    "upgrade": "NULL_NA",
    "gnaf_pid": "GAWA_162256814",
    "ee": true,
    "tech_change_status": "Not Planned"
   }
  },
  {
   "type": "Feature",
   "geometry": {
    "type": "Point",
    "coordinates": [
     114.683435,
     -28.057998
    ]
   },
   "properties": {
    "name": "8780 NORTH WEST COASTAL HIGHWAY BINNU 6532",
    "locID": "LOC000051028406",
    "tech": "SATELLITE",
    "upgrade": "NULL_NA",
    "gnaf_pid": "GAWA_162256815",
    "ee": true,
    "tech_change_status": "Not Planned"
   }
  },
  {
   "type": "Feature",
   "geometry": {
    "type": "Point",
    "coordinates": [
     114.673678,
     -28.041923
    ]
   },
   "properties": {
    "name": "8932 NORTH WEST COASTAL HIGHWAY BINNU 6532",
    "locID": "LOC000023670465",
    "tech": "NULL",
    "upgrade": "NULL_NA",
    "gnaf_pid": "GAWA_162256817",
    "ee": true,
    "tech_change_status": "Not Planned"
   }
  },
  {
   "type": "Feature",
   "geometry": {
    "type": "Point",
    "coordinates": [
     114.774502,
     -28.009813
    ]
   },
   "properties": {
    "name": "290 RALPHS ROAD BINNU 6532",
    "locID": "LOC000051787411",
    "tech": "NULL",
    "upgrade": "NULL_NA",
    "gnaf_pid": "GAWA_162257210",
    "ee": false,
    "tech_change_status": "Not Planned"
   }
  },
  {
   "type": "Feature",
   "geometry": {
    "type": "Point",
    "coordinates": [
     114.963527,
     -27.948907
    ]
   },
   "properties": {
    "name": "1045 WICKENS ROAD BINNU 6532",
    "locID": "LOC000015407092",
    "tech": "NULL",
    "upgrade": "NULL_NA",
    "gnaf_pid": "GAWA_162258070",
    "ee": false,
    "tech_change_status": "Not Planned"
   }
  },
  {
   "type": "Feature",
   "geometry": {
    "type": "Point",
    "coordinates": [
     114.924563,
     -27.987504
    ]
   },
   "properties": {
    "name": "571 WICKENS ROAD BINNU 6532",
    "locID": "LOC000105879571",
    "tech": "NULL",
    "upgrade": "NULL_NA",
    "gnaf_pid": "GAWA_162258071",
    "ee": false,
    "tech_change_status": "Not Planned"
   }
  },
  {
   "type": "Feature",
   "geometry": {
    "type": "Point",
    "coordinates": [
     114.963534,
     -27.975934
    ]
   },
   "properties": {
    "name": "836 WICKENS ROAD BINNU 6532",
    "locID": "LOC000101348820",
    "tech": "NULL",
    "upgrade": "NULL_NA",
    "gnaf_pid": "GAWA_162258072",
    "ee": false,
    "tech_change_status": "Not Planned"
   }
  },
  {
   "type": "Feature",
   "geometry": {
    "type": "Point",
    "coordinates": [
     114.60909729,
     -28.04912173
    ]
   },
   "properties": {
    "name": "75 FALCARRAGH ROAD BINNU 6532",
    "locID": "LOC000047903000",
    "tech": "NULL",
    "upgrade": "NULL_NA",
    "gnaf_pid": "GAWA_162639856",
    "ee": false,
    "tech_change_status": "Not Planned"
   }
  },
  {
   "type": "Feature",
   "geometry": {
    "type": "Point",
    "coordinates": [
     114.85766921,
     -27.98904664
    ]
   },
   "properties": {
    "name": "615 DIEPEVEEN ROAD BINNU 6532",
    "locID": "LOC100079004758",
    "tech": "NULL",
    "upgrade": "NULL_NA",
    "gnaf_pid": "GAWA_163271943",
    "ee": false,
    "tech_change_status": "Not Planned"
   }
  }
 ]
}