{
 "type": "FeatureCollection",
 "generated": "2025-06-18T21:57:33.783982",
 "suburb": "BOODAROCKIN",
 "features": [
  {
   "type": "Feature",
   "geometry": {
    "type": "Point",
    "coordinates": [
     118.80686365,
     -31.00948374
    ]
   },
   "properties": {
    "name": "13732 KOORDA-BULLFINCH ROAD BOODAROCKIN 6423",
    "locID": "LOC000133301839",
    "tech": "NULL",
    "upgrade": "NULL_NA",
    "gnaf_pid": "GAWA_718297964",
    "ee": false,
    "tech_change_status": "Not Planned"
   }
  },
  {
   "type": "Feature",
   "geometry": {
    "type": "Point",
    "coordinates": [
     118.80778457,
     -31.00840219
    ]
   },
   "properties": {
    "name": "13852 KOORDA-BULLFINCH ROAD BOODAROCKIN 6423",
    "locID": "LOC000133301841",
    "tech": "NULL",
    "upgrade": "NULL_NA",
    "gnaf_pid": "GAWA_718297965",
    "ee": false,
    "tech_change_status": "Not Planned"
   }
  },
  {
   "type": "Feature",
   "geometry": {
    "type": "Point",
    "coordinates": [
     118.84226266,
     -31.06311864
    ]
   },
   "properties": {
    "name": "613 MCDOWALL ROAD BOODAROCKIN 6423",
    "locID": "LOC000133314434",
    "tech": "NULL",
    "upgrade": "NULL_NA",
    "gnaf_pid": "GAWA_718298367",
    "ee": false,
    "tech_change_status": "Not Planned"
   }
  },
  {
   "type": "Feature",
   "geometry": {
    "type": "Point",
    "coordinates": [
     118.8185059,
     -31.11076859
    ]
   },
   "properties": {
    "name": "1153 BOODAROCKIN ROAD BOODAROCKIN 6423",
    "locID": "LOC000133301684",
    "tech": "SATELLITE",
    "upgrade": "NULL_NA",
    "gnaf_pid": "GAWA_718302713",
    "ee": false,
    "tech_change_status": "Not Planned"
   }
  }
 ]
}