{
 "type": "FeatureCollection",
 "generated": "2025-06-18T21:58:31.018127",
 "suburb": "BOORALAMING",
 "features": [
  {
   "type": "Feature",
   "geometry": {
    "type": "Point",
    "coordinates": [
     117.44543519,
     -30.92727475
    ]
   },
   "properties": {
    "name": "202 BOYNE ROAD BOORALAMING 6475",
    "locID": "LOC000053786372",
    "tech": "NULL",
    "upgrade": "NULL_NA",
    "gnaf_pid": "GAWA_162637815",
    "ee": false,
    "tech_change_status": "Not Planned"
   }
  },
  {
   "type": "Feature",
   "geometry": {
    "type": "Point",
    "coordinates": [
     117.29204177,
     -30.91701154
    ]
   },
   "properties": {
    "name": "1910 DOWERIN-KOORDA ROAD BOORALAMING 6475",
    "locID": "LOC000037121102",
    "tech": "NULL",
    "upgrade": "NULL_NA",
    "gnaf_pid": "GAWA_162639462",
    "ee": false,
    "tech_change_status": "Not Planned"
   }
  },
  {
   "type": "Feature",
   "geometry": {
    "type": "Point",
    "coordinates": [
     117.33223193,
     -30.87682366
    ]
   },
   "properties": {
    "name": "2814 DOWERIN-KOORDA ROAD BOORALAMING 6475",
    "locID": "LOC000062727152",
    "tech": "NULL",
    "upgrade": "NULL_NA",
    "gnaf_pid": "GAWA_162639463",
    "ee": false,
    "tech_change_status": "Not Planned"
   }
  },
  {
   "type": "Feature",
   "geometry": {
    "type": "Point",
    "coordinates": [
     117.35262888,
     -30.86905907
    ]
   },
   "properties": {
    "name": "2957 DOWERIN-KOORDA ROAD BOORALAMING 6475",
    "locID": "LOC000029452622",
    "tech": "NULL",
    "upgrade": "NULL_NA",
    "gnaf_pid": "GAWA_162639464",
    "ee": false,
    "tech_change_status": "Not Planned"
   }
  },
  {
   "type": "Feature",
   "geometry": {
    "type": "Point",
    "coordinates": [
     117.38352691,
     -30.88014635
    ]
   },
   "properties": {
    "name": "3375 DOWERIN-KOORDA ROAD BOORALAMING 6475",
    "locID": "LOC000088632416",
    "tech": "NULL",
    "upgrade": "NULL_NA",
    "gnaf_pid": "GAWA_162639465",
    "ee": false,
    "tech_change_status": "Not Planned"
   }
  },
  {
   "type": "Feature",
   "geometry": {
    "type": "Point",
    "coordinates": [
     117.39023004,
     -30.88374106
    ]
   },
   "properties": {
    "name": "3438 DOWERIN-KOORDA ROAD BOORALAMING 6475",
    "locID": "LOC000038747671",
    "tech": "SATELLITE",
    "upgrade": "NULL_NA",
    "gnaf_pid": "GAWA_162639466",
    "ee": false,
    "tech_change_status": "Not Planned"
   }
  },
  {
   "type": "Feature",
   "geometry": {
    "type": "Point",
    "coordinates": [
     117.40023213,
     -30.86977066
    ]
   },
   "properties": {
    "name": "3558 DOWERIN-KOORDA ROAD BOORALAMING 6475",
    "locID": "LOC000023627329",
    "tech": "NULL",
    "upgrade": "NULL_NA",
    "gnaf_pid": "GAWA_162639467",
    "ee": false,
    "tech_change_status": "Not Planned"
   }
  },
  {
   "type": "Feature",
   "geometry": {
    "type": "Point",
    "coordinates": [
     117.40140425,
     -30.8243485
    ]
   },
   "properties": {
    "name": "4173 DOWERIN-KOORDA ROAD BOORALAMING 6475",
    "locID": "LOC000059296531",
    "tech": "NULL",
    "upgrade": "NULL_NA",
    "gnaf_pid": "GAWA_162639468",
    "ee": false,
    "tech_change_status": "Not Planned"
   }
  },
  {
   "type": "Feature",
   "geometry": {
    "type": "Point",
    "coordinates": [
     117.44983159,
     -30.82242849
    ]
   },
   "properties": {
    "name": "4353 DOWERIN-KOORDA ROAD BOORALAMING 6475",
    "locID": "LOC000017291132",
    "tech": "NULL",
    "upgrade": "NULL_NA",
    "gnaf_pid": "GAWA_162639469",
    "ee": false,
    "tech_change_status": "Not Planned"
   }
  },
  {
   "type": "Feature",
   "geometry": {
    "type": "Point",
    "coordinates": [
     117.28917437,
     -30.94153259
    ]
   },
   "properties": {
    "name": "1509 DUKIN WEST ROAD BOORALAMING 6475",
    "locID": "LOC000005328760",
    "tech": "NULL",
    "upgrade": "NULL_NA",
    "gnaf_pid": "GAWA_162639527",
    "ee": false,
    "tech_change_status": "Not Planned"
   }
  },
  {
   "type": "Feature",
   "geometry": {
    "type": "Point",
    "coordinates": [
     117.37805201,
     -30.91413471
    ]
   },
   "properties": {
    "name": "620 DUKIN WEST ROAD BOORALAMING 6475",
    "locID": "LOC000002975050",
    "tech": "NULL",
    "upgrade": "NULL_NA",
    "gnaf_pid": "GAWA_162639528",
    "ee": false,
    "tech_change_status": "Not Planned"
   }
  },
  {
   "type": "Feature",
   "geometry": {
    "type": "Point",
    "coordinates": [
     117.46908758,
     -30.82565022
    ]
   },
   "properties": {
    "name": "79 FELGATE ROAD BOORALAMING 6475",
    "locID": "LOC000103516567",
    "tech": "NULL",
    "upgrade": "NULL_NA",
    "gnaf_pid": "GAWA_162639960",
    "ee": false,
    "tech_change_status": "Not Planned"
   }
  },
  {
   "type": "Feature",
   "geometry": {
    "type": "Point",
    "coordinates": [
     117.36467863,
     -30.90011129
    ]
   },
   "properties": {
    "name": "163 INMAN ROAD BOORALAMING 6475",
    "locID": "LOC000026099836",
    "tech": "SATELLITE",
    "upgrade": "NULL_NA",
    "gnaf_pid": "GAWA_162641641",
    "ee": false,
    "tech_change_status": "Not Planned"
   }
  },
  {
   "type": "Feature",
   "geometry": {
    "type": "Point",
    "coordinates": [
     117.29046721,
     -30.95933215
    ]
   },
   "properties": {
    "name": "569 LAWRENCE ROAD BOORALAMING 6475",
    "locID": "LOC000003706046",
    "tech": "NULL",
    "upgrade": "NULL_NA",
    "gnaf_pid": "GAWA_162642425",
    "ee": false,
    "tech_change_status": "Not Planned"
   }
  },
  {
   "type": "Feature",
   "geometry": {
    "type": "Point",
    "coordinates": [
     117.30840195,
     -30.97609669
    ]
   },
   "properties": {
    "name": "672 LAWRENCE ROAD BOORALAMING 6475",
    "locID": "LOC000059731978",
    "tech": "NULL",
    "upgrade": "NULL_NA",
    "gnaf_pid": "GAWA_162642426",
    "ee": false,
    "tech_change_status": "Not Planned"
   }
  },
  {
   "type": "Feature",
   "geometry": {
    "type": "Point",
    "coordinates": [
     117.38289367,
     -30.85294041
    ]
   },
   "properties": {
    "name": "273 LEEKE ROAD BOORALAMING 6475",
    "locID": "LOC000018609614",
    "tech": "SATELLITE",
    "upgrade": "NULL_NA",
    "gnaf_pid": "GAWA_162642462",
    "ee": false,
    "tech_change_status": "Not Planned"
   }
  },
  {
   "type": "Feature",
   "geometry": {
    "type": "Point",
    "coordinates": [
     117.45903731,
     -30.89742982
    ]
   },
   "properties": {
    "name": "3365 WYALKATCHEM-KOORDA ROAD BOORALAMING 6475",
    "locID": "LOC000066264823",
    "tech": "NULL",
    "upgrade": "NULL_NA",
    "gnaf_pid": "GAWA_162647944",
    "ee": false,
    "tech_change_status": "Not Planned"
   }
  },
  {
   "type": "Feature",
   "geometry": {
    "type": "Point",
    "coordinates": [
     117.46040377,
     -30.88857444
    ]
   },
   "properties": {
    "name": "3471 WYALKATCHEM-KOORDA ROAD BOORALAMING 6475",
    "locID": "LOC000022960601",
    "tech": "NULL",
    "upgrade": "NULL_NA",
    "gnaf_pid": "GAWA_162647945",
    "ee": false,
    "tech_change_status": "Not Planned"
   }
  },
  {
   "type": "Feature",
   "geometry": {
    "type": "Point",
    "coordinates": [
     117.45793311,
     -30.84217655
    ]
   },
   "properties": {
    "name": "4494B DOWERIN-KOORDA ROAD BOORALAMING 6475",
    "locID": "LOC000037121102",
    "tech": "NULL",
    "upgrade": "NULL_NA",
    "gnaf_pid": "GAWA_721195725",
    "ee": false,
    "tech_change_status": "Not Planned"
   }
  },
  {
   "type": "Feature",
   "geometry": {
    "type": "Point",
    "coordinates": [
     117.4593388,
     -30.84097324
    ]
   },
   "properties": {
    "name": "4494A DOWERIN-KOORDA ROAD BOORALAMING 6475",
    "locID": "LOC000037121102",
    "tech": "NULL",
    "upgrade": "NULL_NA",
    "gnaf_pid": "GAWA_721196143",
    "ee": false,
    "tech_change_status": "Not Planned"
   }
  }
 ]
}