{
 "type": "FeatureCollection",
 "generated": "2025-06-18T21:59:53.413901",
 "suburb": "BORANUP",
 "features": [
  {
   "type": "Feature",
   "geometry": {
    "type": "Point",
    "coordinates": [
     115.00588077,
     -34.08464633
    ]
   },
   "properties": {
    "name": "LOT 1 CONTO ROAD BORANUP 6286",
    "locID": "LOC000179916473",
    "tech": "SATELLITE",
    "upgrade": "NULL_NA",
    "gnaf_pid": "GAWA_162817722",
    "ee": true,
    "tech_change_status": "Not Planned"
   }
  },
  {
   "type": "Feature",
   "geometry": {
    "type": "Point",
    "coordinates": [
     115.02941656,
     -34.07784856
    ]
   },
   "properties": {
    "name": "40 CONTO ROAD BORANUP 6286",
    "locID": "LOC000179916473",
    "tech": "SATELLITE",
    "upgrade": "NULL_NA",
    "gnaf_pid": "GAWA_162980205",
    "ee": true,
    "tech_change_status": "Not Planned"
   }
  },
  {
   "type": "Feature",
   "geometry": {
    "type": "Point",
    "coordinates": [
     115.03375576,
     -34.12688347
    ]
   },
   "properties": {
    "name": "7199 CAVES ROAD BORANUP 6286",
    "locID": "LOC000150285304",
    "tech": "NULL",
    "upgrade": "NULL_NA",
    "gnaf_pid": "GAWA_718822178",
    "ee": false,
    "tech_change_status": "Not Planned"
   }
  }
 ]
}