{
 "type": "FeatureCollection",
 "generated": "2025-06-18T22:07:19.442895",
 "suburb": "BOYERINE",
 "features": [
  {
   "type": "Feature",
   "geometry": {
    "type": "Point",
    "coordinates": [
     117.338723,
     -33.475254
    ]
   },
   "properties": {
    "name": "21 ANDREWS ROAD BOYERINE 6316",
    "locID": "LOC000063450520",
    "tech": "NULL",
    "upgrade": "NULL_NA",
    "gnaf_pid": "GAWA_161999464",
    "ee": true,
    "tech_change_status": "Not Planned"
   }
  },
  {
   "type": "Feature",
   "geometry": {
    "type": "Point",
    "coordinates": [
     117.288392,
     -33.499508
    ]
   },
   "properties": {
    "name": "1134 ASHWELL ROAD BOYERINE 6316",
    "locID": "LOC000080868033",
    "tech": "NULL",
    "upgrade": "NULL_NA",
    "gnaf_pid": "GAWA_161999494",
    "ee": true,
    "tech_change_status": "Not Planned"
   }
  },
  {
   "type": "Feature",
   "geometry": {
    "type": "Point",
    "coordinates": [
     117.431093,
     -33.507114
    ]
   },
   "properties": {
    "name": "215 BURT ROAD BOYERINE 6316",
    "locID": "LOC000105450352",
    "tech": "NULL",
    "upgrade": "NULL_NA",
    "gnaf_pid": "GAWA_162000008",
    "ee": true,
    "tech_change_status": "Not Planned"
   }
  },
  {
   "type": "Feature",
   "geometry": {
    "type": "Point",
    "coordinates": [
     117.428166,
     -33.521743
    ]
   },
   "properties": {
    "name": "386 BURT ROAD BOYERINE 6316",
    "locID": "LOC000046745399",
    "tech": "SATELLITE",
    "upgrade": "NULL_NA",
    "gnaf_pid": "GAWA_162000009",
    "ee": true,
    "tech_change_status": "Not Planned"
   }
  },
  {
   "type": "Feature",
   "geometry": {
    "type": "Point",
    "coordinates": [
     117.377647,
     -33.453045
    ]
   },
   "properties": {
    "name": "24666 GREAT SOUTHERN HIGHWAY BOYERINE 6316",
    "locID": "LOC000101072192",
    "tech": "SATELLITE",
    "upgrade": "NULL_NA",
    "gnaf_pid": "GAWA_162000842",
    "ee": true,
    "tech_change_status": "Not Planned"
   }
  },
  {
   "type": "Feature",
   "geometry": {
    "type": "Point",
    "coordinates": [
     117.370154,
     -33.465689
    ]
   },
   "properties": {
    "name": "24834 GREAT SOUTHERN HIGHWAY BOYERINE 6316",
    "locID": "LOC000092778679",
    "tech": "NULL",
    "upgrade": "NULL_NA",
    "gnaf_pid": "GAWA_162000843",
    "ee": true,
    "tech_change_status": "Not Planned"
   }
  },
  {
   "type": "Feature",
   "geometry": {
    "type": "Point",
    "coordinates": [
     117.39599025,
     -33.47661421
    ]
   },
   "properties": {
    "name": "24968 GREAT SOUTHERN HIGHWAY BOYERINE 6316",
    "locID": "LOC000054245219",
    "tech": "NULL",
    "upgrade": "NULL_NA",
    "gnaf_pid": "GAWA_162000844",
    "ee": true,
    "tech_change_status": "Not Planned"
   }
  },
  {
   "type": "Feature",
   "geometry": {
    "type": "Point",
    "coordinates": [
     117.415672,
     -33.475974
    ]
   },
   "properties": {
    "name": "24987 GREAT SOUTHERN HIGHWAY BOYERINE 6316",
    "locID": "LOC000070764261",
    "tech": "NULL",
    "upgrade": "NULL_NA",
    "gnaf_pid": "GAWA_162000845",
    "ee": true,
    "tech_change_status": "Not Planned"
   }
  },
  {
   "type": "Feature",
   "geometry": {
    "type": "Point",
    "coordinates": [
     117.41861028,
     -33.53365262
    ]
   },
   "properties": {
    "name": "25636 GREAT SOUTHERN HIGHWAY BOYERINE 6316",
    "locID": "LOC000060077033",
    "tech": "SATELLITE",
    "upgrade": "NULL_NA",
    "gnaf_pid": "GAWA_162000846",
    "ee": true,
    "tech_change_status": "Not Planned"
   }
  },
  {
   "type": "Feature",
   "geometry": {
    "type": "Point",
    "coordinates": [
     117.330867,
     -33.528172
    ]
   },
   "properties": {
    "name": "314 HOPE ROAD BOYERINE 6316",
    "locID": "LOC000017185846",
    "tech": "NULL",
    "upgrade": "NULL_NA",
    "gnaf_pid": "GAWA_162001038",
    "ee": false,
    "tech_change_status": "Not Planned"
   }
  },
  {
   "type": "Feature",
   "geometry": {
    "type": "Point",
    "coordinates": [
     117.310997,
     -33.496251
    ]
   },
   "properties": {
    "name": "19 KOJONOLOKAN ROAD BOYERINE 6316",
    "locID": "LOC000006566416",
    "tech": "SATELLITE",
    "upgrade": "NULL_NA",
    "gnaf_pid": "GAWA_162001214",
    "ee": true,
    "tech_change_status": "Not Planned"
   }
  },
  {
   "type": "Feature",
   "geometry": {
    "type": "Point",
    "coordinates": [
     117.316471,
     -33.496329
    ]
   },
   "properties": {
    "name": "30 KOJONOLOKAN ROAD BOYERINE 6316",
    "locID": "LOC000092531291",
    "tech": "SATELLITE",
    "upgrade": "NULL_NA",
    "gnaf_pid": "GAWA_162001215",
    "ee": true,
    "tech_change_status": "Not Planned"
   }
  },
  {
   "type": "Feature",
   "geometry": {
    "type": "Point",
    "coordinates": [
     117.386103,
     -33.538137
    ]
   },
   "properties": {
    "name": "267 STRONACH ROAD BOYERINE 6316",
    "locID": "LOC000108124972",
    "tech": "NULL",
    "upgrade": "NULL_NA",
    "gnaf_pid": "GAWA_162002662",
    "ee": true,
    "tech_change_status": "Not Planned"
   }
  },
  {
   "type": "Feature",
   "geometry": {
    "type": "Point",
    "coordinates": [
     117.38802222,
     -33.48868898
    ]
   },
   "properties": {
    "name": "167 WATSON ROAD BOYERINE 6316",
    "locID": "LOC000012031609",
    "tech": "NULL",
    "upgrade": "NULL_NA",
    "gnaf_pid": "GAWA_162003182",
    "ee": true,
    "tech_change_status": "Not Planned"
   }
  },
  {
   "type": "Feature",
   "geometry": {
    "type": "Point",
    "coordinates": [
     117.38802222,
     -33.48868898
    ]
   },
   "properties": {
    "name": "271 WATSON ROAD BOYERINE 6316",
    "locID": "LOC000048421450",
    "tech": "NULL",
    "upgrade": "NULL_NA",
    "gnaf_pid": "GAWA_162003183",
    "ee": true,
    "tech_change_status": "Not Planned"
   }
  },
  {
   "type": "Feature",
   "geometry": {
    "type": "Point",
    "coordinates": [
     117.345933,
     -33.481368
    ]
   },
   "properties": {
    "name": "711 WATSON ROAD BOYERINE 6316",
    "locID": "LOC000101923728",
    "tech": "NULL",
    "upgrade": "NULL_NA",
    "gnaf_pid": "GAWA_162003184",
    "ee": true,
    "tech_change_status": "Not Planned"
   }
  },
  {
   "type": "Feature",
   "geometry": {
    "type": "Point",
    "coordinates": [
     117.40082128,
     -33.50009482
    ]
   },
   "properties": {
    "name": "81 WATSON ROAD BOYERINE 6316",
    "locID": "LOC000080119762",
    "tech": "NULL",
    "upgrade": "NULL_NA",
    "gnaf_pid": "GAWA_162003185",
    "ee": true,
    "tech_change_status": "Not Planned"
   }
  },
  {
   "type": "Feature",
   "geometry": {
    "type": "Point",
    "coordinates": [
     117.42930727,
     -33.49757382
    ]
   },
   "properties": {
    "name": "180 TIE LINE ROAD BOYERINE 6316",
    "locID": "LOC000133185149",
    "tech": "SATELLITE",
    "upgrade": "NULL_NA",
    "gnaf_pid": "GAWA_163204591",
    "ee": true,
    "tech_change_status": "Not Planned"
   }
  },
  {
   "type": "Feature",
   "geometry": {
    "type": "Point",
    "coordinates": [
     117.42238319,
     -33.50525427
    ]
   },
   "properties": {
    "name": "LOT 192 BURT ROAD BOYERINE 6316",
    "locID": "LOC000046745399",
    "tech": "SATELLITE",
    "upgrade": "NULL_NA",
    "gnaf_pid": "GAWA_719864859",
    "ee": true,
    "tech_change_status": "Not Planned"
   }
  },
  {
   "type": "Feature",
   "geometry": {
    "type": "Point",
    "coordinates": [
     117.44489915,
     -33.49218528
    ]
   },
   "properties": {
    "name": "LOT 455 TIE LINE ROAD BOYERINE 6316",
    "locID": "LOC000186771428",
    "tech": "NULL",
    "upgrade": "NULL_NA",
    "gnaf_pid": "GAWA_719970808",
    "ee": true,
    "tech_change_status": "Not Planned"
   }
  }
 ]
}