{
 "type": "FeatureCollection",
 "generated": "2025-06-18T22:43:53.229434",
 "suburb": "BULONG",
 "features": [
  {
   "type": "Feature",
   "geometry": {
    "type": "Point",
    "coordinates": [
     121.77451549,
     -30.74600117
    ]
   },
   "properties": {
    "name": "LOT 456 BULONG ROAD BULONG 6431",
    "locID": "LOC100074077487",
    "tech": "SATELLITE",
    "upgrade": "NULL_NA",
    "gnaf_pid": "GAWA_163196248",
    "ee": false,
    "tech_change_status": "Not Planned"
   }
  },
  {
   "type": "Feature",
   "geometry": {
    "type": "Point",
    "coordinates": [
     121.76996441,
     -30.74545352
    ]
   },
   "properties": {
    "name": "LOT 457 BULONG ROAD BULONG 6431",
    "locID": "LOC100074077487",
    "tech": "SATELLITE",
    "upgrade": "NULL_NA",
    "gnaf_pid": "GAWA_163196249",
    "ee": false,
    "tech_change_status": "Not Planned"
   }
  },
  {
   "type": "Feature",
   "geometry": {
    "type": "Point",
    "coordinates": [
     121.76908476,
     -30.74836884
    ]
   },
   "properties": {
    "name": "LOT 458 BULONG ROAD BULONG 6431",
    "locID": "LOC100074077487",
    "tech": "SATELLITE",
    "upgrade": "NULL_NA",
    "gnaf_pid": "GAWA_163196250",
    "ee": false,
    "tech_change_status": "Not Planned"
   }
  }
 ]
}