{
 "type": "FeatureCollection",
 "generated": "2025-06-18T22:45:44.409008",
 "suburb": "BURAMINYA",
 "features": [
  {
   "type": "Feature",
   "geometry": {
    "type": "Point",
    "coordinates": [
     123.38501462,
     -33.05506798
    ]
   },
   "properties": {
    "name": "LOT 15 PARMANGO ROAD BURAMINYA 6452",
    "locID": "LOC000148369632",
    "tech": "NULL",
    "upgrade": "NULL_NA",
    "gnaf_pid": "GAWA_163202041",
    "ee": false,
    "tech_change_status": "Not Planned"
   }
  }
 ]
}