{
 "type": "FeatureCollection",
 "generated": "2025-06-18T23:26:17.661778",
 "suburb": "CHEYNES",
 "features": [
  {
   "type": "Feature",
   "geometry": {
    "type": "Point",
    "coordinates": [
     118.32428426,
     -34.82014302
    ]
   },
   "properties": {
    "name": "631 CHEYNE ROAD CHEYNES 6328",
    "locID": "LOC000022020830",
    "tech": "SATELLITE",
    "upgrade": "NULL_NA",
    "gnaf_pid": "GAWA_161420694",
    "ee": false,
    "tech_change_status": "Not Planned"
   }
  },
  {
   "type": "Feature",
   "geometry": {
    "type": "Point",
    "coordinates": [
     118.32743921,
     -34.82990348
    ]
   },
   "properties": {
    "name": "640 CHEYNE ROAD CHEYNES 6328",
    "locID": "LOC000037605393",
    "tech": "NULL",
    "upgrade": "NULL_NA",
    "gnaf_pid": "GAWA_161420695",
    "ee": false,
    "tech_change_status": "Not Planned"
   }
  },
  {
   "type": "Feature",
   "geometry": {
    "type": "Point",
    "coordinates": [
     118.39724,
     -34.88845
    ]
   },
   "properties": {
    "name": "1700 CHEYNE ROAD CHEYNES 6328",
    "locID": "LOC000005657867",
    "tech": "NULL",
    "upgrade": "NULL_NA",
    "gnaf_pid": "GAWA_161517088",
    "ee": false,
    "tech_change_status": "Not Planned"
   }
  },
  {
   "type": "Feature",
   "geometry": {
    "type": "Point",
    "coordinates": [
     118.3967887,
     -34.87924143
    ]
   },
   "properties": {
    "name": "LOT 7 CHEYNE ROAD CHEYNES 6328",
    "locID": "LOC000181574244",
    "tech": "NULL",
    "upgrade": "NULL_NA",
    "gnaf_pid": "GAWA_162817605",
    "ee": false,
    "tech_change_status": "Not Planned"
   }
  },
  {
   "type": "Feature",
   "geometry": {
    "type": "Point",
    "coordinates": [
     118.3967887,
     -34.87924143
    ]
   },
   "properties": {
    "name": "LOT 9 CHEYNE ROAD CHEYNES 6328",
    "locID": "LOC000109430466",
    "tech": "SATELLITE",
    "upgrade": "NULL_NA",
    "gnaf_pid": "GAWA_163052244",
    "ee": false,
    "tech_change_status": "Not Planned"
   }
  },
  {
   "type": "Feature",
   "geometry": {
    "type": "Point",
    "coordinates": [
     118.34105451,
     -34.84142553
    ]
   },
   "properties": {
    "name": "34925 CHEYNE ROAD CHEYNES 6328",
    "locID": "LOC000022020830",
    "tech": "SATELLITE",
    "upgrade": "NULL_NA",
    "gnaf_pid": "GAWA_163387770",
    "ee": false,
    "tech_change_status": "Not Planned"
   }
  },
  {
   "type": "Feature",
   "geometry": {
    "type": "Point",
    "coordinates": [
     118.34105451,
     -34.84142553
    ]
   },
   "properties": {
    "name": "34958 CHEYNE ROAD CHEYNES 6328",
    "locID": "LOC000022020830",
    "tech": "SATELLITE",
    "upgrade": "NULL_NA",
    "gnaf_pid": "GAWA_163387771",
    "ee": false,
    "tech_change_status": "Not Planned"
   }
  },
  {
   "type": "Feature",
   "geometry": {
    "type": "Point",
    "coordinates": [
     118.34105451,
     -34.84142553
    ]
   },
   "properties": {
    "name": "6501 CHEYNE ROAD CHEYNES 6328",
    "locID": "LOC000022020830",
    "tech": "SATELLITE",
    "upgrade": "NULL_NA",
    "gnaf_pid": "GAWA_163387772",
    "ee": false,
    "tech_change_status": "Not Planned"
   }
  },
  {
   "type": "Feature",
   "geometry": {
    "type": "Point",
    "coordinates": [
     118.40482642,
     -34.88437354
    ]
   },
   "properties": {
    "name": "12 BALD ISLAND ROAD CHEYNES 6328",
    "locID": "LOC000142464241",
    "tech": "SATELLITE",
    "upgrade": "NULL_NA",
    "gnaf_pid": "GAWA_719501205",
    "ee": false,
    "tech_change_status": "Not Planned"
   }
  },
  {
   "type": "Feature",
   "geometry": {
    "type": "Point",
    "coordinates": [
     118.36295993,
     -34.83551699
    ]
   },
   "properties": {
    "name": "853 CHEYNE ROAD CHEYNES 6328",
    "locID": "LOC000178809153",
    "tech": "SATELLITE",
    "upgrade": "NULL_NA",
    "gnaf_pid": "GAWA_719781235",
    "ee": false,
    "tech_change_status": "Not Planned"
   }
  },
  {
   "type": "Feature",
   "geometry": {
    "type": "Point",
    "coordinates": [
     118.34105451,
     -34.84142553
    ]
   },
   "properties": {
    "name": "3 CHEYNE ROAD CHEYNES 6328",
    "locID": "LOC000022020830",
    "tech": "SATELLITE",
    "upgrade": "NULL_NA",
    "gnaf_pid": "GAWA_721209239",
    "ee": false,
    "tech_change_status": "Not Planned"
   }
  }
 ]
}