{
 "type": "FeatureCollection",
 "generated": "2025-06-19T00:03:36.776502",
 "suburb": "COSMO NEWBERY",
 "features": [
  {
   "type": "Feature",
   "geometry": {
    "type": "Point",
    "coordinates": [
     123.12896959,
     -28.04434803
    ]
   },
   "properties": {
    "name": "LOT 55 GREAT CENTRAL ROAD COSMO NEWBERY 6440",
    "locID": "LOC000133283523",
    "tech": "SATELLITE",
    "upgrade": "NULL_NA",
    "gnaf_pid": "GAWA_718251675",
    "ee": false,
    "tech_change_status": "Not Planned"
   }
  }
 ]
}