{
 "type": "FeatureCollection",
 "generated": "2025-06-19T01:22:16.658326",
 "suburb": "EAST MUNGLINUP",
 "features": [
  {
   "type": "Feature",
   "geometry": {
    "type": "Point",
    "coordinates": [
     120.80171927,
     -33.87891162
    ]
   },
   "properties": {
    "name": "LOT 1509 MUNGLINUP BEACH ROAD EAST MUNGLINUP 6450",
    "locID": "LOC000142541793",
    "tech": "SATELLITE",
    "upgrade": "NULL_NA",
    "gnaf_pid": "GAWA_161567103",
    "ee": false,
    "tech_change_status": "Not Planned"
   }
  },
  {
   "type": "Feature",
   "geometry": {
    "type": "Point",
    "coordinates": [
     120.96021783,
     -33.79634594
    ]
   },
   "properties": {
    "name": "LOT 1 SPRINGDALE ROAD EAST MUNGLINUP 6450",
    "locID": "LOC000112888079",
    "tech": "SATELLITE",
    "upgrade": "NULL_NA",
    "gnaf_pid": "GAWA_161582536",
    "ee": false,
    "tech_change_status": "Not Planned"
   }
  },
  {
   "type": "Feature",
   "geometry": {
    "type": "Point",
    "coordinates": [
     120.96605166,
     -33.73557808
    ]
   },
   "properties": {
    "name": "728 SOUTH COAST HIGHWAY EAST MUNGLINUP 6450",
    "locID": "LOC000148164580",
    "tech": "SATELLITE",
    "upgrade": "NULL_NA",
    "gnaf_pid": "GAWA_161610544",
    "ee": false,
    "tech_change_status": "Not Planned"
   }
  },
  {
   "type": "Feature",
   "geometry": {
    "type": "Point",
    "coordinates": [
     120.84161078,
     -33.81333087
    ]
   },
   "properties": {
    "name": "LOT 712 DOYLE ROAD EAST MUNGLINUP 6450",
    "locID": "LOC000108225503",
    "tech": "NULL",
    "upgrade": "NULL_NA",
    "gnaf_pid": "GAWA_162403015",
    "ee": false,
    "tech_change_status": "Not Planned"
   }
  },
  {
   "type": "Feature",
   "geometry": {
    "type": "Point",
    "coordinates": [
     120.85448002,
     -33.83672675
    ]
   },
   "properties": {
    "name": "LOT 715 SPRINGDALE ROAD EAST MUNGLINUP 6450",
    "locID": "LOC000107557868",
    "tech": "NULL",
    "upgrade": "NULL_NA",
    "gnaf_pid": "GAWA_162809071",
    "ee": false,
    "tech_change_status": "Not Planned"
   }
  },
  {
   "type": "Feature",
   "geometry": {
    "type": "Point",
    "coordinates": [
     120.88834879,
     -33.82713379
    ]
   },
   "properties": {
    "name": "LOT 716 SPRINGDALE ROAD EAST MUNGLINUP 6450",
    "locID": "LOC000107907853",
    "tech": "SATELLITE",
    "upgrade": "NULL_NA",
    "gnaf_pid": "GAWA_162809072",
    "ee": false,
    "tech_change_status": "Not Planned"
   }
  },
  {
   "type": "Feature",
   "geometry": {
    "type": "Point",
    "coordinates": [
     120.9459601,
     -33.70903476
    ]
   },
   "properties": {
    "name": "LOT 868 FARMERS ROAD EAST MUNGLINUP 6450",
    "locID": "LOC000107543143",
    "tech": "NULL",
    "upgrade": "NULL_NA",
    "gnaf_pid": "GAWA_162837565",
    "ee": false,
    "tech_change_status": "Not Planned"
   }
  },
  {
   "type": "Feature",
   "geometry": {
    "type": "Point",
    "coordinates": [
     120.87810608,
     -33.80503513
    ]
   },
   "properties": {
    "name": "LOT 710 SPRINGDALE ROAD EAST MUNGLINUP 6450",
    "locID": "LOC000108285101",
    "tech": "NULL",
    "upgrade": "NULL_NA",
    "gnaf_pid": "GAWA_162842406",
    "ee": false,
    "tech_change_status": "Not Planned"
   }
  },
  {
   "type": "Feature",
   "geometry": {
    "type": "Point",
    "coordinates": [
     120.94266294,
     -33.82746765
    ]
   },
   "properties": {
    "name": "LOT 719 SPRINGDALE ROAD EAST MUNGLINUP 6450",
    "locID": "LOC000109312368",
    "tech": "NULL",
    "upgrade": "NULL_NA",
    "gnaf_pid": "GAWA_162842408",
    "ee": false,
    "tech_change_status": "Not Planned"
   }
  },
  {
   "type": "Feature",
   "geometry": {
    "type": "Point",
    "coordinates": [
     120.9664413,
     -33.83010142
    ]
   },
   "properties": {
    "name": "LOT 720 SPRINGDALE ROAD EAST MUNGLINUP 6450",
    "locID": "LOC000110072161",
    "tech": "NULL",
    "upgrade": "NULL_NA",
    "gnaf_pid": "GAWA_162842409",
    "ee": false,
    "tech_change_status": "Not Planned"
   }
  },
  {
   "type": "Feature",
   "geometry": {
    "type": "Point",
    "coordinates": [
     120.7931898,
     -33.84948138
    ]
   },
   "properties": {
    "name": "LOT 3 MUNGLINUP BEACH ROAD EAST MUNGLINUP 6450",
    "locID": "LOC000142541793",
    "tech": "SATELLITE",
    "upgrade": "NULL_NA",
    "gnaf_pid": "GAWA_163340774",
    "ee": false,
    "tech_change_status": "Not Planned"
   }
  },
  {
   "type": "Feature",
   "geometry": {
    "type": "Point",
    "coordinates": [
     120.79949211,
     -33.85928159
    ]
   },
   "properties": {
    "name": "LOT 7 MUNGLINUP BEACH ROAD EAST MUNGLINUP 6450",
    "locID": "LOC000133394645",
    "tech": "NULL",
    "upgrade": "NULL_NA",
    "gnaf_pid": "GAWA_163340775",
    "ee": false,
    "tech_change_status": "Not Planned"
   }
  },
  {
   "type": "Feature",
   "geometry": {
    "type": "Point",
    "coordinates": [
     120.80637513,
     -33.84979754
    ]
   },
   "properties": {
    "name": "LOT 4 SPRINGDALE ROAD EAST MUNGLINUP 6450",
    "locID": "LOC000112888079",
    "tech": "SATELLITE",
    "upgrade": "NULL_NA",
    "gnaf_pid": "GAWA_163342510",
    "ee": false,
    "tech_change_status": "Not Planned"
   }
  },
  {
   "type": "Feature",
   "geometry": {
    "type": "Point",
    "coordinates": [
     120.82092982,
     -33.8381633
    ]
   },
   "properties": {
    "name": "LOT 5 SPRINGDALE ROAD EAST MUNGLINUP 6450",
    "locID": "LOC000112888079",
    "tech": "SATELLITE",
    "upgrade": "NULL_NA",
    "gnaf_pid": "GAWA_163342511",
    "ee": false,
    "tech_change_status": "Not Planned"
   }
  },
  {
   "type": "Feature",
   "geometry": {
    "type": "Point",
    "coordinates": [
     120.8467477,
     -33.80672731
    ]
   },
   "properties": {
    "name": "712 DOYLE ROAD EAST MUNGLINUP 6450",
    "locID": "LOC000114203451",
    "tech": "SATELLITE",
    "upgrade": "NULL_NA",
    "gnaf_pid": "GAWA_163388488",
    "ee": false,
    "tech_change_status": "Not Planned"
   }
  },
  {
   "type": "Feature",
   "geometry": {
    "type": "Point",
    "coordinates": [
     120.94401219,
     -33.6519825
    ]
   },
   "properties": {
    "name": "868 FARMERS ROAD EAST MUNGLINUP 6450",
    "locID": "LOC000107543143",
    "tech": "NULL",
    "upgrade": "NULL_NA",
    "gnaf_pid": "GAWA_163388709",
    "ee": false,
    "tech_change_status": "Not Planned"
   }
  },
  {
   "type": "Feature",
   "geometry": {
    "type": "Point",
    "coordinates": [
     121.07722769,
     -33.61641433
    ]
   },
   "properties": {
    "name": "884 NEDS CORNER ROAD EAST MUNGLINUP 6450",
    "locID": "LOC000148371480",
    "tech": "NULL",
    "upgrade": "NULL_NA",
    "gnaf_pid": "GAWA_163391195",
    "ee": false,
    "tech_change_status": "Not Planned"
   }
  },
  {
   "type": "Feature",
   "geometry": {
    "type": "Point",
    "coordinates": [
     120.9129296,
     -33.81013582
    ]
   },
   "properties": {
    "name": "710 SPRINGDALE ROAD EAST MUNGLINUP 6450",
    "locID": "LOC000108285101",
    "tech": "NULL",
    "upgrade": "NULL_NA",
    "gnaf_pid": "GAWA_163392660",
    "ee": false,
    "tech_change_status": "Not Planned"
   }
  },
  {
   "type": "Feature",
   "geometry": {
    "type": "Point",
    "coordinates": [
     120.9129296,
     -33.81013582
    ]
   },
   "properties": {
    "name": "715 SPRINGDALE ROAD EAST MUNGLINUP 6450",
    "locID": "LOC000107557868",
    "tech": "NULL",
    "upgrade": "NULL_NA",
    "gnaf_pid": "GAWA_163392664",
    "ee": false,
    "tech_change_status": "Not Planned"
   }
  },
  {
   "type": "Feature",
   "geometry": {
    "type": "Point",
    "coordinates": [
     120.9129296,
     -33.81013582
    ]
   },
   "properties": {
    "name": "716 SPRINGDALE ROAD EAST MUNGLINUP 6450",
    "locID": "LOC000107907853",
    "tech": "SATELLITE",
    "upgrade": "NULL_NA",
    "gnaf_pid": "GAWA_163392665",
    "ee": false,
    "tech_change_status": "Not Planned"
   }
  },
  {
   "type": "Feature",
   "geometry": {
    "type": "Point",
    "coordinates": [
     120.9129296,
     -33.81013582
    ]
   },
   "properties": {
    "name": "719 SPRINGDALE ROAD EAST MUNGLINUP 6450",
    "locID": "LOC000109312368",
    "tech": "NULL",
    "upgrade": "NULL_NA",
    "gnaf_pid": "GAWA_163392667",
    "ee": false,
    "tech_change_status": "Not Planned"
   }
  },
  {
   "type": "Feature",
   "geometry": {
    "type": "Point",
    "coordinates": [
     120.9129296,
     -33.81013582
    ]
   },
   "properties": {
    "name": "720 SPRINGDALE ROAD EAST MUNGLINUP 6450",
    "locID": "LOC000110072161",
    "tech": "NULL",
    "upgrade": "NULL_NA",
    "gnaf_pid": "GAWA_163392668",
    "ee": false,
    "tech_change_status": "Not Planned"
   }
  },
  {
   "type": "Feature",
   "geometry": {
    "type": "Point",
    "coordinates": [
     120.9129296,
     -33.81013582
    ]
   },
   "properties": {
    "name": "727 SPRINGDALE ROAD EAST MUNGLINUP 6450",
    "locID": "LOC000112888079",
    "tech": "SATELLITE",
    "upgrade": "NULL_NA",
    "gnaf_pid": "GAWA_163392670",
    "ee": false,
    "tech_change_status": "Not Planned"
   }
  },
  {
   "type": "Feature",
   "geometry": {
    "type": "Point",
    "coordinates": [
     120.88400629,
     -33.54094244
    ]
   },
   "properties": {
    "name": "LOT 1019 RAWLINSON ROAD EAST MUNGLINUP 6450",
    "locID": "LOC000133347314",
    "tech": "NULL",
    "upgrade": "NULL_NA",
    "gnaf_pid": "GAWA_718344960",
    "ee": false,
    "tech_change_status": "Not Planned"
   }
  },
  {
   "type": "Feature",
   "geometry": {
    "type": "Point",
    "coordinates": [
     120.94958612,
     -33.76024549
    ]
   },
   "properties": {
    "name": "LOT 728 SOUTH COAST HIGHWAY EAST MUNGLINUP 6450",
    "locID": "LOC000148164580",
    "tech": "SATELLITE",
    "upgrade": "NULL_NA",
    "gnaf_pid": "GAWA_718392047",
    "ee": false,
    "tech_change_status": "Not Planned"
   }
  },
  {
   "type": "Feature",
   "geometry": {
    "type": "Point",
    "coordinates": [
     120.92129336,
     -33.65780026
    ]
   },
   "properties": {
    "name": "705 FARMERS ROAD EAST MUNGLINUP 6450",
    "locID": "LOC000148370646",
    "tech": "NULL",
    "upgrade": "NULL_NA",
    "gnaf_pid": "GAWA_718484384",
    "ee": false,
    "tech_change_status": "Not Planned"
   }
  },
  {
   "type": "Feature",
   "geometry": {
    "type": "Point",
    "coordinates": [
     120.87783699,
     -33.75206185
    ]
   },
   "properties": {
    "name": "370 FUSS ROAD EAST MUNGLINUP 6450",
    "locID": "LOC000148155628",
    "tech": "NULL",
    "upgrade": "NULL_NA",
    "gnaf_pid": "GAWA_718484534",
    "ee": false,
    "tech_change_status": "Not Planned"
   }
  },
  {
   "type": "Feature",
   "geometry": {
    "type": "Point",
    "coordinates": [
     120.87525326,
     -33.77304866
    ]
   },
   "properties": {
    "name": "624 FUSS ROAD EAST MUNGLINUP 6450",
    "locID": "LOC000148370729",
    "tech": "NULL",
    "upgrade": "NULL_NA",
    "gnaf_pid": "GAWA_718484535",
    "ee": false,
    "tech_change_status": "Not Planned"
   }
  },
  {
   "type": "Feature",
   "geometry": {
    "type": "Point",
    "coordinates": [
     120.99617901,
     -33.60438986
    ]
   },
   "properties": {
    "name": "2398 MILLS ROAD EAST MUNGLINUP 6450",
    "locID": "LOC000148154601",
    "tech": "NULL",
    "upgrade": "NULL_NA",
    "gnaf_pid": "GAWA_718485820",
    "ee": false,
    "tech_change_status": "Not Planned"
   }
  },
  {
   "type": "Feature",
   "geometry": {
    "type": "Point",
    "coordinates": [
     121.01850424,
     -33.60423038
    ]
   },
   "properties": {
    "name": "2580 MILLS ROAD EAST MUNGLINUP 6450",
    "locID": "LOC000148371374",
    "tech": "NULL",
    "upgrade": "NULL_NA",
    "gnaf_pid": "GAWA_718485821",
    "ee": false,
    "tech_change_status": "Not Planned"
   }
  },
  {
   "type": "Feature",
   "geometry": {
    "type": "Point",
    "coordinates": [
     121.03693362,
     -33.70579646
    ]
   },
   "properties": {
    "name": "541 NEDS CORNER ROAD EAST MUNGLINUP 6450",
    "locID": "LOC000148371480",
    "tech": "NULL",
    "upgrade": "NULL_NA",
    "gnaf_pid": "GAWA_718486103",
    "ee": false,
    "tech_change_status": "Not Planned"
   }
  },
  {
   "type": "Feature",
   "geometry": {
    "type": "Point",
    "coordinates": [
     120.9495768,
     -33.76025837
    ]
   },
   "properties": {
    "name": "9309 SOUTH COAST HIGHWAY EAST MUNGLINUP 6450",
    "locID": "LOC000148164580",
    "tech": "SATELLITE",
    "upgrade": "NULL_NA",
    "gnaf_pid": "GAWA_720278654",
    "ee": false,
    "tech_change_status": "Not Planned"
   }
  },
  {
   "type": "Feature",
   "geometry": {
    "type": "Point",
    "coordinates": [
     120.96605166,
     -33.73557808
    ]
   },
   "properties": {
    "name": "LOT 6 SOUTH COAST HIGHWAY EAST MUNGLINUP 6450",
    "locID": "LOC000148164580",
    "tech": "SATELLITE",
    "upgrade": "NULL_NA",
    "gnaf_pid": "GAWA_721490273",
    "ee": false,
    "tech_change_status": "Not Planned"
   }
  }
 ]
}