{
 "type": "FeatureCollection",
 "generated": "2025-06-19T01:21:51.136752",
 "suburb": "EAST LYONS RIVER",
 "features": [
  {
   "type": "Feature",
   "geometry": {
    "type": "Point",
    "coordinates": [
     116.9329826,
     -24.76221616
    ]
   },
   "properties": {
    "name": "UNIT 1, LOT 50 LANDOR-MOUNT AUGUSTUS ROAD EAST LYONS RIVER 6705",
    "locID": "LOC100073786887",
    "tech": "SATELLITE",
    "upgrade": "NULL_NA",
    "gnaf_pid": "GAWA_163245618",
    "ee": false,
    "tech_change_status": "Not Planned"
   }
  },
  {
   "type": "Feature",
   "geometry": {
    "type": "Point",
    "coordinates": [
     116.9329826,
     -24.76221616
    ]
   },
   "properties": {
    "name": "UNIT 2, LOT 50 LANDOR-MOUNT AUGUSTUS ROAD EAST LYONS RIVER 6705",
    "locID": "LOC100073786887",
    "tech": "SATELLITE",
    "upgrade": "NULL_NA",
    "gnaf_pid": "GAWA_163245619",
    "ee": false,
    "tech_change_status": "Not Planned"
   }
  },
  {
   "type": "Feature",
   "geometry": {
    "type": "Point",
    "coordinates": [
     116.9329826,
     -24.76221616
    ]
   },
   "properties": {
    "name": "LOT 50 LANDOR-MOUNT AUGUSTUS ROAD EAST LYONS RIVER 6705",
    "locID": "LOC100073786887",
    "tech": "SATELLITE",
    "upgrade": "NULL_NA",
    "gnaf_pid": "GAWA_163247825",
    "ee": false,
    "tech_change_status": "Not Planned"
   }
  }
 ]
}