{
 "type": "FeatureCollection",
 "generated": "2025-06-19T01:51:55.880079",
 "suburb": "EURARDY",
 "features": [
  {
   "type": "Feature",
   "geometry": {
    "type": "Point",
    "coordinates": [
     114.70575822,
     -27.47209258
    ]
   },
   "properties": {
    "name": "166 NORTH WEST COASTAL HIGHWAY EURARDY 6532",
    "locID": "LOC000169431157",
    "tech": "SATELLITE",
    "upgrade": "NULL_NA",
    "gnaf_pid": "GAWA_163391304",
    "ee": false,
    "tech_change_status": "Not Planned"
   }
  }
 ]
}