{
 "type": "FeatureCollection",
 "generated": "2025-06-19T01:55:02.160416",
 "suburb": "FITZGERALD",
 "features": [
  {
   "type": "Feature",
   "geometry": {
    "type": "Point",
    "coordinates": [
     119.4565425,
     -33.75129872
    ]
   },
   "properties": {
    "name": "LOT 6 QUALUP WAY FITZGERALD 6337",
    "locID": "LOC000107782706",
    "tech": "SATELLITE",
    "upgrade": "NULL_NA",
    "gnaf_pid": "GAWA_720820245",
    "ee": false,
    "tech_change_status": "Not Planned"
   }
  }
 ]
}