{
 "type": "FeatureCollection",
 "generated": "2025-06-19T02:00:16.464050",
 "suburb": "FLYNN",
 "features": [
  {
   "type": "Feature",
   "geometry": {
    "type": "Point",
    "coordinates": [
     116.561732,
     -32.125928
    ]
   },
   "properties": {
    "name": "833 GUNAPIN RIDGE ROAD FLYNN 6302",
    "locID": "LOC000008777711",
    "tech": "SATELLITE",
    "upgrade": "NULL_NA",
    "gnaf_pid": "GAWA_162487084",
    "ee": true,
    "tech_change_status": "Not Planned"
   }
  },
  {
   "type": "Feature",
   "geometry": {
    "type": "Point",
    "coordinates": [
     116.561732,
     -32.125928
    ]
   },
   "properties": {
    "name": "881 GUNAPIN RIDGE ROAD FLYNN 6302",
    "locID": "LOC000090675510",
    "tech": "SATELLITE",
    "upgrade": "NULL_NA",
    "gnaf_pid": "GAWA_162487085",
    "ee": true,
    "tech_change_status": "Not Planned"
   }
  }
 ]
}