{
 "type": "FeatureCollection",
 "generated": "2025-06-19T02:02:29.082686",
 "suburb": "FORTESCUE",
 "features": [
  {
   "type": "Feature",
   "geometry": {
    "type": "Point",
    "coordinates": [
     115.76018511,
     -21.57295794
    ]
   },
   "properties": {
    "name": "LOT 307 NORTH WEST COASTAL HIGHWAY FORTESCUE 6716",
    "locID": "LOC000133543490",
    "tech": "NULL",
    "upgrade": "NULL_NA",
    "gnaf_pid": "GAWA_163341004",
    "ee": false,
    "tech_change_status": "Not Planned"
   }
  }
 ]
}