{
 "type": "FeatureCollection",
 "generated": "2025-06-19T02:06:00.425469",
 "suburb": "GABALONG",
 "features": [
  {
   "type": "Feature",
   "geometry": {
    "type": "Point",
    "coordinates": [
     116.374312,
     -30.712932
    ]
   },
   "properties": {
    "name": "10263 BINDI BINDI-TOODYAY ROAD GABALONG 6574",
    "locID": "LOC000105906611",
    "tech": "NULL",
    "upgrade": "NULL_NA",
    "gnaf_pid": "GAWA_162259446",
    "ee": false,
    "tech_change_status": "Not Planned"
   }
  },
  {
   "type": "Feature",
   "geometry": {
    "type": "Point",
    "coordinates": [
     116.37113,
     -30.695038
    ]
   },
   "properties": {
    "name": "10529 BINDI BINDI-TOODYAY ROAD GABALONG 6574",
    "locID": "LOC000035303481",
    "tech": "NULL",
    "upgrade": "NULL_NA",
    "gnaf_pid": "GAWA_162259447",
    "ee": false,
    "tech_change_status": "Not Planned"
   }
  },
  {
   "type": "Feature",
   "geometry": {
    "type": "Point",
    "coordinates": [
     116.417305,
     -30.699433
    ]
   },
   "properties": {
    "name": "306 SUMMERS EAST ROAD GABALONG 6574",
    "locID": "LOC000092757973",
    "tech": "NULL",
    "upgrade": "NULL_NA",
    "gnaf_pid": "GAWA_162270164",
    "ee": false,
    "tech_change_status": "Not Planned"
   }
  },
  {
   "type": "Feature",
   "geometry": {
    "type": "Point",
    "coordinates": [
     116.433462,
     -30.706401
    ]
   },
   "properties": {
    "name": "263 TUCKS ROAD GABALONG 6574",
    "locID": "LOC000049707429",
    "tech": "NULL",
    "upgrade": "NULL_NA",
    "gnaf_pid": "GAWA_162270784",
    "ee": false,
    "tech_change_status": "Not Planned"
   }
  },
  {
   "type": "Feature",
   "geometry": {
    "type": "Point",
    "coordinates": [
     116.44722056,
     -30.70764928
    ]
   },
   "properties": {
    "name": "310 TUCKS ROAD GABALONG 6574",
    "locID": "LOC000064608134",
    "tech": "NULL",
    "upgrade": "NULL_NA",
    "gnaf_pid": "GAWA_162270785",
    "ee": false,
    "tech_change_status": "Not Planned"
   }
  },
  {
   "type": "Feature",
   "geometry": {
    "type": "Point",
    "coordinates": [
     116.349611,
     -30.712562
    ]
   },
   "properties": {
    "name": "142 CLARKE ROAD GABALONG 6574",
    "locID": "LOC000026998366",
    "tech": "NULL",
    "upgrade": "NULL_NA",
    "gnaf_pid": "GAWA_162276475",
    "ee": false,
    "tech_change_status": "Not Planned"
   }
  },
  {
   "type": "Feature",
   "geometry": {
    "type": "Point",
    "coordinates": [
     116.329631,
     -30.731927
    ]
   },
   "properties": {
    "name": "893 GABALONG WEST ROAD GABALONG 6574",
    "locID": "LOC000090281132",
    "tech": "SATELLITE",
    "upgrade": "NULL_NA",
    "gnaf_pid": "GAWA_162277138",
    "ee": false,
    "tech_change_status": "Not Planned"
   }
  }
 ]
}