{
 "type": "FeatureCollection",
 "generated": "2025-06-19T02:09:30.197157",
 "suburb": "GAP RIDGE",
 "features": [
  {
   "type": "Feature",
   "geometry": {
    "type": "Point",
    "coordinates": [
     116.80964221,
     -20.73115709
    ]
   },
   "properties": {
    "name": "LOT 4689 BALMORAL ROAD GAP RIDGE 6714",
    "locID": "LOC000086421266",
    "tech": "FTTN",
    "upgrade": "NULL_NA",
    "gnaf_pid": "GAWA_161524259",
    "ee": true,
    "tech_change_status": "Not Planned"
   }
  },
  {
   "type": "Feature",
   "geometry": {
    "type": "Point",
    "coordinates": [
     116.79117244,
     -20.7077781
    ]
   },
   "properties": {
    "name": "LOT 100 BAYLY AVENUE GAP RIDGE 6714",
    "locID": "LOC000183062242",
    "tech": "SATELLITE",
    "upgrade": "NULL_NA",
    "gnaf_pid": "GAWA_161525394",
    "ee": true,
    "tech_change_status": "Not Planned"
   }
  },
  {
   "type": "Feature",
   "geometry": {
    "type": "Point",
    "coordinates": [
     116.77369,
     -20.70748
    ]
   },
   "properties": {
    "name": "LOT 4923 NORMAN ROAD GAP RIDGE 6714",
    "locID": "LOC000108260678",
    "tech": "NULL",
    "upgrade": "NULL_NA",
    "gnaf_pid": "GAWA_161568581",
    "ee": true,
    "tech_change_status": "Not Planned"
   }
  },
  {
   "type": "Feature",
   "geometry": {
    "type": "Point",
    "coordinates": [
     116.76936874,
     -20.70746087
    ]
   },
   "properties": {
    "name": "1 COOK CLOSE GAP RIDGE 6714",
    "locID": "LOC000084098957",
    "tech": "NULL",
    "upgrade": "NULL_NA",
    "gnaf_pid": "GAWA_162694790",
    "ee": true,
    "tech_change_status": "Not Planned"
   }
  },
  {
   "type": "Feature",
   "geometry": {
    "type": "Point",
    "coordinates": [
     116.79487539,
     -20.70970992
    ]
   },
   "properties": {
    "name": "LOT 4229 BAYLY AVENUE GAP RIDGE 6714",
    "locID": "LOC000183062242",
    "tech": "SATELLITE",
    "upgrade": "NULL_NA",
    "gnaf_pid": "GAWA_162773490",
    "ee": true,
    "tech_change_status": "Not Planned"
   }
  },
  {
   "type": "Feature",
   "geometry": {
    "type": "Point",
    "coordinates": [
     116.77279538,
     -20.7084268
    ]
   },
   "properties": {
    "name": "LOT 86 BAYLY AVENUE GAP RIDGE 6714",
    "locID": "LOC000108705276",
    "tech": "NULL",
    "upgrade": "NULL_NA",
    "gnaf_pid": "GAWA_162773491",
    "ee": true,
    "tech_change_status": "Not Planned"
   }
  },
  {
   "type": "Feature",
   "geometry": {
    "type": "Point",
    "coordinates": [
     116.7675947,
     -20.70831517
    ]
   },
   "properties": {
    "name": "LOT 99 BAYLY AVENUE GAP RIDGE 6714",
    "locID": "LOC000183062242",
    "tech": "SATELLITE",
    "upgrade": "NULL_NA",
    "gnaf_pid": "GAWA_162773492",
    "ee": true,
    "tech_change_status": "Not Planned"
   }
  },
  {
   "type": "Feature",
   "geometry": {
    "type": "Point",
    "coordinates": [
     116.77440126,
     -20.73815373
    ]
   },
   "properties": {
    "name": "LOT 4599 DAMPIER ROAD GAP RIDGE 6714",
    "locID": "LOC000107803709",
    "tech": "SATELLITE",
    "upgrade": "NULL_NA",
    "gnaf_pid": "GAWA_162781300",
    "ee": true,
    "tech_change_status": "Not Planned"
   }
  },
  {
   "type": "Feature",
   "geometry": {
    "type": "Point",
    "coordinates": [
     116.75874569,
     -20.71984667
    ]
   },
   "properties": {
    "name": "LOT 652 DAMPIER ROAD GAP RIDGE 6714",
    "locID": "LOC000133549001",
    "tech": "SATELLITE",
    "upgrade": "NULL_NA",
    "gnaf_pid": "GAWA_162781301",
    "ee": true,
    "tech_change_status": "Not Planned"
   }
  },
  {
   "type": "Feature",
   "geometry": {
    "type": "Point",
    "coordinates": [
     116.7660185,
     -20.70870971
    ]
   },
   "properties": {
    "name": "LOT 27 BAYLY AVENUE GAP RIDGE 6714",
    "locID": "LOC000183062242",
    "tech": "SATELLITE",
    "upgrade": "NULL_NA",
    "gnaf_pid": "GAWA_162835780",
    "ee": true,
    "tech_change_status": "Not Planned"
   }
  },
  {
   "type": "Feature",
   "geometry": {
    "type": "Point",
    "coordinates": [
     116.7660185,
     -20.70870971
    ]
   },
   "properties": {
    "name": "LOT 96 BAYLY AVENUE GAP RIDGE 6714",
    "locID": "LOC000183062242",
    "tech": "SATELLITE",
    "upgrade": "NULL_NA",
    "gnaf_pid": "GAWA_162835781",
    "ee": true,
    "tech_change_status": "Not Planned"
   }
  },
  {
   "type": "Feature",
   "geometry": {
    "type": "Point",
    "coordinates": [
     116.7660185,
     -20.70870971
    ]
   },
   "properties": {
    "name": "LOT 5 BAYLY AVENUE GAP RIDGE 6714",
    "locID": "LOC000183062242",
    "tech": "SATELLITE",
    "upgrade": "NULL_NA",
    "gnaf_pid": "GAWA_163053643",
    "ee": true,
    "tech_change_status": "Not Planned"
   }
  },
  {
   "type": "Feature",
   "geometry": {
    "type": "Point",
    "coordinates": [
     116.77112167,
     -20.71161079
    ]
   },
   "properties": {
    "name": "LOT 300 BAYLY AVENUE GAP RIDGE 6714",
    "locID": "LOC000183062242",
    "tech": "SATELLITE",
    "upgrade": "NULL_NA",
    "gnaf_pid": "GAWA_718249576",
    "ee": true,
    "tech_change_status": "Not Planned"
   }
  },
  {
   "type": "Feature",
   "geometry": {
    "type": "Point",
    "coordinates": [
     116.78340019,
     -20.76385741
    ]
   },
   "properties": {
    "name": "LOT 122 MADIGAN ROAD GAP RIDGE 6714",
    "locID": "LOC000145835350",
    "tech": "FTTN",
    "upgrade": "NULL_NA",
    "gnaf_pid": "GAWA_718253277",
    "ee": true,
    "tech_change_status": "Not Planned"
   }
  },
  {
   "type": "Feature",
   "geometry": {
    "type": "Point",
    "coordinates": [
     116.7663847,
     -20.74783692
    ]
   },
   "properties": {
    "name": "LOT 102 EXPLORATION DRIVE GAP RIDGE 6714",
    "locID": "LOC000117604322",
    "tech": "FTTP",
    "upgrade": "NULL_NA",
    "gnaf_pid": "GAWA_718296732",
    "ee": true
   }
  },
  {
   "type": "Feature",
   "geometry": {
    "type": "Point",
    "coordinates": [
     116.76656047,
     -20.74928312
    ]
   },
   "properties": {
    "name": "LOT 103 EXPLORATION DRIVE GAP RIDGE 6714",
    "locID": "LOC000117604333",
    "tech": "FTTP",
    "upgrade": "NULL_NA",
    "gnaf_pid": "GAWA_718296733",
    "ee": true
   }
  },
  {
   "type": "Feature",
   "geometry": {
    "type": "Point",
    "coordinates": [
     116.76669555,
     -20.75047513
    ]
   },
   "properties": {
    "name": "LOT 104 EXPLORATION DRIVE GAP RIDGE 6714",
    "locID": "LOC000117604351",
    "tech": "FTTP",
    "upgrade": "NULL_NA",
    "gnaf_pid": "GAWA_718296734",
    "ee": true
   }
  },
  {
   "type": "Feature",
   "geometry": {
    "type": "Point",
    "coordinates": [
     116.76669815,
     -20.75219979
    ]
   },
   "properties": {
    "name": "LOT 105 EXPLORATION DRIVE GAP RIDGE 6714",
    "locID": "LOC000117605425",
    "tech": "FTTP",
    "upgrade": "NULL_NA",
    "gnaf_pid": "GAWA_718296735",
    "ee": true
   }
  },
  {
   "type": "Feature",
   "geometry": {
    "type": "Point",
    "coordinates": [
     116.76663137,
     -20.75399334
    ]
   },
   "properties": {
    "name": "LOT 106 EXPLORATION DRIVE GAP RIDGE 6714",
    "locID": "LOC000117605439",
    "tech": "FTTP",
    "upgrade": "NULL_NA",
    "gnaf_pid": "GAWA_718296736",
    "ee": true
   }
  },
  {
   "type": "Feature",
   "geometry": {
    "type": "Point",
    "coordinates": [
     116.76655946,
     -20.75593171
    ]
   },
   "properties": {
    "name": "LOT 107 EXPLORATION DRIVE GAP RIDGE 6714",
    "locID": "LOC000142040541",
    "tech": "FTTP",
    "upgrade": "NULL_NA",
    "gnaf_pid": "GAWA_718296737",
    "ee": true
   }
  },
  {
   "type": "Feature",
   "geometry": {
    "type": "Point",
    "coordinates": [
     116.76645845,
     -20.75860829
    ]
   },
   "properties": {
    "name": "LOT 108 EXPLORATION DRIVE GAP RIDGE 6714",
    "locID": "LOC000117605456",
    "tech": "FTTP",
    "upgrade": "NULL_NA",
    "gnaf_pid": "GAWA_718296738",
    "ee": true
   }
  },
  {
   "type": "Feature",
   "geometry": {
    "type": "Point",
    "coordinates": [
     116.76361061,
     -20.73797594
    ]
   },
   "properties": {
    "name": "LOT 2 EXPLORATION DRIVE GAP RIDGE 6714",
    "locID": "LOC000117604224",
    "tech": "FTTP",
    "upgrade": "NULL_NA",
    "gnaf_pid": "GAWA_718296749",
    "ee": true
   }
  },
  {
   "type": "Feature",
   "geometry": {
    "type": "Point",
    "coordinates": [
     116.76680367,
     -20.74513664
    ]
   },
   "properties": {
    "name": "LOT 38 EXPLORATION DRIVE GAP RIDGE 6714",
    "locID": "LOC000117604627",
    "tech": "FTTP",
    "upgrade": "NULL_NA",
    "gnaf_pid": "GAWA_718296750",
    "ee": true
   }
  },
  {
   "type": "Feature",
   "geometry": {
    "type": "Point",
    "coordinates": [
     116.76695099,
     -20.74551437
    ]
   },
   "properties": {
    "name": "LOT 39 EXPLORATION DRIVE GAP RIDGE 6714",
    "locID": "LOC000117604636",
    "tech": "FTTP",
    "upgrade": "NULL_NA",
    "gnaf_pid": "GAWA_718296751",
    "ee": true
   }
  },
  {
   "type": "Feature",
   "geometry": {
    "type": "Point",
    "coordinates": [
     116.76344245,
     -20.7387273
    ]
   },
   "properties": {
    "name": "LOT 3 EXPLORATION DRIVE GAP RIDGE 6714",
    "locID": "LOC000117604253",
    "tech": "FTTP",
    "upgrade": "NULL_NA",
    "gnaf_pid": "GAWA_718296752",
    "ee": true
   }
  },
  {
   "type": "Feature",
   "geometry": {
    "type": "Point",
    "coordinates": [
     116.76711401,
     -20.74590052
    ]
   },
   "properties": {
    "name": "LOT 40 EXPLORATION DRIVE GAP RIDGE 6714",
    "locID": "LOC000117604658",
    "tech": "FTTP",
    "upgrade": "NULL_NA",
    "gnaf_pid": "GAWA_718296753",
    "ee": true
   }
  },
  {
   "type": "Feature",
   "geometry": {
    "type": "Point",
    "coordinates": [
     116.7672869,
     -20.7462832
    ]
   },
   "properties": {
    "name": "LOT 41 EXPLORATION DRIVE GAP RIDGE 6714",
    "locID": "LOC000117604662",
    "tech": "FTTP",
    "upgrade": "NULL_NA",
    "gnaf_pid": "GAWA_718296754",
    "ee": true
   }
  },
  {
   "type": "Feature",
   "geometry": {
    "type": "Point",
    "coordinates": [
     116.76331128,
     -20.73940735
    ]
   },
   "properties": {
    "name": "LOT 4 EXPLORATION DRIVE GAP RIDGE 6714",
    "locID": "LOC000117604269",
    "tech": "FTTP",
    "upgrade": "NULL_NA",
    "gnaf_pid": "GAWA_718296755",
    "ee": true
   }
  },
  {
   "type": "Feature",
   "geometry": {
    "type": "Point",
    "coordinates": [
     116.76761124,
     -20.74705336
    ]
   },
   "properties": {
    "name": "LOT 50 EXPLORATION DRIVE GAP RIDGE 6714",
    "locID": "LOC000117604380",
    "tech": "FTTP",
    "upgrade": "NULL_NA",
    "gnaf_pid": "GAWA_718296756",
    "ee": true
   }
  },
  {
   "type": "Feature",
   "geometry": {
    "type": "Point",
    "coordinates": [
     116.76778292,
     -20.74748501
    ]
   },
   "properties": {
    "name": "LOT 51 EXPLORATION DRIVE GAP RIDGE 6714",
    "locID": "LOC000117604398",
    "tech": "FTTP",
    "upgrade": "NULL_NA",
    "gnaf_pid": "GAWA_718296757",
    "ee": true
   }
  },
  {
   "type": "Feature",
   "geometry": {
    "type": "Point",
    "coordinates": [
     116.76796897,
     -20.74792572
    ]
   },
   "properties": {
    "name": "LOT 52 EXPLORATION DRIVE GAP RIDGE 6714",
    "locID": "LOC000117604367",
    "tech": "FTTP",
    "upgrade": "NULL_NA",
    "gnaf_pid": "GAWA_718296758",
    "ee": true
   }
  },
  {
   "type": "Feature",
   "geometry": {
    "type": "Point",
    "coordinates": [
     116.76816205,
     -20.74835905
    ]
   },
   "properties": {
    "name": "LOT 53 EXPLORATION DRIVE GAP RIDGE 6714",
    "locID": "LOC000117604379",
    "tech": "FTTP",
    "upgrade": "NULL_NA",
    "gnaf_pid": "GAWA_718296759",
    "ee": true
   }
  },
  {
   "type": "Feature",
   "geometry": {
    "type": "Point",
    "coordinates": [
     116.76329449,
     -20.74016403
    ]
   },
   "properties": {
    "name": "LOT 5 EXPLORATION DRIVE GAP RIDGE 6714",
    "locID": "LOC000117604282",
    "tech": "FTTP",
    "upgrade": "NULL_NA",
    "gnaf_pid": "GAWA_718296760",
    "ee": true
   }
  },
  {
   "type": "Feature",
   "geometry": {
    "type": "Point",
    "coordinates": [
     116.76346146,
     -20.7408791
    ]
   },
   "properties": {
    "name": "LOT 6 EXPLORATION DRIVE GAP RIDGE 6714",
    "locID": "LOC000117604295",
    "tech": "FTTP",
    "upgrade": "NULL_NA",
    "gnaf_pid": "GAWA_718296761",
    "ee": true
   }
  },
  {
   "type": "Feature",
   "geometry": {
    "type": "Point",
    "coordinates": [
     116.76363919,
     -20.74158823
    ]
   },
   "properties": {
    "name": "LOT 7 EXPLORATION DRIVE GAP RIDGE 6714",
    "locID": "LOC000117604305",
    "tech": "FTTP",
    "upgrade": "NULL_NA",
    "gnaf_pid": "GAWA_718296762",
    "ee": true
   }
  },
  {
   "type": "Feature",
   "geometry": {
    "type": "Point",
    "coordinates": [
     116.76478208,
     -20.75356121
    ]
   },
   "properties": {
    "name": "LOT 8006 EXPLORATION DRIVE GAP RIDGE 6714",
    "locID": "LOC000117604305",
    "tech": "FTTP",
    "upgrade": "NULL_NA",
    "gnaf_pid": "GAWA_718296763",
    "ee": true
   }
  },
  {
   "type": "Feature",
   "geometry": {
    "type": "Point",
    "coordinates": [
     116.76374656,
     -20.73747697
    ]
   },
   "properties": {
    "name": "LOT 8011 EXPLORATION DRIVE GAP RIDGE 6714",
    "locID": "LOC000117604305",
    "tech": "FTTP",
    "upgrade": "NULL_NA",
    "gnaf_pid": "GAWA_718296764",
    "ee": true
   }
  },
  {
   "type": "Feature",
   "geometry": {
    "type": "Point",
    "coordinates": [
     116.76567002,
     -20.74538575
    ]
   },
   "properties": {
    "name": "LOT 8012 EXPLORATION DRIVE GAP RIDGE 6714",
    "locID": "LOC000117604305",
    "tech": "FTTP",
    "upgrade": "NULL_NA",
    "gnaf_pid": "GAWA_718296765",
    "ee": true
   }
  },
  {
   "type": "Feature",
   "geometry": {
    "type": "Point",
    "coordinates": [
     116.76388829,
     -20.74232136
    ]
   },
   "properties": {
    "name": "LOT 8 EXPLORATION DRIVE GAP RIDGE 6714",
    "locID": "LOC000117604314",
    "tech": "FTTP",
    "upgrade": "NULL_NA",
    "gnaf_pid": "GAWA_718296766",
    "ee": true
   }
  },
  {
   "type": "Feature",
   "geometry": {
    "type": "Point",
    "coordinates": [
     116.76473524,
     -20.73985094
    ]
   },
   "properties": {
    "name": "LOT 201 EXPLORATION DRIVE GAP RIDGE 6714",
    "locID": "LOC000117605332",
    "tech": "FTTP",
    "upgrade": "NULL_NA",
    "gnaf_pid": "GAWA_718449341",
    "ee": true
   }
  },
  {
   "type": "Feature",
   "geometry": {
    "type": "Point",
    "coordinates": [
     116.76609208,
     -20.74306629
    ]
   },
   "properties": {
    "name": "LOT 203 EXPLORATION DRIVE GAP RIDGE 6714",
    "locID": "LOC000117605223",
    "tech": "FTTP",
    "upgrade": "NULL_NA",
    "gnaf_pid": "GAWA_718449343",
    "ee": true
   }
  },
  {
   "type": "Feature",
   "geometry": {
    "type": "Point",
    "coordinates": [
     116.76747539,
     -20.74510467
    ]
   },
   "properties": {
    "name": "LOT 49 BASALT WAY GAP RIDGE 6714",
    "locID": "LOC000117605089",
    "tech": "FTTP",
    "upgrade": "NULL_NA",
    "gnaf_pid": "GAWA_718482789",
    "ee": true
   }
  },
  {
   "type": "Feature",
   "geometry": {
    "type": "Point",
    "coordinates": [
     116.76429871,
     -20.7615981
    ]
   },
   "properties": {
    "name": "LOT 109 BEDROCK TURN GAP RIDGE 6714",
    "locID": "LOC000117606884",
    "tech": "FTTP",
    "upgrade": "NULL_NA",
    "gnaf_pid": "GAWA_718482892",
    "ee": true
   }
  },
  {
   "type": "Feature",
   "geometry": {
    "type": "Point",
    "coordinates": [
     116.76779966,
     -20.74587278
    ]
   },
   "properties": {
    "name": "LOT 42 IRON WAY GAP RIDGE 6714",
    "locID": "LOC000117604691",
    "tech": "FTTP",
    "upgrade": "NULL_NA",
    "gnaf_pid": "GAWA_718484967",
    "ee": true
   }
  },
  {
   "type": "Feature",
   "geometry": {
    "type": "Point",
    "coordinates": [
     116.76859917,
     -20.74693467
    ]
   },
   "properties": {
    "name": "LOT 64 IRON WAY GAP RIDGE 6714",
    "locID": "LOC000117604754",
    "tech": "FTTP",
    "upgrade": "NULL_NA",
    "gnaf_pid": "GAWA_718484968",
    "ee": true
   }
  },
  {
   "type": "Feature",
   "geometry": {
    "type": "Point",
    "coordinates": [
     116.76827796,
     -20.74705469
    ]
   },
   "properties": {
    "name": "LOT 65 IRON WAY GAP RIDGE 6714",
    "locID": "LOC000117604765",
    "tech": "FTTP",
    "upgrade": "NULL_NA",
    "gnaf_pid": "GAWA_718484969",
    "ee": true
   }
  },
  {
   "type": "Feature",
   "geometry": {
    "type": "Point",
    "coordinates": [
     116.76365997,
     -20.73634061
    ]
   },
   "properties": {
    "name": "12 OXIDE LOOP GAP RIDGE 6714",
    "locID": "LOC000137161850",
    "tech": "FTTP",
    "upgrade": "NULL_NA",
    "gnaf_pid": "GAWA_718486289",
    "ee": true
   }
  },
  {
   "type": "Feature",
   "geometry": {
    "type": "Point",
    "coordinates": [
     116.76345046,
     -20.73714673
    ]
   },
   "properties": {
    "name": "13 OXIDE LOOP GAP RIDGE 6714",
    "locID": "LOC000137161706",
    "tech": "FTTP",
    "upgrade": "NULL_NA",
    "gnaf_pid": "GAWA_718486290",
    "ee": true
   }
  },
  {
   "type": "Feature",
   "geometry": {
    "type": "Point",
    "coordinates": [
     116.76288182,
     -20.73711637
    ]
   },
   "properties": {
    "name": "17 OXIDE LOOP GAP RIDGE 6714",
    "locID": "LOC000137161694",
    "tech": "FTTP",
    "upgrade": "NULL_NA",
    "gnaf_pid": "GAWA_718486291",
    "ee": true
   }
  },
  {
   "type": "Feature",
   "geometry": {
    "type": "Point",
    "coordinates": [
     116.76361317,
     -20.73596406
    ]
   },
   "properties": {
    "name": "18 OXIDE LOOP GAP RIDGE 6714",
    "locID": "LOC000137161845",
    "tech": "FTTP",
    "upgrade": "NULL_NA",
    "gnaf_pid": "GAWA_718486292",
    "ee": true
   }
  },
  {
   "type": "Feature",
   "geometry": {
    "type": "Point",
    "coordinates": [
     116.7645941,
     -20.7370537
    ]
   },
   "properties": {
    "name": "1 OXIDE LOOP GAP RIDGE 6714",
    "locID": "LOC000137161734",
    "tech": "FTTP",
    "upgrade": "NULL_NA",
    "gnaf_pid": "GAWA_718486293",
    "ee": true
   }
  },
  {
   "type": "Feature",
   "geometry": {
    "type": "Point",
    "coordinates": [
     116.762761,
     -20.73657689
    ]
   },
   "properties": {
    "name": "21 OXIDE LOOP GAP RIDGE 6714",
    "locID": "LOC000137161687",
    "tech": "FTTP",
    "upgrade": "NULL_NA",
    "gnaf_pid": "GAWA_718486294",
    "ee": true
   }
  },
  {
   "type": "Feature",
   "geometry": {
    "type": "Point",
    "coordinates": [
     116.763528,
     -20.73553902
    ]
   },
   "properties": {
    "name": "22 OXIDE LOOP GAP RIDGE 6714",
    "locID": "LOC000137161832",
    "tech": "FTTP",
    "upgrade": "NULL_NA",
    "gnaf_pid": "GAWA_718486295",
    "ee": true
   }
  },
  {
   "type": "Feature",
   "geometry": {
    "type": "Point",
    "coordinates": [
     116.76272508,
     -20.73621727
    ]
   },
   "properties": {
    "name": "25 OXIDE LOOP GAP RIDGE 6714",
    "locID": "LOC000137161673",
    "tech": "FTTP",
    "upgrade": "NULL_NA",
    "gnaf_pid": "GAWA_718486296",
    "ee": true
   }
  },
  {
   "type": "Feature",
   "geometry": {
    "type": "Point",
    "coordinates": [
     116.76268916,
     -20.73585764
    ]
   },
   "properties": {
    "name": "29 OXIDE LOOP GAP RIDGE 6714",
    "locID": "LOC000137161660",
    "tech": "FTTP",
    "upgrade": "NULL_NA",
    "gnaf_pid": "GAWA_718486297",
    "ee": true
   }
  },
  {
   "type": "Feature",
   "geometry": {
    "type": "Point",
    "coordinates": [
     116.76458265,
     -20.73609333
    ]
   },
   "properties": {
    "name": "2 OXIDE LOOP GAP RIDGE 6714",
    "locID": "LOC000137161878",
    "tech": "FTTP",
    "upgrade": "NULL_NA",
    "gnaf_pid": "GAWA_718486298",
    "ee": true
   }
  },
  {
   "type": "Feature",
   "geometry": {
    "type": "Point",
    "coordinates": [
     116.76398438,
     -20.73548501
    ]
   },
   "properties": {
    "name": "30 OXIDE LOOP GAP RIDGE 6714",
    "locID": "LOC000137161821",
    "tech": "FTTP",
    "upgrade": "NULL_NA",
    "gnaf_pid": "GAWA_718486299",
    "ee": true
   }
  },
  {
   "type": "Feature",
   "geometry": {
    "type": "Point",
    "coordinates": [
     116.76266827,
     -20.73547984
    ]
   },
   "properties": {
    "name": "33 OXIDE LOOP GAP RIDGE 6714",
    "locID": "LOC000137161656",
    "tech": "FTTP",
    "upgrade": "NULL_NA",
    "gnaf_pid": "GAWA_718486300",
    "ee": true
   }
  },
  {
   "type": "Feature",
   "geometry": {
    "type": "Point",
    "coordinates": [
     116.76435661,
     -20.73536457
    ]
   },
   "properties": {
    "name": "34 OXIDE LOOP GAP RIDGE 6714",
    "locID": "LOC000137161813",
    "tech": "FTTP",
    "upgrade": "NULL_NA",
    "gnaf_pid": "GAWA_718486301",
    "ee": true
   }
  },
  {
   "type": "Feature",
   "geometry": {
    "type": "Point",
    "coordinates": [
     116.76474263,
     -20.73500381
    ]
   },
   "properties": {
    "name": "38 OXIDE LOOP GAP RIDGE 6714",
    "locID": "LOC000137161809",
    "tech": "FTTP",
    "upgrade": "NULL_NA",
    "gnaf_pid": "GAWA_718486302",
    "ee": true
   }
  },
  {
   "type": "Feature",
   "geometry": {
    "type": "Point",
    "coordinates": [
     116.76485914,
     -20.73528064
    ]
   },
   "properties": {
    "name": "42 OXIDE LOOP GAP RIDGE 6714",
    "locID": "LOC000137161799",
    "tech": "FTTP",
    "upgrade": "NULL_NA",
    "gnaf_pid": "GAWA_718486303",
    "ee": true
   }
  },
  {
   "type": "Feature",
   "geometry": {
    "type": "Point",
    "coordinates": [
     116.76496483,
     -20.73556152
    ]
   },
   "properties": {
    "name": "46 OXIDE LOOP GAP RIDGE 6714",
    "locID": "LOC000137161781",
    "tech": "FTTP",
    "upgrade": "NULL_NA",
    "gnaf_pid": "GAWA_718486304",
    "ee": true
   }
  },
  {
   "type": "Feature",
   "geometry": {
    "type": "Point",
    "coordinates": [
     116.76507044,
     -20.73584253
    ]
   },
   "properties": {
    "name": "50 OXIDE LOOP GAP RIDGE 6714",
    "locID": "LOC000137161775",
    "tech": "FTTP",
    "upgrade": "NULL_NA",
    "gnaf_pid": "GAWA_718486305",
    "ee": true
   }
  },
  {
   "type": "Feature",
   "geometry": {
    "type": "Point",
    "coordinates": [
     116.76517056,
     -20.73612697
    ]
   },
   "properties": {
    "name": "54 OXIDE LOOP GAP RIDGE 6714",
    "locID": "LOC000137161768",
    "tech": "FTTP",
    "upgrade": "NULL_NA",
    "gnaf_pid": "GAWA_718486306",
    "ee": true
   }
  },
  {
   "type": "Feature",
   "geometry": {
    "type": "Point",
    "coordinates": [
     116.76421516,
     -20.73707884
    ]
   },
   "properties": {
    "name": "5 OXIDE LOOP GAP RIDGE 6714",
    "locID": "LOC000137161723",
    "tech": "FTTP",
    "upgrade": "NULL_NA",
    "gnaf_pid": "GAWA_718486307",
    "ee": true
   }
  },
  {
   "type": "Feature",
   "geometry": {
    "type": "Point",
    "coordinates": [
     116.76576289,
     -20.73679027
    ]
   },
   "properties": {
    "name": "71 OXIDE LOOP GAP RIDGE 6714",
    "locID": "LOC000137161752",
    "tech": "FTTP",
    "upgrade": "NULL_NA",
    "gnaf_pid": "GAWA_718486308",
    "ee": true
   }
  },
  {
   "type": "Feature",
   "geometry": {
    "type": "Point",
    "coordinates": [
     116.76533243,
     -20.73693861
    ]
   },
   "properties": {
    "name": "73 OXIDE LOOP GAP RIDGE 6714",
    "locID": "LOC000137161747",
    "tech": "FTTP",
    "upgrade": "NULL_NA",
    "gnaf_pid": "GAWA_718486309",
    "ee": true
   }
  },
  {
   "type": "Feature",
   "geometry": {
    "type": "Point",
    "coordinates": [
     116.7641537,
     -20.73616418
    ]
   },
   "properties": {
    "name": "8 OXIDE LOOP GAP RIDGE 6714",
    "locID": "LOC000137161866",
    "tech": "FTTP",
    "upgrade": "NULL_NA",
    "gnaf_pid": "GAWA_718486310",
    "ee": true
   }
  },
  {
   "type": "Feature",
   "geometry": {
    "type": "Point",
    "coordinates": [
     116.76383288,
     -20.73711289
    ]
   },
   "properties": {
    "name": "9 OXIDE LOOP GAP RIDGE 6714",
    "locID": "LOC000137161710",
    "tech": "FTTP",
    "upgrade": "NULL_NA",
    "gnaf_pid": "GAWA_718486311",
    "ee": true
   }
  },
  {
   "type": "Feature",
   "geometry": {
    "type": "Point",
    "coordinates": [
     116.76294298,
     -20.7687463
    ]
   },
   "properties": {
    "name": "LOT 553 PINDAN ROAD GAP RIDGE 6714",
    "locID": "LOC000117606930",
    "tech": "FTTP",
    "upgrade": "NULL_NA",
    "gnaf_pid": "GAWA_718486421",
    "ee": true
   }
  },
  {
   "type": "Feature",
   "geometry": {
    "type": "Point",
    "coordinates": [
     116.76332768,
     -20.76289216
    ]
   },
   "properties": {
    "name": "LOT 8010 PINDAN ROAD GAP RIDGE 6714",
    "locID": "LOC000117606930",
    "tech": "FTTP",
    "upgrade": "NULL_NA",
    "gnaf_pid": "GAWA_718486422",
    "ee": true
   }
  },
  {
   "type": "Feature",
   "geometry": {
    "type": "Point",
    "coordinates": [
     116.76739504,
     -20.74173709
    ]
   },
   "properties": {
    "name": "LOT 1002 RESOURCE ROAD GAP RIDGE 6714",
    "locID": "LOC000117606464",
    "tech": "FTTP",
    "upgrade": "NULL_NA",
    "gnaf_pid": "GAWA_718486604",
    "ee": true
   }
  },
  {
   "type": "Feature",
   "geometry": {
    "type": "Point",
    "coordinates": [
     116.76482065,
     -20.73893172
    ]
   },
   "properties": {
    "name": "LOT 10 RESOURCE ROAD GAP RIDGE 6714",
    "locID": "LOC000117606464",
    "tech": "FTTP",
    "upgrade": "NULL_NA",
    "gnaf_pid": "GAWA_718486605",
    "ee": true
   }
  },
  {
   "type": "Feature",
   "geometry": {
    "type": "Point",
    "coordinates": [
     116.76523003,
     -20.73910226
    ]
   },
   "properties": {
    "name": "LOT 11 RESOURCE ROAD GAP RIDGE 6714",
    "locID": "LOC000117606486",
    "tech": "FTTP",
    "upgrade": "NULL_NA",
    "gnaf_pid": "GAWA_718486606",
    "ee": true
   }
  },
  {
   "type": "Feature",
   "geometry": {
    "type": "Point",
    "coordinates": [
     116.76754105,
     -20.74344676
    ]
   },
   "properties": {
    "name": "LOT 2000 RESOURCE ROAD GAP RIDGE 6714",
    "locID": "LOC000136693853",
    "tech": "FTTP",
    "upgrade": "NULL_NA",
    "gnaf_pid": "GAWA_718486607",
    "ee": true
   }
  },
  {
   "type": "Feature",
   "geometry": {
    "type": "Point",
    "coordinates": [
     116.76721416,
     -20.74264728
    ]
   },
   "properties": {
    "name": "LOT 29 RESOURCE ROAD GAP RIDGE 6714",
    "locID": "LOC000117606486",
    "tech": "FTTP",
    "upgrade": "NULL_NA",
    "gnaf_pid": "GAWA_718486608",
    "ee": true
   }
  },
  {
   "type": "Feature",
   "geometry": {
    "type": "Point",
    "coordinates": [
     116.76704056,
     -20.74221995
    ]
   },
   "properties": {
    "name": "LOT 30 RESOURCE ROAD GAP RIDGE 6714",
    "locID": "LOC000117606472",
    "tech": "FTTP",
    "upgrade": "NULL_NA",
    "gnaf_pid": "GAWA_718486609",
    "ee": true
   }
  },
  {
   "type": "Feature",
   "geometry": {
    "type": "Point",
    "coordinates": [
     116.76676391,
     -20.74157121
    ]
   },
   "properties": {
    "name": "LOT 31 RESOURCE ROAD GAP RIDGE 6714",
    "locID": "LOC000117606455",
    "tech": "FTTP",
    "upgrade": "NULL_NA",
    "gnaf_pid": "GAWA_718486610",
    "ee": true
   }
  },
  {
   "type": "Feature",
   "geometry": {
    "type": "Point",
    "coordinates": [
     116.76643822,
     -20.74071932
    ]
   },
   "properties": {
    "name": "LOT 33 RESOURCE ROAD GAP RIDGE 6714",
    "locID": "LOC000117606440",
    "tech": "FTTP",
    "upgrade": "NULL_NA",
    "gnaf_pid": "GAWA_718486611",
    "ee": true
   }
  },
  {
   "type": "Feature",
   "geometry": {
    "type": "Point",
    "coordinates": [
     116.76618574,
     -20.74008095
    ]
   },
   "properties": {
    "name": "LOT 35 RESOURCE ROAD GAP RIDGE 6714",
    "locID": "LOC000117606429",
    "tech": "FTTP",
    "upgrade": "NULL_NA",
    "gnaf_pid": "GAWA_718486612",
    "ee": true
   }
  },
  {
   "type": "Feature",
   "geometry": {
    "type": "Point",
    "coordinates": [
     116.76601502,
     -20.73965297
    ]
   },
   "properties": {
    "name": "LOT 36 RESOURCE ROAD GAP RIDGE 6714",
    "locID": "LOC000117606417",
    "tech": "FTTP",
    "upgrade": "NULL_NA",
    "gnaf_pid": "GAWA_718486613",
    "ee": true
   }
  },
  {
   "type": "Feature",
   "geometry": {
    "type": "Point",
    "coordinates": [
     116.76589797,
     -20.73914081
    ]
   },
   "properties": {
    "name": "LOT 37 RESOURCE ROAD GAP RIDGE 6714",
    "locID": "LOC000117605384",
    "tech": "FTTP",
    "upgrade": "NULL_NA",
    "gnaf_pid": "GAWA_718486614",
    "ee": true
   }
  },
  {
   "type": "Feature",
   "geometry": {
    "type": "Point",
    "coordinates": [
     116.76573249,
     -20.73802249
    ]
   },
   "properties": {
    "name": "LOT 9 RESOURCE ROAD GAP RIDGE 6714",
    "locID": "LOC000117605366",
    "tech": "FTTP",
    "upgrade": "NULL_NA",
    "gnaf_pid": "GAWA_718486615",
    "ee": true
   }
  },
  {
   "type": "Feature",
   "geometry": {
    "type": "Point",
    "coordinates": [
     116.76716178,
     -20.73962909
    ]
   },
   "properties": {
    "name": "LOT 8002 STEEL AVENUE GAP RIDGE 6714",
    "locID": "LOC000191908571",
    "tech": "FTTP",
    "upgrade": "NULL_NA",
    "gnaf_pid": "GAWA_718487111",
    "ee": true
   }
  },
  {
   "type": "Feature",
   "geometry": {
    "type": "Point",
    "coordinates": [
     116.77233834,
     -20.7478444
    ]
   },
   "properties": {
    "name": "LOT 8003 STEEL AVENUE GAP RIDGE 6714",
    "locID": "LOC000191908571",
    "tech": "FTTP",
    "upgrade": "NULL_NA",
    "gnaf_pid": "GAWA_718487112",
    "ee": true
   }
  },
  {
   "type": "Feature",
   "geometry": {
    "type": "Point",
    "coordinates": [
     116.76652595,
     -20.74407159
    ]
   },
   "properties": {
    "name": "LOT 205 BASALT WAY GAP RIDGE 6714",
    "locID": "LOC000117605015",
    "tech": "FTTP",
    "upgrade": "NULL_NA",
    "gnaf_pid": "GAWA_718520168",
    "ee": true
   }
  },
  {
   "type": "Feature",
   "geometry": {
    "type": "Point",
    "coordinates": [
     116.76415524,
     -20.76507923
    ]
   },
   "properties": {
    "name": "LOT 117 BEDROCK TURN GAP RIDGE 6714",
    "locID": "LOC000175032623",
    "tech": "FTTP",
    "upgrade": "NULL_NA",
    "gnaf_pid": "GAWA_718520225",
    "ee": true
   }
  },
  {
   "type": "Feature",
   "geometry": {
    "type": "Point",
    "coordinates": [
     116.78472907,
     -20.74948231
    ]
   },
   "properties": {
    "name": "42 MADIGAN ROAD GAP RIDGE 6714",
    "locID": "LOC000145834419",
    "tech": "FTTN",
    "upgrade": "NULL_NA",
    "gnaf_pid": "GAWA_718788753",
    "ee": true,
    "tech_change_status": "Not Planned"
   }
  },
  {
   "type": "Feature",
   "geometry": {
    "type": "Point",
    "coordinates": [
     116.78522493,
     -20.75307033
    ]
   },
   "properties": {
    "name": "72 MADIGAN ROAD GAP RIDGE 6714",
    "locID": "LOC000145835350",
    "tech": "FTTN",
    "upgrade": "NULL_NA",
    "gnaf_pid": "GAWA_718788754",
    "ee": true,
    "tech_change_status": "Not Planned"
   }
  },
  {
   "type": "Feature",
   "geometry": {
    "type": "Point",
    "coordinates": [
     116.7660185,
     -20.70870971
    ]
   },
   "properties": {
    "name": "LOT 267 BAYLY AVENUE GAP RIDGE 6714",
    "locID": "LOC000183062242",
    "tech": "SATELLITE",
    "upgrade": "NULL_NA",
    "gnaf_pid": "GAWA_719503264",
    "ee": true,
    "tech_change_status": "Not Planned"
   }
  },
  {
   "type": "Feature",
   "geometry": {
    "type": "Point",
    "coordinates": [
     116.78692234,
     -20.74717971
    ]
   },
   "properties": {
    "name": "8 CORRINGER AVENUE GAP RIDGE 6714",
    "locID": "LOC000153729314",
    "tech": "FTTP",
    "upgrade": "NULL_NA",
    "gnaf_pid": "GAWA_720642430",
    "ee": true
   }
  },
  {
   "type": "Feature",
   "geometry": {
    "type": "Point",
    "coordinates": [
     116.76383288,
     -20.73711289
    ]
   },
   "properties": {
    "name": "UNIT 7, 9 OXIDE LOOP GAP RIDGE 6714",
    "locID": "LOC000137161710",
    "tech": "FTTP",
    "upgrade": "NULL_NA",
    "gnaf_pid": "GAWA_721194052",
    "ee": true
   }
  },
  {
   "type": "Feature",
   "geometry": {
    "type": "Point",
    "coordinates": [
     116.76383288,
     -20.73711289
    ]
   },
   "properties": {
    "name": "UNIT 12, 9 OXIDE LOOP GAP RIDGE 6714",
    "locID": "LOC000137161710",
    "tech": "FTTP",
    "upgrade": "NULL_NA",
    "gnaf_pid": "GAWA_721194159",
    "ee": true
   }
  },
  {
   "type": "Feature",
   "geometry": {
    "type": "Point",
    "coordinates": [
     116.76383288,
     -20.73711289
    ]
   },
   "properties": {
    "name": "UNIT 11, 9 OXIDE LOOP GAP RIDGE 6714",
    "locID": "LOC000137161710",
    "tech": "FTTP",
    "upgrade": "NULL_NA",
    "gnaf_pid": "GAWA_721194230",
    "ee": true
   }
  },
  {
   "type": "Feature",
   "geometry": {
    "type": "Point",
    "coordinates": [
     116.76383288,
     -20.73711289
    ]
   },
   "properties": {
    "name": "UNIT 5, 9 OXIDE LOOP GAP RIDGE 6714",
    "locID": "LOC000137161710",
    "tech": "FTTP",
    "upgrade": "NULL_NA",
    "gnaf_pid": "GAWA_721194410",
    "ee": true
   }
  },
  {
   "type": "Feature",
   "geometry": {
    "type": "Point",
    "coordinates": [
     116.76383288,
     -20.73711289
    ]
   },
   "properties": {
    "name": "UNIT 1, 9 OXIDE LOOP GAP RIDGE 6714",
    "locID": "LOC000137161710",
    "tech": "FTTP",
    "upgrade": "NULL_NA",
    "gnaf_pid": "GAWA_721194638",
    "ee": true
   }
  },
  {
   "type": "Feature",
   "geometry": {
    "type": "Point",
    "coordinates": [
     116.76383288,
     -20.73711289
    ]
   },
   "properties": {
    "name": "UNIT 6, 9 OXIDE LOOP GAP RIDGE 6714",
    "locID": "LOC000137161710",
    "tech": "FTTP",
    "upgrade": "NULL_NA",
    "gnaf_pid": "GAWA_721196046",
    "ee": true
   }
  },
  {
   "type": "Feature",
   "geometry": {
    "type": "Point",
    "coordinates": [
     116.76383288,
     -20.73711289
    ]
   },
   "properties": {
    "name": "UNIT 8, 9 OXIDE LOOP GAP RIDGE 6714",
    "locID": "LOC000137161710",
    "tech": "FTTP",
    "upgrade": "NULL_NA",
    "gnaf_pid": "GAWA_721196860",
    "ee": true
   }
  },
  {
   "type": "Feature",
   "geometry": {
    "type": "Point",
    "coordinates": [
     116.76383288,
     -20.73711289
    ]
   },
   "properties": {
    "name": "UNIT 10, 9 OXIDE LOOP GAP RIDGE 6714",
    "locID": "LOC000137161710",
    "tech": "FTTP",
    "upgrade": "NULL_NA",
    "gnaf_pid": "GAWA_721197092",
    "ee": true
   }
  },
  {
   "type": "Feature",
   "geometry": {
    "type": "Point",
    "coordinates": [
     116.76383288,
     -20.73711289
    ]
   },
   "properties": {
    "name": "UNIT 4, 9 OXIDE LOOP GAP RIDGE 6714",
    "locID": "LOC000137161710",
    "tech": "FTTP",
    "upgrade": "NULL_NA",
    "gnaf_pid": "GAWA_721197629",
    "ee": true
   }
  },
  {
   "type": "Feature",
   "geometry": {
    "type": "Point",
    "coordinates": [
     116.76383288,
     -20.73711289
    ]
   },
   "properties": {
    "name": "UNIT 16, 9 OXIDE LOOP GAP RIDGE 6714",
    "locID": "LOC000137161710",
    "tech": "FTTP",
    "upgrade": "NULL_NA",
    "gnaf_pid": "GAWA_721197890",
    "ee": true
   }
  },
  {
   "type": "Feature",
   "geometry": {
    "type": "Point",
    "coordinates": [
     116.76383288,
     -20.73711289
    ]
   },
   "properties": {
    "name": "UNIT 3, 9 OXIDE LOOP GAP RIDGE 6714",
    "locID": "LOC000137161710",
    "tech": "FTTP",
    "upgrade": "NULL_NA",
    "gnaf_pid": "GAWA_721197940",
    "ee": true
   }
  },
  {
   "type": "Feature",
   "geometry": {
    "type": "Point",
    "coordinates": [
     116.76383288,
     -20.73711289
    ]
   },
   "properties": {
    "name": "UNIT 13, 9 OXIDE LOOP GAP RIDGE 6714",
    "locID": "LOC000137161710",
    "tech": "FTTP",
    "upgrade": "NULL_NA",
    "gnaf_pid": "GAWA_721198143",
    "ee": true
   }
  },
  {
   "type": "Feature",
   "geometry": {
    "type": "Point",
    "coordinates": [
     116.76383288,
     -20.73711289
    ]
   },
   "properties": {
    "name": "UNIT 15, 9 OXIDE LOOP GAP RIDGE 6714",
    "locID": "LOC000137161710",
    "tech": "FTTP",
    "upgrade": "NULL_NA",
    "gnaf_pid": "GAWA_721198449",
    "ee": true
   }
  },
  {
   "type": "Feature",
   "geometry": {
    "type": "Point",
    "coordinates": [
     116.76383288,
     -20.73711289
    ]
   },
   "properties": {
    "name": "UNIT 9, 9 OXIDE LOOP GAP RIDGE 6714",
    "locID": "LOC000137161710",
    "tech": "FTTP",
    "upgrade": "NULL_NA",
    "gnaf_pid": "GAWA_721198466",
    "ee": true
   }
  },
  {
   "type": "Feature",
   "geometry": {
    "type": "Point",
    "coordinates": [
     116.76383288,
     -20.73711289
    ]
   },
   "properties": {
    "name": "UNIT 14, 9 OXIDE LOOP GAP RIDGE 6714",
    "locID": "LOC000137161710",
    "tech": "FTTP",
    "upgrade": "NULL_NA",
    "gnaf_pid": "GAWA_721198482",
    "ee": true
   }
  },
  {
   "type": "Feature",
   "geometry": {
    "type": "Point",
    "coordinates": [
     116.76383288,
     -20.73711289
    ]
   },
   "properties": {
    "name": "UNIT 2, 9 OXIDE LOOP GAP RIDGE 6714",
    "locID": "LOC000137161710",
    "tech": "FTTP",
    "upgrade": "NULL_NA",
    "gnaf_pid": "GAWA_721198664",
    "ee": true
   }
  }
 ]
}