{
 "type": "FeatureCollection",
 "generated": "2025-06-19T02:13:07.077711",
 "suburb": "GIBB",
 "features": [
  {
   "type": "Feature",
   "geometry": {
    "type": "Point",
    "coordinates": [
     126.43295485,
     -16.50781653
    ]
   },
   "properties": {
    "name": "LOT 350 DERBY-GIBB RIVER ROAD GIBB 6743",
    "locID": "LOC000152091582",
    "tech": "SATELLITE",
    "upgrade": "NULL_NA",
    "gnaf_pid": "GAWA_163239487",
    "ee": false,
    "tech_change_status": "Not Planned"
   }
  }
 ]
}