{
 "type": "FeatureCollection",
 "generated": "2025-06-19T02:14:07.800832",
 "suburb": "GIBSON DESERT SOUTH",
 "features": [
  {
   "type": "Feature",
   "geometry": {
    "type": "Point",
    "coordinates": [
     126.24296929,
     -24.59857955
    ]
   },
   "properties": {
    "name": "LOT 34 PATJARR ROAD GIBSON DESERT SOUTH 872",
    "locID": "LOC000189302630",
    "tech": "NULL",
    "upgrade": "NULL_NA",
    "gnaf_pid": "GAWA_720643030",
    "ee": false,
    "tech_change_status": "Not Planned"
   }
  }
 ]
}