{
 "type": "FeatureCollection",
 "generated": "2025-06-19T02:35:15.939919",
 "suburb": "GRASS PATCH",
 "features": [
  {
   "type": "Feature",
   "geometry": {
    "type": "Point",
    "coordinates": [
     121.71530344,
     -33.22653115
    ]
   },
   "properties": {
    "name": "LOT 78 TOWNSEND STREET GRASS PATCH 6446",
    "locID": "LOC000109585548",
    "tech": "NULL",
    "upgrade": "NULL_NA",
    "gnaf_pid": "GAWA_147263146",
    "ee": false,
    "tech_change_status": "Not Planned"
   }
  },
  {
   "type": "Feature",
   "geometry": {
    "type": "Point",
    "coordinates": [
     121.7035084,
     -33.24437686
    ]
   },
   "properties": {
    "name": "29650 COOLGARDIE-ESPERANCE HIGHWAY GRASS PATCH 6446",
    "locID": "LOC000133293501",
    "tech": "NULL",
    "upgrade": "NULL_NA",
    "gnaf_pid": "GAWA_147326865",
    "ee": false,
    "tech_change_status": "Not Planned"
   }
  },
  {
   "type": "Feature",
   "geometry": {
    "type": "Point",
    "coordinates": [
     121.71304,
     -33.14759
    ]
   },
   "properties": {
    "name": "LOT 36 LOGAN ROAD GRASS PATCH 6446",
    "locID": "LOC000148153785",
    "tech": "NULL",
    "upgrade": "NULL_NA",
    "gnaf_pid": "GAWA_161560350",
    "ee": false,
    "tech_change_status": "Not Planned"
   }
  },
  {
   "type": "Feature",
   "geometry": {
    "type": "Point",
    "coordinates": [
     121.71264034,
     -33.22949857
    ]
   },
   "properties": {
    "name": "LOT 77 SHEPHERD STREET GRASS PATCH 6446",
    "locID": "LOC000108105990",
    "tech": "NULL",
    "upgrade": "NULL_NA",
    "gnaf_pid": "GAWA_161580433",
    "ee": false,
    "tech_change_status": "Not Planned"
   }
  },
  {
   "type": "Feature",
   "geometry": {
    "type": "Point",
    "coordinates": [
     121.5945987,
     -33.36280618
    ]
   },
   "properties": {
    "name": "LOT 867 HAWKEY ROAD GRASS PATCH 6446",
    "locID": "LOC000109646112",
    "tech": "SATELLITE",
    "upgrade": "NULL_NA",
    "gnaf_pid": "GAWA_161602623",
    "ee": false,
    "tech_change_status": "Not Planned"
   }
  },
  {
   "type": "Feature",
   "geometry": {
    "type": "Point",
    "coordinates": [
     121.77769683,
     -33.3491231
    ]
   },
   "properties": {
    "name": "LOT 891 TRUSLOVE ROAD GRASS PATCH 6446",
    "locID": "LOC000191720922",
    "tech": "NULL",
    "upgrade": "NULL_NA",
    "gnaf_pid": "GAWA_161612301",
    "ee": false,
    "tech_change_status": "Not Planned"
   }
  },
  {
   "type": "Feature",
   "geometry": {
    "type": "Point",
    "coordinates": [
     121.63725131,
     -33.17600326
    ]
   },
   "properties": {
    "name": "LOT 103 SWAN LAGOON ROAD GRASS PATCH 6446",
    "locID": "LOC000109524888",
    "tech": "NULL",
    "upgrade": "NULL_NA",
    "gnaf_pid": "GAWA_162417855",
    "ee": false,
    "tech_change_status": "Not Planned"
   }
  },
  {
   "type": "Feature",
   "geometry": {
    "type": "Point",
    "coordinates": [
     121.71506365,
     -33.23184513
    ]
   },
   "properties": {
    "name": "LOT 33 GRASS PATCH ROAD GRASS PATCH 6446",
    "locID": "LOC000150288757",
    "tech": "SATELLITE",
    "upgrade": "NULL_NA",
    "gnaf_pid": "GAWA_162770711",
    "ee": false,
    "tech_change_status": "Not Planned"
   }
  },
  {
   "type": "Feature",
   "geometry": {
    "type": "Point",
    "coordinates": [
     121.55377894,
     -33.17623067
    ]
   },
   "properties": {
    "name": "LOT 281 BISHOPS ROAD GRASS PATCH 6446",
    "locID": "LOC000148370153",
    "tech": "NULL",
    "upgrade": "NULL_NA",
    "gnaf_pid": "GAWA_162774406",
    "ee": false,
    "tech_change_status": "Not Planned"
   }
  },
  {
   "type": "Feature",
   "geometry": {
    "type": "Point",
    "coordinates": [
     121.55059658,
     -33.2731846
    ]
   },
   "properties": {
    "name": "LOT 315 BISHOPS ROAD GRASS PATCH 6446",
    "locID": "LOC000148370153",
    "tech": "NULL",
    "upgrade": "NULL_NA",
    "gnaf_pid": "GAWA_162774407",
    "ee": false,
    "tech_change_status": "Not Planned"
   }
  },
  {
   "type": "Feature",
   "geometry": {
    "type": "Point",
    "coordinates": [
     121.54893851,
     -33.23654841
    ]
   },
   "properties": {
    "name": "LOT 316 BISHOPS ROAD GRASS PATCH 6446",
    "locID": "LOC000148370153",
    "tech": "NULL",
    "upgrade": "NULL_NA",
    "gnaf_pid": "GAWA_162774408",
    "ee": false,
    "tech_change_status": "Not Planned"
   }
  },
  {
   "type": "Feature",
   "geometry": {
    "type": "Point",
    "coordinates": [
     121.55375115,
     -33.20429145
    ]
   },
   "properties": {
    "name": "LOT 320 BISHOPS ROAD GRASS PATCH 6446",
    "locID": "LOC000148370153",
    "tech": "NULL",
    "upgrade": "NULL_NA",
    "gnaf_pid": "GAWA_162774409",
    "ee": false,
    "tech_change_status": "Not Planned"
   }
  },
  {
   "type": "Feature",
   "geometry": {
    "type": "Point",
    "coordinates": [
     121.55376599,
     -33.1899727
    ]
   },
   "properties": {
    "name": "LOT 321 BISHOPS ROAD GRASS PATCH 6446",
    "locID": "LOC000148370153",
    "tech": "NULL",
    "upgrade": "NULL_NA",
    "gnaf_pid": "GAWA_162774410",
    "ee": false,
    "tech_change_status": "Not Planned"
   }
  },
  {
   "type": "Feature",
   "geometry": {
    "type": "Point",
    "coordinates": [
     121.71560778,
     -33.22963327
    ]
   },
   "properties": {
    "name": "LOT 14 COOLGARDIE-ESPERANCE HIGHWAY GRASS PATCH 6446",
    "locID": "LOC000151414506",
    "tech": "NULL",
    "upgrade": "NULL_NA",
    "gnaf_pid": "GAWA_162780019",
    "ee": false,
    "tech_change_status": "Not Planned"
   }
  },
  {
   "type": "Feature",
   "geometry": {
    "type": "Point",
    "coordinates": [
     121.71560252,
     -33.2270956
    ]
   },
   "properties": {
    "name": "LOT 1 COOLGARDIE-ESPERANCE HIGHWAY GRASS PATCH 6446",
    "locID": "LOC000109418914",
    "tech": "NULL",
    "upgrade": "NULL_NA",
    "gnaf_pid": "GAWA_162780022",
    "ee": false,
    "tech_change_status": "Not Planned"
   }
  },
  {
   "type": "Feature",
   "geometry": {
    "type": "Point",
    "coordinates": [
     121.71560799,
     -33.2272754
    ]
   },
   "properties": {
    "name": "LOT 2 COOLGARDIE-ESPERANCE HIGHWAY GRASS PATCH 6446",
    "locID": "LOC000184884820",
    "tech": "SATELLITE",
    "upgrade": "NULL_NA",
    "gnaf_pid": "GAWA_162780023",
    "ee": false,
    "tech_change_status": "Not Planned"
   }
  },
  {
   "type": "Feature",
   "geometry": {
    "type": "Point",
    "coordinates": [
     121.71560797,
     -33.22745678
    ]
   },
   "properties": {
    "name": "LOT 3 COOLGARDIE-ESPERANCE HIGHWAY GRASS PATCH 6446",
    "locID": "LOC000109734158",
    "tech": "SATELLITE",
    "upgrade": "NULL_NA",
    "gnaf_pid": "GAWA_162780024",
    "ee": false,
    "tech_change_status": "Not Planned"
   }
  },
  {
   "type": "Feature",
   "geometry": {
    "type": "Point",
    "coordinates": [
     121.71560796,
     -33.22763816
    ]
   },
   "properties": {
    "name": "LOT 4 COOLGARDIE-ESPERANCE HIGHWAY GRASS PATCH 6446",
    "locID": "LOC000142466579",
    "tech": "SATELLITE",
    "upgrade": "NULL_NA",
    "gnaf_pid": "GAWA_162780025",
    "ee": false,
    "tech_change_status": "Not Planned"
   }
  },
  {
   "type": "Feature",
   "geometry": {
    "type": "Point",
    "coordinates": [
     121.71560793,
     -33.22800091
    ]
   },
   "properties": {
    "name": "LOT 6 COOLGARDIE-ESPERANCE HIGHWAY GRASS PATCH 6446",
    "locID": "LOC000108753427",
    "tech": "NULL",
    "upgrade": "NULL_NA",
    "gnaf_pid": "GAWA_162780027",
    "ee": false,
    "tech_change_status": "Not Planned"
   }
  },
  {
   "type": "Feature",
   "geometry": {
    "type": "Point",
    "coordinates": [
     121.71560784,
     -33.22917982
    ]
   },
   "properties": {
    "name": "LOT 82 COOLGARDIE-ESPERANCE HIGHWAY GRASS PATCH 6446",
    "locID": "LOC000109414043",
    "tech": "SATELLITE",
    "upgrade": "NULL_NA",
    "gnaf_pid": "GAWA_162780029",
    "ee": false,
    "tech_change_status": "Not Planned"
   }
  },
  {
   "type": "Feature",
   "geometry": {
    "type": "Point",
    "coordinates": [
     121.71560241,
     -33.22836208
    ]
   },
   "properties": {
    "name": "LOT 8 COOLGARDIE-ESPERANCE HIGHWAY GRASS PATCH 6446",
    "locID": "LOC000109414043",
    "tech": "SATELLITE",
    "upgrade": "NULL_NA",
    "gnaf_pid": "GAWA_162780030",
    "ee": false,
    "tech_change_status": "Not Planned"
   }
  },
  {
   "type": "Feature",
   "geometry": {
    "type": "Point",
    "coordinates": [
     121.71560238,
     -33.22872795
    ]
   },
   "properties": {
    "name": "LOT 9 COOLGARDIE-ESPERANCE HIGHWAY GRASS PATCH 6446",
    "locID": "LOC000109046890",
    "tech": "SATELLITE",
    "upgrade": "NULL_NA",
    "gnaf_pid": "GAWA_162780031",
    "ee": false,
    "tech_change_status": "Not Planned"
   }
  },
  {
   "type": "Feature",
   "geometry": {
    "type": "Point",
    "coordinates": [
     121.7136657,
     -33.22745657
    ]
   },
   "properties": {
    "name": "LOT 64 FREEMAN STREET GRASS PATCH 6446",
    "locID": "LOC000109654935",
    "tech": "NULL",
    "upgrade": "NULL_NA",
    "gnaf_pid": "GAWA_162785361",
    "ee": false,
    "tech_change_status": "Not Planned"
   }
  },
  {
   "type": "Feature",
   "geometry": {
    "type": "Point",
    "coordinates": [
     121.7136667,
     -33.22827188
    ]
   },
   "properties": {
    "name": "LOT 84 FREEMAN STREET GRASS PATCH 6446",
    "locID": "LOC000108514263",
    "tech": "NULL",
    "upgrade": "NULL_NA",
    "gnaf_pid": "GAWA_162785365",
    "ee": false,
    "tech_change_status": "Not Planned"
   }
  },
  {
   "type": "Feature",
   "geometry": {
    "type": "Point",
    "coordinates": [
     121.85701188,
     -33.12108002
    ]
   },
   "properties": {
    "name": "LOT 405 RATCLIFFS ROAD GRASS PATCH 6446",
    "locID": "LOC000109721251",
    "tech": "NULL",
    "upgrade": "NULL_NA",
    "gnaf_pid": "GAWA_162805077",
    "ee": false,
    "tech_change_status": "Not Planned"
   }
  },
  {
   "type": "Feature",
   "geometry": {
    "type": "Point",
    "coordinates": [
     121.71501973,
     -33.2299944
    ]
   },
   "properties": {
    "name": "LOT 17 RICHARDSON STREET GRASS PATCH 6446",
    "locID": "LOC000150288788",
    "tech": "NULL",
    "upgrade": "NULL_NA",
    "gnaf_pid": "GAWA_162805406",
    "ee": false,
    "tech_change_status": "Not Planned"
   }
  },
  {
   "type": "Feature",
   "geometry": {
    "type": "Point",
    "coordinates": [
     121.71501432,
     -33.22927047
    ]
   },
   "properties": {
    "name": "LOT 21 RICHARDSON STREET GRASS PATCH 6446",
    "locID": "LOC000107744010",
    "tech": "NULL",
    "upgrade": "NULL_NA",
    "gnaf_pid": "GAWA_162805410",
    "ee": false,
    "tech_change_status": "Not Planned"
   }
  },
  {
   "type": "Feature",
   "geometry": {
    "type": "Point",
    "coordinates": [
     121.71462301,
     -33.2285045
    ]
   },
   "properties": {
    "name": "LOT 22 RICHARDSON STREET GRASS PATCH 6446",
    "locID": "LOC000107744010",
    "tech": "NULL",
    "upgrade": "NULL_NA",
    "gnaf_pid": "GAWA_162805411",
    "ee": false,
    "tech_change_status": "Not Planned"
   }
  },
  {
   "type": "Feature",
   "geometry": {
    "type": "Point",
    "coordinates": [
     121.71501444,
     -33.22818224
    ]
   },
   "properties": {
    "name": "LOT 26 RICHARDSON STREET GRASS PATCH 6446",
    "locID": "LOC000107607214",
    "tech": "NULL",
    "upgrade": "NULL_NA",
    "gnaf_pid": "GAWA_162805413",
    "ee": false,
    "tech_change_status": "Not Planned"
   }
  },
  {
   "type": "Feature",
   "geometry": {
    "type": "Point",
    "coordinates": [
     121.71462301,
     -33.2285045
    ]
   },
   "properties": {
    "name": "LOT 46 RICHARDSON STREET GRASS PATCH 6446",
    "locID": "LOC000107756817",
    "tech": "NULL",
    "upgrade": "NULL_NA",
    "gnaf_pid": "GAWA_162805428",
    "ee": false,
    "tech_change_status": "Not Planned"
   }
  },
  {
   "type": "Feature",
   "geometry": {
    "type": "Point",
    "coordinates": [
     121.71462301,
     -33.2285045
    ]
   },
   "properties": {
    "name": "LOT 83 RICHARDSON STREET GRASS PATCH 6446",
    "locID": "LOC000109035546",
    "tech": "NULL",
    "upgrade": "NULL_NA",
    "gnaf_pid": "GAWA_162805433",
    "ee": false,
    "tech_change_status": "Not Planned"
   }
  },
  {
   "type": "Feature",
   "geometry": {
    "type": "Point",
    "coordinates": [
     121.71129225,
     -33.2294968
    ]
   },
   "properties": {
    "name": "LOT 79 SHEPHERD STREET GRASS PATCH 6446",
    "locID": "LOC000109005366",
    "tech": "NULL",
    "upgrade": "NULL_NA",
    "gnaf_pid": "GAWA_162807684",
    "ee": false,
    "tech_change_status": "Not Planned"
   }
  },
  {
   "type": "Feature",
   "geometry": {
    "type": "Point",
    "coordinates": [
     121.82873717,
     -33.14440766
    ]
   },
   "properties": {
    "name": "LOT 81 LOGAN ROAD GRASS PATCH 6446",
    "locID": "LOC000148153785",
    "tech": "NULL",
    "upgrade": "NULL_NA",
    "gnaf_pid": "GAWA_162819543",
    "ee": false,
    "tech_change_status": "Not Planned"
   }
  },
  {
   "type": "Feature",
   "geometry": {
    "type": "Point",
    "coordinates": [
     121.71610324,
     -33.24479338
    ]
   },
   "properties": {
    "name": "LOT 38 COOLGARDIE-ESPERANCE HIGHWAY GRASS PATCH 6446",
    "locID": "LOC000114452067",
    "tech": "SATELLITE",
    "upgrade": "NULL_NA",
    "gnaf_pid": "GAWA_162836880",
    "ee": false,
    "tech_change_status": "Not Planned"
   }
  },
  {
   "type": "Feature",
   "geometry": {
    "type": "Point",
    "coordinates": [
     121.6436799,
     -33.27484194
    ]
   },
   "properties": {
    "name": "LOT 89 SWAN LAGOON ROAD GRASS PATCH 6446",
    "locID": "LOC000114724143",
    "tech": "SATELLITE",
    "upgrade": "NULL_NA",
    "gnaf_pid": "GAWA_162842582",
    "ee": false,
    "tech_change_status": "Not Planned"
   }
  },
  {
   "type": "Feature",
   "geometry": {
    "type": "Point",
    "coordinates": [
     121.60178084,
     -33.34058865
    ]
   },
   "properties": {
    "name": "LOT 1 RHIND ROAD GRASS PATCH 6446",
    "locID": "LOC000148164006",
    "tech": "NULL",
    "upgrade": "NULL_NA",
    "gnaf_pid": "GAWA_163004427",
    "ee": false,
    "tech_change_status": "Not Planned"
   }
  },
  {
   "type": "Feature",
   "geometry": {
    "type": "Point",
    "coordinates": [
     121.70371162,
     -33.23448011
    ]
   },
   "properties": {
    "name": "LOT 500 GRASS PATCH ROAD GRASS PATCH 6446",
    "locID": "LOC000114883063",
    "tech": "SATELLITE",
    "upgrade": "NULL_NA",
    "gnaf_pid": "GAWA_163337949",
    "ee": false,
    "tech_change_status": "Not Planned"
   }
  },
  {
   "type": "Feature",
   "geometry": {
    "type": "Point",
    "coordinates": [
     121.70747375,
     -33.23244069
    ]
   },
   "properties": {
    "name": "LOT 501 GRASS PATCH ROAD GRASS PATCH 6446",
    "locID": "LOC000114883063",
    "tech": "SATELLITE",
    "upgrade": "NULL_NA",
    "gnaf_pid": "GAWA_163337950",
    "ee": false,
    "tech_change_status": "Not Planned"
   }
  },
  {
   "type": "Feature",
   "geometry": {
    "type": "Point",
    "coordinates": [
     121.71060567,
     -33.23570411
    ]
   },
   "properties": {
    "name": "LOT 502 GRASS PATCH ROAD GRASS PATCH 6446",
    "locID": "LOC000114883063",
    "tech": "SATELLITE",
    "upgrade": "NULL_NA",
    "gnaf_pid": "GAWA_163337951",
    "ee": false,
    "tech_change_status": "Not Planned"
   }
  },
  {
   "type": "Feature",
   "geometry": {
    "type": "Point",
    "coordinates": [
     121.71610324,
     -33.24479338
    ]
   },
   "properties": {
    "name": "415 COOLGARDIE-ESPERANCE HIGHWAY GRASS PATCH 6446",
    "locID": "LOC000142466579",
    "tech": "SATELLITE",
    "upgrade": "NULL_NA",
    "gnaf_pid": "GAWA_163388008",
    "ee": false,
    "tech_change_status": "Not Planned"
   }
  },
  {
   "type": "Feature",
   "geometry": {
    "type": "Point",
    "coordinates": [
     121.62783902,
     -33.230224
    ]
   },
   "properties": {
    "name": "108 GRASS PATCH ROAD GRASS PATCH 6446",
    "locID": "LOC000112861379",
    "tech": "SATELLITE",
    "upgrade": "NULL_NA",
    "gnaf_pid": "GAWA_163389203",
    "ee": false,
    "tech_change_status": "Not Planned"
   }
  },
  {
   "type": "Feature",
   "geometry": {
    "type": "Point",
    "coordinates": [
     121.74894032,
     -33.10543512
    ]
   },
   "properties": {
    "name": "670 GUESTS ROAD GRASS PATCH 6446",
    "locID": "LOC000114092732",
    "tech": "SATELLITE",
    "upgrade": "NULL_NA",
    "gnaf_pid": "GAWA_163389354",
    "ee": false,
    "tech_change_status": "Not Planned"
   }
  },
  {
   "type": "Feature",
   "geometry": {
    "type": "Point",
    "coordinates": [
     121.63713349,
     -33.37355401
    ]
   },
   "properties": {
    "name": "867 HAWKEY ROAD GRASS PATCH 6446",
    "locID": "LOC000109646112",
    "tech": "SATELLITE",
    "upgrade": "NULL_NA",
    "gnaf_pid": "GAWA_163389481",
    "ee": false,
    "tech_change_status": "Not Planned"
   }
  },
  {
   "type": "Feature",
   "geometry": {
    "type": "Point",
    "coordinates": [
     121.90924365,
     -33.09660745
    ]
   },
   "properties": {
    "name": "405 RATCLIFFS ROAD GRASS PATCH 6446",
    "locID": "LOC000109721251",
    "tech": "NULL",
    "upgrade": "NULL_NA",
    "gnaf_pid": "GAWA_163391971",
    "ee": false,
    "tech_change_status": "Not Planned"
   }
  },
  {
   "type": "Feature",
   "geometry": {
    "type": "Point",
    "coordinates": [
     121.93929955,
     -33.24241879
    ]
   },
   "properties": {
    "name": "143 RIDLEY ROAD GRASS PATCH 6446",
    "locID": "LOC000113304107",
    "tech": "SATELLITE",
    "upgrade": "NULL_NA",
    "gnaf_pid": "GAWA_163392054",
    "ee": false,
    "tech_change_status": "Not Planned"
   }
  },
  {
   "type": "Feature",
   "geometry": {
    "type": "Point",
    "coordinates": [
     121.6436799,
     -33.27484194
    ]
   },
   "properties": {
    "name": "103 SWAN LAGOON ROAD GRASS PATCH 6446",
    "locID": "LOC000109524888",
    "tech": "NULL",
    "upgrade": "NULL_NA",
    "gnaf_pid": "GAWA_163392788",
    "ee": false,
    "tech_change_status": "Not Planned"
   }
  },
  {
   "type": "Feature",
   "geometry": {
    "type": "Point",
    "coordinates": [
     121.52181014,
     -33.32910299
    ]
   },
   "properties": {
    "name": "1837 WILLIAMS ROAD GRASS PATCH 6446",
    "locID": "LOC000112875216",
    "tech": "SATELLITE",
    "upgrade": "NULL_NA",
    "gnaf_pid": "GAWA_163393429",
    "ee": false,
    "tech_change_status": "Not Planned"
   }
  },
  {
   "type": "Feature",
   "geometry": {
    "type": "Point",
    "coordinates": [
     121.69153326,
     -33.15079405
    ]
   },
   "properties": {
    "name": "28626 COOLGARDIE-ESPERANCE HIGHWAY GRASS PATCH 6446",
    "locID": "LOC100078078945",
    "tech": "NULL",
    "upgrade": "NULL_NA",
    "gnaf_pid": "GAWA_718483632",
    "ee": false,
    "tech_change_status": "Not Planned"
   }
  },
  {
   "type": "Feature",
   "geometry": {
    "type": "Point",
    "coordinates": [
     121.71367103,
     -33.22872778
    ]
   },
   "properties": {
    "name": "17 FREEMAN STREET GRASS PATCH 6446",
    "locID": "LOC000150288726",
    "tech": "NULL",
    "upgrade": "NULL_NA",
    "gnaf_pid": "GAWA_718484518",
    "ee": false,
    "tech_change_status": "Not Planned"
   }
  },
  {
   "type": "Feature",
   "geometry": {
    "type": "Point",
    "coordinates": [
     121.71367123,
     -33.22709542
    ]
   },
   "properties": {
    "name": "1 FREEMAN STREET GRASS PATCH 6446",
    "locID": "LOC000150288726",
    "tech": "NULL",
    "upgrade": "NULL_NA",
    "gnaf_pid": "GAWA_718484519",
    "ee": false,
    "tech_change_status": "Not Planned"
   }
  },
  {
   "type": "Feature",
   "geometry": {
    "type": "Point",
    "coordinates": [
     121.71366567,
     -33.22772864
    ]
   },
   "properties": {
    "name": "7 FREEMAN STREET GRASS PATCH 6446",
    "locID": "LOC000150288735",
    "tech": "NULL",
    "upgrade": "NULL_NA",
    "gnaf_pid": "GAWA_718484520",
    "ee": false,
    "tech_change_status": "Not Planned"
   }
  },
  {
   "type": "Feature",
   "geometry": {
    "type": "Point",
    "coordinates": [
     121.73423673,
     -33.09574857
    ]
   },
   "properties": {
    "name": "331 GUESTS ROAD GRASS PATCH 6446",
    "locID": "LOC000150288757",
    "tech": "SATELLITE",
    "upgrade": "NULL_NA",
    "gnaf_pid": "GAWA_718484741",
    "ee": false,
    "tech_change_status": "Not Planned"
   }
  },
  {
   "type": "Feature",
   "geometry": {
    "type": "Point",
    "coordinates": [
     121.96172483,
     -33.19088989
    ]
   },
   "properties": {
    "name": "1264 KENT ROAD GRASS PATCH 6446",
    "locID": "LOC000148371049",
    "tech": "NULL",
    "upgrade": "NULL_NA",
    "gnaf_pid": "GAWA_718485118",
    "ee": false,
    "tech_change_status": "Not Planned"
   }
  },
  {
   "type": "Feature",
   "geometry": {
    "type": "Point",
    "coordinates": [
     121.87473706,
     -33.13615475
    ]
   },
   "properties": {
    "name": "1531 LOGAN ROAD GRASS PATCH 6446",
    "locID": "LOC000148371077",
    "tech": "NULL",
    "upgrade": "NULL_NA",
    "gnaf_pid": "GAWA_718485402",
    "ee": false,
    "tech_change_status": "Not Planned"
   }
  },
  {
   "type": "Feature",
   "geometry": {
    "type": "Point",
    "coordinates": [
     121.90572226,
     -33.13017396
    ]
   },
   "properties": {
    "name": "1941 LOGAN ROAD GRASS PATCH 6446",
    "locID": "LOC000148153785",
    "tech": "NULL",
    "upgrade": "NULL_NA",
    "gnaf_pid": "GAWA_718485404",
    "ee": false,
    "tech_change_status": "Not Planned"
   }
  },
  {
   "type": "Feature",
   "geometry": {
    "type": "Point",
    "coordinates": [
     121.70211312,
     -33.32846169
    ]
   },
   "properties": {
    "name": "LOT 441 RHIND ROAD GRASS PATCH 6446",
    "locID": "LOC000148164006",
    "tech": "NULL",
    "upgrade": "NULL_NA",
    "gnaf_pid": "GAWA_718486616",
    "ee": false,
    "tech_change_status": "Not Planned"
   }
  },
  {
   "type": "Feature",
   "geometry": {
    "type": "Point",
    "coordinates": [
     121.71425359,
     -33.22836197
    ]
   },
   "properties": {
    "name": "16 RICHARDSON STREET GRASS PATCH 6446",
    "locID": "LOC000109035546",
    "tech": "NULL",
    "upgrade": "NULL_NA",
    "gnaf_pid": "GAWA_718486620",
    "ee": false,
    "tech_change_status": "Not Planned"
   }
  },
  {
   "type": "Feature",
   "geometry": {
    "type": "Point",
    "coordinates": [
     121.71501977,
     -33.22872788
    ]
   },
   "properties": {
    "name": "17 RICHARDSON STREET GRASS PATCH 6446",
    "locID": "LOC000150288788",
    "tech": "NULL",
    "upgrade": "NULL_NA",
    "gnaf_pid": "GAWA_718486621",
    "ee": false,
    "tech_change_status": "Not Planned"
   }
  },
  {
   "type": "Feature",
   "geometry": {
    "type": "Point",
    "coordinates": [
     121.71501919,
     -33.22718798
    ]
   },
   "properties": {
    "name": "1 RICHARDSON STREET GRASS PATCH 6446",
    "locID": "LOC000150288788",
    "tech": "NULL",
    "upgrade": "NULL_NA",
    "gnaf_pid": "GAWA_718486623",
    "ee": false,
    "tech_change_status": "Not Planned"
   }
  },
  {
   "type": "Feature",
   "geometry": {
    "type": "Point",
    "coordinates": [
     121.71501434,
     -33.22908909
    ]
   },
   "properties": {
    "name": "21 RICHARDSON STREET GRASS PATCH 6446",
    "locID": "LOC000107744010",
    "tech": "NULL",
    "upgrade": "NULL_NA",
    "gnaf_pid": "GAWA_718486624",
    "ee": false,
    "tech_change_status": "Not Planned"
   }
  },
  {
   "type": "Feature",
   "geometry": {
    "type": "Point",
    "coordinates": [
     121.71425897,
     -33.22927041
    ]
   },
   "properties": {
    "name": "24 RICHARDSON STREET GRASS PATCH 6446",
    "locID": "LOC000107756817",
    "tech": "NULL",
    "upgrade": "NULL_NA",
    "gnaf_pid": "GAWA_718486625",
    "ee": false,
    "tech_change_status": "Not Planned"
   }
  },
  {
   "type": "Feature",
   "geometry": {
    "type": "Point",
    "coordinates": [
     121.71501447,
     -33.22781949
    ]
   },
   "properties": {
    "name": "9 RICHARDSON STREET GRASS PATCH 6446",
    "locID": "LOC100071967463",
    "tech": "NULL",
    "upgrade": "NULL_NA",
    "gnaf_pid": "GAWA_718486626",
    "ee": false,
    "tech_change_status": "Not Planned"
   }
  },
  {
   "type": "Feature",
   "geometry": {
    "type": "Point",
    "coordinates": [
     121.88131115,
     -33.25013101
    ]
   },
   "properties": {
    "name": "1242 RIDLEY ROAD GRASS PATCH 6446",
    "locID": "LOC000148152660",
    "tech": "NULL",
    "upgrade": "NULL_NA",
    "gnaf_pid": "GAWA_718486638",
    "ee": false,
    "tech_change_status": "Not Planned"
   }
  },
  {
   "type": "Feature",
   "geometry": {
    "type": "Point",
    "coordinates": [
     122.01221106,
     -33.26411719
    ]
   },
   "properties": {
    "name": "2470 RIDLEY ROAD GRASS PATCH 6446",
    "locID": "LOC000148154686",
    "tech": "NULL",
    "upgrade": "NULL_NA",
    "gnaf_pid": "GAWA_718486642",
    "ee": false,
    "tech_change_status": "Not Planned"
   }
  },
  {
   "type": "Feature",
   "geometry": {
    "type": "Point",
    "coordinates": [
     121.86305359,
     -33.2488372
    ]
   },
   "properties": {
    "name": "980 RIDLEY ROAD GRASS PATCH 6446",
    "locID": "LOC000148371645",
    "tech": "NULL",
    "upgrade": "NULL_NA",
    "gnaf_pid": "GAWA_718486645",
    "ee": false,
    "tech_change_status": "Not Planned"
   }
  },
  {
   "type": "Feature",
   "geometry": {
    "type": "Point",
    "coordinates": [
     121.76596801,
     -33.22862228
    ]
   },
   "properties": {
    "name": "LOT 41 RIDLEY ROAD GRASS PATCH 6446",
    "locID": "LOC000113304107",
    "tech": "SATELLITE",
    "upgrade": "NULL_NA",
    "gnaf_pid": "GAWA_718486646",
    "ee": false,
    "tech_change_status": "Not Planned"
   }
  },
  {
   "type": "Feature",
   "geometry": {
    "type": "Point",
    "coordinates": [
     121.58255123,
     -33.14892967
    ]
   },
   "properties": {
    "name": "1240 ROLLOND ROAD GRASS PATCH 6446",
    "locID": "LOC000148371650",
    "tech": "NULL",
    "upgrade": "NULL_NA",
    "gnaf_pid": "GAWA_718486689",
    "ee": false,
    "tech_change_status": "Not Planned"
   }
  },
  {
   "type": "Feature",
   "geometry": {
    "type": "Point",
    "coordinates": [
     121.96390781,
     -33.28075047
    ]
   },
   "properties": {
    "name": "2494 STYLES ROAD GRASS PATCH 6446",
    "locID": "LOC000148372029",
    "tech": "NULL",
    "upgrade": "NULL_NA",
    "gnaf_pid": "GAWA_718487122",
    "ee": false,
    "tech_change_status": "Not Planned"
   }
  },
  {
   "type": "Feature",
   "geometry": {
    "type": "Point",
    "coordinates": [
     121.65110575,
     -33.32457937
    ]
   },
   "properties": {
    "name": "593 SWAN LAGOON ROAD GRASS PATCH 6446",
    "locID": "LOC000148372040",
    "tech": "NULL",
    "upgrade": "NULL_NA",
    "gnaf_pid": "GAWA_718487169",
    "ee": false,
    "tech_change_status": "Not Planned"
   }
  },
  {
   "type": "Feature",
   "geometry": {
    "type": "Point",
    "coordinates": [
     121.63036013,
     -33.26478197
    ]
   },
   "properties": {
    "name": "LOT 2 SWAN LAGOON ROAD GRASS PATCH 6446",
    "locID": "LOC000114724143",
    "tech": "SATELLITE",
    "upgrade": "NULL_NA",
    "gnaf_pid": "GAWA_718487170",
    "ee": false,
    "tech_change_status": "Not Planned"
   }
  },
  {
   "type": "Feature",
   "geometry": {
    "type": "Point",
    "coordinates": [
     121.66767615,
     -33.36824407
    ]
   },
   "properties": {
    "name": "LOT 639 SWAN LAGOON ROAD GRASS PATCH 6446",
    "locID": "LOC000114724143",
    "tech": "SATELLITE",
    "upgrade": "NULL_NA",
    "gnaf_pid": "GAWA_718487171",
    "ee": false,
    "tech_change_status": "Not Planned"
   }
  },
  {
   "type": "Feature",
   "geometry": {
    "type": "Point",
    "coordinates": [
     121.71809946,
     -33.23096201
    ]
   },
   "properties": {
    "name": "119 WILLIS STREET GRASS PATCH 6446",
    "locID": "LOC100032889243",
    "tech": "NULL",
    "upgrade": "NULL_NA",
    "gnaf_pid": "GAWA_718487822",
    "ee": false,
    "tech_change_status": "Not Planned"
   }
  },
  {
   "type": "Feature",
   "geometry": {
    "type": "Point",
    "coordinates": [
     121.66587885,
     -33.31251731
    ]
   },
   "properties": {
    "name": "LOT 1810 SWAN LAGOON ROAD GRASS PATCH 6446",
    "locID": "LOC000114724143",
    "tech": "SATELLITE",
    "upgrade": "NULL_NA",
    "gnaf_pid": "GAWA_718639722",
    "ee": false,
    "tech_change_status": "Not Planned"
   }
  },
  {
   "type": "Feature",
   "geometry": {
    "type": "Point",
    "coordinates": [
     121.71936374,
     -33.22674166
    ]
   },
   "properties": {
    "name": "16 WILLIS STREET GRASS PATCH 6446",
    "locID": "LOC100079388144",
    "tech": "NULL",
    "upgrade": "NULL_NA",
    "gnaf_pid": "GAWA_720641310",
    "ee": false,
    "tech_change_status": "Not Planned"
   }
  },
  {
   "type": "Feature",
   "geometry": {
    "type": "Point",
    "coordinates": [
     121.77769683,
     -33.3491231
    ]
   },
   "properties": {
    "name": "LOT 1347 TRUSLOVE ROAD GRASS PATCH 6446",
    "locID": "LOC000191720922",
    "tech": "NULL",
    "upgrade": "NULL_NA",
    "gnaf_pid": "GAWA_720725591",
    "ee": false,
    "tech_change_status": "Not Planned"
   }
  },
  {
   "type": "Feature",
   "geometry": {
    "type": "Point",
    "coordinates": [
     121.62783902,
     -33.230224
    ]
   },
   "properties": {
    "name": "LOT 318 GRASS PATCH ROAD GRASS PATCH 6446",
    "locID": "LOC000114883063",
    "tech": "SATELLITE",
    "upgrade": "NULL_NA",
    "gnaf_pid": "GAWA_720726014",
    "ee": false,
    "tech_change_status": "Not Planned"
   }
  }
 ]
}