{
 "type": "FeatureCollection",
 "generated": "2025-06-19T02:58:59.663254",
 "suburb": "HAMELIN POOL",
 "features": [
  {
   "type": "Feature",
   "geometry": {
    "type": "Point",
    "coordinates": [
     114.16593053,
     -26.40059623
    ]
   },
   "properties": {
    "name": "LOT 351 HAMELIN POOL ROAD HAMELIN POOL 6532",
    "locID": "LOC000142447215",
    "tech": "SATELLITE",
    "upgrade": "NULL_NA",
    "gnaf_pid": "GAWA_162788153",
    "ee": false,
    "tech_change_status": "Not Planned"
   }
  },
  {
   "type": "Feature",
   "geometry": {
    "type": "Point",
    "coordinates": [
     114.46468258,
     -26.41175247
    ]
   },
   "properties": {
    "name": "LOT 174 NORTH WEST COASTAL HIGHWAY HAMELIN POOL 6532",
    "locID": "LOC000142838112",
    "tech": "SATELLITE",
    "upgrade": "NULL_NA",
    "gnaf_pid": "GAWA_162800175",
    "ee": false,
    "tech_change_status": "Not Planned"
   }
  },
  {
   "type": "Feature",
   "geometry": {
    "type": "Point",
    "coordinates": [
     114.17122967,
     -26.40336563
    ]
   },
   "properties": {
    "name": "LOT 346 HAMELIN POOL ROAD HAMELIN POOL 6532",
    "locID": "LOC000142447215",
    "tech": "SATELLITE",
    "upgrade": "NULL_NA",
    "gnaf_pid": "GAWA_163198896",
    "ee": false,
    "tech_change_status": "Not Planned"
   }
  },
  {
   "type": "Feature",
   "geometry": {
    "type": "Point",
    "coordinates": [
     114.16479331,
     -26.39863039
    ]
   },
   "properties": {
    "name": "LOT 55 HAMELIN POOL ROAD HAMELIN POOL 6532",
    "locID": "LOC000142447215",
    "tech": "SATELLITE",
    "upgrade": "NULL_NA",
    "gnaf_pid": "GAWA_718251999",
    "ee": false,
    "tech_change_status": "Not Planned"
   }
  }
 ]
}