{
 "type": "FeatureCollection",
 "generated": "2025-06-19T03:16:15.650938",
 "suburb": "HICKETY",
 "features": [
  {
   "type": "Feature",
   "geometry": {
    "type": "Point",
    "coordinates": [
     114.73566347,
     -28.44069876
    ]
   },
   "properties": {
    "name": "829 NABAWA-NORTHAMPTON ROAD HICKETY 6532",
    "locID": "LOC000142461427",
    "tech": "SATELLITE",
    "upgrade": "NULL_NA",
    "gnaf_pid": "GAWA_162001762",
    "ee": true,
    "tech_change_status": "Not Planned"
   }
  },
  {
   "type": "Feature",
   "geometry": {
    "type": "Point",
    "coordinates": [
     114.73370878,
     -28.42641642
    ]
   },
   "properties": {
    "name": "943 NABAWA-NORTHAMPTON ROAD HICKETY 6532",
    "locID": "LOC000011089037",
    "tech": "SATELLITE",
    "upgrade": "NULL_NA",
    "gnaf_pid": "GAWA_162001763",
    "ee": true,
    "tech_change_status": "Not Planned"
   }
  }
 ]
}