{
 "type": "FeatureCollection",
 "generated": "2025-06-19T03:36:51.567495",
 "suburb": "JIGALONG",
 "features": [
  {
   "type": "Feature",
   "geometry": {
    "type": "Point",
    "coordinates": [
     120.78848654,
     -23.39171242
    ]
   },
   "properties": {
    "name": "LOT 500 JIGALONG MISSION ROAD JIGALONG 6753",
    "locID": "LOC000142858987",
    "tech": "NULL",
    "upgrade": "NULL_NA",
    "gnaf_pid": "GAWA_719967294",
    "ee": false,
    "tech_change_status": "Not Planned"
   }
  },
  {
   "type": "Feature",
   "geometry": {
    "type": "Point",
    "coordinates": [
     120.78848654,
     -23.39171242
    ]
   },
   "properties": {
    "name": "251 KAILI STREET JIGALONG 6753",
    "locID": "LOC000181365786",
    "tech": "SATELLITE",
    "upgrade": "NULL_NA",
    "gnaf_pid": "GAWA_720241669",
    "ee": false,
    "tech_change_status": "Not Planned"
   }
  },
  {
   "type": "Feature",
   "geometry": {
    "type": "Point",
    "coordinates": [
     120.78848654,
     -23.39171242
    ]
   },
   "properties": {
    "name": "79 PURUNGU STREET JIGALONG 6753",
    "locID": "LOC100089900835",
    "tech": "NULL",
    "upgrade": "NULL_NA",
    "gnaf_pid": "GAWA_720241859",
    "ee": false,
    "tech_change_status": "Not Planned"
   }
  },
  {
   "type": "Feature",
   "geometry": {
    "type": "Point",
    "coordinates": [
     120.78848654,
     -23.39171242
    ]
   },
   "properties": {
    "name": "103 MARTU STREET JIGALONG 6753",
    "locID": "LOC000100916662",
    "tech": "FTTN",
    "upgrade": "FTTP_SA",
    "gnaf_pid": "GAWA_720241872",
    "ee": true,
    "tech_change_status": "Eligible to Order",
    "program_type": "On-Demand N2P SDU/MDU Simple",
    "target_eligibility_quarter": "NA"
   }
  },
  {
   "type": "Feature",
   "geometry": {
    "type": "Point",
    "coordinates": [
     120.78848654,
     -23.39171242
    ]
   },
   "properties": {
    "name": "50 WALYAGUNYA BOULEVARD JIGALONG 6753",
    "locID": "LOC100087208089",
    "tech": "NULL",
    "upgrade": "NULL_NA",
    "gnaf_pid": "GAWA_720242087",
    "ee": false,
    "tech_change_status": "Not Planned"
   }
  },
  {
   "type": "Feature",
   "geometry": {
    "type": "Point",
    "coordinates": [
     120.78848654,
     -23.39171242
    ]
   },
   "properties": {
    "name": "198 ETHEL CREEK JIGALONG ROAD JIGALONG 6753",
    "locID": "LOC000181365786",
    "tech": "SATELLITE",
    "upgrade": "NULL_NA",
    "gnaf_pid": "GAWA_720242091",
    "ee": false,
    "tech_change_status": "Not Planned"
   }
  },
  {
   "type": "Feature",
   "geometry": {
    "type": "Point",
    "coordinates": [
     120.78848654,
     -23.39171242
    ]
   },
   "properties": {
    "name": "108 MARTU STREET JIGALONG 6753",
    "locID": "LOC000185635116",
    "tech": "FTTP",
    "upgrade": "NULL_NA",
    "gnaf_pid": "GAWA_720242179",
    "ee": true
   }
  },
  {
   "type": "Feature",
   "geometry": {
    "type": "Point",
    "coordinates": [
     120.78848654,
     -23.39171242
    ]
   },
   "properties": {
    "name": "49 WALYAGUNYA BOULEVARD JIGALONG 6753",
    "locID": "LOC100087276070",
    "tech": "SATELLITE",
    "upgrade": "NULL_NA",
    "gnaf_pid": "GAWA_720242221",
    "ee": false,
    "tech_change_status": "Not Planned"
   }
  },
  {
   "type": "Feature",
   "geometry": {
    "type": "Point",
    "coordinates": [
     120.78848654,
     -23.39171242
    ]
   },
   "properties": {
    "name": "104 MARTU STREET JIGALONG 6753",
    "locID": "LOC000185635137",
    "tech": "FTTP",
    "upgrade": "NULL_NA",
    "gnaf_pid": "GAWA_720242565",
    "ee": true
   }
  },
  {
   "type": "Feature",
   "geometry": {
    "type": "Point",
    "coordinates": [
     120.78848654,
     -23.39171242
    ]
   },
   "properties": {
    "name": "62 KARLAYA STREET JIGALONG 6753",
    "locID": "LOC000181365786",
    "tech": "SATELLITE",
    "upgrade": "NULL_NA",
    "gnaf_pid": "GAWA_720242977",
    "ee": false,
    "tech_change_status": "Not Planned"
   }
  },
  {
   "type": "Feature",
   "geometry": {
    "type": "Point",
    "coordinates": [
     120.78848654,
     -23.39171242
    ]
   },
   "properties": {
    "name": "17 MILANGKA STREET JIGALONG 6753",
    "locID": "LOC000181365786",
    "tech": "SATELLITE",
    "upgrade": "NULL_NA",
    "gnaf_pid": "GAWA_720243112",
    "ee": false,
    "tech_change_status": "Not Planned"
   }
  },
  {
   "type": "Feature",
   "geometry": {
    "type": "Point",
    "coordinates": [
     120.78848654,
     -23.39171242
    ]
   },
   "properties": {
    "name": "185 ETHEL CREEK JIGALONG ROAD JIGALONG 6753",
    "locID": "LOC000181365786",
    "tech": "SATELLITE",
    "upgrade": "NULL_NA",
    "gnaf_pid": "GAWA_720243118",
    "ee": false,
    "tech_change_status": "Not Planned"
   }
  },
  {
   "type": "Feature",
   "geometry": {
    "type": "Point",
    "coordinates": [
     120.78848654,
     -23.39171242
    ]
   },
   "properties": {
    "name": "136 DUWA LOOP JIGALONG 6753",
    "locID": "LOC100085236226",
    "tech": "SATELLITE",
    "upgrade": "NULL_NA",
    "gnaf_pid": "GAWA_720243244",
    "ee": false,
    "tech_change_status": "Not Planned"
   }
  },
  {
   "type": "Feature",
   "geometry": {
    "type": "Point",
    "coordinates": [
     120.78848654,
     -23.39171242
    ]
   },
   "properties": {
    "name": "166 MILANGKA STREET JIGALONG 6753",
    "locID": "LOC000181365786",
    "tech": "SATELLITE",
    "upgrade": "NULL_NA",
    "gnaf_pid": "GAWA_720243293",
    "ee": false,
    "tech_change_status": "Not Planned"
   }
  },
  {
   "type": "Feature",
   "geometry": {
    "type": "Point",
    "coordinates": [
     120.78848654,
     -23.39171242
    ]
   },
   "properties": {
    "name": "18 MILANGKA STREET JIGALONG 6753",
    "locID": "LOC000181365786",
    "tech": "SATELLITE",
    "upgrade": "NULL_NA",
    "gnaf_pid": "GAWA_720243416",
    "ee": false,
    "tech_change_status": "Not Planned"
   }
  },
  {
   "type": "Feature",
   "geometry": {
    "type": "Point",
    "coordinates": [
     120.78848654,
     -23.39171242
    ]
   },
   "properties": {
    "name": "5 WALYAGUNYA BOULEVARD JIGALONG 6753",
    "locID": "LOC100087208089",
    "tech": "NULL",
    "upgrade": "NULL_NA",
    "gnaf_pid": "GAWA_720243518",
    "ee": false,
    "tech_change_status": "Not Planned"
   }
  },
  {
   "type": "Feature",
   "geometry": {
    "type": "Point",
    "coordinates": [
     120.78848654,
     -23.39171242
    ]
   },
   "properties": {
    "name": "800 OAKS STREET JIGALONG 6753",
    "locID": "LOC000141430838",
    "tech": "WIRELESS",
    "upgrade": "NULL_NA",
    "gnaf_pid": "GAWA_720243571",
    "ee": true,
    "tech_change_status": "Not Planned",
    "program_type": "Fixed Wireless and Satellite Upgrade Program",
    "target_eligibility_quarter": "NA"
   }
  },
  {
   "type": "Feature",
   "geometry": {
    "type": "Point",
    "coordinates": [
     120.78848654,
     -23.39171242
    ]
   },
   "properties": {
    "name": "503 MARTU STREET JIGALONG 6753",
    "locID": "LOC000035781454",
    "tech": "FTTN",
    "upgrade": "FTTP_SA",
    "gnaf_pid": "GAWA_720243675",
    "ee": true,
    "tech_change_status": "Eligible to Order",
    "program_type": "On-Demand N2P SDU/MDU Simple",
    "target_eligibility_quarter": "NA"
   }
  },
  {
   "type": "Feature",
   "geometry": {
    "type": "Point",
    "coordinates": [
     120.78848654,
     -23.39171242
    ]
   },
   "properties": {
    "name": "175 KARIMARRA STREET JIGALONG 6753",
    "locID": "LOC100085531713",
    "tech": "NULL",
    "upgrade": "NULL_NA",
    "gnaf_pid": "GAWA_720243738",
    "ee": false,
    "tech_change_status": "Not Planned"
   }
  },
  {
   "type": "Feature",
   "geometry": {
    "type": "Point",
    "coordinates": [
     120.78848654,
     -23.39171242
    ]
   },
   "properties": {
    "name": "2 ETHEL CREEK JIGALONG ROAD JIGALONG 6753",
    "locID": "LOC000142467947",
    "tech": "SATELLITE",
    "upgrade": "NULL_NA",
    "gnaf_pid": "GAWA_720243770",
    "ee": false,
    "tech_change_status": "Not Planned"
   }
  },
  {
   "type": "Feature",
   "geometry": {
    "type": "Point",
    "coordinates": [
     120.78848654,
     -23.39171242
    ]
   },
   "properties": {
    "name": "52 ETHEL CREEK JIGALONG ROAD JIGALONG 6753",
    "locID": "LOC000181365786",
    "tech": "SATELLITE",
    "upgrade": "NULL_NA",
    "gnaf_pid": "GAWA_720243819",
    "ee": false,
    "tech_change_status": "Not Planned"
   }
  },
  {
   "type": "Feature",
   "geometry": {
    "type": "Point",
    "coordinates": [
     120.78848654,
     -23.39171242
    ]
   },
   "properties": {
    "name": "67 PANAKA STREET JIGALONG 6753",
    "locID": "LOC100087860907",
    "tech": "NULL",
    "upgrade": "NULL_NA",
    "gnaf_pid": "GAWA_720243855",
    "ee": false,
    "tech_change_status": "Not Planned"
   }
  },
  {
   "type": "Feature",
   "geometry": {
    "type": "Point",
    "coordinates": [
     120.78848654,
     -23.39171242
    ]
   },
   "properties": {
    "name": "501 OAKS STREET JIGALONG 6753",
    "locID": "LOC000141430838",
    "tech": "WIRELESS",
    "upgrade": "NULL_NA",
    "gnaf_pid": "GAWA_720243919",
    "ee": true,
    "tech_change_status": "Not Planned",
    "program_type": "Fixed Wireless and Satellite Upgrade Program",
    "target_eligibility_quarter": "NA"
   }
  },
  {
   "type": "Feature",
   "geometry": {
    "type": "Point",
    "coordinates": [
     120.78848654,
     -23.39171242
    ]
   },
   "properties": {
    "name": "66 MILANGKA STREET JIGALONG 6753",
    "locID": "LOC000181365786",
    "tech": "SATELLITE",
    "upgrade": "NULL_NA",
    "gnaf_pid": "GAWA_720243957",
    "ee": false,
    "tech_change_status": "Not Planned"
   }
  },
  {
   "type": "Feature",
   "geometry": {
    "type": "Point",
    "coordinates": [
     120.78848654,
     -23.39171242
    ]
   },
   "properties": {
    "name": "106 MARTU STREET JIGALONG 6753",
    "locID": "LOC000185635128",
    "tech": "FTTP",
    "upgrade": "NULL_NA",
    "gnaf_pid": "GAWA_720243999",
    "ee": true
   }
  },
  {
   "type": "Feature",
   "geometry": {
    "type": "Point",
    "coordinates": [
     120.78848654,
     -23.39171242
    ]
   },
   "properties": {
    "name": "184 ETHEL CREEK JIGALONG ROAD JIGALONG 6753",
    "locID": "LOC000187562672",
    "tech": "NULL",
    "upgrade": "NULL_NA",
    "gnaf_pid": "GAWA_720244069",
    "ee": false,
    "tech_change_status": "Not Planned"
   }
  },
  {
   "type": "Feature",
   "geometry": {
    "type": "Point",
    "coordinates": [
     120.78848654,
     -23.39171242
    ]
   },
   "properties": {
    "name": "63 KARLAYA STREET JIGALONG 6753",
    "locID": "LOC000181365786",
    "tech": "SATELLITE",
    "upgrade": "NULL_NA",
    "gnaf_pid": "GAWA_720244094",
    "ee": false,
    "tech_change_status": "Not Planned"
   }
  },
  {
   "type": "Feature",
   "geometry": {
    "type": "Point",
    "coordinates": [
     120.78848654,
     -23.39171242
    ]
   },
   "properties": {
    "name": "205 ETHEL CREEK JIGALONG ROAD JIGALONG 6753",
    "locID": "LOC000181365786",
    "tech": "SATELLITE",
    "upgrade": "NULL_NA",
    "gnaf_pid": "GAWA_720244187",
    "ee": false,
    "tech_change_status": "Not Planned"
   }
  },
  {
   "type": "Feature",
   "geometry": {
    "type": "Point",
    "coordinates": [
     120.78848654,
     -23.39171242
    ]
   },
   "properties": {
    "name": "61 KARLAYA STREET JIGALONG 6753",
    "locID": "LOC000181365786",
    "tech": "SATELLITE",
    "upgrade": "NULL_NA",
    "gnaf_pid": "GAWA_720244260",
    "ee": false,
    "tech_change_status": "Not Planned"
   }
  },
  {
   "type": "Feature",
   "geometry": {
    "type": "Point",
    "coordinates": [
     120.78848654,
     -23.39171242
    ]
   },
   "properties": {
    "name": "16 MILANGKA STREET JIGALONG 6753",
    "locID": "LOC000181365786",
    "tech": "SATELLITE",
    "upgrade": "NULL_NA",
    "gnaf_pid": "GAWA_720244387",
    "ee": false,
    "tech_change_status": "Not Planned"
   }
  },
  {
   "type": "Feature",
   "geometry": {
    "type": "Point",
    "coordinates": [
     120.78848654,
     -23.39171242
    ]
   },
   "properties": {
    "name": "64 KARLAYA STREET JIGALONG 6753",
    "locID": "LOC000181365786",
    "tech": "SATELLITE",
    "upgrade": "NULL_NA",
    "gnaf_pid": "GAWA_720244486",
    "ee": false,
    "tech_change_status": "Not Planned"
   }
  },
  {
   "type": "Feature",
   "geometry": {
    "type": "Point",
    "coordinates": [
     120.78848654,
     -23.39171242
    ]
   },
   "properties": {
    "name": "165 MILANGKA STREET JIGALONG 6753",
    "locID": "LOC000181365786",
    "tech": "SATELLITE",
    "upgrade": "NULL_NA",
    "gnaf_pid": "GAWA_720244520",
    "ee": false,
    "tech_change_status": "Not Planned"
   }
  },
  {
   "type": "Feature",
   "geometry": {
    "type": "Point",
    "coordinates": [
     120.78848654,
     -23.39171242
    ]
   },
   "properties": {
    "name": "45 ETHEL CREEK JIGALONG ROAD JIGALONG 6753",
    "locID": "LOC000181365786",
    "tech": "SATELLITE",
    "upgrade": "NULL_NA",
    "gnaf_pid": "GAWA_720244783",
    "ee": false,
    "tech_change_status": "Not Planned"
   }
  },
  {
   "type": "Feature",
   "geometry": {
    "type": "Point",
    "coordinates": [
     120.78848654,
     -23.39171242
    ]
   },
   "properties": {
    "name": "105 MARTU STREET JIGALONG 6753",
    "locID": "LOC000020792205",
    "tech": "FTTP",
    "upgrade": "NULL_NA",
    "gnaf_pid": "GAWA_720244878",
    "ee": true,
    "program_type": "On-Demand N2P SDU/MDU Simple",
    "target_eligibility_quarter": "NA"
   }
  },
  {
   "type": "Feature",
   "geometry": {
    "type": "Point",
    "coordinates": [
     120.78848654,
     -23.39171242
    ]
   },
   "properties": {
    "name": "163 MILANGKA STREET JIGALONG 6753",
    "locID": "LOC000181365786",
    "tech": "SATELLITE",
    "upgrade": "NULL_NA",
    "gnaf_pid": "GAWA_720245112",
    "ee": false,
    "tech_change_status": "Not Planned"
   }
  },
  {
   "type": "Feature",
   "geometry": {
    "type": "Point",
    "coordinates": [
     120.78848654,
     -23.39171242
    ]
   },
   "properties": {
    "name": "162 MILANGKA STREET JIGALONG 6753",
    "locID": "LOC000181365786",
    "tech": "SATELLITE",
    "upgrade": "NULL_NA",
    "gnaf_pid": "GAWA_720245137",
    "ee": false,
    "tech_change_status": "Not Planned"
   }
  },
  {
   "type": "Feature",
   "geometry": {
    "type": "Point",
    "coordinates": [
     120.78848654,
     -23.39171242
    ]
   },
   "properties": {
    "name": "161 MILANGKA STREET JIGALONG 6753",
    "locID": "LOC000181365786",
    "tech": "SATELLITE",
    "upgrade": "NULL_NA",
    "gnaf_pid": "GAWA_720245474",
    "ee": false,
    "tech_change_status": "Not Planned"
   }
  },
  {
   "type": "Feature",
   "geometry": {
    "type": "Point",
    "coordinates": [
     120.78848654,
     -23.39171242
    ]
   },
   "properties": {
    "name": "56 KARLAYA STREET JIGALONG 6753",
    "locID": "LOC000181365786",
    "tech": "SATELLITE",
    "upgrade": "NULL_NA",
    "gnaf_pid": "GAWA_720245546",
    "ee": false,
    "tech_change_status": "Not Planned"
   }
  },
  {
   "type": "Feature",
   "geometry": {
    "type": "Point",
    "coordinates": [
     120.78848654,
     -23.39171242
    ]
   },
   "properties": {
    "name": "107 MARTU STREET JIGALONG 6753",
    "locID": "LOC000009121615",
    "tech": "FTTP",
    "upgrade": "NULL_NA",
    "gnaf_pid": "GAWA_720245614",
    "ee": true,
    "program_type": "On-Demand N2P SDU/MDU Simple",
    "target_eligibility_quarter": "NA"
   }
  },
  {
   "type": "Feature",
   "geometry": {
    "type": "Point",
    "coordinates": [
     120.78848654,
     -23.39171242
    ]
   },
   "properties": {
    "name": "24 MUNGOOL STREET JIGALONG 6753",
    "locID": "LOC000050784328",
    "tech": "SATELLITE",
    "upgrade": "NULL_NA",
    "gnaf_pid": "GAWA_720246246",
    "ee": false,
    "tech_change_status": "Not Planned"
   }
  },
  {
   "type": "Feature",
   "geometry": {
    "type": "Point",
    "coordinates": [
     120.78848654,
     -23.39171242
    ]
   },
   "properties": {
    "name": "4 WALYAGUNYA BOULEVARD JIGALONG 6753",
    "locID": "LOC100087276070",
    "tech": "SATELLITE",
    "upgrade": "NULL_NA",
    "gnaf_pid": "GAWA_720246553",
    "ee": false,
    "tech_change_status": "Not Planned"
   }
  },
  {
   "type": "Feature",
   "geometry": {
    "type": "Point",
    "coordinates": [
     120.78848654,
     -23.39171242
    ]
   },
   "properties": {
    "name": "65 KARLAYA STREET JIGALONG 6753",
    "locID": "LOC000181365786",
    "tech": "SATELLITE",
    "upgrade": "NULL_NA",
    "gnaf_pid": "GAWA_720246653",
    "ee": false,
    "tech_change_status": "Not Planned"
   }
  },
  {
   "type": "Feature",
   "geometry": {
    "type": "Point",
    "coordinates": [
     120.78848654,
     -23.39171242
    ]
   },
   "properties": {
    "name": "504 MARTU STREET JIGALONG 6753",
    "locID": "LOC000181365786",
    "tech": "SATELLITE",
    "upgrade": "NULL_NA",
    "gnaf_pid": "GAWA_720246682",
    "ee": false,
    "tech_change_status": "Not Planned"
   }
  },
  {
   "type": "Feature",
   "geometry": {
    "type": "Point",
    "coordinates": [
     120.78848654,
     -23.39171242
    ]
   },
   "properties": {
    "name": "252 ETHEL CREEK JIGALONG ROAD JIGALONG 6753",
    "locID": "LOC000181365786",
    "tech": "SATELLITE",
    "upgrade": "NULL_NA",
    "gnaf_pid": "GAWA_720246697",
    "ee": false,
    "tech_change_status": "Not Planned"
   }
  },
  {
   "type": "Feature",
   "geometry": {
    "type": "Point",
    "coordinates": [
     120.78848654,
     -23.39171242
    ]
   },
   "properties": {
    "name": "121 GRACIE STREET JIGALONG 6753",
    "locID": "LOC000083522951",
    "tech": "WIRELESS",
    "upgrade": "NULL_NA",
    "gnaf_pid": "GAWA_720642871",
    "ee": false,
    "tech_change_status": "Not Planned",
    "program_type": "Fixed Wireless and Satellite Upgrade Program",
    "target_eligibility_quarter": "NA"
   }
  }
 ]
}