{
 "type": "FeatureCollection",
 "generated": "2025-06-19T03:49:30.026958",
 "suburb": "KALUMBURU",
 "features": [
  {
   "type": "Feature",
   "geometry": {
    "type": "Point",
    "coordinates": [
     126.63818731,
     -14.29079897
    ]
   },
   "properties": {
    "name": "LOT 100 BARTON LOOP KALUMBURU 6740",
    "locID": "LOC000133507121",
    "tech": "SATELLITE",
    "upgrade": "NULL_NA",
    "gnaf_pid": "GAWA_718337916",
    "ee": false,
    "tech_change_status": "Not Planned"
   }
  },
  {
   "type": "Feature",
   "geometry": {
    "type": "Point",
    "coordinates": [
     126.63818731,
     -14.29079897
    ]
   },
   "properties": {
    "name": "LOT 107 BARTON LOOP KALUMBURU 6740",
    "locID": "LOC000133507132",
    "tech": "NULL",
    "upgrade": "NULL_NA",
    "gnaf_pid": "GAWA_718337917",
    "ee": false,
    "tech_change_status": "Not Planned"
   }
  },
  {
   "type": "Feature",
   "geometry": {
    "type": "Point",
    "coordinates": [
     126.63818731,
     -14.29079897
    ]
   },
   "properties": {
    "name": "LOT 38 BARTON LOOP KALUMBURU 6740",
    "locID": "LOC000185038820",
    "tech": "SATELLITE",
    "upgrade": "NULL_NA",
    "gnaf_pid": "GAWA_718337918",
    "ee": false,
    "tech_change_status": "Not Planned"
   }
  },
  {
   "type": "Feature",
   "geometry": {
    "type": "Point",
    "coordinates": [
     126.63818731,
     -14.29079897
    ]
   },
   "properties": {
    "name": "LOT 39 BARTON LOOP KALUMBURU 6740",
    "locID": "LOC000185038820",
    "tech": "SATELLITE",
    "upgrade": "NULL_NA",
    "gnaf_pid": "GAWA_718337919",
    "ee": false,
    "tech_change_status": "Not Planned"
   }
  },
  {
   "type": "Feature",
   "geometry": {
    "type": "Point",
    "coordinates": [
     126.63818731,
     -14.29079897
    ]
   },
   "properties": {
    "name": "LOT 40 BARTON LOOP KALUMBURU 6740",
    "locID": "LOC000185038820",
    "tech": "SATELLITE",
    "upgrade": "NULL_NA",
    "gnaf_pid": "GAWA_718337920",
    "ee": false,
    "tech_change_status": "Not Planned"
   }
  },
  {
   "type": "Feature",
   "geometry": {
    "type": "Point",
    "coordinates": [
     126.63818731,
     -14.29079897
    ]
   },
   "properties": {
    "name": "LOT 65 BARTON LOOP KALUMBURU 6740",
    "locID": "LOC000185038820",
    "tech": "SATELLITE",
    "upgrade": "NULL_NA",
    "gnaf_pid": "GAWA_718337921",
    "ee": false,
    "tech_change_status": "Not Planned"
   }
  },
  {
   "type": "Feature",
   "geometry": {
    "type": "Point",
    "coordinates": [
     126.63818731,
     -14.29079897
    ]
   },
   "properties": {
    "name": "LOT 66 BARTON LOOP KALUMBURU 6740",
    "locID": "LOC000185038820",
    "tech": "SATELLITE",
    "upgrade": "NULL_NA",
    "gnaf_pid": "GAWA_718337922",
    "ee": false,
    "tech_change_status": "Not Planned"
   }
  },
  {
   "type": "Feature",
   "geometry": {
    "type": "Point",
    "coordinates": [
     126.63818731,
     -14.29079897
    ]
   },
   "properties": {
    "name": "LOT 67 BARTON LOOP KALUMBURU 6740",
    "locID": "LOC000133507227",
    "tech": "SATELLITE",
    "upgrade": "NULL_NA",
    "gnaf_pid": "GAWA_718337923",
    "ee": false,
    "tech_change_status": "Not Planned"
   }
  },
  {
   "type": "Feature",
   "geometry": {
    "type": "Point",
    "coordinates": [
     126.63818731,
     -14.29079897
    ]
   },
   "properties": {
    "name": "LOT 96 BARTON LOOP KALUMBURU 6740",
    "locID": "LOC000185038820",
    "tech": "SATELLITE",
    "upgrade": "NULL_NA",
    "gnaf_pid": "GAWA_718337924",
    "ee": false,
    "tech_change_status": "Not Planned"
   }
  },
  {
   "type": "Feature",
   "geometry": {
    "type": "Point",
    "coordinates": [
     126.63818731,
     -14.29079897
    ]
   },
   "properties": {
    "name": "LOT 97 BARTON LOOP KALUMBURU 6740",
    "locID": "LOC000185038820",
    "tech": "SATELLITE",
    "upgrade": "NULL_NA",
    "gnaf_pid": "GAWA_718337925",
    "ee": false,
    "tech_change_status": "Not Planned"
   }
  },
  {
   "type": "Feature",
   "geometry": {
    "type": "Point",
    "coordinates": [
     126.63818731,
     -14.29079897
    ]
   },
   "properties": {
    "name": "LOT 98 BARTON LOOP KALUMBURU 6740",
    "locID": "LOC000133507227",
    "tech": "SATELLITE",
    "upgrade": "NULL_NA",
    "gnaf_pid": "GAWA_718337926",
    "ee": false,
    "tech_change_status": "Not Planned"
   }
  },
  {
   "type": "Feature",
   "geometry": {
    "type": "Point",
    "coordinates": [
     126.63818731,
     -14.29079897
    ]
   },
   "properties": {
    "name": "LOT 99 BARTON LOOP KALUMBURU 6740",
    "locID": "LOC000185038820",
    "tech": "SATELLITE",
    "upgrade": "NULL_NA",
    "gnaf_pid": "GAWA_718337927",
    "ee": false,
    "tech_change_status": "Not Planned"
   }
  },
  {
   "type": "Feature",
   "geometry": {
    "type": "Point",
    "coordinates": [
     126.63818731,
     -14.29079897
    ]
   },
   "properties": {
    "name": "LOT 62 CARSON STREET KALUMBURU 6740",
    "locID": "LOC000133511501",
    "tech": "SATELLITE",
    "upgrade": "NULL_NA",
    "gnaf_pid": "GAWA_718338583",
    "ee": false,
    "tech_change_status": "Not Planned"
   }
  },
  {
   "type": "Feature",
   "geometry": {
    "type": "Point",
    "coordinates": [
     126.63818731,
     -14.29079897
    ]
   },
   "properties": {
    "name": "LOT 72C CARSON STREET KALUMBURU 6740",
    "locID": "LOC000133511538",
    "tech": "SATELLITE",
    "upgrade": "NULL_NA",
    "gnaf_pid": "GAWA_718338585",
    "ee": false,
    "tech_change_status": "Not Planned"
   }
  },
  {
   "type": "Feature",
   "geometry": {
    "type": "Point",
    "coordinates": [
     126.63818731,
     -14.29079897
    ]
   },
   "properties": {
    "name": "LOT 75 CARSON STREET KALUMBURU 6740",
    "locID": "LOC100080236292",
    "tech": "SATELLITE",
    "upgrade": "NULL_NA",
    "gnaf_pid": "GAWA_718338587",
    "ee": false,
    "tech_change_status": "Not Planned"
   }
  },
  {
   "type": "Feature",
   "geometry": {
    "type": "Point",
    "coordinates": [
     126.63818731,
     -14.29079897
    ]
   },
   "properties": {
    "name": "LOT 76 CARSON STREET KALUMBURU 6740",
    "locID": "LOC000161102742",
    "tech": "SATELLITE",
    "upgrade": "NULL_NA",
    "gnaf_pid": "GAWA_718338588",
    "ee": false,
    "tech_change_status": "Not Planned"
   }
  },
  {
   "type": "Feature",
   "geometry": {
    "type": "Point",
    "coordinates": [
     126.63818731,
     -14.29079897
    ]
   },
   "properties": {
    "name": "LOT 77 CARSON STREET KALUMBURU 6740",
    "locID": "LOC000148531297",
    "tech": "NULL",
    "upgrade": "NULL_NA",
    "gnaf_pid": "GAWA_718338589",
    "ee": false,
    "tech_change_status": "Not Planned"
   }
  },
  {
   "type": "Feature",
   "geometry": {
    "type": "Point",
    "coordinates": [
     126.63818731,
     -14.29079897
    ]
   },
   "properties": {
    "name": "LOT 7 CARSON STREET KALUMBURU 6740",
    "locID": "LOC000133511529",
    "tech": "SATELLITE",
    "upgrade": "NULL_NA",
    "gnaf_pid": "GAWA_718338590",
    "ee": false,
    "tech_change_status": "Not Planned"
   }
  },
  {
   "type": "Feature",
   "geometry": {
    "type": "Point",
    "coordinates": [
     126.63818731,
     -14.29079897
    ]
   },
   "properties": {
    "name": "LOT 39 GIBB RIVER-KALUMBURU ROAD KALUMBURU 6740",
    "locID": "LOC000133515740",
    "tech": "SATELLITE",
    "upgrade": "NULL_NA",
    "gnaf_pid": "GAWA_718339588",
    "ee": false,
    "tech_change_status": "Not Planned"
   }
  },
  {
   "type": "Feature",
   "geometry": {
    "type": "Point",
    "coordinates": [
     126.6460934,
     -14.29485688
    ]
   },
   "properties": {
    "name": "LOT 44 GIBB RIVER-KALUMBURU ROAD KALUMBURU 6740",
    "locID": "LOC000133515740",
    "tech": "SATELLITE",
    "upgrade": "NULL_NA",
    "gnaf_pid": "GAWA_718339589",
    "ee": false,
    "tech_change_status": "Not Planned"
   }
  },
  {
   "type": "Feature",
   "geometry": {
    "type": "Point",
    "coordinates": [
     126.63818731,
     -14.29079897
    ]
   },
   "properties": {
    "name": "LOT 128 HONEYMOON PLACE KALUMBURU 6740",
    "locID": "LOC000133457102",
    "tech": "NULL",
    "upgrade": "NULL_NA",
    "gnaf_pid": "GAWA_718340081",
    "ee": false,
    "tech_change_status": "Not Planned"
   }
  },
  {
   "type": "Feature",
   "geometry": {
    "type": "Point",
    "coordinates": [
     126.63818731,
     -14.29079897
    ]
   },
   "properties": {
    "name": "LOT 129 HONEYMOON PLACE KALUMBURU 6740",
    "locID": "LOC000133457118",
    "tech": "SATELLITE",
    "upgrade": "NULL_NA",
    "gnaf_pid": "GAWA_718340082",
    "ee": false,
    "tech_change_status": "Not Planned"
   }
  },
  {
   "type": "Feature",
   "geometry": {
    "type": "Point",
    "coordinates": [
     126.63818731,
     -14.29079897
    ]
   },
   "properties": {
    "name": "LOT 130 HONEYMOON PLACE KALUMBURU 6740",
    "locID": "LOC000133457125",
    "tech": "NULL",
    "upgrade": "NULL_NA",
    "gnaf_pid": "GAWA_718340083",
    "ee": false,
    "tech_change_status": "Not Planned"
   }
  },
  {
   "type": "Feature",
   "geometry": {
    "type": "Point",
    "coordinates": [
     126.63818731,
     -14.29079897
    ]
   },
   "properties": {
    "name": "LOT 131 HONEYMOON PLACE KALUMBURU 6740",
    "locID": "LOC000133457139",
    "tech": "SATELLITE",
    "upgrade": "NULL_NA",
    "gnaf_pid": "GAWA_718340084",
    "ee": false,
    "tech_change_status": "Not Planned"
   }
  },
  {
   "type": "Feature",
   "geometry": {
    "type": "Point",
    "coordinates": [
     126.63818731,
     -14.29079897
    ]
   },
   "properties": {
    "name": "LOT 132 HONEYMOON PLACE KALUMBURU 6740",
    "locID": "LOC000133457141",
    "tech": "SATELLITE",
    "upgrade": "NULL_NA",
    "gnaf_pid": "GAWA_718340085",
    "ee": false,
    "tech_change_status": "Not Planned"
   }
  },
  {
   "type": "Feature",
   "geometry": {
    "type": "Point",
    "coordinates": [
     126.63818731,
     -14.29079897
    ]
   },
   "properties": {
    "name": "LOT 119 HONEYMOON TURN KALUMBURU 6740",
    "locID": "LOC000133457156",
    "tech": "SATELLITE",
    "upgrade": "NULL_NA",
    "gnaf_pid": "GAWA_718340091",
    "ee": false,
    "tech_change_status": "Not Planned"
   }
  },
  {
   "type": "Feature",
   "geometry": {
    "type": "Point",
    "coordinates": [
     126.63818731,
     -14.29079897
    ]
   },
   "properties": {
    "name": "LOT 120 HONEYMOON TURN KALUMBURU 6740",
    "locID": "LOC000133457160",
    "tech": "NULL",
    "upgrade": "NULL_NA",
    "gnaf_pid": "GAWA_718340092",
    "ee": false,
    "tech_change_status": "Not Planned"
   }
  },
  {
   "type": "Feature",
   "geometry": {
    "type": "Point",
    "coordinates": [
     126.63818731,
     -14.29079897
    ]
   },
   "properties": {
    "name": "LOT 122 HONEYMOON TURN KALUMBURU 6740",
    "locID": "LOC000133457173",
    "tech": "NULL",
    "upgrade": "NULL_NA",
    "gnaf_pid": "GAWA_718340093",
    "ee": false,
    "tech_change_status": "Not Planned"
   }
  },
  {
   "type": "Feature",
   "geometry": {
    "type": "Point",
    "coordinates": [
     126.63818731,
     -14.29079897
    ]
   },
   "properties": {
    "name": "LOT 102 KALUMBURU BOULEVARD KALUMBURU 6740",
    "locID": "LOC000133457194",
    "tech": "NULL",
    "upgrade": "NULL_NA",
    "gnaf_pid": "GAWA_718340508",
    "ee": false,
    "tech_change_status": "Not Planned"
   }
  },
  {
   "type": "Feature",
   "geometry": {
    "type": "Point",
    "coordinates": [
     126.63818731,
     -14.29079897
    ]
   },
   "properties": {
    "name": "LOT 103 KALUMBURU BOULEVARD KALUMBURU 6740",
    "locID": "LOC000133457207",
    "tech": "NULL",
    "upgrade": "NULL_NA",
    "gnaf_pid": "GAWA_718340509",
    "ee": false,
    "tech_change_status": "Not Planned"
   }
  },
  {
   "type": "Feature",
   "geometry": {
    "type": "Point",
    "coordinates": [
     126.63818731,
     -14.29079897
    ]
   },
   "properties": {
    "name": "LOT 104 KALUMBURU BOULEVARD KALUMBURU 6740",
    "locID": "LOC000133457211",
    "tech": "NULL",
    "upgrade": "NULL_NA",
    "gnaf_pid": "GAWA_718340510",
    "ee": false,
    "tech_change_status": "Not Planned"
   }
  },
  {
   "type": "Feature",
   "geometry": {
    "type": "Point",
    "coordinates": [
     126.63818731,
     -14.29079897
    ]
   },
   "properties": {
    "name": "LOT 110 KALUMBURU BOULEVARD KALUMBURU 6740",
    "locID": "LOC000133457224",
    "tech": "NULL",
    "upgrade": "NULL_NA",
    "gnaf_pid": "GAWA_718340511",
    "ee": false,
    "tech_change_status": "Not Planned"
   }
  },
  {
   "type": "Feature",
   "geometry": {
    "type": "Point",
    "coordinates": [
     126.63818731,
     -14.29079897
    ]
   },
   "properties": {
    "name": "LOT 111 KALUMBURU BOULEVARD KALUMBURU 6740",
    "locID": "LOC000133457230",
    "tech": "NULL",
    "upgrade": "NULL_NA",
    "gnaf_pid": "GAWA_718340512",
    "ee": false,
    "tech_change_status": "Not Planned"
   }
  },
  {
   "type": "Feature",
   "geometry": {
    "type": "Point",
    "coordinates": [
     126.63818731,
     -14.29079897
    ]
   },
   "properties": {
    "name": "LOT 123 KALUMBURU BOULEVARD KALUMBURU 6740",
    "locID": "LOC000133457253",
    "tech": "SATELLITE",
    "upgrade": "NULL_NA",
    "gnaf_pid": "GAWA_718340514",
    "ee": false,
    "tech_change_status": "Not Planned"
   }
  },
  {
   "type": "Feature",
   "geometry": {
    "type": "Point",
    "coordinates": [
     126.63818731,
     -14.29079897
    ]
   },
   "properties": {
    "name": "LOT 72A KALUMBURU BOULEVARD KALUMBURU 6740",
    "locID": "LOC000133461006",
    "tech": "SATELLITE",
    "upgrade": "NULL_NA",
    "gnaf_pid": "GAWA_718340521",
    "ee": false,
    "tech_change_status": "Not Planned"
   }
  },
  {
   "type": "Feature",
   "geometry": {
    "type": "Point",
    "coordinates": [
     126.63818731,
     -14.29079897
    ]
   },
   "properties": {
    "name": "LOT 72B KALUMBURU BOULEVARD KALUMBURU 6740",
    "locID": "LOC000133461010",
    "tech": "SATELLITE",
    "upgrade": "NULL_NA",
    "gnaf_pid": "GAWA_718340522",
    "ee": false,
    "tech_change_status": "Not Planned"
   }
  },
  {
   "type": "Feature",
   "geometry": {
    "type": "Point",
    "coordinates": [
     126.63818731,
     -14.29079897
    ]
   },
   "properties": {
    "name": "LOT 72D KALUMBURU BOULEVARD KALUMBURU 6740",
    "locID": "LOC000188674973",
    "tech": "SATELLITE",
    "upgrade": "NULL_NA",
    "gnaf_pid": "GAWA_718340523",
    "ee": false,
    "tech_change_status": "Not Planned"
   }
  },
  {
   "type": "Feature",
   "geometry": {
    "type": "Point",
    "coordinates": [
     126.63818731,
     -14.29079897
    ]
   },
   "properties": {
    "name": "LOT 89 KALUMBURU BOULEVARD KALUMBURU 6740",
    "locID": "LOC000133461034",
    "tech": "SATELLITE",
    "upgrade": "NULL_NA",
    "gnaf_pid": "GAWA_718340524",
    "ee": false,
    "tech_change_status": "Not Planned"
   }
  },
  {
   "type": "Feature",
   "geometry": {
    "type": "Point",
    "coordinates": [
     126.63818731,
     -14.29079897
    ]
   },
   "properties": {
    "name": "LOT 91 KALUMBURU BOULEVARD KALUMBURU 6740",
    "locID": "LOC000133461052",
    "tech": "SATELLITE",
    "upgrade": "NULL_NA",
    "gnaf_pid": "GAWA_718340526",
    "ee": false,
    "tech_change_status": "Not Planned"
   }
  },
  {
   "type": "Feature",
   "geometry": {
    "type": "Point",
    "coordinates": [
     126.63818731,
     -14.29079897
    ]
   },
   "properties": {
    "name": "LOT 105 KING EDWARD STREET KALUMBURU 6740",
    "locID": "LOC000143076290",
    "tech": "SATELLITE",
    "upgrade": "NULL_NA",
    "gnaf_pid": "GAWA_718340638",
    "ee": false,
    "tech_change_status": "Not Planned"
   }
  },
  {
   "type": "Feature",
   "geometry": {
    "type": "Point",
    "coordinates": [
     126.63818731,
     -14.29079897
    ]
   },
   "properties": {
    "name": "LOT 106 KING EDWARD STREET KALUMBURU 6740",
    "locID": "LOC000185507146",
    "tech": "SATELLITE",
    "upgrade": "NULL_NA",
    "gnaf_pid": "GAWA_718340639",
    "ee": false,
    "tech_change_status": "Not Planned"
   }
  },
  {
   "type": "Feature",
   "geometry": {
    "type": "Point",
    "coordinates": [
     126.63818731,
     -14.29079897
    ]
   },
   "properties": {
    "name": "LOT 19 KING EDWARD STREET KALUMBURU 6740",
    "locID": "LOC000143076290",
    "tech": "SATELLITE",
    "upgrade": "NULL_NA",
    "gnaf_pid": "GAWA_718340640",
    "ee": false,
    "tech_change_status": "Not Planned"
   }
  },
  {
   "type": "Feature",
   "geometry": {
    "type": "Point",
    "coordinates": [
     126.63818731,
     -14.29079897
    ]
   },
   "properties": {
    "name": "LOT 20 KING EDWARD STREET KALUMBURU 6740",
    "locID": "LOC000185507146",
    "tech": "SATELLITE",
    "upgrade": "NULL_NA",
    "gnaf_pid": "GAWA_718340641",
    "ee": false,
    "tech_change_status": "Not Planned"
   }
  },
  {
   "type": "Feature",
   "geometry": {
    "type": "Point",
    "coordinates": [
     126.63818731,
     -14.29079897
    ]
   },
   "properties": {
    "name": "LOT 21 KING EDWARD STREET KALUMBURU 6740",
    "locID": "LOC000143076290",
    "tech": "SATELLITE",
    "upgrade": "NULL_NA",
    "gnaf_pid": "GAWA_718340642",
    "ee": false,
    "tech_change_status": "Not Planned"
   }
  },
  {
   "type": "Feature",
   "geometry": {
    "type": "Point",
    "coordinates": [
     126.63818731,
     -14.29079897
    ]
   },
   "properties": {
    "name": "LOT 22 KING EDWARD STREET KALUMBURU 6740",
    "locID": "LOC000143076290",
    "tech": "SATELLITE",
    "upgrade": "NULL_NA",
    "gnaf_pid": "GAWA_718340643",
    "ee": false,
    "tech_change_status": "Not Planned"
   }
  },
  {
   "type": "Feature",
   "geometry": {
    "type": "Point",
    "coordinates": [
     126.63818731,
     -14.29079897
    ]
   },
   "properties": {
    "name": "LOT 23 KING EDWARD STREET KALUMBURU 6740",
    "locID": "LOC000143076290",
    "tech": "SATELLITE",
    "upgrade": "NULL_NA",
    "gnaf_pid": "GAWA_718340644",
    "ee": false,
    "tech_change_status": "Not Planned"
   }
  },
  {
   "type": "Feature",
   "geometry": {
    "type": "Point",
    "coordinates": [
     126.63818731,
     -14.29079897
    ]
   },
   "properties": {
    "name": "LOT 24 KING EDWARD STREET KALUMBURU 6740",
    "locID": "LOC000143076290",
    "tech": "SATELLITE",
    "upgrade": "NULL_NA",
    "gnaf_pid": "GAWA_718340645",
    "ee": false,
    "tech_change_status": "Not Planned"
   }
  },
  {
   "type": "Feature",
   "geometry": {
    "type": "Point",
    "coordinates": [
     126.63818731,
     -14.29079897
    ]
   },
   "properties": {
    "name": "LOT 84 KING EDWARD STREET KALUMBURU 6740",
    "locID": "LOC000143076290",
    "tech": "SATELLITE",
    "upgrade": "NULL_NA",
    "gnaf_pid": "GAWA_718340646",
    "ee": false,
    "tech_change_status": "Not Planned"
   }
  },
  {
   "type": "Feature",
   "geometry": {
    "type": "Point",
    "coordinates": [
     126.63818731,
     -14.29079897
    ]
   },
   "properties": {
    "name": "LOT 85 KING EDWARD STREET KALUMBURU 6740",
    "locID": "LOC000133461150",
    "tech": "SATELLITE",
    "upgrade": "NULL_NA",
    "gnaf_pid": "GAWA_718340647",
    "ee": false,
    "tech_change_status": "Not Planned"
   }
  },
  {
   "type": "Feature",
   "geometry": {
    "type": "Point",
    "coordinates": [
     126.63818731,
     -14.29079897
    ]
   },
   "properties": {
    "name": "LOT 86 KING EDWARD STREET KALUMBURU 6740",
    "locID": "LOC000143076290",
    "tech": "SATELLITE",
    "upgrade": "NULL_NA",
    "gnaf_pid": "GAWA_718340648",
    "ee": false,
    "tech_change_status": "Not Planned"
   }
  },
  {
   "type": "Feature",
   "geometry": {
    "type": "Point",
    "coordinates": [
     126.63818731,
     -14.29079897
    ]
   },
   "properties": {
    "name": "LOT 87 KING EDWARD STREET KALUMBURU 6740",
    "locID": "LOC000143076290",
    "tech": "SATELLITE",
    "upgrade": "NULL_NA",
    "gnaf_pid": "GAWA_718340649",
    "ee": false,
    "tech_change_status": "Not Planned"
   }
  },
  {
   "type": "Feature",
   "geometry": {
    "type": "Point",
    "coordinates": [
     126.63818731,
     -14.29079897
    ]
   },
   "properties": {
    "name": "LOT 88 KING EDWARD STREET KALUMBURU 6740",
    "locID": "LOC000143076290",
    "tech": "SATELLITE",
    "upgrade": "NULL_NA",
    "gnaf_pid": "GAWA_718340650",
    "ee": false,
    "tech_change_status": "Not Planned"
   }
  },
  {
   "type": "Feature",
   "geometry": {
    "type": "Point",
    "coordinates": [
     126.63818731,
     -14.29079897
    ]
   },
   "properties": {
    "name": "LOT 92 KING EDWARD STREET KALUMBURU 6740",
    "locID": "LOC000185507146",
    "tech": "SATELLITE",
    "upgrade": "NULL_NA",
    "gnaf_pid": "GAWA_718340651",
    "ee": false,
    "tech_change_status": "Not Planned"
   }
  },
  {
   "type": "Feature",
   "geometry": {
    "type": "Point",
    "coordinates": [
     126.63818731,
     -14.29079897
    ]
   },
   "properties": {
    "name": "LOT 95 KING EDWARD STREET KALUMBURU 6740",
    "locID": "LOC000185507146",
    "tech": "SATELLITE",
    "upgrade": "NULL_NA",
    "gnaf_pid": "GAWA_718340652",
    "ee": false,
    "tech_change_status": "Not Planned"
   }
  },
  {
   "type": "Feature",
   "geometry": {
    "type": "Point",
    "coordinates": [
     126.63818731,
     -14.29079897
    ]
   },
   "properties": {
    "name": "LOT 42 MCGOWAN PLACE KALUMBURU 6740",
    "locID": "LOC000133461301",
    "tech": "SATELLITE",
    "upgrade": "NULL_NA",
    "gnaf_pid": "GAWA_718341318",
    "ee": false,
    "tech_change_status": "Not Planned"
   }
  },
  {
   "type": "Feature",
   "geometry": {
    "type": "Point",
    "coordinates": [
     126.63818731,
     -14.29079897
    ]
   },
   "properties": {
    "name": "LOT 43 MCGOWAN PLACE KALUMBURU 6740",
    "locID": "LOC000167895679",
    "tech": "NULL",
    "upgrade": "NULL_NA",
    "gnaf_pid": "GAWA_718341319",
    "ee": false,
    "tech_change_status": "Not Planned"
   }
  },
  {
   "type": "Feature",
   "geometry": {
    "type": "Point",
    "coordinates": [
     126.63818731,
     -14.29079897
    ]
   },
   "properties": {
    "name": "LOT 44 MCGOWAN PLACE KALUMBURU 6740",
    "locID": "LOC000142461212",
    "tech": "SATELLITE",
    "upgrade": "NULL_NA",
    "gnaf_pid": "GAWA_718341320",
    "ee": false,
    "tech_change_status": "Not Planned"
   }
  },
  {
   "type": "Feature",
   "geometry": {
    "type": "Point",
    "coordinates": [
     126.63818731,
     -14.29079897
    ]
   },
   "properties": {
    "name": "LOT 45 MCGOWAN PLACE KALUMBURU 6740",
    "locID": "LOC000133461338",
    "tech": "SATELLITE",
    "upgrade": "NULL_NA",
    "gnaf_pid": "GAWA_718341321",
    "ee": false,
    "tech_change_status": "Not Planned"
   }
  },
  {
   "type": "Feature",
   "geometry": {
    "type": "Point",
    "coordinates": [
     126.63818731,
     -14.29079897
    ]
   },
   "properties": {
    "name": "LOT 29 NAPIER CLOSE KALUMBURU 6740",
    "locID": "LOC000133464570",
    "tech": "SATELLITE",
    "upgrade": "NULL_NA",
    "gnaf_pid": "GAWA_718341606",
    "ee": false,
    "tech_change_status": "Not Planned"
   }
  },
  {
   "type": "Feature",
   "geometry": {
    "type": "Point",
    "coordinates": [
     126.63818731,
     -14.29079897
    ]
   },
   "properties": {
    "name": "LOT 30 NAPIER CLOSE KALUMBURU 6740",
    "locID": "LOC000133464570",
    "tech": "SATELLITE",
    "upgrade": "NULL_NA",
    "gnaf_pid": "GAWA_718341607",
    "ee": false,
    "tech_change_status": "Not Planned"
   }
  },
  {
   "type": "Feature",
   "geometry": {
    "type": "Point",
    "coordinates": [
     126.63818731,
     -14.29079897
    ]
   },
   "properties": {
    "name": "LOT 31 NAPIER CLOSE KALUMBURU 6740",
    "locID": "LOC000133464570",
    "tech": "SATELLITE",
    "upgrade": "NULL_NA",
    "gnaf_pid": "GAWA_718341608",
    "ee": false,
    "tech_change_status": "Not Planned"
   }
  },
  {
   "type": "Feature",
   "geometry": {
    "type": "Point",
    "coordinates": [
     126.63818731,
     -14.29079897
    ]
   },
   "properties": {
    "name": "LOT 32 NAPIER CLOSE KALUMBURU 6740",
    "locID": "LOC000133464570",
    "tech": "SATELLITE",
    "upgrade": "NULL_NA",
    "gnaf_pid": "GAWA_718341609",
    "ee": false,
    "tech_change_status": "Not Planned"
   }
  },
  {
   "type": "Feature",
   "geometry": {
    "type": "Point",
    "coordinates": [
     126.63818731,
     -14.29079897
    ]
   },
   "properties": {
    "name": "LOT 33 NAPIER CLOSE KALUMBURU 6740",
    "locID": "LOC000133464562",
    "tech": "SATELLITE",
    "upgrade": "NULL_NA",
    "gnaf_pid": "GAWA_718341610",
    "ee": false,
    "tech_change_status": "Not Planned"
   }
  },
  {
   "type": "Feature",
   "geometry": {
    "type": "Point",
    "coordinates": [
     126.63818731,
     -14.29079897
    ]
   },
   "properties": {
    "name": "LOT 34 NAPIER CLOSE KALUMBURU 6740",
    "locID": "LOC000133464570",
    "tech": "SATELLITE",
    "upgrade": "NULL_NA",
    "gnaf_pid": "GAWA_718341611",
    "ee": false,
    "tech_change_status": "Not Planned"
   }
  },
  {
   "type": "Feature",
   "geometry": {
    "type": "Point",
    "coordinates": [
     126.63818731,
     -14.29079897
    ]
   },
   "properties": {
    "name": "LOT 35 NAPIER CLOSE KALUMBURU 6740",
    "locID": "LOC000133464570",
    "tech": "SATELLITE",
    "upgrade": "NULL_NA",
    "gnaf_pid": "GAWA_718341612",
    "ee": false,
    "tech_change_status": "Not Planned"
   }
  },
  {
   "type": "Feature",
   "geometry": {
    "type": "Point",
    "coordinates": [
     126.63818731,
     -14.29079897
    ]
   },
   "properties": {
    "name": "LOT 36 NAPIER CLOSE KALUMBURU 6740",
    "locID": "LOC000133464570",
    "tech": "SATELLITE",
    "upgrade": "NULL_NA",
    "gnaf_pid": "GAWA_718341613",
    "ee": false,
    "tech_change_status": "Not Planned"
   }
  },
  {
   "type": "Feature",
   "geometry": {
    "type": "Point",
    "coordinates": [
     126.63818731,
     -14.29079897
    ]
   },
   "properties": {
    "name": "LOT 16 OORARO STREET KALUMBURU 6740",
    "locID": "LOC000133464687",
    "tech": "SATELLITE",
    "upgrade": "NULL_NA",
    "gnaf_pid": "GAWA_718341878",
    "ee": false,
    "tech_change_status": "Not Planned"
   }
  },
  {
   "type": "Feature",
   "geometry": {
    "type": "Point",
    "coordinates": [
     126.63818731,
     -14.29079897
    ]
   },
   "properties": {
    "name": "LOT 18 OORARO STREET KALUMBURU 6740",
    "locID": "LOC000133464687",
    "tech": "SATELLITE",
    "upgrade": "NULL_NA",
    "gnaf_pid": "GAWA_718341879",
    "ee": false,
    "tech_change_status": "Not Planned"
   }
  },
  {
   "type": "Feature",
   "geometry": {
    "type": "Point",
    "coordinates": [
     126.63818731,
     -14.29079897
    ]
   },
   "properties": {
    "name": "LOT 81 OORARO STREET KALUMBURU 6740",
    "locID": "LOC000133464706",
    "tech": "SATELLITE",
    "upgrade": "NULL_NA",
    "gnaf_pid": "GAWA_718341880",
    "ee": false,
    "tech_change_status": "Not Planned"
   }
  },
  {
   "type": "Feature",
   "geometry": {
    "type": "Point",
    "coordinates": [
     126.63818731,
     -14.29079897
    ]
   },
   "properties": {
    "name": "LOT 82 OORARO STREET KALUMBURU 6740",
    "locID": "LOC000133464687",
    "tech": "SATELLITE",
    "upgrade": "NULL_NA",
    "gnaf_pid": "GAWA_718341881",
    "ee": false,
    "tech_change_status": "Not Planned"
   }
  },
  {
   "type": "Feature",
   "geometry": {
    "type": "Point",
    "coordinates": [
     126.63818731,
     -14.29079897
    ]
   },
   "properties": {
    "name": "LOT 83 OORARO STREET KALUMBURU 6740",
    "locID": "LOC000133464687",
    "tech": "SATELLITE",
    "upgrade": "NULL_NA",
    "gnaf_pid": "GAWA_718341882",
    "ee": false,
    "tech_change_status": "Not Planned"
   }
  },
  {
   "type": "Feature",
   "geometry": {
    "type": "Point",
    "coordinates": [
     126.63818731,
     -14.29079897
    ]
   },
   "properties": {
    "name": "LOT 108 PAGO CLOSE KALUMBURU 6740",
    "locID": "LOC100033808523",
    "tech": "SATELLITE",
    "upgrade": "NULL_NA",
    "gnaf_pid": "GAWA_718341913",
    "ee": false,
    "tech_change_status": "Not Planned"
   }
  },
  {
   "type": "Feature",
   "geometry": {
    "type": "Point",
    "coordinates": [
     126.63818731,
     -14.29079897
    ]
   },
   "properties": {
    "name": "LOT 109 PAGO CLOSE KALUMBURU 6740",
    "locID": "LOC000133464747",
    "tech": "SATELLITE",
    "upgrade": "NULL_NA",
    "gnaf_pid": "GAWA_718341914",
    "ee": false,
    "tech_change_status": "Not Planned"
   }
  },
  {
   "type": "Feature",
   "geometry": {
    "type": "Point",
    "coordinates": [
     126.63818731,
     -14.29079897
    ]
   },
   "properties": {
    "name": "LOT 68 PAGO CLOSE KALUMBURU 6740",
    "locID": "LOC000133464752",
    "tech": "SATELLITE",
    "upgrade": "NULL_NA",
    "gnaf_pid": "GAWA_718341915",
    "ee": false,
    "tech_change_status": "Not Planned"
   }
  },
  {
   "type": "Feature",
   "geometry": {
    "type": "Point",
    "coordinates": [
     126.63818731,
     -14.29079897
    ]
   },
   "properties": {
    "name": "LOT 69 PAGO CLOSE KALUMBURU 6740",
    "locID": "LOC100033808523",
    "tech": "SATELLITE",
    "upgrade": "NULL_NA",
    "gnaf_pid": "GAWA_718341916",
    "ee": false,
    "tech_change_status": "Not Planned"
   }
  },
  {
   "type": "Feature",
   "geometry": {
    "type": "Point",
    "coordinates": [
     126.63818731,
     -14.29079897
    ]
   },
   "properties": {
    "name": "LOT 70 PAGO CLOSE KALUMBURU 6740",
    "locID": "LOC100033808523",
    "tech": "SATELLITE",
    "upgrade": "NULL_NA",
    "gnaf_pid": "GAWA_718341917",
    "ee": false,
    "tech_change_status": "Not Planned"
   }
  },
  {
   "type": "Feature",
   "geometry": {
    "type": "Point",
    "coordinates": [
     126.63818731,
     -14.29079897
    ]
   },
   "properties": {
    "name": "LOT 135 PIM CLOSE KALUMBURU 6740",
    "locID": "LOC000185586001",
    "tech": "SATELLITE",
    "upgrade": "NULL_NA",
    "gnaf_pid": "GAWA_718342118",
    "ee": false,
    "tech_change_status": "Not Planned"
   }
  },
  {
   "type": "Feature",
   "geometry": {
    "type": "Point",
    "coordinates": [
     126.63818731,
     -14.29079897
    ]
   },
   "properties": {
    "name": "LOT 136 PIM CLOSE KALUMBURU 6740",
    "locID": "LOC000185586001",
    "tech": "SATELLITE",
    "upgrade": "NULL_NA",
    "gnaf_pid": "GAWA_718342119",
    "ee": false,
    "tech_change_status": "Not Planned"
   }
  },
  {
   "type": "Feature",
   "geometry": {
    "type": "Point",
    "coordinates": [
     126.63818731,
     -14.29079897
    ]
   },
   "properties": {
    "name": "LOT 137 PIM CLOSE KALUMBURU 6740",
    "locID": "LOC000185586001",
    "tech": "SATELLITE",
    "upgrade": "NULL_NA",
    "gnaf_pid": "GAWA_718342120",
    "ee": false,
    "tech_change_status": "Not Planned"
   }
  },
  {
   "type": "Feature",
   "geometry": {
    "type": "Point",
    "coordinates": [
     126.63818731,
     -14.29079897
    ]
   },
   "properties": {
    "name": "LOT 80 POOMPANGALA STREET KALUMBURU 6740",
    "locID": "LOC000133468474",
    "tech": "SATELLITE",
    "upgrade": "NULL_NA",
    "gnaf_pid": "GAWA_718342241",
    "ee": false,
    "tech_change_status": "Not Planned"
   }
  },
  {
   "type": "Feature",
   "geometry": {
    "type": "Point",
    "coordinates": [
     126.63818731,
     -14.29079897
    ]
   },
   "properties": {
    "name": "LOT 93 POOMPANGALA STREET KALUMBURU 6740",
    "locID": "LOC000133468474",
    "tech": "SATELLITE",
    "upgrade": "NULL_NA",
    "gnaf_pid": "GAWA_718342242",
    "ee": false,
    "tech_change_status": "Not Planned"
   }
  },
  {
   "type": "Feature",
   "geometry": {
    "type": "Point",
    "coordinates": [
     126.63818731,
     -14.29079897
    ]
   },
   "properties": {
    "name": "LOT 90 POOMPANGALA STREET KALUMBURU 6740",
    "locID": "LOC000133468474",
    "tech": "SATELLITE",
    "upgrade": "NULL_NA",
    "gnaf_pid": "GAWA_718630887",
    "ee": false,
    "tech_change_status": "Not Planned"
   }
  },
  {
   "type": "Feature",
   "geometry": {
    "type": "Point",
    "coordinates": [
     126.63818731,
     -14.29079897
    ]
   },
   "properties": {
    "name": "LOT 41 MAMA HILL STREET KALUMBURU 6740",
    "locID": "LOC000183754318",
    "tech": "SATELLITE",
    "upgrade": "NULL_NA",
    "gnaf_pid": "GAWA_719967177",
    "ee": false,
    "tech_change_status": "Not Planned"
   }
  },
  {
   "type": "Feature",
   "geometry": {
    "type": "Point",
    "coordinates": [
     126.63818731,
     -14.29079897
    ]
   },
   "properties": {
    "name": "LOT 15 POOMPANGALA STREET KALUMBURU 6740",
    "locID": "LOC000175014067",
    "tech": "SATELLITE",
    "upgrade": "NULL_NA",
    "gnaf_pid": "GAWA_719967286",
    "ee": false,
    "tech_change_status": "Not Planned"
   }
  },
  {
   "type": "Feature",
   "geometry": {
    "type": "Point",
    "coordinates": [
     126.63818731,
     -14.29079897
    ]
   },
   "properties": {
    "name": "LOT 46 MCGOWAN PLACE KALUMBURU 6740",
    "locID": "LOC000142451818",
    "tech": "SATELLITE",
    "upgrade": "NULL_NA",
    "gnaf_pid": "GAWA_719968104",
    "ee": false,
    "tech_change_status": "Not Planned"
   }
  },
  {
   "type": "Feature",
   "geometry": {
    "type": "Point",
    "coordinates": [
     126.63818731,
     -14.29079897
    ]
   },
   "properties": {
    "name": "LOT 28 MAMA HILL STREET KALUMBURU 6740",
    "locID": "LOC000183754318",
    "tech": "SATELLITE",
    "upgrade": "NULL_NA",
    "gnaf_pid": "GAWA_719968885",
    "ee": false,
    "tech_change_status": "Not Planned"
   }
  },
  {
   "type": "Feature",
   "geometry": {
    "type": "Point",
    "coordinates": [
     126.63818731,
     -14.29079897
    ]
   },
   "properties": {
    "name": "LOT 14 POOMPANGALA STREET KALUMBURU 6740",
    "locID": "LOC000185483006",
    "tech": "SATELLITE",
    "upgrade": "NULL_NA",
    "gnaf_pid": "GAWA_719968886",
    "ee": false,
    "tech_change_status": "Not Planned"
   }
  },
  {
   "type": "Feature",
   "geometry": {
    "type": "Point",
    "coordinates": [
     126.63818731,
     -14.29079897
    ]
   },
   "properties": {
    "name": "LOT 101 BARTON LOOP KALUMBURU 6740",
    "locID": "LOC000185038820",
    "tech": "SATELLITE",
    "upgrade": "NULL_NA",
    "gnaf_pid": "GAWA_719968887",
    "ee": false,
    "tech_change_status": "Not Planned"
   }
  },
  {
   "type": "Feature",
   "geometry": {
    "type": "Point",
    "coordinates": [
     126.63818731,
     -14.29079897
    ]
   },
   "properties": {
    "name": "LOT 27 MAMA HILL STREET KALUMBURU 6740",
    "locID": "LOC000183754318",
    "tech": "SATELLITE",
    "upgrade": "NULL_NA",
    "gnaf_pid": "GAWA_719968904",
    "ee": false,
    "tech_change_status": "Not Planned"
   }
  },
  {
   "type": "Feature",
   "geometry": {
    "type": "Point",
    "coordinates": [
     126.63818731,
     -14.29079897
    ]
   },
   "properties": {
    "name": "LOT 175 CARSON STREET KALUMBURU 6740",
    "locID": "LOC000142445673",
    "tech": "SATELLITE",
    "upgrade": "NULL_NA",
    "gnaf_pid": "GAWA_719968905",
    "ee": false,
    "tech_change_status": "Not Planned"
   }
  },
  {
   "type": "Feature",
   "geometry": {
    "type": "Point",
    "coordinates": [
     126.63818731,
     -14.29079897
    ]
   },
   "properties": {
    "name": "LOT 9 MAMA HILL STREET KALUMBURU 6740",
    "locID": "LOC000183754318",
    "tech": "SATELLITE",
    "upgrade": "NULL_NA",
    "gnaf_pid": "GAWA_719968906",
    "ee": false,
    "tech_change_status": "Not Planned"
   }
  },
  {
   "type": "Feature",
   "geometry": {
    "type": "Point",
    "coordinates": [
     126.63818731,
     -14.29079897
    ]
   },
   "properties": {
    "name": "LOT 37 KING EDWARD STREET KALUMBURU 6740",
    "locID": "LOC000185507146",
    "tech": "SATELLITE",
    "upgrade": "NULL_NA",
    "gnaf_pid": "GAWA_719969173",
    "ee": false,
    "tech_change_status": "Not Planned"
   }
  },
  {
   "type": "Feature",
   "geometry": {
    "type": "Point",
    "coordinates": [
     126.63818731,
     -14.29079897
    ]
   },
   "properties": {
    "name": "LOT 12 MAMA HILL STREET KALUMBURU 6740",
    "locID": "LOC000183754318",
    "tech": "SATELLITE",
    "upgrade": "NULL_NA",
    "gnaf_pid": "GAWA_719969301",
    "ee": false,
    "tech_change_status": "Not Planned"
   }
  },
  {
   "type": "Feature",
   "geometry": {
    "type": "Point",
    "coordinates": [
     126.63818731,
     -14.29079897
    ]
   },
   "properties": {
    "name": "LOT 37 BARTON LOOP KALUMBURU 6740",
    "locID": "LOC000185038820",
    "tech": "SATELLITE",
    "upgrade": "NULL_NA",
    "gnaf_pid": "GAWA_719969322",
    "ee": false,
    "tech_change_status": "Not Planned"
   }
  },
  {
   "type": "Feature",
   "geometry": {
    "type": "Point",
    "coordinates": [
     126.63818731,
     -14.29079897
    ]
   },
   "properties": {
    "name": "LOT 13 POOMPANGALA STREET KALUMBURU 6740",
    "locID": "LOC000133468474",
    "tech": "SATELLITE",
    "upgrade": "NULL_NA",
    "gnaf_pid": "GAWA_719969636",
    "ee": false,
    "tech_change_status": "Not Planned"
   }
  },
  {
   "type": "Feature",
   "geometry": {
    "type": "Point",
    "coordinates": [
     126.63818731,
     -14.29079897
    ]
   },
   "properties": {
    "name": "LOT 25 MAMA HILL STREET KALUMBURU 6740",
    "locID": "LOC000183754318",
    "tech": "SATELLITE",
    "upgrade": "NULL_NA",
    "gnaf_pid": "GAWA_719969648",
    "ee": false,
    "tech_change_status": "Not Planned"
   }
  },
  {
   "type": "Feature",
   "geometry": {
    "type": "Point",
    "coordinates": [
     126.63818731,
     -14.29079897
    ]
   },
   "properties": {
    "name": "LOT 26 MAMA HILL STREET KALUMBURU 6740",
    "locID": "LOC000183754318",
    "tech": "SATELLITE",
    "upgrade": "NULL_NA",
    "gnaf_pid": "GAWA_719969756",
    "ee": false,
    "tech_change_status": "Not Planned"
   }
  },
  {
   "type": "Feature",
   "geometry": {
    "type": "Point",
    "coordinates": [
     126.63818731,
     -14.29079897
    ]
   },
   "properties": {
    "name": "LOT 113 HONEYMOON TURN KALUMBURU 6740",
    "locID": "LOC000133457160",
    "tech": "NULL",
    "upgrade": "NULL_NA",
    "gnaf_pid": "GAWA_719969757",
    "ee": false,
    "tech_change_status": "Not Planned"
   }
  },
  {
   "type": "Feature",
   "geometry": {
    "type": "Point",
    "coordinates": [
     126.63818731,
     -14.29079897
    ]
   },
   "properties": {
    "name": "LOT 114 KALUMBURU BOULEVARD KALUMBURU 6740",
    "locID": "LOC100073765576",
    "tech": "SATELLITE",
    "upgrade": "NULL_NA",
    "gnaf_pid": "GAWA_719969799",
    "ee": false,
    "tech_change_status": "Not Planned"
   }
  }
 ]
}