{
 "type": "FeatureCollection",
 "generated": "2025-06-19T03:53:49.180613",
 "suburb": "KARALUNDI",
 "features": [
  {
   "type": "Feature",
   "geometry": {
    "type": "Point",
    "coordinates": [
     118.6736205,
     -26.12516737
    ]
   },
   "properties": {
    "name": "10 CRYSTAL BROOK ROAD KARALUNDI 6642",
    "locID": "LOC000149127146",
    "tech": "SATELLITE",
    "upgrade": "NULL_NA",
    "gnaf_pid": "GAWA_718521136",
    "ee": false,
    "tech_change_status": "Not Planned"
   }
  },
  {
   "type": "Feature",
   "geometry": {
    "type": "Point",
    "coordinates": [
     118.6736205,
     -26.12516737
    ]
   },
   "properties": {
    "name": "11 CRYSTAL BROOK ROAD KARALUNDI 6642",
    "locID": "LOC000149127151",
    "tech": "NULL",
    "upgrade": "NULL_NA",
    "gnaf_pid": "GAWA_718521137",
    "ee": false,
    "tech_change_status": "Not Planned"
   }
  },
  {
   "type": "Feature",
   "geometry": {
    "type": "Point",
    "coordinates": [
     118.6736205,
     -26.12516737
    ]
   },
   "properties": {
    "name": "12 CRYSTAL BROOK ROAD KARALUNDI 6642",
    "locID": "LOC000149127167",
    "tech": "SATELLITE",
    "upgrade": "NULL_NA",
    "gnaf_pid": "GAWA_718521138",
    "ee": false,
    "tech_change_status": "Not Planned"
   }
  },
  {
   "type": "Feature",
   "geometry": {
    "type": "Point",
    "coordinates": [
     118.6736205,
     -26.12516737
    ]
   },
   "properties": {
    "name": "6 CRYSTAL BROOK ROAD KARALUNDI 6642",
    "locID": "LOC000149127167",
    "tech": "SATELLITE",
    "upgrade": "NULL_NA",
    "gnaf_pid": "GAWA_718521142",
    "ee": false,
    "tech_change_status": "Not Planned"
   }
  },
  {
   "type": "Feature",
   "geometry": {
    "type": "Point",
    "coordinates": [
     118.6736205,
     -26.12516737
    ]
   },
   "properties": {
    "name": "8 CRYSTAL BROOK ROAD KARALUNDI 6642",
    "locID": "LOC000148539141",
    "tech": "NULL",
    "upgrade": "NULL_NA",
    "gnaf_pid": "GAWA_718521144",
    "ee": false,
    "tech_change_status": "Not Planned"
   }
  },
  {
   "type": "Feature",
   "geometry": {
    "type": "Point",
    "coordinates": [
     118.6736205,
     -26.12516737
    ]
   },
   "properties": {
    "name": "1 KARALUNDI DRIVE KARALUNDI 6642",
    "locID": "LOC000189414672",
    "tech": "SATELLITE",
    "upgrade": "NULL_NA",
    "gnaf_pid": "GAWA_718522500",
    "ee": false,
    "tech_change_status": "Not Planned"
   }
  }
 ]
}