{
 "type": "FeatureCollection",
 "generated": "2025-06-19T04:22:16.724417",
 "suburb": "KOOLYANOBBING",
 "features": [
  {
   "type": "Feature",
   "geometry": {
    "type": "Point",
    "coordinates": [
     119.52028,
     -30.81763
    ]
   },
   "properties": {
    "name": "3 ROBINSON DRIVE KOOLYANOBBING 6427",
    "locID": "LOC100079107331",
    "tech": "NULL",
    "upgrade": "NULL_NA",
    "gnaf_pid": "GAWA_147039779",
    "ee": false,
    "tech_change_status": "Not Planned"
   }
  },
  {
   "type": "Feature",
   "geometry": {
    "type": "Point",
    "coordinates": [
     119.52039,
     -30.81431
    ]
   },
   "properties": {
    "name": "4 HUTT STREET KOOLYANOBBING 6427",
    "locID": "LOC000056295937",
    "tech": "NULL",
    "upgrade": "NULL_NA",
    "gnaf_pid": "GAWA_147042718",
    "ee": false,
    "tech_change_status": "Not Planned"
   }
  },
  {
   "type": "Feature",
   "geometry": {
    "type": "Point",
    "coordinates": [
     119.52132,
     -30.81442
    ]
   },
   "properties": {
    "name": "25 FITZGERALD STREET KOOLYANOBBING 6427",
    "locID": "LOC000033731269",
    "tech": "NULL",
    "upgrade": "NULL_NA",
    "gnaf_pid": "GAWA_147050130",
    "ee": false,
    "tech_change_status": "Not Planned"
   }
  },
  {
   "type": "Feature",
   "geometry": {
    "type": "Point",
    "coordinates": [
     119.51965,
     -30.81548
    ]
   },
   "properties": {
    "name": "2 FITZGERALD STREET KOOLYANOBBING 6427",
    "locID": "LOC000040202459",
    "tech": "NULL",
    "upgrade": "NULL_NA",
    "gnaf_pid": "GAWA_147057078",
    "ee": false,
    "tech_change_status": "Not Planned"
   }
  },
  {
   "type": "Feature",
   "geometry": {
    "type": "Point",
    "coordinates": [
     119.52244,
     -30.81544
    ]
   },
   "properties": {
    "name": "34 FITZGERALD STREET KOOLYANOBBING 6427",
    "locID": "LOC000090647337",
    "tech": "NULL",
    "upgrade": "NULL_NA",
    "gnaf_pid": "GAWA_147057087",
    "ee": false,
    "tech_change_status": "Not Planned"
   }
  },
  {
   "type": "Feature",
   "geometry": {
    "type": "Point",
    "coordinates": [
     119.52131,
     -30.81406
    ]
   },
   "properties": {
    "name": "49 STIRLING CRESCENT KOOLYANOBBING 6427",
    "locID": "LOC000002152377",
    "tech": "NULL",
    "upgrade": "NULL_NA",
    "gnaf_pid": "GAWA_147057089",
    "ee": false,
    "tech_change_status": "Not Planned"
   }
  },
  {
   "type": "Feature",
   "geometry": {
    "type": "Point",
    "coordinates": [
     119.52112,
     -30.81441
    ]
   },
   "properties": {
    "name": "23 FITZGERALD STREET KOOLYANOBBING 6427",
    "locID": "LOC000040202459",
    "tech": "NULL",
    "upgrade": "NULL_NA",
    "gnaf_pid": "GAWA_147057686",
    "ee": false,
    "tech_change_status": "Not Planned"
   }
  },
  {
   "type": "Feature",
   "geometry": {
    "type": "Point",
    "coordinates": [
     119.52091,
     -30.81403
    ]
   },
   "properties": {
    "name": "53 STIRLING CRESCENT KOOLYANOBBING 6427",
    "locID": "LOC000026957885",
    "tech": "NULL",
    "upgrade": "NULL_NA",
    "gnaf_pid": "GAWA_147057687",
    "ee": false,
    "tech_change_status": "Not Planned"
   }
  },
  {
   "type": "Feature",
   "geometry": {
    "type": "Point",
    "coordinates": [
     119.52071,
     -30.81442
    ]
   },
   "properties": {
    "name": "19 FITZGERALD STREET KOOLYANOBBING 6427",
    "locID": "LOC000094394322",
    "tech": "NULL",
    "upgrade": "NULL_NA",
    "gnaf_pid": "GAWA_147057692",
    "ee": false,
    "tech_change_status": "Not Planned"
   }
  },
  {
   "type": "Feature",
   "geometry": {
    "type": "Point",
    "coordinates": [
     119.5204,
     -30.81396
    ]
   },
   "properties": {
    "name": "8 HUTT STREET KOOLYANOBBING 6427",
    "locID": "LOC000033715110",
    "tech": "NULL",
    "upgrade": "NULL_NA",
    "gnaf_pid": "GAWA_147057693",
    "ee": false,
    "tech_change_status": "Not Planned"
   }
  },
  {
   "type": "Feature",
   "geometry": {
    "type": "Point",
    "coordinates": [
     119.52039,
     -30.81414
    ]
   },
   "properties": {
    "name": "6 HUTT STREET KOOLYANOBBING 6427",
    "locID": "LOC000051586687",
    "tech": "NULL",
    "upgrade": "NULL_NA",
    "gnaf_pid": "GAWA_147057694",
    "ee": false,
    "tech_change_status": "Not Planned"
   }
  },
  {
   "type": "Feature",
   "geometry": {
    "type": "Point",
    "coordinates": [
     119.5204,
     -30.81449
    ]
   },
   "properties": {
    "name": "2 HUTT STREET KOOLYANOBBING 6427",
    "locID": "LOC000064443898",
    "tech": "NULL",
    "upgrade": "NULL_NA",
    "gnaf_pid": "GAWA_147057695",
    "ee": false,
    "tech_change_status": "Not Planned"
   }
  },
  {
   "type": "Feature",
   "geometry": {
    "type": "Point",
    "coordinates": [
     119.52151,
     -30.81407
    ]
   },
   "properties": {
    "name": "47 STIRLING CRESCENT KOOLYANOBBING 6427",
    "locID": "LOC000002156909",
    "tech": "NULL",
    "upgrade": "NULL_NA",
    "gnaf_pid": "GAWA_147059949",
    "ee": false,
    "tech_change_status": "Not Planned"
   }
  },
  {
   "type": "Feature",
   "geometry": {
    "type": "Point",
    "coordinates": [
     119.51839,
     -30.82416
    ]
   },
   "properties": {
    "name": "1 DOWD ROAD KOOLYANOBBING 6427",
    "locID": "LOC000037133344",
    "tech": "NULL",
    "upgrade": "NULL_NA",
    "gnaf_pid": "GAWA_147063055",
    "ee": false,
    "tech_change_status": "Not Planned"
   }
  },
  {
   "type": "Feature",
   "geometry": {
    "type": "Point",
    "coordinates": [
     119.51944,
     -30.82008
    ]
   },
   "properties": {
    "name": "6 ROBINSON DRIVE KOOLYANOBBING 6427",
    "locID": "LOC100079107331",
    "tech": "NULL",
    "upgrade": "NULL_NA",
    "gnaf_pid": "GAWA_147066136",
    "ee": false,
    "tech_change_status": "Not Planned"
   }
  },
  {
   "type": "Feature",
   "geometry": {
    "type": "Point",
    "coordinates": [
     119.52446887,
     -30.81455606
    ]
   },
   "properties": {
    "name": "5 STIRLING CRESCENT KOOLYANOBBING 6427",
    "locID": "LOC000026957885",
    "tech": "NULL",
    "upgrade": "NULL_NA",
    "gnaf_pid": "GAWA_147084753",
    "ee": false,
    "tech_change_status": "Not Planned"
   }
  }
 ]
}