{
 "type": "FeatureCollection",
 "generated": "2025-06-19T04:31:40.591589",
 "suburb": "KUNDAT DJARU",
 "features": [
  {
   "type": "Feature",
   "geometry": {
    "type": "Point",
    "coordinates": [
     128.60140143,
     -18.80825972
    ]
   },
   "properties": {
    "name": "3 GULIBI ROAD KUNDAT DJARU 6770",
    "locID": "LOC100080579328",
    "tech": "NULL",
    "upgrade": "NULL_NA",
    "gnaf_pid": "GAWA_720046268",
    "ee": false,
    "tech_change_status": "Not Planned"
   }
  },
  {
   "type": "Feature",
   "geometry": {
    "type": "Point",
    "coordinates": [
     128.60140143,
     -18.80825972
    ]
   },
   "properties": {
    "name": "61 GULIBI ROAD KUNDAT DJARU 6770",
    "locID": "LOC100086631711",
    "tech": "SATELLITE",
    "upgrade": "NULL_NA",
    "gnaf_pid": "GAWA_720046269",
    "ee": false,
    "tech_change_status": "Not Planned"
   }
  },
  {
   "type": "Feature",
   "geometry": {
    "type": "Point",
    "coordinates": [
     128.60140143,
     -18.80825972
    ]
   },
   "properties": {
    "name": "43 WARLU ROAD KUNDAT DJARU 6770",
    "locID": "LOC000142476287",
    "tech": "SATELLITE",
    "upgrade": "NULL_NA",
    "gnaf_pid": "GAWA_720046328",
    "ee": false,
    "tech_change_status": "Not Planned"
   }
  },
  {
   "type": "Feature",
   "geometry": {
    "type": "Point",
    "coordinates": [
     128.60140143,
     -18.80825972
    ]
   },
   "properties": {
    "name": "6 GULIBI ROAD KUNDAT DJARU 6770",
    "locID": "LOC100080579328",
    "tech": "NULL",
    "upgrade": "NULL_NA",
    "gnaf_pid": "GAWA_720047513",
    "ee": false,
    "tech_change_status": "Not Planned"
   }
  },
  {
   "type": "Feature",
   "geometry": {
    "type": "Point",
    "coordinates": [
     128.60140143,
     -18.80825972
    ]
   },
   "properties": {
    "name": "73 GULIBI ROAD KUNDAT DJARU 6770",
    "locID": "LOC100080579328",
    "tech": "NULL",
    "upgrade": "NULL_NA",
    "gnaf_pid": "GAWA_720047634",
    "ee": false,
    "tech_change_status": "Not Planned"
   }
  },
  {
   "type": "Feature",
   "geometry": {
    "type": "Point",
    "coordinates": [
     128.60140143,
     -18.80825972
    ]
   },
   "properties": {
    "name": "4 GULIBI ROAD KUNDAT DJARU 6770",
    "locID": "LOC100080579328",
    "tech": "NULL",
    "upgrade": "NULL_NA",
    "gnaf_pid": "GAWA_720047845",
    "ee": false,
    "tech_change_status": "Not Planned"
   }
  },
  {
   "type": "Feature",
   "geometry": {
    "type": "Point",
    "coordinates": [
     128.60140143,
     -18.80825972
    ]
   },
   "properties": {
    "name": "41 WARLU ROAD KUNDAT DJARU 6770",
    "locID": "LOC000142476287",
    "tech": "SATELLITE",
    "upgrade": "NULL_NA",
    "gnaf_pid": "GAWA_720048591",
    "ee": false,
    "tech_change_status": "Not Planned"
   }
  },
  {
   "type": "Feature",
   "geometry": {
    "type": "Point",
    "coordinates": [
     128.60140143,
     -18.80825972
    ]
   },
   "properties": {
    "name": "67 YARUMAN ROAD KUNDAT DJARU 6770",
    "locID": "LOC100076331462",
    "tech": "SATELLITE",
    "upgrade": "NULL_NA",
    "gnaf_pid": "GAWA_720048677",
    "ee": false,
    "tech_change_status": "Not Planned"
   }
  },
  {
   "type": "Feature",
   "geometry": {
    "type": "Point",
    "coordinates": [
     128.60140143,
     -18.80825972
    ]
   },
   "properties": {
    "name": "56 GULIBI ROAD KUNDAT DJARU 6770",
    "locID": "LOC100087318624",
    "tech": "SATELLITE",
    "upgrade": "NULL_NA",
    "gnaf_pid": "GAWA_720048817",
    "ee": false,
    "tech_change_status": "Not Planned"
   }
  },
  {
   "type": "Feature",
   "geometry": {
    "type": "Point",
    "coordinates": [
     128.60140143,
     -18.80825972
    ]
   },
   "properties": {
    "name": "65 GULIBI ROAD KUNDAT DJARU 6770",
    "locID": "LOC100087527477",
    "tech": "NULL",
    "upgrade": "NULL_NA",
    "gnaf_pid": "GAWA_720048958",
    "ee": false,
    "tech_change_status": "Not Planned"
   }
  },
  {
   "type": "Feature",
   "geometry": {
    "type": "Point",
    "coordinates": [
     128.60140143,
     -18.80825972
    ]
   },
   "properties": {
    "name": "LOT 62 GORDON DOWNS ROAD KUNDAT DJARU 6770",
    "locID": "LOC000180582980",
    "tech": "SATELLITE",
    "upgrade": "NULL_NA",
    "gnaf_pid": "GAWA_720049166",
    "ee": false,
    "tech_change_status": "Not Planned"
   }
  }
 ]
}