{
 "type": "FeatureCollection",
 "generated": "2025-06-19T04:37:48.756004",
 "suburb": "LAKE BROWN",
 "features": [
  {
   "type": "Feature",
   "geometry": {
    "type": "Point",
    "coordinates": [
     118.34238188,
     -30.94342986
    ]
   },
   "properties": {
    "name": "LOT 38 KOORDA-BULLFINCH ROAD LAKE BROWN 6479",
    "locID": "LOC000133301841",
    "tech": "NULL",
    "upgrade": "NULL_NA",
    "gnaf_pid": "GAWA_161557676",
    "ee": false,
    "tech_change_status": "Not Planned"
   }
  },
  {
   "type": "Feature",
   "geometry": {
    "type": "Point",
    "coordinates": [
     118.3467915,
     -30.94636875
    ]
   },
   "properties": {
    "name": "4885 BONNIE ROCK-LAKE BROWN ROAD LAKE BROWN 6479",
    "locID": "LOC000049849912",
    "tech": "WIRELESS",
    "upgrade": "NULL_NA",
    "gnaf_pid": "GAWA_162390072",
    "ee": false,
    "tech_change_status": "Not Planned",
    "program_type": "Fixed Wireless and Satellite Upgrade Program",
    "target_eligibility_quarter": "NA"
   }
  },
  {
   "type": "Feature",
   "geometry": {
    "type": "Point",
    "coordinates": [
     118.396294,
     -30.9616
    ]
   },
   "properties": {
    "name": "255 DAVIS ROAD LAKE BROWN 6479",
    "locID": "LOC000005642150",
    "tech": "NULL",
    "upgrade": "NULL_NA",
    "gnaf_pid": "GAWA_162390616",
    "ee": false,
    "tech_change_status": "Not Planned"
   }
  },
  {
   "type": "Feature",
   "geometry": {
    "type": "Point",
    "coordinates": [
     118.422302,
     -30.958467
    ]
   },
   "properties": {
    "name": "421 DAVIS ROAD LAKE BROWN 6479",
    "locID": "LOC000033720264",
    "tech": "NULL",
    "upgrade": "NULL_NA",
    "gnaf_pid": "GAWA_162390617",
    "ee": false,
    "tech_change_status": "Not Planned"
   }
  },
  {
   "type": "Feature",
   "geometry": {
    "type": "Point",
    "coordinates": [
     118.34142952,
     -30.94270864
    ]
   },
   "properties": {
    "name": "8747 KOORDA-BULLFINCH ROAD LAKE BROWN 6479",
    "locID": "LOC000095971062",
    "tech": "WIRELESS",
    "upgrade": "NULL_NA",
    "gnaf_pid": "GAWA_162391409",
    "ee": false,
    "tech_change_status": "Not Planned",
    "program_type": "Fixed Wireless and Satellite Upgrade Program",
    "target_eligibility_quarter": "NA"
   }
  },
  {
   "type": "Feature",
   "geometry": {
    "type": "Point",
    "coordinates": [
     118.37015221,
     -30.98867761
    ]
   },
   "properties": {
    "name": "9192 KOORDA-BULLFINCH ROAD LAKE BROWN 6479",
    "locID": "LOC000089480224",
    "tech": "WIRELESS",
    "upgrade": "NULL_NA",
    "gnaf_pid": "GAWA_162391410",
    "ee": false,
    "tech_change_status": "Not Planned",
    "program_type": "Fixed Wireless and Satellite Upgrade Program",
    "target_eligibility_quarter": "NA"
   }
  },
  {
   "type": "Feature",
   "geometry": {
    "type": "Point",
    "coordinates": [
     118.390608,
     -30.989955
    ]
   },
   "properties": {
    "name": "9469 KOORDA-BULLFINCH ROAD LAKE BROWN 6479",
    "locID": "LOC000078035325",
    "tech": "SATELLITE",
    "upgrade": "NULL_NA",
    "gnaf_pid": "GAWA_162391411",
    "ee": false,
    "tech_change_status": "Not Planned"
   }
  },
  {
   "type": "Feature",
   "geometry": {
    "type": "Point",
    "coordinates": [
     118.417874,
     -30.993306
    ]
   },
   "properties": {
    "name": "9841 KOORDA-BULLFINCH ROAD LAKE BROWN 6479",
    "locID": "LOC000051693475",
    "tech": "SATELLITE",
    "upgrade": "NULL_NA",
    "gnaf_pid": "GAWA_162391412",
    "ee": false,
    "tech_change_status": "Not Planned"
   }
  },
  {
   "type": "Feature",
   "geometry": {
    "type": "Point",
    "coordinates": [
     118.42221749,
     -30.90944026
    ]
   },
   "properties": {
    "name": "386 MORRISON ROAD LAKE BROWN 6479",
    "locID": "LOC000105862120",
    "tech": "SATELLITE",
    "upgrade": "NULL_NA",
    "gnaf_pid": "GAWA_162391925",
    "ee": false,
    "tech_change_status": "Not Planned"
   }
  },
  {
   "type": "Feature",
   "geometry": {
    "type": "Point",
    "coordinates": [
     118.442859,
     -30.885479
    ]
   },
   "properties": {
    "name": "367 QUANTA CUTTING-WEIRA ROAD LAKE BROWN 6479",
    "locID": "LOC000090452361",
    "tech": "NULL",
    "upgrade": "NULL_NA",
    "gnaf_pid": "GAWA_162392434",
    "ee": false,
    "tech_change_status": "Not Planned"
   }
  },
  {
   "type": "Feature",
   "geometry": {
    "type": "Point",
    "coordinates": [
     118.34330601,
     -30.94415704
    ]
   },
   "properties": {
    "name": "LOT 40 KOORDA-BULLFINCH ROAD LAKE BROWN 6479",
    "locID": "LOC000133301841",
    "tech": "NULL",
    "upgrade": "NULL_NA",
    "gnaf_pid": "GAWA_162793305",
    "ee": false,
    "tech_change_status": "Not Planned"
   }
  },
  {
   "type": "Feature",
   "geometry": {
    "type": "Point",
    "coordinates": [
     118.34407998,
     -30.9448358
    ]
   },
   "properties": {
    "name": "LOT 41 KOORDA-BULLFINCH ROAD LAKE BROWN 6479",
    "locID": "LOC000133301841",
    "tech": "NULL",
    "upgrade": "NULL_NA",
    "gnaf_pid": "GAWA_162793306",
    "ee": false,
    "tech_change_status": "Not Planned"
   }
  },
  {
   "type": "Feature",
   "geometry": {
    "type": "Point",
    "coordinates": [
     118.34485291,
     -30.94551569
    ]
   },
   "properties": {
    "name": "LOT 42 KOORDA-BULLFINCH ROAD LAKE BROWN 6479",
    "locID": "LOC000109457520",
    "tech": "WIRELESS",
    "upgrade": "NULL_NA",
    "gnaf_pid": "GAWA_162793307",
    "ee": false,
    "tech_change_status": "Not Planned",
    "program_type": "Fixed Wireless and Satellite Upgrade Program",
    "target_eligibility_quarter": "NA"
   }
  },
  {
   "type": "Feature",
   "geometry": {
    "type": "Point",
    "coordinates": [
     118.34588564,
     -30.94639377
    ]
   },
   "properties": {
    "name": "LOT 43 KOORDA-BULLFINCH ROAD LAKE BROWN 6479",
    "locID": "LOC000133301841",
    "tech": "NULL",
    "upgrade": "NULL_NA",
    "gnaf_pid": "GAWA_162793308",
    "ee": false,
    "tech_change_status": "Not Planned"
   }
  },
  {
   "type": "Feature",
   "geometry": {
    "type": "Point",
    "coordinates": [
     118.34670515,
     -30.94727104
    ]
   },
   "properties": {
    "name": "LOT 44 KOORDA-BULLFINCH ROAD LAKE BROWN 6479",
    "locID": "LOC000133301841",
    "tech": "NULL",
    "upgrade": "NULL_NA",
    "gnaf_pid": "GAWA_162793309",
    "ee": false,
    "tech_change_status": "Not Planned"
   }
  }
 ]
}