{
 "type": "FeatureCollection",
 "generated": "2025-06-19T04:49:59.013892",
 "suburb": "LEARMONTH",
 "features": [
  {
   "type": "Feature",
   "geometry": {
    "type": "Point",
    "coordinates": [
     114.0623377,
     -22.12072663
    ]
   },
   "properties": {
    "name": "LOT 82 CHARLES KNIFE ROAD LEARMONTH 6707",
    "locID": "LOC100071893759",
    "tech": "NULL",
    "upgrade": "NULL_NA",
    "gnaf_pid": "GAWA_718673137",
    "ee": true,
    "tech_change_status": "Not Planned"
   }
  }
 ]
}