{
 "type": "FeatureCollection",
 "generated": "2025-06-19T04:55:56.697257",
 "suburb": "LOCKIER",
 "features": [
  {
   "type": "Feature",
   "geometry": {
    "type": "Point",
    "coordinates": [
     115.350602,
     -29.197553
    ]
   },
   "properties": {
    "name": "23968 MIDLANDS ROAD LOCKIER 6522",
    "locID": "LOC000079945504",
    "tech": "SATELLITE",
    "upgrade": "NULL_NA",
    "gnaf_pid": "GAWA_162247599",
    "ee": false,
    "tech_change_status": "Not Planned"
   }
  },
  {
   "type": "Feature",
   "geometry": {
    "type": "Point",
    "coordinates": [
     115.273657,
     -29.182536
    ]
   },
   "properties": {
    "name": "390 STRAWBERRY NORTH-EAST ROAD LOCKIER 6522",
    "locID": "LOC000142935122",
    "tech": "SATELLITE",
    "upgrade": "NULL_NA",
    "gnaf_pid": "GAWA_162250259",
    "ee": false,
    "tech_change_status": "Not Planned"
   }
  },
  {
   "type": "Feature",
   "geometry": {
    "type": "Point",
    "coordinates": [
     115.26606551,
     -29.21072254
    ]
   },
   "properties": {
    "name": "6 STRAWBERRY NORTH-EAST ROAD LOCKIER 6522",
    "locID": "LOC000071849014",
    "tech": "SATELLITE",
    "upgrade": "NULL_NA",
    "gnaf_pid": "GAWA_162250260",
    "ee": true,
    "tech_change_status": "Not Planned"
   }
  }
 ]
}