{
 "type": "FeatureCollection",
 "generated": "2025-06-19T05:01:22.551109",
 "suburb": "MACLEOD",
 "features": [
  {
   "type": "Feature",
   "geometry": {
    "type": "Point",
    "coordinates": [
     113.55849386,
     -24.55653662
    ]
   },
   "properties": {
    "name": "2954 BLOWHOLES ROAD MACLEOD 6701",
    "locID": "LOC100071899360",
    "tech": "NULL",
    "upgrade": "NULL_NA",
    "gnaf_pid": "GAWA_719779275",
    "ee": false,
    "tech_change_status": "Not Planned"
   }
  },
  {
   "type": "Feature",
   "geometry": {
    "type": "Point",
    "coordinates": [
     113.45191254,
     -24.02839133
    ]
   },
   "properties": {
    "name": "5561 GNARALOO ROAD MACLEOD 6701",
    "locID": "LOC000190793059",
    "tech": "NULL",
    "upgrade": "NULL_NA",
    "gnaf_pid": "GAWA_719967988",
    "ee": false,
    "tech_change_status": "Not Planned"
   }
  }
 ]
}