{
 "type": "FeatureCollection",
 "generated": "2025-06-19T05:31:28.149921",
 "suburb": "MARDIE",
 "features": [
  {
   "type": "Feature",
   "geometry": {
    "type": "Point",
    "coordinates": [
     115.95239545,
     -21.44906677
    ]
   },
   "properties": {
    "name": "LOT 90 NORTH WEST COASTAL HIGHWAY MARDIE 6714",
    "locID": "LOC000133559932",
    "tech": "NULL",
    "upgrade": "NULL_NA",
    "gnaf_pid": "GAWA_718254272",
    "ee": false,
    "tech_change_status": "Not Planned"
   }
  }
 ]
}