{
 "type": "FeatureCollection",
 "generated": "2025-06-19T05:35:22.943588",
 "suburb": "MARVEL LOCH",
 "features": [
  {
   "type": "Feature",
   "geometry": {
    "type": "Point",
    "coordinates": [
     119.49003,
     -31.46977
    ]
   },
   "properties": {
    "name": "10 BURBIDGE STREET MARVEL LOCH 6426",
    "locID": "LOC000102364181",
    "tech": "NULL",
    "upgrade": "NULL_NA",
    "gnaf_pid": "GAWA_146981809",
    "ee": true,
    "tech_change_status": "Not Planned"
   }
  },
  {
   "type": "Feature",
   "geometry": {
    "type": "Point",
    "coordinates": [
     119.49003,
     -31.47221
    ]
   },
   "properties": {
    "name": "23 OVERINGTON STREET MARVEL LOCH 6426",
    "locID": "LOC000091576335",
    "tech": "NULL",
    "upgrade": "NULL_NA",
    "gnaf_pid": "GAWA_146987501",
    "ee": true,
    "tech_change_status": "Not Planned"
   }
  },
  {
   "type": "Feature",
   "geometry": {
    "type": "Point",
    "coordinates": [
     119.49,
     -31.47147
    ]
   },
   "properties": {
    "name": "20 OXIDE STREET MARVEL LOCH 6426",
    "locID": "LOC000037514165",
    "tech": "NULL",
    "upgrade": "NULL_NA",
    "gnaf_pid": "GAWA_146987503",
    "ee": true,
    "tech_change_status": "Not Planned"
   }
  },
  {
   "type": "Feature",
   "geometry": {
    "type": "Point",
    "coordinates": [
     119.48989,
     -31.46964
    ]
   },
   "properties": {
    "name": "8 BURBIDGE STREET MARVEL LOCH 6426",
    "locID": "LOC000050331989",
    "tech": "SATELLITE",
    "upgrade": "NULL_NA",
    "gnaf_pid": "GAWA_146987506",
    "ee": true,
    "tech_change_status": "Not Planned"
   }
  },
  {
   "type": "Feature",
   "geometry": {
    "type": "Point",
    "coordinates": [
     119.48989,
     -31.47208
    ]
   },
   "properties": {
    "name": "21 OVERINGTON STREET MARVEL LOCH 6426",
    "locID": "LOC000107719116",
    "tech": "SATELLITE",
    "upgrade": "NULL_NA",
    "gnaf_pid": "GAWA_146990551",
    "ee": true,
    "tech_change_status": "Not Planned"
   }
  },
  {
   "type": "Feature",
   "geometry": {
    "type": "Point",
    "coordinates": [
     119.48985,
     -31.47134
    ]
   },
   "properties": {
    "name": "18 OXIDE STREET MARVEL LOCH 6426",
    "locID": "LOC000022788711",
    "tech": "NULL",
    "upgrade": "NULL_NA",
    "gnaf_pid": "GAWA_146990552",
    "ee": true,
    "tech_change_status": "Not Planned"
   }
  },
  {
   "type": "Feature",
   "geometry": {
    "type": "Point",
    "coordinates": [
     119.48974,
     -31.46951
    ]
   },
   "properties": {
    "name": "6 BURBIDGE STREET MARVEL LOCH 6426",
    "locID": "LOC000133327217",
    "tech": "NULL",
    "upgrade": "NULL_NA",
    "gnaf_pid": "GAWA_146990553",
    "ee": true,
    "tech_change_status": "Not Planned"
   }
  },
  {
   "type": "Feature",
   "geometry": {
    "type": "Point",
    "coordinates": [
     119.48974,
     -31.47195
    ]
   },
   "properties": {
    "name": "19 OVERINGTON STREET MARVEL LOCH 6426",
    "locID": "LOC000038964422",
    "tech": "NULL",
    "upgrade": "NULL_NA",
    "gnaf_pid": "GAWA_146990554",
    "ee": true,
    "tech_change_status": "Not Planned"
   }
  },
  {
   "type": "Feature",
   "geometry": {
    "type": "Point",
    "coordinates": [
     119.48962,
     -31.47012
    ]
   },
   "properties": {
    "name": "9 OXIDE STREET MARVEL LOCH 6426",
    "locID": "LOC000037134441",
    "tech": "NULL",
    "upgrade": "NULL_NA",
    "gnaf_pid": "GAWA_146990555",
    "ee": true,
    "tech_change_status": "Not Planned"
   }
  },
  {
   "type": "Feature",
   "geometry": {
    "type": "Point",
    "coordinates": [
     119.48959,
     -31.47182
    ]
   },
   "properties": {
    "name": "17 OVERINGTON STREET MARVEL LOCH 6426",
    "locID": "LOC000020296206",
    "tech": "SATELLITE",
    "upgrade": "NULL_NA",
    "gnaf_pid": "GAWA_146990557",
    "ee": true,
    "tech_change_status": "Not Planned"
   }
  },
  {
   "type": "Feature",
   "geometry": {
    "type": "Point",
    "coordinates": [
     119.48947,
     -31.46999
    ]
   },
   "properties": {
    "name": "7 OXIDE STREET MARVEL LOCH 6426",
    "locID": "LOC000007859810",
    "tech": "NULL",
    "upgrade": "NULL_NA",
    "gnaf_pid": "GAWA_146990558",
    "ee": true,
    "tech_change_status": "Not Planned"
   }
  },
  {
   "type": "Feature",
   "geometry": {
    "type": "Point",
    "coordinates": [
     119.48947,
     -31.47102
    ]
   },
   "properties": {
    "name": "16 OXIDE STREET MARVEL LOCH 6426",
    "locID": "LOC000015656012",
    "tech": "NULL",
    "upgrade": "NULL_NA",
    "gnaf_pid": "GAWA_146990560",
    "ee": true,
    "tech_change_status": "Not Planned"
   }
  },
  {
   "type": "Feature",
   "geometry": {
    "type": "Point",
    "coordinates": [
     119.49015,
     -31.4716
    ]
   },
   "properties": {
    "name": "22 OXIDE STREET MARVEL LOCH 6426",
    "locID": "LOC000089603863",
    "tech": "NULL",
    "upgrade": "NULL_NA",
    "gnaf_pid": "GAWA_147001349",
    "ee": true,
    "tech_change_status": "Not Planned"
   }
  },
  {
   "type": "Feature",
   "geometry": {
    "type": "Point",
    "coordinates": [
     119.49007,
     -31.4705
    ]
   },
   "properties": {
    "name": "15 OXIDE STREET MARVEL LOCH 6426",
    "locID": "LOC000090610955",
    "tech": "SATELLITE",
    "upgrade": "NULL_NA",
    "gnaf_pid": "GAWA_147001351",
    "ee": true,
    "tech_change_status": "Not Planned"
   }
  },
  {
   "type": "Feature",
   "geometry": {
    "type": "Point",
    "coordinates": [
     119.4903,
     -31.47172
    ]
   },
   "properties": {
    "name": "24 OXIDE STREET MARVEL LOCH 6426",
    "locID": "LOC000046553180",
    "tech": "NULL",
    "upgrade": "NULL_NA",
    "gnaf_pid": "GAWA_147001874",
    "ee": true,
    "tech_change_status": "Not Planned"
   }
  },
  {
   "type": "Feature",
   "geometry": {
    "type": "Point",
    "coordinates": [
     119.49018,
     -31.4699
    ]
   },
   "properties": {
    "name": "12 BURBIDGE STREET MARVEL LOCH 6426",
    "locID": "LOC000100519185",
    "tech": "NULL",
    "upgrade": "NULL_NA",
    "gnaf_pid": "GAWA_147001875",
    "ee": true,
    "tech_change_status": "Not Planned"
   }
  },
  {
   "type": "Feature",
   "geometry": {
    "type": "Point",
    "coordinates": [
     119.49006,
     -31.46648
    ]
   },
   "properties": {
    "name": "14 ARGENT STREET MARVEL LOCH 6426",
    "locID": "LOC000027089890",
    "tech": "NULL",
    "upgrade": "NULL_NA",
    "gnaf_pid": "GAWA_147038172",
    "ee": true,
    "tech_change_status": "Not Planned"
   }
  },
  {
   "type": "Feature",
   "geometry": {
    "type": "Point",
    "coordinates": [
     119.48816,
     -31.46711
    ]
   },
   "properties": {
    "name": "23 LENNEBERG STREET MARVEL LOCH 6426",
    "locID": "LOC000100223986",
    "tech": "SATELLITE",
    "upgrade": "NULL_NA",
    "gnaf_pid": "GAWA_147039876",
    "ee": true,
    "tech_change_status": "Not Planned"
   }
  },
  {
   "type": "Feature",
   "geometry": {
    "type": "Point",
    "coordinates": [
     119.48879,
     -31.46711
    ]
   },
   "properties": {
    "name": "29 LENNEBERG STREET MARVEL LOCH 6426",
    "locID": "LOC000009608303",
    "tech": "NULL",
    "upgrade": "NULL_NA",
    "gnaf_pid": "GAWA_147039888",
    "ee": true,
    "tech_change_status": "Not Planned"
   }
  },
  {
   "type": "Feature",
   "geometry": {
    "type": "Point",
    "coordinates": [
     119.48721,
     -31.46711
    ]
   },
   "properties": {
    "name": "17 LENNEBERG STREET MARVEL LOCH 6426",
    "locID": "LOC000012949509",
    "tech": "NULL",
    "upgrade": "NULL_NA",
    "gnaf_pid": "GAWA_147055607",
    "ee": true,
    "tech_change_status": "Not Planned"
   }
  },
  {
   "type": "Feature",
   "geometry": {
    "type": "Point",
    "coordinates": [
     119.49017,
     -31.46711
    ]
   },
   "properties": {
    "name": "41 LENNEBERG STREET MARVEL LOCH 6426",
    "locID": "LOC000021153484",
    "tech": "NULL",
    "upgrade": "NULL_NA",
    "gnaf_pid": "GAWA_147059274",
    "ee": true,
    "tech_change_status": "Not Planned"
   }
  },
  {
   "type": "Feature",
   "geometry": {
    "type": "Point",
    "coordinates": [
     119.48975,
     -31.46711
    ]
   },
   "properties": {
    "name": "37 LENNEBERG STREET MARVEL LOCH 6426",
    "locID": "LOC000029467632",
    "tech": "NULL",
    "upgrade": "NULL_NA",
    "gnaf_pid": "GAWA_147059275",
    "ee": true,
    "tech_change_status": "Not Planned"
   }
  },
  {
   "type": "Feature",
   "geometry": {
    "type": "Point",
    "coordinates": [
     119.48848,
     -31.46317
    ]
   },
   "properties": {
    "name": "41 ARGENT STREET MARVEL LOCH 6426",
    "locID": "LOC000005475107",
    "tech": "NULL",
    "upgrade": "NULL_NA",
    "gnaf_pid": "GAWA_147059276",
    "ee": true,
    "tech_change_status": "Not Planned"
   }
  },
  {
   "type": "Feature",
   "geometry": {
    "type": "Point",
    "coordinates": [
     119.48615,
     -31.46834
    ]
   },
   "properties": {
    "name": "5 KING STREET MARVEL LOCH 6426",
    "locID": "LOC000047683571",
    "tech": "NULL",
    "upgrade": "NULL_NA",
    "gnaf_pid": "GAWA_147062317",
    "ee": true,
    "tech_change_status": "Not Planned"
   }
  },
  {
   "type": "Feature",
   "geometry": {
    "type": "Point",
    "coordinates": [
     119.48774,
     -31.46784
    ]
   },
   "properties": {
    "name": "18 LENNEBERG STREET MARVEL LOCH 6426",
    "locID": "LOC000081335253",
    "tech": "NULL",
    "upgrade": "NULL_NA",
    "gnaf_pid": "GAWA_147062331",
    "ee": true,
    "tech_change_status": "Not Planned"
   }
  },
  {
   "type": "Feature",
   "geometry": {
    "type": "Point",
    "coordinates": [
     119.48901,
     -31.46834
    ]
   },
   "properties": {
    "name": "29 KING STREET MARVEL LOCH 6426",
    "locID": "LOC000070652598",
    "tech": "NULL",
    "upgrade": "NULL_NA",
    "gnaf_pid": "GAWA_147063044",
    "ee": true,
    "tech_change_status": "Not Planned"
   }
  },
  {
   "type": "Feature",
   "geometry": {
    "type": "Point",
    "coordinates": [
     119.49081,
     -31.46834
    ]
   },
   "properties": {
    "name": "43 KING STREET MARVEL LOCH 6426",
    "locID": "LOC000088563843",
    "tech": "NULL",
    "upgrade": "NULL_NA",
    "gnaf_pid": "GAWA_147063056",
    "ee": true,
    "tech_change_status": "Not Planned"
   }
  },
  {
   "type": "Feature",
   "geometry": {
    "type": "Point",
    "coordinates": [
     119.48932,
     -31.46986
    ]
   },
   "properties": {
    "name": "5 OXIDE STREET MARVEL LOCH 6426",
    "locID": "LOC000071473839",
    "tech": "NULL",
    "upgrade": "NULL_NA",
    "gnaf_pid": "GAWA_147081681",
    "ee": true,
    "tech_change_status": "Not Planned"
   }
  },
  {
   "type": "Feature",
   "geometry": {
    "type": "Point",
    "coordinates": [
     119.48922,
     -31.46589
    ]
   },
   "properties": {
    "name": "2 WILLIAMSON STREET MARVEL LOCH 6426",
    "locID": "LOC000067692371",
    "tech": "NULL",
    "upgrade": "NULL_NA",
    "gnaf_pid": "GAWA_147081694",
    "ee": true,
    "tech_change_status": "Not Planned"
   }
  },
  {
   "type": "Feature",
   "geometry": {
    "type": "Point",
    "coordinates": [
     119.48917,
     -31.46974
    ]
   },
   "properties": {
    "name": "3 OXIDE STREET MARVEL LOCH 6426",
    "locID": "LOC000044746074",
    "tech": "NULL",
    "upgrade": "NULL_NA",
    "gnaf_pid": "GAWA_147081698",
    "ee": true,
    "tech_change_status": "Not Planned"
   }
  },
  {
   "type": "Feature",
   "geometry": {
    "type": "Point",
    "coordinates": [
     119.48917,
     -31.47076
    ]
   },
   "properties": {
    "name": "12 OXIDE STREET MARVEL LOCH 6426",
    "locID": "LOC000048361114",
    "tech": "NULL",
    "upgrade": "NULL_NA",
    "gnaf_pid": "GAWA_147084745",
    "ee": true,
    "tech_change_status": "Not Planned"
   }
  },
  {
   "type": "Feature",
   "geometry": {
    "type": "Point",
    "coordinates": [
     119.48903,
     -31.46961
    ]
   },
   "properties": {
    "name": "1 OXIDE STREET MARVEL LOCH 6426",
    "locID": "LOC000042748895",
    "tech": "SATELLITE",
    "upgrade": "NULL_NA",
    "gnaf_pid": "GAWA_147084746",
    "ee": true,
    "tech_change_status": "Not Planned"
   }
  },
  {
   "type": "Feature",
   "geometry": {
    "type": "Point",
    "coordinates": [
     119.48902,
     -31.47063
    ]
   },
   "properties": {
    "name": "10 OXIDE STREET MARVEL LOCH 6426",
    "locID": "LOC000072626272",
    "tech": "NULL",
    "upgrade": "NULL_NA",
    "gnaf_pid": "GAWA_147084748",
    "ee": true,
    "tech_change_status": "Not Planned"
   }
  },
  {
   "type": "Feature",
   "geometry": {
    "type": "Point",
    "coordinates": [
     119.4882,
     -31.47063
    ]
   },
   "properties": {
    "name": "3 OVERINGTON STREET MARVEL LOCH 6426",
    "locID": "LOC000039916959",
    "tech": "NULL",
    "upgrade": "NULL_NA",
    "gnaf_pid": "GAWA_147084749",
    "ee": true,
    "tech_change_status": "Not Planned"
   }
  },
  {
   "type": "Feature",
   "geometry": {
    "type": "Point",
    "coordinates": [
     119.49123,
     -31.46711
    ]
   },
   "properties": {
    "name": "51 LENNEBERG STREET MARVEL LOCH 6426",
    "locID": "LOC000019039790",
    "tech": "NULL",
    "upgrade": "NULL_NA",
    "gnaf_pid": "GAWA_147086175",
    "ee": true,
    "tech_change_status": "Not Planned"
   }
  },
  {
   "type": "Feature",
   "geometry": {
    "type": "Point",
    "coordinates": [
     119.48753,
     -31.46935
    ]
   },
   "properties": {
    "name": "1 CHENEY STREET MARVEL LOCH 6426",
    "locID": "LOC000030517188",
    "tech": "NULL",
    "upgrade": "NULL_NA",
    "gnaf_pid": "GAWA_147168214",
    "ee": true,
    "tech_change_status": "Not Planned"
   }
  },
  {
   "type": "Feature",
   "geometry": {
    "type": "Point",
    "coordinates": [
     119.48879,
     -31.46661
    ]
   },
   "properties": {
    "name": "5 WILLIAMSON STREET MARVEL LOCH 6426",
    "locID": "LOC000104408077",
    "tech": "NULL",
    "upgrade": "NULL_NA",
    "gnaf_pid": "GAWA_147180991",
    "ee": true,
    "tech_change_status": "Not Planned"
   }
  },
  {
   "type": "Feature",
   "geometry": {
    "type": "Point",
    "coordinates": [
     119.48858,
     -31.46539
    ]
   },
   "properties": {
    "name": "26 HORAN STREET MARVEL LOCH 6426",
    "locID": "LOC000100393557",
    "tech": "NULL",
    "upgrade": "NULL_NA",
    "gnaf_pid": "GAWA_147180992",
    "ee": true,
    "tech_change_status": "Not Planned"
   }
  },
  {
   "type": "Feature",
   "geometry": {
    "type": "Point",
    "coordinates": [
     119.48774,
     -31.46539
    ]
   },
   "properties": {
    "name": "18 HORAN STREET MARVEL LOCH 6426",
    "locID": "LOC000050789063",
    "tech": "NULL",
    "upgrade": "NULL_NA",
    "gnaf_pid": "GAWA_147181009",
    "ee": true,
    "tech_change_status": "Not Planned"
   }
  },
  {
   "type": "Feature",
   "geometry": {
    "type": "Point",
    "coordinates": [
     119.48774,
     -31.46589
    ]
   },
   "properties": {
    "name": "16 WILLIAMSON STREET MARVEL LOCH 6426",
    "locID": "LOC000006156503",
    "tech": "NULL",
    "upgrade": "NULL_NA",
    "gnaf_pid": "GAWA_147181010",
    "ee": true,
    "tech_change_status": "Not Planned"
   }
  },
  {
   "type": "Feature",
   "geometry": {
    "type": "Point",
    "coordinates": [
     119.48774,
     -31.46661
    ]
   },
   "properties": {
    "name": "15 WILLIAMSON STREET MARVEL LOCH 6426",
    "locID": "LOC000039102417",
    "tech": "NULL",
    "upgrade": "NULL_NA",
    "gnaf_pid": "GAWA_147181011",
    "ee": true,
    "tech_change_status": "Not Planned"
   }
  },
  {
   "type": "Feature",
   "geometry": {
    "type": "Point",
    "coordinates": [
     119.48774,
     -31.46711
    ]
   },
   "properties": {
    "name": "19 LENNEBERG STREET MARVEL LOCH 6426",
    "locID": "LOC000010422825",
    "tech": "NULL",
    "upgrade": "NULL_NA",
    "gnaf_pid": "GAWA_147181012",
    "ee": true,
    "tech_change_status": "Not Planned"
   }
  },
  {
   "type": "Feature",
   "geometry": {
    "type": "Point",
    "coordinates": [
     119.48721,
     -31.46539
    ]
   },
   "properties": {
    "name": "16 HORAN STREET MARVEL LOCH 6426",
    "locID": "LOC000007869695",
    "tech": "NULL",
    "upgrade": "NULL_NA",
    "gnaf_pid": "GAWA_147181013",
    "ee": true,
    "tech_change_status": "Not Planned"
   }
  },
  {
   "type": "Feature",
   "geometry": {
    "type": "Point",
    "coordinates": [
     119.48721,
     -31.46589
    ]
   },
   "properties": {
    "name": "18 WILLIAMSON STREET MARVEL LOCH 6426",
    "locID": "LOC000020169076",
    "tech": "NULL",
    "upgrade": "NULL_NA",
    "gnaf_pid": "GAWA_147181014",
    "ee": true,
    "tech_change_status": "Not Planned"
   }
  },
  {
   "type": "Feature",
   "geometry": {
    "type": "Point",
    "coordinates": [
     119.487,
     -31.46539
    ]
   },
   "properties": {
    "name": "14 HORAN STREET MARVEL LOCH 6426",
    "locID": "LOC000021164741",
    "tech": "NULL",
    "upgrade": "NULL_NA",
    "gnaf_pid": "GAWA_147181016",
    "ee": true,
    "tech_change_status": "Not Planned"
   }
  },
  {
   "type": "Feature",
   "geometry": {
    "type": "Point",
    "coordinates": [
     119.48922,
     -31.46661
    ]
   },
   "properties": {
    "name": "1 WILLIAMSON STREET MARVEL LOCH 6426",
    "locID": "LOC000049523277",
    "tech": "NULL",
    "upgrade": "NULL_NA",
    "gnaf_pid": "GAWA_147189723",
    "ee": true,
    "tech_change_status": "Not Planned"
   }
  },
  {
   "type": "Feature",
   "geometry": {
    "type": "Point",
    "coordinates": [
     119.48922,
     -31.46711
    ]
   },
   "properties": {
    "name": "35 LENNEBERG STREET MARVEL LOCH 6426",
    "locID": "LOC000060447840",
    "tech": "SATELLITE",
    "upgrade": "NULL_NA",
    "gnaf_pid": "GAWA_147189724",
    "ee": true,
    "tech_change_status": "Not Planned"
   }
  },
  {
   "type": "Feature",
   "geometry": {
    "type": "Point",
    "coordinates": [
     119.48901,
     -31.46539
    ]
   },
   "properties": {
    "name": "30 HORAN STREET MARVEL LOCH 6426",
    "locID": "LOC000066312716",
    "tech": "NULL",
    "upgrade": "NULL_NA",
    "gnaf_pid": "GAWA_147189725",
    "ee": true,
    "tech_change_status": "Not Planned"
   }
  },
  {
   "type": "Feature",
   "geometry": {
    "type": "Point",
    "coordinates": [
     119.48901,
     -31.46589
    ]
   },
   "properties": {
    "name": "4 WILLIAMSON STREET MARVEL LOCH 6426",
    "locID": "LOC000017855258",
    "tech": "NULL",
    "upgrade": "NULL_NA",
    "gnaf_pid": "GAWA_147189726",
    "ee": true,
    "tech_change_status": "Not Planned"
   }
  },
  {
   "type": "Feature",
   "geometry": {
    "type": "Point",
    "coordinates": [
     119.48901,
     -31.46661
    ]
   },
   "properties": {
    "name": "3 WILLIAMSON STREET MARVEL LOCH 6426",
    "locID": "LOC000056889070",
    "tech": "NULL",
    "upgrade": "NULL_NA",
    "gnaf_pid": "GAWA_147189727",
    "ee": true,
    "tech_change_status": "Not Planned"
   }
  },
  {
   "type": "Feature",
   "geometry": {
    "type": "Point",
    "coordinates": [
     119.48879,
     -31.46539
    ]
   },
   "properties": {
    "name": "28 HORAN STREET MARVEL LOCH 6426",
    "locID": "LOC000089636263",
    "tech": "SATELLITE",
    "upgrade": "NULL_NA",
    "gnaf_pid": "GAWA_147189728",
    "ee": true,
    "tech_change_status": "Not Planned"
   }
  },
  {
   "type": "Feature",
   "geometry": {
    "type": "Point",
    "coordinates": [
     119.48879,
     -31.46589
    ]
   },
   "properties": {
    "name": "6 WILLIAMSON STREET MARVEL LOCH 6426",
    "locID": "LOC000038848571",
    "tech": "NULL",
    "upgrade": "NULL_NA",
    "gnaf_pid": "GAWA_147189729",
    "ee": true,
    "tech_change_status": "Not Planned"
   }
  },
  {
   "type": "Feature",
   "geometry": {
    "type": "Point",
    "coordinates": [
     119.48795,
     -31.46589
    ]
   },
   "properties": {
    "name": "14 WILLIAMSON STREET MARVEL LOCH 6426",
    "locID": "LOC000080788848",
    "tech": "NULL",
    "upgrade": "NULL_NA",
    "gnaf_pid": "GAWA_147197814",
    "ee": true,
    "tech_change_status": "Not Planned"
   }
  },
  {
   "type": "Feature",
   "geometry": {
    "type": "Point",
    "coordinates": [
     119.48795,
     -31.46661
    ]
   },
   "properties": {
    "name": "13 WILLIAMSON STREET MARVEL LOCH 6426",
    "locID": "LOC000004607671",
    "tech": "NULL",
    "upgrade": "NULL_NA",
    "gnaf_pid": "GAWA_147197815",
    "ee": true,
    "tech_change_status": "Not Planned"
   }
  },
  {
   "type": "Feature",
   "geometry": {
    "type": "Point",
    "coordinates": [
     119.48858,
     -31.46589
    ]
   },
   "properties": {
    "name": "8 WILLIAMSON STREET MARVEL LOCH 6426",
    "locID": "LOC000035176414",
    "tech": "NULL",
    "upgrade": "NULL_NA",
    "gnaf_pid": "GAWA_147198707",
    "ee": true,
    "tech_change_status": "Not Planned"
   }
  },
  {
   "type": "Feature",
   "geometry": {
    "type": "Point",
    "coordinates": [
     119.48858,
     -31.46661
    ]
   },
   "properties": {
    "name": "7 WILLIAMSON STREET MARVEL LOCH 6426",
    "locID": "LOC000008746029",
    "tech": "NULL",
    "upgrade": "NULL_NA",
    "gnaf_pid": "GAWA_147198708",
    "ee": true,
    "tech_change_status": "Not Planned"
   }
  },
  {
   "type": "Feature",
   "geometry": {
    "type": "Point",
    "coordinates": [
     119.48858,
     -31.46711
    ]
   },
   "properties": {
    "name": "27 LENNEBERG STREET MARVEL LOCH 6426",
    "locID": "LOC000040038544",
    "tech": "NULL",
    "upgrade": "NULL_NA",
    "gnaf_pid": "GAWA_147198709",
    "ee": true,
    "tech_change_status": "Not Planned"
   }
  },
  {
   "type": "Feature",
   "geometry": {
    "type": "Point",
    "coordinates": [
     119.48837,
     -31.46589
    ]
   },
   "properties": {
    "name": "10 WILLIAMSON STREET MARVEL LOCH 6426",
    "locID": "LOC000056625226",
    "tech": "NULL",
    "upgrade": "NULL_NA",
    "gnaf_pid": "GAWA_147198711",
    "ee": true,
    "tech_change_status": "Not Planned"
   }
  },
  {
   "type": "Feature",
   "geometry": {
    "type": "Point",
    "coordinates": [
     119.48837,
     -31.46661
    ]
   },
   "properties": {
    "name": "9 WILLIAMSON STREET MARVEL LOCH 6426",
    "locID": "LOC000022928453",
    "tech": "NULL",
    "upgrade": "NULL_NA",
    "gnaf_pid": "GAWA_147198712",
    "ee": true,
    "tech_change_status": "Not Planned"
   }
  },
  {
   "type": "Feature",
   "geometry": {
    "type": "Point",
    "coordinates": [
     119.48837,
     -31.46711
    ]
   },
   "properties": {
    "name": "25 LENNEBERG STREET MARVEL LOCH 6426",
    "locID": "LOC000042943660",
    "tech": "NULL",
    "upgrade": "NULL_NA",
    "gnaf_pid": "GAWA_147198713",
    "ee": true,
    "tech_change_status": "Not Planned"
   }
  },
  {
   "type": "Feature",
   "geometry": {
    "type": "Point",
    "coordinates": [
     119.48816,
     -31.46539
    ]
   },
   "properties": {
    "name": "22 HORAN STREET MARVEL LOCH 6426",
    "locID": "LOC000071371512",
    "tech": "NULL",
    "upgrade": "NULL_NA",
    "gnaf_pid": "GAWA_147198714",
    "ee": true,
    "tech_change_status": "Not Planned"
   }
  },
  {
   "type": "Feature",
   "geometry": {
    "type": "Point",
    "coordinates": [
     119.487,
     -31.46711
    ]
   },
   "properties": {
    "name": "15 LENNEBERG STREET MARVEL LOCH 6426",
    "locID": "LOC000021507941",
    "tech": "NULL",
    "upgrade": "NULL_NA",
    "gnaf_pid": "GAWA_147213863",
    "ee": true,
    "tech_change_status": "Not Planned"
   }
  },
  {
   "type": "Feature",
   "geometry": {
    "type": "Point",
    "coordinates": [
     119.48678,
     -31.46539
    ]
   },
   "properties": {
    "name": "12 HORAN STREET MARVEL LOCH 6426",
    "locID": "LOC000034677646",
    "tech": "NULL",
    "upgrade": "NULL_NA",
    "gnaf_pid": "GAWA_147213864",
    "ee": true,
    "tech_change_status": "Not Planned"
   }
  },
  {
   "type": "Feature",
   "geometry": {
    "type": "Point",
    "coordinates": [
     119.48615,
     -31.46539
    ]
   },
   "properties": {
    "name": "6 HORAN STREET MARVEL LOCH 6426",
    "locID": "LOC000057951823",
    "tech": "NULL",
    "upgrade": "NULL_NA",
    "gnaf_pid": "GAWA_147216537",
    "ee": true,
    "tech_change_status": "Not Planned"
   }
  },
  {
   "type": "Feature",
   "geometry": {
    "type": "Point",
    "coordinates": [
     119.48594,
     -31.46539
    ]
   },
   "properties": {
    "name": "4 HORAN STREET MARVEL LOCH 6426",
    "locID": "LOC000012925665",
    "tech": "SATELLITE",
    "upgrade": "NULL_NA",
    "gnaf_pid": "GAWA_147216538",
    "ee": true,
    "tech_change_status": "Not Planned"
   }
  },
  {
   "type": "Feature",
   "geometry": {
    "type": "Point",
    "coordinates": [
     119.48573,
     -31.46539
    ]
   },
   "properties": {
    "name": "2 HORAN STREET MARVEL LOCH 6426",
    "locID": "LOC000038720624",
    "tech": "NULL",
    "upgrade": "NULL_NA",
    "gnaf_pid": "GAWA_147216539",
    "ee": true,
    "tech_change_status": "Not Planned"
   }
  },
  {
   "type": "Feature",
   "geometry": {
    "type": "Point",
    "coordinates": [
     119.48602,
     -31.46676
    ]
   },
   "properties": {
    "name": "1 LENNEBERG STREET MARVEL LOCH 6426",
    "locID": "LOC000027828185",
    "tech": "NULL",
    "upgrade": "NULL_NA",
    "gnaf_pid": "GAWA_147216540",
    "ee": true,
    "tech_change_status": "Not Planned"
   }
  },
  {
   "type": "Feature",
   "geometry": {
    "type": "Point",
    "coordinates": [
     119.49123,
     -31.46834
    ]
   },
   "properties": {
    "name": "47 KING STREET MARVEL LOCH 6426",
    "locID": "LOC000047960777",
    "tech": "NULL",
    "upgrade": "NULL_NA",
    "gnaf_pid": "GAWA_147216542",
    "ee": true,
    "tech_change_status": "Not Planned"
   }
  },
  {
   "type": "Feature",
   "geometry": {
    "type": "Point",
    "coordinates": [
     119.49112314,
     -31.46783931
    ]
   },
   "properties": {
    "name": "46 LENNEBERG STREET MARVEL LOCH 6426",
    "locID": "LOC000074993069",
    "tech": "SATELLITE",
    "upgrade": "NULL_NA",
    "gnaf_pid": "GAWA_147216543",
    "ee": true,
    "tech_change_status": "Not Planned"
   }
  },
  {
   "type": "Feature",
   "geometry": {
    "type": "Point",
    "coordinates": [
     119.49102,
     -31.46834
    ]
   },
   "properties": {
    "name": "45 KING STREET MARVEL LOCH 6426",
    "locID": "LOC000035363892",
    "tech": "NULL",
    "upgrade": "NULL_NA",
    "gnaf_pid": "GAWA_147216544",
    "ee": true,
    "tech_change_status": "Not Planned"
   }
  },
  {
   "type": "Feature",
   "geometry": {
    "type": "Point",
    "coordinates": [
     119.49081,
     -31.46784
    ]
   },
   "properties": {
    "name": "44 LENNEBERG STREET MARVEL LOCH 6426",
    "locID": "LOC000058320283",
    "tech": "NULL",
    "upgrade": "NULL_NA",
    "gnaf_pid": "GAWA_147216545",
    "ee": true,
    "tech_change_status": "Not Planned"
   }
  },
  {
   "type": "Feature",
   "geometry": {
    "type": "Point",
    "coordinates": [
     119.49194,
     -31.46935
    ]
   },
   "properties": {
    "name": "5 MAZZINA COURT MARVEL LOCH 6426",
    "locID": "LOC000013704357",
    "tech": "NULL",
    "upgrade": "NULL_NA",
    "gnaf_pid": "GAWA_147216838",
    "ee": true,
    "tech_change_status": "Not Planned"
   }
  },
  {
   "type": "Feature",
   "geometry": {
    "type": "Point",
    "coordinates": [
     119.49059,
     -31.46784
    ]
   },
   "properties": {
    "name": "42 LENNEBERG STREET MARVEL LOCH 6426",
    "locID": "LOC000074385295",
    "tech": "NULL",
    "upgrade": "NULL_NA",
    "gnaf_pid": "GAWA_147219951",
    "ee": true,
    "tech_change_status": "Not Planned"
   }
  },
  {
   "type": "Feature",
   "geometry": {
    "type": "Point",
    "coordinates": [
     119.49059,
     -31.46834
    ]
   },
   "properties": {
    "name": "41 KING STREET MARVEL LOCH 6426",
    "locID": "LOC000063761269",
    "tech": "NULL",
    "upgrade": "NULL_NA",
    "gnaf_pid": "GAWA_147219952",
    "ee": true,
    "tech_change_status": "Not Planned"
   }
  },
  {
   "type": "Feature",
   "geometry": {
    "type": "Point",
    "coordinates": [
     119.4909,
     -31.47224
    ]
   },
   "properties": {
    "name": "32 OXIDE STREET MARVEL LOCH 6426",
    "locID": "LOC000026146158",
    "tech": "NULL",
    "upgrade": "NULL_NA",
    "gnaf_pid": "GAWA_147222650",
    "ee": true,
    "tech_change_status": "Not Planned"
   }
  },
  {
   "type": "Feature",
   "geometry": {
    "type": "Point",
    "coordinates": [
     119.49075,
     -31.47211
    ]
   },
   "properties": {
    "name": "30 OXIDE STREET MARVEL LOCH 6426",
    "locID": "LOC000038127821",
    "tech": "NULL",
    "upgrade": "NULL_NA",
    "gnaf_pid": "GAWA_147222651",
    "ee": true,
    "tech_change_status": "Not Planned"
   }
  },
  {
   "type": "Feature",
   "geometry": {
    "type": "Point",
    "coordinates": [
     119.4906,
     -31.47198
    ]
   },
   "properties": {
    "name": "28 OXIDE STREET MARVEL LOCH 6426",
    "locID": "LOC000076895947",
    "tech": "NULL",
    "upgrade": "NULL_NA",
    "gnaf_pid": "GAWA_147222652",
    "ee": true,
    "tech_change_status": "Not Planned"
   }
  },
  {
   "type": "Feature",
   "geometry": {
    "type": "Point",
    "coordinates": [
     119.48922,
     -31.46784
    ]
   },
   "properties": {
    "name": "32 LENNEBERG STREET MARVEL LOCH 6426",
    "locID": "LOC000026102647",
    "tech": "NULL",
    "upgrade": "NULL_NA",
    "gnaf_pid": "GAWA_147224371",
    "ee": true,
    "tech_change_status": "Not Planned"
   }
  },
  {
   "type": "Feature",
   "geometry": {
    "type": "Point",
    "coordinates": [
     119.48922,
     -31.46834
    ]
   },
   "properties": {
    "name": "31 KING STREET MARVEL LOCH 6426",
    "locID": "LOC000097904804",
    "tech": "NULL",
    "upgrade": "NULL_NA",
    "gnaf_pid": "GAWA_147224372",
    "ee": true,
    "tech_change_status": "Not Planned"
   }
  },
  {
   "type": "Feature",
   "geometry": {
    "type": "Point",
    "coordinates": [
     119.48901,
     -31.46784
    ]
   },
   "properties": {
    "name": "30 LENNEBERG STREET MARVEL LOCH 6426",
    "locID": "LOC000037687868",
    "tech": "NULL",
    "upgrade": "NULL_NA",
    "gnaf_pid": "GAWA_147224373",
    "ee": true,
    "tech_change_status": "Not Planned"
   }
  },
  {
   "type": "Feature",
   "geometry": {
    "type": "Point",
    "coordinates": [
     119.48879,
     -31.46784
    ]
   },
   "properties": {
    "name": "28 LENNEBERG STREET MARVEL LOCH 6426",
    "locID": "LOC000016434239",
    "tech": "NULL",
    "upgrade": "NULL_NA",
    "gnaf_pid": "GAWA_147224374",
    "ee": true,
    "tech_change_status": "Not Planned"
   }
  },
  {
   "type": "Feature",
   "geometry": {
    "type": "Point",
    "coordinates": [
     119.48879,
     -31.46834
    ]
   },
   "properties": {
    "name": "27 KING STREET MARVEL LOCH 6426",
    "locID": "LOC000002195769",
    "tech": "NULL",
    "upgrade": "NULL_NA",
    "gnaf_pid": "GAWA_147224375",
    "ee": true,
    "tech_change_status": "Not Planned"
   }
  },
  {
   "type": "Feature",
   "geometry": {
    "type": "Point",
    "coordinates": [
     119.48858,
     -31.46784
    ]
   },
   "properties": {
    "name": "26 LENNEBERG STREET MARVEL LOCH 6426",
    "locID": "LOC000031904188",
    "tech": "NULL",
    "upgrade": "NULL_NA",
    "gnaf_pid": "GAWA_147224376",
    "ee": true,
    "tech_change_status": "Not Planned"
   }
  },
  {
   "type": "Feature",
   "geometry": {
    "type": "Point",
    "coordinates": [
     119.48858,
     -31.46834
    ]
   },
   "properties": {
    "name": "25 KING STREET MARVEL LOCH 6426",
    "locID": "LOC000015487779",
    "tech": "NULL",
    "upgrade": "NULL_NA",
    "gnaf_pid": "GAWA_147224377",
    "ee": true,
    "tech_change_status": "Not Planned"
   }
  },
  {
   "type": "Feature",
   "geometry": {
    "type": "Point",
    "coordinates": [
     119.48837,
     -31.46784
    ]
   },
   "properties": {
    "name": "24 LENNEBERG STREET MARVEL LOCH 6426",
    "locID": "LOC000069167191",
    "tech": "SATELLITE",
    "upgrade": "NULL_NA",
    "gnaf_pid": "GAWA_147224378",
    "ee": true,
    "tech_change_status": "Not Planned"
   }
  },
  {
   "type": "Feature",
   "geometry": {
    "type": "Point",
    "coordinates": [
     119.48837,
     -31.46834
    ]
   },
   "properties": {
    "name": "23 KING STREET MARVEL LOCH 6426",
    "locID": "LOC000056512944",
    "tech": "NULL",
    "upgrade": "NULL_NA",
    "gnaf_pid": "GAWA_147224379",
    "ee": true,
    "tech_change_status": "Not Planned"
   }
  },
  {
   "type": "Feature",
   "geometry": {
    "type": "Point",
    "coordinates": [
     119.48816,
     -31.46784
    ]
   },
   "properties": {
    "name": "22 LENNEBERG STREET MARVEL LOCH 6426",
    "locID": "LOC000076986465",
    "tech": "NULL",
    "upgrade": "NULL_NA",
    "gnaf_pid": "GAWA_147224380",
    "ee": true,
    "tech_change_status": "Not Planned"
   }
  },
  {
   "type": "Feature",
   "geometry": {
    "type": "Point",
    "coordinates": [
     119.48816,
     -31.46834
    ]
   },
   "properties": {
    "name": "21 KING STREET MARVEL LOCH 6426",
    "locID": "LOC000019033133",
    "tech": "NULL",
    "upgrade": "NULL_NA",
    "gnaf_pid": "GAWA_147224381",
    "ee": true,
    "tech_change_status": "Not Planned"
   }
  },
  {
   "type": "Feature",
   "geometry": {
    "type": "Point",
    "coordinates": [
     119.48795,
     -31.46834
    ]
   },
   "properties": {
    "name": "19 KING STREET MARVEL LOCH 6426",
    "locID": "LOC000070656651",
    "tech": "NULL",
    "upgrade": "NULL_NA",
    "gnaf_pid": "GAWA_147224383",
    "ee": true,
    "tech_change_status": "Not Planned"
   }
  },
  {
   "type": "Feature",
   "geometry": {
    "type": "Point",
    "coordinates": [
     119.48774,
     -31.46834
    ]
   },
   "properties": {
    "name": "17 KING STREET MARVEL LOCH 6426",
    "locID": "LOC000014567422",
    "tech": "NULL",
    "upgrade": "NULL_NA",
    "gnaf_pid": "GAWA_147224384",
    "ee": true,
    "tech_change_status": "Not Planned"
   }
  },
  {
   "type": "Feature",
   "geometry": {
    "type": "Point",
    "coordinates": [
     119.487,
     -31.46784
    ]
   },
   "properties": {
    "name": "14 LENNEBERG STREET MARVEL LOCH 6426",
    "locID": "LOC000034445492",
    "tech": "NULL",
    "upgrade": "NULL_NA",
    "gnaf_pid": "GAWA_147225621",
    "ee": true,
    "tech_change_status": "Not Planned"
   }
  },
  {
   "type": "Feature",
   "geometry": {
    "type": "Point",
    "coordinates": [
     119.48594,
     -31.46784
    ]
   },
   "properties": {
    "name": "4 LENNEBERG STREET MARVEL LOCH 6426",
    "locID": "LOC000013770909",
    "tech": "NULL",
    "upgrade": "NULL_NA",
    "gnaf_pid": "GAWA_147225626",
    "ee": true,
    "tech_change_status": "Not Planned"
   }
  },
  {
   "type": "Feature",
   "geometry": {
    "type": "Point",
    "coordinates": [
     119.48594,
     -31.46834
    ]
   },
   "properties": {
    "name": "3 KING STREET MARVEL LOCH 6426",
    "locID": "LOC000057063961",
    "tech": "NULL",
    "upgrade": "NULL_NA",
    "gnaf_pid": "GAWA_147225627",
    "ee": true,
    "tech_change_status": "Not Planned"
   }
  },
  {
   "type": "Feature",
   "geometry": {
    "type": "Point",
    "coordinates": [
     119.48573,
     -31.46784
    ]
   },
   "properties": {
    "name": "2 LENNEBERG STREET MARVEL LOCH 6426",
    "locID": "LOC000069167191",
    "tech": "SATELLITE",
    "upgrade": "NULL_NA",
    "gnaf_pid": "GAWA_147225628",
    "ee": true,
    "tech_change_status": "Not Planned"
   }
  },
  {
   "type": "Feature",
   "geometry": {
    "type": "Point",
    "coordinates": [
     119.48573,
     -31.46834
    ]
   },
   "properties": {
    "name": "1 KING STREET MARVEL LOCH 6426",
    "locID": "LOC000070656651",
    "tech": "NULL",
    "upgrade": "NULL_NA",
    "gnaf_pid": "GAWA_147225629",
    "ee": true,
    "tech_change_status": "Not Planned"
   }
  },
  {
   "type": "Feature",
   "geometry": {
    "type": "Point",
    "coordinates": [
     119.48678,
     -31.46661
    ]
   },
   "properties": {
    "name": "21 WILLIAMSON STREET MARVEL LOCH 6426",
    "locID": "LOC000103349137",
    "tech": "NULL",
    "upgrade": "NULL_NA",
    "gnaf_pid": "GAWA_147226637",
    "ee": true,
    "tech_change_status": "Not Planned"
   }
  },
  {
   "type": "Feature",
   "geometry": {
    "type": "Point",
    "coordinates": [
     119.48678,
     -31.46711
    ]
   },
   "properties": {
    "name": "13 LENNEBERG STREET MARVEL LOCH 6426",
    "locID": "LOC000017243476",
    "tech": "NULL",
    "upgrade": "NULL_NA",
    "gnaf_pid": "GAWA_147226638",
    "ee": true,
    "tech_change_status": "Not Planned"
   }
  },
  {
   "type": "Feature",
   "geometry": {
    "type": "Point",
    "coordinates": [
     119.48657,
     -31.46539
    ]
   },
   "properties": {
    "name": "10 HORAN STREET MARVEL LOCH 6426",
    "locID": "LOC000057951823",
    "tech": "NULL",
    "upgrade": "NULL_NA",
    "gnaf_pid": "GAWA_147226639",
    "ee": true,
    "tech_change_status": "Not Planned"
   }
  },
  {
   "type": "Feature",
   "geometry": {
    "type": "Point",
    "coordinates": [
     119.48891,
     -31.47124
    ]
   },
   "properties": {
    "name": "11 OVERINGTON STREET MARVEL LOCH 6426",
    "locID": "LOC000048564821",
    "tech": "NULL",
    "upgrade": "NULL_NA",
    "gnaf_pid": "GAWA_147226652",
    "ee": true,
    "tech_change_status": "Not Planned"
   }
  },
  {
   "type": "Feature",
   "geometry": {
    "type": "Point",
    "coordinates": [
     119.48636,
     -31.46784
    ]
   },
   "properties": {
    "name": "8 LENNEBERG STREET MARVEL LOCH 6426",
    "locID": "LOC000031068865",
    "tech": "NULL",
    "upgrade": "NULL_NA",
    "gnaf_pid": "GAWA_147227365",
    "ee": true,
    "tech_change_status": "Not Planned"
   }
  },
  {
   "type": "Feature",
   "geometry": {
    "type": "Point",
    "coordinates": [
     119.49118,
     -31.4711
    ]
   },
   "properties": {
    "name": "18 BURBIDGE STREET MARVEL LOCH 6426",
    "locID": "LOC000073006751",
    "tech": "NULL",
    "upgrade": "NULL_NA",
    "gnaf_pid": "GAWA_147227368",
    "ee": true,
    "tech_change_status": "Not Planned"
   }
  },
  {
   "type": "Feature",
   "geometry": {
    "type": "Point",
    "coordinates": [
     119.48615,
     -31.46784
    ]
   },
   "properties": {
    "name": "6 LENNEBERG STREET MARVEL LOCH 6426",
    "locID": "LOC000060447840",
    "tech": "SATELLITE",
    "upgrade": "NULL_NA",
    "gnaf_pid": "GAWA_147227762",
    "ee": true,
    "tech_change_status": "Not Planned"
   }
  },
  {
   "type": "Feature",
   "geometry": {
    "type": "Point",
    "coordinates": [
     119.49083,
     -31.46903
    ]
   },
   "properties": {
    "name": "50 KING STREET MARVEL LOCH 6426",
    "locID": "LOC000061646847",
    "tech": "NULL",
    "upgrade": "NULL_NA",
    "gnaf_pid": "GAWA_147228518",
    "ee": true,
    "tech_change_status": "Not Planned"
   }
  },
  {
   "type": "Feature",
   "geometry": {
    "type": "Point",
    "coordinates": [
     119.49059,
     -31.46711
    ]
   },
   "properties": {
    "name": "43 LENNEBERG STREET MARVEL LOCH 6426",
    "locID": "LOC000042342056",
    "tech": "NULL",
    "upgrade": "NULL_NA",
    "gnaf_pid": "GAWA_147231442",
    "ee": true,
    "tech_change_status": "Not Planned"
   }
  },
  {
   "type": "Feature",
   "geometry": {
    "type": "Point",
    "coordinates": [
     119.48802,
     -31.47047
    ]
   },
   "properties": {
    "name": "1 OVERINGTON STREET MARVEL LOCH 6426",
    "locID": "LOC000066320545",
    "tech": "NULL",
    "upgrade": "NULL_NA",
    "gnaf_pid": "GAWA_147231443",
    "ee": true,
    "tech_change_status": "Not Planned"
   }
  },
  {
   "type": "Feature",
   "geometry": {
    "type": "Point",
    "coordinates": [
     119.49038,
     -31.46784
    ]
   },
   "properties": {
    "name": "40 LENNEBERG STREET MARVEL LOCH 6426",
    "locID": "LOC000022823615",
    "tech": "NULL",
    "upgrade": "NULL_NA",
    "gnaf_pid": "GAWA_147233687",
    "ee": true,
    "tech_change_status": "Not Planned"
   }
  },
  {
   "type": "Feature",
   "geometry": {
    "type": "Point",
    "coordinates": [
     119.49038,
     -31.46834
    ]
   },
   "properties": {
    "name": "39 KING STREET MARVEL LOCH 6426",
    "locID": "LOC000011953566",
    "tech": "NULL",
    "upgrade": "NULL_NA",
    "gnaf_pid": "GAWA_147233688",
    "ee": true,
    "tech_change_status": "Not Planned"
   }
  },
  {
   "type": "Feature",
   "geometry": {
    "type": "Point",
    "coordinates": [
     119.49017,
     -31.46834
    ]
   },
   "properties": {
    "name": "37 KING STREET MARVEL LOCH 6426",
    "locID": "LOC000085518065",
    "tech": "NULL",
    "upgrade": "NULL_NA",
    "gnaf_pid": "GAWA_147233690",
    "ee": true,
    "tech_change_status": "Not Planned"
   }
  },
  {
   "type": "Feature",
   "geometry": {
    "type": "Point",
    "coordinates": [
     119.48996,
     -31.46784
    ]
   },
   "properties": {
    "name": "36 LENNEBERG STREET MARVEL LOCH 6426",
    "locID": "LOC000063980054",
    "tech": "NULL",
    "upgrade": "NULL_NA",
    "gnaf_pid": "GAWA_147233691",
    "ee": true,
    "tech_change_status": "Not Planned"
   }
  },
  {
   "type": "Feature",
   "geometry": {
    "type": "Point",
    "coordinates": [
     119.48903,
     -31.4672
    ]
   },
   "properties": {
    "name": "33 LENNEBERG STREET MARVEL LOCH 6426",
    "locID": "LOC000080740711",
    "tech": "NULL",
    "upgrade": "NULL_NA",
    "gnaf_pid": "GAWA_147234402",
    "ee": true,
    "tech_change_status": "Not Planned"
   }
  },
  {
   "type": "Feature",
   "geometry": {
    "type": "Point",
    "coordinates": [
     119.48898,
     -31.46704
    ]
   },
   "properties": {
    "name": "31 LENNEBERG STREET MARVEL LOCH 6426",
    "locID": "LOC000018651437",
    "tech": "SATELLITE",
    "upgrade": "NULL_NA",
    "gnaf_pid": "GAWA_147234403",
    "ee": true,
    "tech_change_status": "Not Planned"
   }
  },
  {
   "type": "Feature",
   "geometry": {
    "type": "Point",
    "coordinates": [
     119.48996,
     -31.46834
    ]
   },
   "properties": {
    "name": "35 KING STREET MARVEL LOCH 6426",
    "locID": "LOC000057063961",
    "tech": "NULL",
    "upgrade": "NULL_NA",
    "gnaf_pid": "GAWA_147246391",
    "ee": true,
    "tech_change_status": "Not Planned"
   }
  },
  {
   "type": "Feature",
   "geometry": {
    "type": "Point",
    "coordinates": [
     119.48975,
     -31.46784
    ]
   },
   "properties": {
    "name": "34 LENNEBERG STREET MARVEL LOCH 6426",
    "locID": "LOC000062773993",
    "tech": "SATELLITE",
    "upgrade": "NULL_NA",
    "gnaf_pid": "GAWA_147246392",
    "ee": true,
    "tech_change_status": "Not Planned"
   }
  },
  {
   "type": "Feature",
   "geometry": {
    "type": "Point",
    "coordinates": [
     119.48876,
     -31.47111
    ]
   },
   "properties": {
    "name": "9 OVERINGTON STREET MARVEL LOCH 6426",
    "locID": "LOC000095584297",
    "tech": "NULL",
    "upgrade": "NULL_NA",
    "gnaf_pid": "GAWA_147249431",
    "ee": true,
    "tech_change_status": "Not Planned"
   }
  },
  {
   "type": "Feature",
   "geometry": {
    "type": "Point",
    "coordinates": [
     119.48873,
     -31.47038
    ]
   },
   "properties": {
    "name": "6 OXIDE STREET MARVEL LOCH 6426",
    "locID": "LOC000060239430",
    "tech": "NULL",
    "upgrade": "NULL_NA",
    "gnaf_pid": "GAWA_147249432",
    "ee": true,
    "tech_change_status": "Not Planned"
   }
  },
  {
   "type": "Feature",
   "geometry": {
    "type": "Point",
    "coordinates": [
     119.48861,
     -31.47099
    ]
   },
   "properties": {
    "name": "7 OVERINGTON STREET MARVEL LOCH 6426",
    "locID": "LOC000012002786",
    "tech": "NULL",
    "upgrade": "NULL_NA",
    "gnaf_pid": "GAWA_147249433",
    "ee": true,
    "tech_change_status": "Not Planned"
   }
  },
  {
   "type": "Feature",
   "geometry": {
    "type": "Point",
    "coordinates": [
     119.48858,
     -31.47025
    ]
   },
   "properties": {
    "name": "4 OXIDE STREET MARVEL LOCH 6426",
    "locID": "LOC000096067870",
    "tech": "NULL",
    "upgrade": "NULL_NA",
    "gnaf_pid": "GAWA_147249434",
    "ee": true,
    "tech_change_status": "Not Planned"
   }
  },
  {
   "type": "Feature",
   "geometry": {
    "type": "Point",
    "coordinates": [
     119.48842,
     -31.47012
    ]
   },
   "properties": {
    "name": "2 OXIDE STREET MARVEL LOCH 6426",
    "locID": "LOC000021506073",
    "tech": "NULL",
    "upgrade": "NULL_NA",
    "gnaf_pid": "GAWA_147249435",
    "ee": true,
    "tech_change_status": "Not Planned"
   }
  },
  {
   "type": "Feature",
   "geometry": {
    "type": "Point",
    "coordinates": [
     119.49017,
     -31.46834
    ]
   },
   "properties": {
    "name": "UNIT 3, 37 KING STREET MARVEL LOCH 6426",
    "locID": "LOC000085518065",
    "tech": "NULL",
    "upgrade": "NULL_NA",
    "gnaf_pid": "GAWA_147891834",
    "ee": true,
    "tech_change_status": "Not Planned"
   }
  },
  {
   "type": "Feature",
   "geometry": {
    "type": "Point",
    "coordinates": [
     119.48996,
     -31.46834
    ]
   },
   "properties": {
    "name": "UNIT 2, 35 KING STREET MARVEL LOCH 6426",
    "locID": "LOC000057063961",
    "tech": "NULL",
    "upgrade": "NULL_NA",
    "gnaf_pid": "GAWA_147891844",
    "ee": true,
    "tech_change_status": "Not Planned"
   }
  },
  {
   "type": "Feature",
   "geometry": {
    "type": "Point",
    "coordinates": [
     119.48996,
     -31.46834
    ]
   },
   "properties": {
    "name": "UNIT 3, 35 KING STREET MARVEL LOCH 6426",
    "locID": "LOC000057063961",
    "tech": "NULL",
    "upgrade": "NULL_NA",
    "gnaf_pid": "GAWA_147891845",
    "ee": true,
    "tech_change_status": "Not Planned"
   }
  },
  {
   "type": "Feature",
   "geometry": {
    "type": "Point",
    "coordinates": [
     119.48975,
     -31.46784
    ]
   },
   "properties": {
    "name": "34B LENNEBERG STREET MARVEL LOCH 6426",
    "locID": "LOC000063096238",
    "tech": "SATELLITE",
    "upgrade": "NULL_NA",
    "gnaf_pid": "GAWA_147911727",
    "ee": true,
    "tech_change_status": "Not Planned"
   }
  },
  {
   "type": "Feature",
   "geometry": {
    "type": "Point",
    "coordinates": [
     119.51506691,
     -31.48652351
    ]
   },
   "properties": {
    "name": "6 BURBIDGE ROAD MARVEL LOCH 6426",
    "locID": "LOC000159262040",
    "tech": "SATELLITE",
    "upgrade": "NULL_NA",
    "gnaf_pid": "GAWA_149129546",
    "ee": true,
    "tech_change_status": "Not Planned"
   }
  },
  {
   "type": "Feature",
   "geometry": {
    "type": "Point",
    "coordinates": [
     119.51506691,
     -31.48652351
    ]
   },
   "properties": {
    "name": "14 BURBIDGE ROAD MARVEL LOCH 6426",
    "locID": "LOC000159262040",
    "tech": "SATELLITE",
    "upgrade": "NULL_NA",
    "gnaf_pid": "GAWA_149129574",
    "ee": true,
    "tech_change_status": "Not Planned"
   }
  },
  {
   "type": "Feature",
   "geometry": {
    "type": "Point",
    "coordinates": [
     119.51506691,
     -31.48652351
    ]
   },
   "properties": {
    "name": "10 BURBIDGE ROAD MARVEL LOCH 6426",
    "locID": "LOC000159262040",
    "tech": "SATELLITE",
    "upgrade": "NULL_NA",
    "gnaf_pid": "GAWA_149138942",
    "ee": true,
    "tech_change_status": "Not Planned"
   }
  },
  {
   "type": "Feature",
   "geometry": {
    "type": "Point",
    "coordinates": [
     119.51506691,
     -31.48652351
    ]
   },
   "properties": {
    "name": "4 BURBIDGE ROAD MARVEL LOCH 6426",
    "locID": "LOC000159262040",
    "tech": "SATELLITE",
    "upgrade": "NULL_NA",
    "gnaf_pid": "GAWA_149138943",
    "ee": true,
    "tech_change_status": "Not Planned"
   }
  },
  {
   "type": "Feature",
   "geometry": {
    "type": "Point",
    "coordinates": [
     119.51506691,
     -31.48652351
    ]
   },
   "properties": {
    "name": "15 BURBIDGE ROAD MARVEL LOCH 6426",
    "locID": "LOC000159262040",
    "tech": "SATELLITE",
    "upgrade": "NULL_NA",
    "gnaf_pid": "GAWA_149215404",
    "ee": true,
    "tech_change_status": "Not Planned"
   }
  },
  {
   "type": "Feature",
   "geometry": {
    "type": "Point",
    "coordinates": [
     119.52154,
     -31.48894
    ]
   },
   "properties": {
    "name": "LOT 734 BURBIDGE ROAD MARVEL LOCH 6426",
    "locID": "LOC000159262040",
    "tech": "SATELLITE",
    "upgrade": "NULL_NA",
    "gnaf_pid": "GAWA_161530346",
    "ee": true,
    "tech_change_status": "Not Planned"
   }
  },
  {
   "type": "Feature",
   "geometry": {
    "type": "Point",
    "coordinates": [
     119.34484447,
     -31.47185484
    ]
   },
   "properties": {
    "name": "410 FROG ROCK-MARVEL LOCH ROAD MARVEL LOCH 6426",
    "locID": "LOC000078184458",
    "tech": "SATELLITE",
    "upgrade": "NULL_NA",
    "gnaf_pid": "GAWA_161601095",
    "ee": true,
    "tech_change_status": "Not Planned"
   }
  },
  {
   "type": "Feature",
   "geometry": {
    "type": "Point",
    "coordinates": [
     119.42717202,
     -31.43983026
    ]
   },
   "properties": {
    "name": "416 SOUTHERN CROSS-MARVEL LOCH ROAD MARVEL LOCH 6426",
    "locID": "LOC000183772427",
    "tech": "SATELLITE",
    "upgrade": "NULL_NA",
    "gnaf_pid": "GAWA_163392618",
    "ee": true,
    "tech_change_status": "Not Planned"
   }
  },
  {
   "type": "Feature",
   "geometry": {
    "type": "Point",
    "coordinates": [
     119.54469034,
     -31.50703214
    ]
   },
   "properties": {
    "name": "LOT 1016 MARVEL LOCH-FORRESTANIA ROAD MARVEL LOCH 6426",
    "locID": "LOC000133334739",
    "tech": "NULL",
    "upgrade": "NULL_NA",
    "gnaf_pid": "GAWA_720109152",
    "ee": false,
    "tech_change_status": "Not Planned"
   }
  },
  {
   "type": "Feature",
   "geometry": {
    "type": "Point",
    "coordinates": [
     119.34148531,
     -31.54169593
    ]
   },
   "properties": {
    "name": "1530 PANIZZA ROAD MARVEL LOCH 6426",
    "locID": "LOC100078057090",
    "tech": "NULL",
    "upgrade": "NULL_NA",
    "gnaf_pid": "GAWA_720409278",
    "ee": false,
    "tech_change_status": "Not Planned"
   }
  },
  {
   "type": "Feature",
   "geometry": {
    "type": "Point",
    "coordinates": [
     119.35315778,
     -31.51646302
    ]
   },
   "properties": {
    "name": "1335 PANIZZA ROAD MARVEL LOCH 6426",
    "locID": "LOC100078056829",
    "tech": "NULL",
    "upgrade": "NULL_NA",
    "gnaf_pid": "GAWA_720409280",
    "ee": false,
    "tech_change_status": "Not Planned"
   }
  },
  {
   "type": "Feature",
   "geometry": {
    "type": "Point",
    "coordinates": [
     119.42673135,
     -31.45645154
    ]
   },
   "properties": {
    "name": "2662 SOUTHERN CROSS-MARVEL LOCH ROAD MARVEL LOCH 6426",
    "locID": "LOC100078055863",
    "tech": "NULL",
    "upgrade": "NULL_NA",
    "gnaf_pid": "GAWA_720410076",
    "ee": true,
    "tech_change_status": "Not Planned"
   }
  },
  {
   "type": "Feature",
   "geometry": {
    "type": "Point",
    "coordinates": [
     119.42147555,
     -31.50656479
    ]
   },
   "properties": {
    "name": "258 EDWARDS FIND-MARVEL LOCH ROAD MARVEL LOCH 6426",
    "locID": "LOC100078056715",
    "tech": "NULL",
    "upgrade": "NULL_NA",
    "gnaf_pid": "GAWA_720410528",
    "ee": true,
    "tech_change_status": "Not Planned"
   }
  },
  {
   "type": "Feature",
   "geometry": {
    "type": "Point",
    "coordinates": [
     119.26258634,
     -31.54547038
    ]
   },
   "properties": {
    "name": "2568 BENNETT ROAD MARVEL LOCH 6426",
    "locID": "LOC100078057128",
    "tech": "NULL",
    "upgrade": "NULL_NA",
    "gnaf_pid": "GAWA_720411111",
    "ee": false,
    "tech_change_status": "Not Planned"
   }
  },
  {
   "type": "Feature",
   "geometry": {
    "type": "Point",
    "coordinates": [
     119.30783825,
     -31.61087393
    ]
   },
   "properties": {
    "name": "1991 GRACE ROAD MARVEL LOCH 6426",
    "locID": "LOC100078057821",
    "tech": "NULL",
    "upgrade": "NULL_NA",
    "gnaf_pid": "GAWA_720411392",
    "ee": false,
    "tech_change_status": "Not Planned"
   }
  },
  {
   "type": "Feature",
   "geometry": {
    "type": "Point",
    "coordinates": [
     119.37921297,
     -31.56731422
    ]
   },
   "properties": {
    "name": "1911 PANIZZA ROAD MARVEL LOCH 6426",
    "locID": "LOC100078057562",
    "tech": "NULL",
    "upgrade": "NULL_NA",
    "gnaf_pid": "GAWA_720411619",
    "ee": false,
    "tech_change_status": "Not Planned"
   }
  },
  {
   "type": "Feature",
   "geometry": {
    "type": "Point",
    "coordinates": [
     119.3451645,
     -31.45789179
    ]
   },
   "properties": {
    "name": "594 PANIZZA ROAD MARVEL LOCH 6426",
    "locID": "LOC100087610942",
    "tech": "NULL",
    "upgrade": "NULL_NA",
    "gnaf_pid": "GAWA_720411863",
    "ee": true,
    "tech_change_status": "Not Planned"
   }
  }
 ]
}