{
 "type": "FeatureCollection",
 "generated": "2025-06-19T05:48:13.869431",
 "suburb": "MENZIES",
 "features": [
  {
   "type": "Feature",
   "geometry": {
    "type": "Point",
    "coordinates": [
     121.02856,
     -29.69265
    ]
   },
   "properties": {
    "name": "49 SHENTON STREET MENZIES 6436",
    "locID": "LOC000045620043",
    "tech": "NULL",
    "upgrade": "NULL_NA",
    "gnaf_pid": "GAWA_146909462",
    "ee": false,
    "tech_change_status": "Not Planned"
   }
  },
  {
   "type": "Feature",
   "geometry": {
    "type": "Point",
    "coordinates": [
     121.02572,
     -29.69059
    ]
   },
   "properties": {
    "name": "47 MERCER STREET MENZIES 6436",
    "locID": "LOC000074604184",
    "tech": "NULL",
    "upgrade": "NULL_NA",
    "gnaf_pid": "GAWA_146918513",
    "ee": false,
    "tech_change_status": "Not Planned"
   }
  },
  {
   "type": "Feature",
   "geometry": {
    "type": "Point",
    "coordinates": [
     121.02572,
     -29.6904
    ]
   },
   "properties": {
    "name": "49 MERCER STREET MENZIES 6436",
    "locID": "LOC000069611483",
    "tech": "NULL",
    "upgrade": "NULL_NA",
    "gnaf_pid": "GAWA_146918514",
    "ee": false,
    "tech_change_status": "Not Planned"
   }
  },
  {
   "type": "Feature",
   "geometry": {
    "type": "Point",
    "coordinates": [
     121.02572,
     -29.69004
    ]
   },
   "properties": {
    "name": "53 MERCER STREET MENZIES 6436",
    "locID": "LOC000035293660",
    "tech": "NULL",
    "upgrade": "NULL_NA",
    "gnaf_pid": "GAWA_146918516",
    "ee": false,
    "tech_change_status": "Not Planned"
   }
  },
  {
   "type": "Feature",
   "geometry": {
    "type": "Point",
    "coordinates": [
     121.02571,
     -29.68986
    ]
   },
   "properties": {
    "name": "55 MERCER STREET MENZIES 6436",
    "locID": "LOC000013721748",
    "tech": "NULL",
    "upgrade": "NULL_NA",
    "gnaf_pid": "GAWA_146918517",
    "ee": false,
    "tech_change_status": "Not Planned"
   }
  },
  {
   "type": "Feature",
   "geometry": {
    "type": "Point",
    "coordinates": [
     121.02516,
     -29.69114
    ]
   },
   "properties": {
    "name": "34 ONSLOW STREET MENZIES 6436",
    "locID": "LOC000046585891",
    "tech": "NULL",
    "upgrade": "NULL_NA",
    "gnaf_pid": "GAWA_146968946",
    "ee": false,
    "tech_change_status": "Not Planned"
   }
  },
  {
   "type": "Feature",
   "geometry": {
    "type": "Point",
    "coordinates": [
     121.02516,
     -29.69095
    ]
   },
   "properties": {
    "name": "36 ONSLOW STREET MENZIES 6436",
    "locID": "LOC000019626364",
    "tech": "NULL",
    "upgrade": "NULL_NA",
    "gnaf_pid": "GAWA_146968947",
    "ee": false,
    "tech_change_status": "Not Planned"
   }
  },
  {
   "type": "Feature",
   "geometry": {
    "type": "Point",
    "coordinates": [
     121.02794,
     -29.68902
    ]
   },
   "properties": {
    "name": "64 REID STREET MENZIES 6436",
    "locID": "LOC000019589633",
    "tech": "NULL",
    "upgrade": "NULL_NA",
    "gnaf_pid": "GAWA_146984303",
    "ee": false,
    "tech_change_status": "Not Planned"
   }
  },
  {
   "type": "Feature",
   "geometry": {
    "type": "Point",
    "coordinates": [
     121.03358,
     -29.69169
    ]
   },
   "properties": {
    "name": "60 WALTON STREET MENZIES 6436",
    "locID": "LOC000004542430",
    "tech": "SATELLITE",
    "upgrade": "NULL_NA",
    "gnaf_pid": "GAWA_147044821",
    "ee": false,
    "tech_change_status": "Not Planned"
   }
  },
  {
   "type": "Feature",
   "geometry": {
    "type": "Point",
    "coordinates": [
     121.02573,
     -29.69131
    ]
   },
   "properties": {
    "name": "39 MERCER STREET MENZIES 6436",
    "locID": "LOC000105187102",
    "tech": "NULL",
    "upgrade": "NULL_NA",
    "gnaf_pid": "GAWA_147045727",
    "ee": false,
    "tech_change_status": "Not Planned"
   }
  },
  {
   "type": "Feature",
   "geometry": {
    "type": "Point",
    "coordinates": [
     121.0252,
     -29.69458
    ]
   },
   "properties": {
    "name": "2 ONSLOW STREET MENZIES 6436",
    "locID": "LOC000051918906",
    "tech": "SATELLITE",
    "upgrade": "NULL_NA",
    "gnaf_pid": "GAWA_147054788",
    "ee": false,
    "tech_change_status": "Not Planned"
   }
  },
  {
   "type": "Feature",
   "geometry": {
    "type": "Point",
    "coordinates": [
     121.02573,
     -29.69113
    ]
   },
   "properties": {
    "name": "41 MERCER STREET MENZIES 6436",
    "locID": "LOC100079107185",
    "tech": "NULL",
    "upgrade": "NULL_NA",
    "gnaf_pid": "GAWA_147054792",
    "ee": false,
    "tech_change_status": "Not Planned"
   }
  },
  {
   "type": "Feature",
   "geometry": {
    "type": "Point",
    "coordinates": [
     121.02573,
     -29.69077
    ]
   },
   "properties": {
    "name": "45 MERCER STREET MENZIES 6436",
    "locID": "LOC000069521620",
    "tech": "NULL",
    "upgrade": "NULL_NA",
    "gnaf_pid": "GAWA_147054794",
    "ee": false,
    "tech_change_status": "Not Planned"
   }
  },
  {
   "type": "Feature",
   "geometry": {
    "type": "Point",
    "coordinates": [
     121.02578,
     -29.69496
    ]
   },
   "properties": {
    "name": "5 MERCER STREET MENZIES 6436",
    "locID": "LOC000035293660",
    "tech": "NULL",
    "upgrade": "NULL_NA",
    "gnaf_pid": "GAWA_147054797",
    "ee": false,
    "tech_change_status": "Not Planned"
   }
  },
  {
   "type": "Feature",
   "geometry": {
    "type": "Point",
    "coordinates": [
     121.02519,
     -29.69386
    ]
   },
   "properties": {
    "name": "10 ONSLOW STREET MENZIES 6436",
    "locID": "LOC000083622956",
    "tech": "NULL",
    "upgrade": "NULL_NA",
    "gnaf_pid": "GAWA_147059196",
    "ee": false,
    "tech_change_status": "Not Planned"
   }
  },
  {
   "type": "Feature",
   "geometry": {
    "type": "Point",
    "coordinates": [
     121.0245,
     -29.69425
    ]
   },
   "properties": {
    "name": "1 ONSLOW STREET MENZIES 6436",
    "locID": "LOC000083622956",
    "tech": "NULL",
    "upgrade": "NULL_NA",
    "gnaf_pid": "GAWA_147059197",
    "ee": false,
    "tech_change_status": "Not Planned"
   }
  },
  {
   "type": "Feature",
   "geometry": {
    "type": "Point",
    "coordinates": [
     121.03072,
     -29.6919
    ]
   },
   "properties": {
    "name": "1 WILSON STREET MENZIES 6436",
    "locID": "LOC000045775732",
    "tech": "NULL",
    "upgrade": "NULL_NA",
    "gnaf_pid": "GAWA_147059204",
    "ee": false,
    "tech_change_status": "Not Planned"
   }
  },
  {
   "type": "Feature",
   "geometry": {
    "type": "Point",
    "coordinates": [
     121.02857,
     -29.69382
    ]
   },
   "properties": {
    "name": "37 SHENTON STREET MENZIES 6436",
    "locID": "LOC000011164512",
    "tech": "SATELLITE",
    "upgrade": "NULL_NA",
    "gnaf_pid": "GAWA_147070270",
    "ee": false,
    "tech_change_status": "Not Planned"
   }
  },
  {
   "type": "Feature",
   "geometry": {
    "type": "Point",
    "coordinates": [
     121.03281938,
     -29.69687607
    ]
   },
   "properties": {
    "name": "5 WALTON STREET MENZIES 6436",
    "locID": "LOC000005637455",
    "tech": "NULL",
    "upgrade": "NULL_NA",
    "gnaf_pid": "GAWA_147070296",
    "ee": false,
    "tech_change_status": "Not Planned"
   }
  },
  {
   "type": "Feature",
   "geometry": {
    "type": "Point",
    "coordinates": [
     121.02855,
     -29.69228
    ]
   },
   "properties": {
    "name": "53 SHENTON STREET MENZIES 6436",
    "locID": "LOC000021236787",
    "tech": "NULL",
    "upgrade": "NULL_NA",
    "gnaf_pid": "GAWA_147070301",
    "ee": false,
    "tech_change_status": "Not Planned"
   }
  },
  {
   "type": "Feature",
   "geometry": {
    "type": "Point",
    "coordinates": [
     121.02716,
     -29.69302
    ]
   },
   "properties": {
    "name": "25 REID STREET MENZIES 6436",
    "locID": "LOC000019589633",
    "tech": "NULL",
    "upgrade": "NULL_NA",
    "gnaf_pid": "GAWA_147073929",
    "ee": false,
    "tech_change_status": "Not Planned"
   }
  },
  {
   "type": "Feature",
   "geometry": {
    "type": "Point",
    "coordinates": [
     121.03499,
     -29.69204
    ]
   },
   "properties": {
    "name": "36 GREGORY STREET MENZIES 6436",
    "locID": "LOC000077510147",
    "tech": "SATELLITE",
    "upgrade": "NULL_NA",
    "gnaf_pid": "GAWA_147077504",
    "ee": false,
    "tech_change_status": "Not Planned"
   }
  },
  {
   "type": "Feature",
   "geometry": {
    "type": "Point",
    "coordinates": [
     121.02801,
     -29.69474
    ]
   },
   "properties": {
    "name": "10 REID STREET MENZIES 6436",
    "locID": "LOC000100955378",
    "tech": "NULL",
    "upgrade": "NULL_NA",
    "gnaf_pid": "GAWA_147078105",
    "ee": false,
    "tech_change_status": "Not Planned"
   }
  },
  {
   "type": "Feature",
   "geometry": {
    "type": "Point",
    "coordinates": [
     121.02801,
     -29.69459
    ]
   },
   "properties": {
    "name": "12 REID STREET MENZIES 6436",
    "locID": "LOC000049585034",
    "tech": "NULL",
    "upgrade": "NULL_NA",
    "gnaf_pid": "GAWA_147078106",
    "ee": false,
    "tech_change_status": "Not Planned"
   }
  },
  {
   "type": "Feature",
   "geometry": {
    "type": "Point",
    "coordinates": [
     121.03504,
     -29.69539
    ]
   },
   "properties": {
    "name": "2 GREGORY STREET MENZIES 6436",
    "locID": "LOC000029540823",
    "tech": "NULL",
    "upgrade": "NULL_NA",
    "gnaf_pid": "GAWA_147078111",
    "ee": false,
    "tech_change_status": "Not Planned"
   }
  },
  {
   "type": "Feature",
   "geometry": {
    "type": "Point",
    "coordinates": [
     121.02854759,
     -29.69191917
    ]
   },
   "properties": {
    "name": "57 SHENTON STREET MENZIES 6436",
    "locID": "LOC000058222145",
    "tech": "NULL",
    "upgrade": "NULL_NA",
    "gnaf_pid": "GAWA_147079096",
    "ee": false,
    "tech_change_status": "Not Planned"
   }
  },
  {
   "type": "Feature",
   "geometry": {
    "type": "Point",
    "coordinates": [
     121.03503,
     -29.69521
    ]
   },
   "properties": {
    "name": "4 GREGORY STREET MENZIES 6436",
    "locID": "LOC000107809526",
    "tech": "SATELLITE",
    "upgrade": "NULL_NA",
    "gnaf_pid": "GAWA_147079805",
    "ee": false,
    "tech_change_status": "Not Planned"
   }
  },
  {
   "type": "Feature",
   "geometry": {
    "type": "Point",
    "coordinates": [
     121.03385,
     -29.68994
    ]
   },
   "properties": {
    "name": "72 WALTON STREET MENZIES 6436",
    "locID": "LOC000063166806",
    "tech": "NULL",
    "upgrade": "NULL_NA",
    "gnaf_pid": "GAWA_147080912",
    "ee": false,
    "tech_change_status": "Not Planned"
   }
  },
  {
   "type": "Feature",
   "geometry": {
    "type": "Point",
    "coordinates": [
     121.03275,
     -29.69124
    ]
   },
   "properties": {
    "name": "61 WALTON STREET MENZIES 6436",
    "locID": "LOC000108716510",
    "tech": "SATELLITE",
    "upgrade": "NULL_NA",
    "gnaf_pid": "GAWA_147080913",
    "ee": false,
    "tech_change_status": "Not Planned"
   }
  },
  {
   "type": "Feature",
   "geometry": {
    "type": "Point",
    "coordinates": [
     121.02802,
     -29.6951
    ]
   },
   "properties": {
    "name": "6 REID STREET MENZIES 6436",
    "locID": "LOC000049585034",
    "tech": "NULL",
    "upgrade": "NULL_NA",
    "gnaf_pid": "GAWA_147081153",
    "ee": false,
    "tech_change_status": "Not Planned"
   }
  },
  {
   "type": "Feature",
   "geometry": {
    "type": "Point",
    "coordinates": [
     121.03224,
     -29.69606
    ]
   },
   "properties": {
    "name": "32 MAHON STREET MENZIES 6436",
    "locID": "LOC000030435228",
    "tech": "NULL",
    "upgrade": "NULL_NA",
    "gnaf_pid": "GAWA_147086757",
    "ee": false,
    "tech_change_status": "Not Planned"
   }
  },
  {
   "type": "Feature",
   "geometry": {
    "type": "Point",
    "coordinates": [
     121.02939109,
     -29.69284036
    ]
   },
   "properties": {
    "name": "42 SHENTON STREET MENZIES 6436",
    "locID": "LOC000002125433",
    "tech": "NULL",
    "upgrade": "NULL_NA",
    "gnaf_pid": "GAWA_147087604",
    "ee": false,
    "tech_change_status": "Not Planned"
   }
  },
  {
   "type": "Feature",
   "geometry": {
    "type": "Point",
    "coordinates": [
     121.02719,
     -29.69547
    ]
   },
   "properties": {
    "name": "1 REID STREET MENZIES 6436",
    "locID": "LOC000049585034",
    "tech": "NULL",
    "upgrade": "NULL_NA",
    "gnaf_pid": "GAWA_147087618",
    "ee": false,
    "tech_change_status": "Not Planned"
   }
  },
  {
   "type": "Feature",
   "geometry": {
    "type": "Point",
    "coordinates": [
     121.02719,
     -29.69529
    ]
   },
   "properties": {
    "name": "3 REID STREET MENZIES 6436",
    "locID": "LOC000054077471",
    "tech": "SATELLITE",
    "upgrade": "NULL_NA",
    "gnaf_pid": "GAWA_147087619",
    "ee": false,
    "tech_change_status": "Not Planned"
   }
  },
  {
   "type": "Feature",
   "geometry": {
    "type": "Point",
    "coordinates": [
     121.02718,
     -29.69456
    ]
   },
   "properties": {
    "name": "11 REID STREET MENZIES 6436",
    "locID": "LOC000017123729",
    "tech": "NULL",
    "upgrade": "NULL_NA",
    "gnaf_pid": "GAWA_147087623",
    "ee": false,
    "tech_change_status": "Not Planned"
   }
  },
  {
   "type": "Feature",
   "geometry": {
    "type": "Point",
    "coordinates": [
     121.04017982,
     -29.69139445
    ]
   },
   "properties": {
    "name": "15 BALLARD STREET MENZIES 6436",
    "locID": "LOC000082547261",
    "tech": "NULL",
    "upgrade": "NULL_NA",
    "gnaf_pid": "GAWA_147089782",
    "ee": false,
    "tech_change_status": "Not Planned"
   }
  },
  {
   "type": "Feature",
   "geometry": {
    "type": "Point",
    "coordinates": [
     121.03359,
     -29.69205
    ]
   },
   "properties": {
    "name": "56 WALTON STREET MENZIES 6436",
    "locID": "LOC000005637455",
    "tech": "NULL",
    "upgrade": "NULL_NA",
    "gnaf_pid": "GAWA_147090324",
    "ee": false,
    "tech_change_status": "Not Planned"
   }
  },
  {
   "type": "Feature",
   "geometry": {
    "type": "Point",
    "coordinates": [
     121.02995,
     -29.69191
    ]
   },
   "properties": {
    "name": "55 WALSH STREET MENZIES 6436",
    "locID": "LOC000012930533",
    "tech": "NULL",
    "upgrade": "NULL_NA",
    "gnaf_pid": "GAWA_147091451",
    "ee": false,
    "tech_change_status": "Not Planned"
   }
  },
  {
   "type": "Feature",
   "geometry": {
    "type": "Point",
    "coordinates": [
     121.0243484,
     -29.69269479
    ]
   },
   "properties": {
    "name": "15 ONSLOW STREET MENZIES 6436",
    "locID": "LOC000007862865",
    "tech": "NULL",
    "upgrade": "NULL_NA",
    "gnaf_pid": "GAWA_147091452",
    "ee": false,
    "tech_change_status": "Not Planned"
   }
  },
  {
   "type": "Feature",
   "geometry": {
    "type": "Point",
    "coordinates": [
     121.02434,
     -29.69232
    ]
   },
   "properties": {
    "name": "19 ONSLOW STREET MENZIES 6436",
    "locID": "LOC000023606174",
    "tech": "NULL",
    "upgrade": "NULL_NA",
    "gnaf_pid": "GAWA_147091453",
    "ee": false,
    "tech_change_status": "Not Planned"
   }
  },
  {
   "type": "Feature",
   "geometry": {
    "type": "Point",
    "coordinates": [
     121.02662,
     -29.6953
    ]
   },
   "properties": {
    "name": "4 MERCER STREET MENZIES 6436",
    "locID": "LOC100079107185",
    "tech": "NULL",
    "upgrade": "NULL_NA",
    "gnaf_pid": "GAWA_147091553",
    "ee": false,
    "tech_change_status": "Not Planned"
   }
  },
  {
   "type": "Feature",
   "geometry": {
    "type": "Point",
    "coordinates": [
     121.02661,
     -29.69511
    ]
   },
   "properties": {
    "name": "6 MERCER STREET MENZIES 6436",
    "locID": "LOC000044813999",
    "tech": "NULL",
    "upgrade": "NULL_NA",
    "gnaf_pid": "GAWA_147091554",
    "ee": false,
    "tech_change_status": "Not Planned"
   }
  },
  {
   "type": "Feature",
   "geometry": {
    "type": "Point",
    "coordinates": [
     121.02996,
     -29.69281
    ]
   },
   "properties": {
    "name": "43 WALSH STREET MENZIES 6436",
    "locID": "LOC000084236187",
    "tech": "SATELLITE",
    "upgrade": "NULL_NA",
    "gnaf_pid": "GAWA_147091555",
    "ee": false,
    "tech_change_status": "Not Planned"
   }
  },
  {
   "type": "Feature",
   "geometry": {
    "type": "Point",
    "coordinates": [
     121.03638,
     -29.69102
    ]
   },
   "properties": {
    "name": "64 WEBB STREET MENZIES 6436",
    "locID": "LOC000064432801",
    "tech": "NULL",
    "upgrade": "NULL_NA",
    "gnaf_pid": "GAWA_147091569",
    "ee": false,
    "tech_change_status": "Not Planned"
   }
  },
  {
   "type": "Feature",
   "geometry": {
    "type": "Point",
    "coordinates": [
     121.0364,
     -29.69239
    ]
   },
   "properties": {
    "name": "52 WEBB STREET MENZIES 6436",
    "locID": "LOC000064432801",
    "tech": "NULL",
    "upgrade": "NULL_NA",
    "gnaf_pid": "GAWA_147091576",
    "ee": false,
    "tech_change_status": "Not Planned"
   }
  },
  {
   "type": "Feature",
   "geometry": {
    "type": "Point",
    "coordinates": [
     121.03639,
     -29.69166
    ]
   },
   "properties": {
    "name": "60 WEBB STREET MENZIES 6436",
    "locID": "LOC000031454643",
    "tech": "SATELLITE",
    "upgrade": "NULL_NA",
    "gnaf_pid": "GAWA_147091580",
    "ee": false,
    "tech_change_status": "Not Planned"
   }
  },
  {
   "type": "Feature",
   "geometry": {
    "type": "Point",
    "coordinates": [
     121.02802,
     -29.69546
    ]
   },
   "properties": {
    "name": "2 REID STREET MENZIES 6436",
    "locID": "LOC000019589633",
    "tech": "NULL",
    "upgrade": "NULL_NA",
    "gnaf_pid": "GAWA_147091585",
    "ee": false,
    "tech_change_status": "Not Planned"
   }
  },
  {
   "type": "Feature",
   "geometry": {
    "type": "Point",
    "coordinates": [
     121.02802,
     -29.69528
    ]
   },
   "properties": {
    "name": "4 REID STREET MENZIES 6436",
    "locID": "LOC000103515149",
    "tech": "NULL",
    "upgrade": "NULL_NA",
    "gnaf_pid": "GAWA_147091586",
    "ee": false,
    "tech_change_status": "Not Planned"
   }
  },
  {
   "type": "Feature",
   "geometry": {
    "type": "Point",
    "coordinates": [
     121.0252,
     -29.69422
    ]
   },
   "properties": {
    "name": "6 ONSLOW STREET MENZIES 6436",
    "locID": "LOC000031511048",
    "tech": "NULL",
    "upgrade": "NULL_NA",
    "gnaf_pid": "GAWA_147096412",
    "ee": false,
    "tech_change_status": "Not Planned"
   }
  },
  {
   "type": "Feature",
   "geometry": {
    "type": "Point",
    "coordinates": [
     121.02858,
     -29.69473
    ]
   },
   "properties": {
    "name": "27 SHENTON STREET MENZIES 6436",
    "locID": "LOC000019894880",
    "tech": "NULL",
    "upgrade": "NULL_NA",
    "gnaf_pid": "GAWA_147096424",
    "ee": false,
    "tech_change_status": "Not Planned"
   }
  },
  {
   "type": "Feature",
   "geometry": {
    "type": "Point",
    "coordinates": [
     121.02858,
     -29.69455
    ]
   },
   "properties": {
    "name": "29 SHENTON STREET MENZIES 6436",
    "locID": "LOC000100141792",
    "tech": "NULL",
    "upgrade": "NULL_NA",
    "gnaf_pid": "GAWA_147096425",
    "ee": false,
    "tech_change_status": "Not Planned"
   }
  },
  {
   "type": "Feature",
   "geometry": {
    "type": "Point",
    "coordinates": [
     121.02714337,
     -29.69184229
    ]
   },
   "properties": {
    "name": "37 REID STREET MENZIES 6436",
    "locID": "LOC000054077471",
    "tech": "SATELLITE",
    "upgrade": "NULL_NA",
    "gnaf_pid": "GAWA_147097226",
    "ee": false,
    "tech_change_status": "Not Planned"
   }
  },
  {
   "type": "Feature",
   "geometry": {
    "type": "Point",
    "coordinates": [
     121.03004,
     -29.69114
    ]
   },
   "properties": {
    "name": "4 WILSON STREET MENZIES 6436",
    "locID": "LOC000069401446",
    "tech": "NULL",
    "upgrade": "NULL_NA",
    "gnaf_pid": "GAWA_147100365",
    "ee": false,
    "tech_change_status": "Not Planned"
   }
  },
  {
   "type": "Feature",
   "geometry": {
    "type": "Point",
    "coordinates": [
     121.02970983,
     -29.69120381
    ]
   },
   "properties": {
    "name": "6 WILSON STREET MENZIES 6436",
    "locID": "LOC000071336195",
    "tech": "NULL",
    "upgrade": "NULL_NA",
    "gnaf_pid": "GAWA_147100366",
    "ee": false,
    "tech_change_status": "Not Planned"
   }
  },
  {
   "type": "Feature",
   "geometry": {
    "type": "Point",
    "coordinates": [
     121.02530972,
     -29.6886845
    ]
   },
   "properties": {
    "name": "52 ARCHIBALD STREET MENZIES 6436",
    "locID": "LOC000020346821",
    "tech": "NULL",
    "upgrade": "NULL_NA",
    "gnaf_pid": "GAWA_147100368",
    "ee": false,
    "tech_change_status": "Not Planned"
   }
  },
  {
   "type": "Feature",
   "geometry": {
    "type": "Point",
    "coordinates": [
     121.02586,
     -29.68911
    ]
   },
   "properties": {
    "name": "50 ARCHIBALD STREET MENZIES 6436",
    "locID": "LOC000063862380",
    "tech": "NULL",
    "upgrade": "NULL_NA",
    "gnaf_pid": "GAWA_147100369",
    "ee": false,
    "tech_change_status": "Not Planned"
   }
  },
  {
   "type": "Feature",
   "geometry": {
    "type": "Point",
    "coordinates": [
     121.0297,
     -29.6945
    ]
   },
   "properties": {
    "name": "31 WALSH STREET MENZIES 6436",
    "locID": "LOC000094085933",
    "tech": "NULL",
    "upgrade": "NULL_NA",
    "gnaf_pid": "GAWA_147101068",
    "ee": false,
    "tech_change_status": "Not Planned"
   }
  },
  {
   "type": "Feature",
   "geometry": {
    "type": "Point",
    "coordinates": [
     121.02969,
     -29.694
    ]
   },
   "properties": {
    "name": "33 WALSH STREET MENZIES 6436",
    "locID": "LOC000051861308",
    "tech": "NULL",
    "upgrade": "NULL_NA",
    "gnaf_pid": "GAWA_147101069",
    "ee": false,
    "tech_change_status": "Not Planned"
   }
  },
  {
   "type": "Feature",
   "geometry": {
    "type": "Point",
    "coordinates": [
     121.0294,
     -29.69336
    ]
   },
   "properties": {
    "name": "36 SHENTON STREET MENZIES 6436",
    "locID": "LOC000017905686",
    "tech": "SATELLITE",
    "upgrade": "NULL_NA",
    "gnaf_pid": "GAWA_147101070",
    "ee": false,
    "tech_change_status": "Not Planned"
   }
  },
  {
   "type": "Feature",
   "geometry": {
    "type": "Point",
    "coordinates": [
     121.03074,
     -29.69824
    ]
   },
   "properties": {
    "name": "4 WALSH STREET MENZIES 6436",
    "locID": "LOC000011501505",
    "tech": "NULL",
    "upgrade": "NULL_NA",
    "gnaf_pid": "GAWA_147287721",
    "ee": false,
    "tech_change_status": "Not Planned"
   }
  },
  {
   "type": "Feature",
   "geometry": {
    "type": "Point",
    "coordinates": [
     121.03074,
     -29.69806
    ]
   },
   "properties": {
    "name": "6 WALSH STREET MENZIES 6436",
    "locID": "LOC000051861308",
    "tech": "NULL",
    "upgrade": "NULL_NA",
    "gnaf_pid": "GAWA_147287722",
    "ee": false,
    "tech_change_status": "Not Planned"
   }
  },
  {
   "type": "Feature",
   "geometry": {
    "type": "Point",
    "coordinates": [
     121.04255,
     -29.68969
    ]
   },
   "properties": {
    "name": "37 SHERIDAN STREET MENZIES 6436",
    "locID": "LOC000002150788",
    "tech": "NULL",
    "upgrade": "NULL_NA",
    "gnaf_pid": "GAWA_147295316",
    "ee": false,
    "tech_change_status": "Not Planned"
   }
  },
  {
   "type": "Feature",
   "geometry": {
    "type": "Point",
    "coordinates": [
     121.02995,
     -29.69209
    ]
   },
   "properties": {
    "name": "53 WALSH STREET MENZIES 6436",
    "locID": "LOC000034506032",
    "tech": "SATELLITE",
    "upgrade": "NULL_NA",
    "gnaf_pid": "GAWA_147298414",
    "ee": false,
    "tech_change_status": "Not Planned"
   }
  },
  {
   "type": "Feature",
   "geometry": {
    "type": "Point",
    "coordinates": [
     121.02995,
     -29.69172
    ]
   },
   "properties": {
    "name": "57 WALSH STREET MENZIES 6436",
    "locID": "LOC000055208791",
    "tech": "NULL",
    "upgrade": "NULL_NA",
    "gnaf_pid": "GAWA_147298415",
    "ee": false,
    "tech_change_status": "Not Planned"
   }
  },
  {
   "type": "Feature",
   "geometry": {
    "type": "Point",
    "coordinates": [
     121.03416,
     -29.69168
    ]
   },
   "properties": {
    "name": "39 GREGORY STREET MENZIES 6436",
    "locID": "LOC000036222632",
    "tech": "NULL",
    "upgrade": "NULL_NA",
    "gnaf_pid": "GAWA_147298416",
    "ee": false,
    "tech_change_status": "Not Planned"
   }
  },
  {
   "type": "Feature",
   "geometry": {
    "type": "Point",
    "coordinates": [
     121.04196,
     -29.68852
    ]
   },
   "properties": {
    "name": "112 SUITER STREET MENZIES 6436",
    "locID": "LOC000003046532",
    "tech": "NULL",
    "upgrade": "NULL_NA",
    "gnaf_pid": "GAWA_147299222",
    "ee": false,
    "tech_change_status": "Not Planned"
   }
  },
  {
   "type": "Feature",
   "geometry": {
    "type": "Point",
    "coordinates": [
     121.04198,
     -29.6897
    ]
   },
   "properties": {
    "name": "102 SUITER STREET MENZIES 6436",
    "locID": "LOC000036519940",
    "tech": "NULL",
    "upgrade": "NULL_NA",
    "gnaf_pid": "GAWA_147299226",
    "ee": false,
    "tech_change_status": "Not Planned"
   }
  },
  {
   "type": "Feature",
   "geometry": {
    "type": "Point",
    "coordinates": [
     121.035,
     -29.69276
    ]
   },
   "properties": {
    "name": "28 GREGORY STREET MENZIES 6436",
    "locID": "LOC000029540823",
    "tech": "NULL",
    "upgrade": "NULL_NA",
    "gnaf_pid": "GAWA_147299239",
    "ee": false,
    "tech_change_status": "Not Planned"
   }
  },
  {
   "type": "Feature",
   "geometry": {
    "type": "Point",
    "coordinates": [
     121.035,
     -29.69258
    ]
   },
   "properties": {
    "name": "30 GREGORY STREET MENZIES 6436",
    "locID": "LOC000015484992",
    "tech": "SATELLITE",
    "upgrade": "NULL_NA",
    "gnaf_pid": "GAWA_147299240",
    "ee": false,
    "tech_change_status": "Not Planned"
   }
  },
  {
   "type": "Feature",
   "geometry": {
    "type": "Point",
    "coordinates": [
     121.03498,
     -29.69086
    ]
   },
   "properties": {
    "name": "46 GREGORY STREET MENZIES 6436",
    "locID": "LOC000022834395",
    "tech": "SATELLITE",
    "upgrade": "NULL_NA",
    "gnaf_pid": "GAWA_147300833",
    "ee": false,
    "tech_change_status": "Not Planned"
   }
  },
  {
   "type": "Feature",
   "geometry": {
    "type": "Point",
    "coordinates": [
     121.03497,
     -29.69068
    ]
   },
   "properties": {
    "name": "48 GREGORY STREET MENZIES 6436",
    "locID": "LOC000099045235",
    "tech": "NULL",
    "upgrade": "NULL_NA",
    "gnaf_pid": "GAWA_147300834",
    "ee": false,
    "tech_change_status": "Not Planned"
   }
  },
  {
   "type": "Feature",
   "geometry": {
    "type": "Point",
    "coordinates": [
     121.02938,
     -29.69227
    ]
   },
   "properties": {
    "name": "48 SHENTON STREET MENZIES 6436",
    "locID": "LOC000016980588",
    "tech": "NULL",
    "upgrade": "NULL_NA",
    "gnaf_pid": "GAWA_147300959",
    "ee": false,
    "tech_change_status": "Not Planned"
   }
  },
  {
   "type": "Feature",
   "geometry": {
    "type": "Point",
    "coordinates": [
     121.02938,
     -29.69209
    ]
   },
   "properties": {
    "name": "50 SHENTON STREET MENZIES 6436",
    "locID": "LOC000090855834",
    "tech": "NULL",
    "upgrade": "NULL_NA",
    "gnaf_pid": "GAWA_147300960",
    "ee": false,
    "tech_change_status": "Not Planned"
   }
  },
  {
   "type": "Feature",
   "geometry": {
    "type": "Point",
    "coordinates": [
     121.02856,
     -29.69326
    ]
   },
   "properties": {
    "name": "43 SHENTON STREET MENZIES 6436",
    "locID": "LOC000012941530",
    "tech": "NULL",
    "upgrade": "NULL_NA",
    "gnaf_pid": "GAWA_147302199",
    "ee": false,
    "tech_change_status": "Not Planned"
   }
  },
  {
   "type": "Feature",
   "geometry": {
    "type": "Point",
    "coordinates": [
     121.04199,
     -29.69097
    ]
   },
   "properties": {
    "name": "88 SUITER STREET MENZIES 6436",
    "locID": "LOC000048971436",
    "tech": "NULL",
    "upgrade": "NULL_NA",
    "gnaf_pid": "GAWA_147304329",
    "ee": false,
    "tech_change_status": "Not Planned"
   }
  },
  {
   "type": "Feature",
   "geometry": {
    "type": "Point",
    "coordinates": [
     121.035,
     -29.6924
    ]
   },
   "properties": {
    "name": "32 GREGORY STREET MENZIES 6436",
    "locID": "LOC000084307969",
    "tech": "SATELLITE",
    "upgrade": "NULL_NA",
    "gnaf_pid": "GAWA_147305786",
    "ee": false,
    "tech_change_status": "Not Planned"
   }
  },
  {
   "type": "Feature",
   "geometry": {
    "type": "Point",
    "coordinates": [
     121.03499,
     -29.69185
    ]
   },
   "properties": {
    "name": "38 GREGORY STREET MENZIES 6436",
    "locID": "LOC000026129868",
    "tech": "SATELLITE",
    "upgrade": "NULL_NA",
    "gnaf_pid": "GAWA_147305788",
    "ee": false,
    "tech_change_status": "Not Planned"
   }
  },
  {
   "type": "Feature",
   "geometry": {
    "type": "Point",
    "coordinates": [
     121.03495,
     -29.68895
    ]
   },
   "properties": {
    "name": "64 GREGORY STREET MENZIES 6436",
    "locID": "LOC000029540823",
    "tech": "NULL",
    "upgrade": "NULL_NA",
    "gnaf_pid": "GAWA_147305994",
    "ee": false,
    "tech_change_status": "Not Planned"
   }
  },
  {
   "type": "Feature",
   "geometry": {
    "type": "Point",
    "coordinates": [
     121.03553,
     -29.68958
    ]
   },
   "properties": {
    "name": "79 WEBB STREET MENZIES 6436",
    "locID": "LOC000011485073",
    "tech": "NULL",
    "upgrade": "NULL_NA",
    "gnaf_pid": "GAWA_147306014",
    "ee": false,
    "tech_change_status": "Not Planned"
   }
  },
  {
   "type": "Feature",
   "geometry": {
    "type": "Point",
    "coordinates": [
     121.02854776,
     -29.69159406
    ]
   },
   "properties": {
    "name": "59 SHENTON STREET MENZIES 6436",
    "locID": "LOC000072605374",
    "tech": "NULL",
    "upgrade": "NULL_NA",
    "gnaf_pid": "GAWA_147306020",
    "ee": false,
    "tech_change_status": "Not Planned"
   }
  },
  {
   "type": "Feature",
   "geometry": {
    "type": "Point",
    "coordinates": [
     121.02997,
     -29.69318
    ]
   },
   "properties": {
    "name": "41 WALSH STREET MENZIES 6436",
    "locID": "LOC000042296059",
    "tech": "SATELLITE",
    "upgrade": "NULL_NA",
    "gnaf_pid": "GAWA_147306624",
    "ee": false,
    "tech_change_status": "Not Planned"
   }
  },
  {
   "type": "Feature",
   "geometry": {
    "type": "Point",
    "coordinates": [
     121.04198,
     -29.69006
    ]
   },
   "properties": {
    "name": "98 SUITER STREET MENZIES 6436",
    "locID": "LOC000045879705",
    "tech": "NULL",
    "upgrade": "NULL_NA",
    "gnaf_pid": "GAWA_147307371",
    "ee": false,
    "tech_change_status": "Not Planned"
   }
  },
  {
   "type": "Feature",
   "geometry": {
    "type": "Point",
    "coordinates": [
     121.02938,
     -29.69173
    ]
   },
   "properties": {
    "name": "54 SHENTON STREET MENZIES 6436",
    "locID": "LOC000007071292",
    "tech": "NULL",
    "upgrade": "NULL_NA",
    "gnaf_pid": "GAWA_147309807",
    "ee": false,
    "tech_change_status": "Not Planned"
   }
  },
  {
   "type": "Feature",
   "geometry": {
    "type": "Point",
    "coordinates": [
     121.02658,
     -29.6923
    ]
   },
   "properties": {
    "name": "34 MERCER STREET MENZIES 6436",
    "locID": "LOC000089081098",
    "tech": "NULL",
    "upgrade": "NULL_NA",
    "gnaf_pid": "GAWA_147312808",
    "ee": false,
    "tech_change_status": "Not Planned"
   }
  },
  {
   "type": "Feature",
   "geometry": {
    "type": "Point",
    "coordinates": [
     121.02658,
     -29.69212
    ]
   },
   "properties": {
    "name": "36 MERCER STREET MENZIES 6436",
    "locID": "LOC000046049439",
    "tech": "NULL",
    "upgrade": "NULL_NA",
    "gnaf_pid": "GAWA_147312809",
    "ee": false,
    "tech_change_status": "Not Planned"
   }
  },
  {
   "type": "Feature",
   "geometry": {
    "type": "Point",
    "coordinates": [
     121.02657,
     -29.69176
    ]
   },
   "properties": {
    "name": "40 MERCER STREET MENZIES 6436",
    "locID": "LOC000019518199",
    "tech": "NULL",
    "upgrade": "NULL_NA",
    "gnaf_pid": "GAWA_147312810",
    "ee": false,
    "tech_change_status": "Not Planned"
   }
  },
  {
   "type": "Feature",
   "geometry": {
    "type": "Point",
    "coordinates": [
     121.02658,
     -29.69248
    ]
   },
   "properties": {
    "name": "32 MERCER STREET MENZIES 6436",
    "locID": "LOC000044813999",
    "tech": "NULL",
    "upgrade": "NULL_NA",
    "gnaf_pid": "GAWA_147312814",
    "ee": false,
    "tech_change_status": "Not Planned"
   }
  },
  {
   "type": "Feature",
   "geometry": {
    "type": "Point",
    "coordinates": [
     121.03555,
     -29.69103
    ]
   },
   "properties": {
    "name": "63 WEBB STREET MENZIES 6436",
    "locID": "LOC000058028322",
    "tech": "SATELLITE",
    "upgrade": "NULL_NA",
    "gnaf_pid": "GAWA_147312863",
    "ee": false,
    "tech_change_status": "Not Planned"
   }
  },
  {
   "type": "Feature",
   "geometry": {
    "type": "Point",
    "coordinates": [
     121.03415381,
     -29.69106189
    ]
   },
   "properties": {
    "name": "45 GREGORY STREET MENZIES 6436",
    "locID": "LOC000107809526",
    "tech": "SATELLITE",
    "upgrade": "NULL_NA",
    "gnaf_pid": "GAWA_147315831",
    "ee": false,
    "tech_change_status": "Not Planned"
   }
  },
  {
   "type": "Feature",
   "geometry": {
    "type": "Point",
    "coordinates": [
     121.0360044,
     -29.69211957
    ]
   },
   "properties": {
    "name": "6 WEBB STREET MENZIES 6436",
    "locID": "LOC000064432801",
    "tech": "NULL",
    "upgrade": "NULL_NA",
    "gnaf_pid": "GAWA_147319496",
    "ee": false,
    "tech_change_status": "Not Planned"
   }
  },
  {
   "type": "Feature",
   "geometry": {
    "type": "Point",
    "coordinates": [
     121.02814,
     -29.69633
    ]
   },
   "properties": {
    "name": "1 SHENTON STREET MENZIES 6436",
    "locID": "LOC000081687569",
    "tech": "SATELLITE",
    "upgrade": "NULL_NA",
    "gnaf_pid": "GAWA_147324488",
    "ee": false,
    "tech_change_status": "Not Planned"
   }
  },
  {
   "type": "Feature",
   "geometry": {
    "type": "Point",
    "coordinates": [
     121.04116,
     -29.69079
    ]
   },
   "properties": {
    "name": "85 SUITER STREET MENZIES 6436",
    "locID": "LOC000044233244",
    "tech": "SATELLITE",
    "upgrade": "NULL_NA",
    "gnaf_pid": "GAWA_147329371",
    "ee": false,
    "tech_change_status": "Not Planned"
   }
  },
  {
   "type": "Feature",
   "geometry": {
    "type": "Point",
    "coordinates": [
     121.02453704,
     -29.69325761
    ]
   },
   "properties": {
    "name": "9 ONSLOW STREET MENZIES 6436",
    "locID": "LOC000069361032",
    "tech": "NULL",
    "upgrade": "NULL_NA",
    "gnaf_pid": "GAWA_147329525",
    "ee": false,
    "tech_change_status": "Not Planned"
   }
  },
  {
   "type": "Feature",
   "geometry": {
    "type": "Point",
    "coordinates": [
     121.02435,
     -29.69288
    ]
   },
   "properties": {
    "name": "13 ONSLOW STREET MENZIES 6436",
    "locID": "LOC000012892268",
    "tech": "NULL",
    "upgrade": "NULL_NA",
    "gnaf_pid": "GAWA_147329527",
    "ee": false,
    "tech_change_status": "Not Planned"
   }
  },
  {
   "type": "Feature",
   "geometry": {
    "type": "Point",
    "coordinates": [
     121.02435,
     -29.69251
    ]
   },
   "properties": {
    "name": "17 ONSLOW STREET MENZIES 6436",
    "locID": "LOC000017329090",
    "tech": "NULL",
    "upgrade": "NULL_NA",
    "gnaf_pid": "GAWA_147329528",
    "ee": false,
    "tech_change_status": "Not Planned"
   }
  },
  {
   "type": "Feature",
   "geometry": {
    "type": "Point",
    "coordinates": [
     121.02434,
     -29.69214
    ]
   },
   "properties": {
    "name": "21 ONSLOW STREET MENZIES 6436",
    "locID": "LOC000051918906",
    "tech": "SATELLITE",
    "upgrade": "NULL_NA",
    "gnaf_pid": "GAWA_147329529",
    "ee": false,
    "tech_change_status": "Not Planned"
   }
  },
  {
   "type": "Feature",
   "geometry": {
    "type": "Point",
    "coordinates": [
     121.02434,
     -29.69196
    ]
   },
   "properties": {
    "name": "23 ONSLOW STREET MENZIES 6436",
    "locID": "LOC000045516611",
    "tech": "NULL",
    "upgrade": "NULL_NA",
    "gnaf_pid": "GAWA_147329530",
    "ee": false,
    "tech_change_status": "Not Planned"
   }
  },
  {
   "type": "Feature",
   "geometry": {
    "type": "Point",
    "coordinates": [
     121.02434,
     -29.69178
    ]
   },
   "properties": {
    "name": "25 ONSLOW STREET MENZIES 6436",
    "locID": "LOC000094115871",
    "tech": "SATELLITE",
    "upgrade": "NULL_NA",
    "gnaf_pid": "GAWA_147329531",
    "ee": false,
    "tech_change_status": "Not Planned"
   }
  },
  {
   "type": "Feature",
   "geometry": {
    "type": "Point",
    "coordinates": [
     121.03457612,
     -29.69164866
    ]
   },
   "properties": {
    "name": "1 GREGORY STREET MENZIES 6436",
    "locID": "LOC000048069155",
    "tech": "NULL",
    "upgrade": "NULL_NA",
    "gnaf_pid": "GAWA_147330429",
    "ee": false,
    "tech_change_status": "Not Planned"
   }
  },
  {
   "type": "Feature",
   "geometry": {
    "type": "Point",
    "coordinates": [
     121.03457612,
     -29.69164866
    ]
   },
   "properties": {
    "name": "3 GREGORY STREET MENZIES 6436",
    "locID": "LOC000084307969",
    "tech": "SATELLITE",
    "upgrade": "NULL_NA",
    "gnaf_pid": "GAWA_147330430",
    "ee": false,
    "tech_change_status": "Not Planned"
   }
  },
  {
   "type": "Feature",
   "geometry": {
    "type": "Point",
    "coordinates": [
     121.02272,
     -29.69433
    ]
   },
   "properties": {
    "name": "11 BAKER STREET MENZIES 6436",
    "locID": "LOC000038634519",
    "tech": "NULL",
    "upgrade": "NULL_NA",
    "gnaf_pid": "GAWA_147331666",
    "ee": false,
    "tech_change_status": "Not Planned"
   }
  },
  {
   "type": "Feature",
   "geometry": {
    "type": "Point",
    "coordinates": [
     121.0241375,
     -29.6935179
    ]
   },
   "properties": {
    "name": "1 BAKER STREET MENZIES 6436",
    "locID": "LOC000048799655",
    "tech": "NULL",
    "upgrade": "NULL_NA",
    "gnaf_pid": "GAWA_147398807",
    "ee": false,
    "tech_change_status": "Not Planned"
   }
  },
  {
   "type": "Feature",
   "geometry": {
    "type": "Point",
    "coordinates": [
     121.02825171,
     -29.69413684
    ]
   },
   "properties": {
    "name": "15 BROWN STREET MENZIES 6436",
    "locID": "LOC000036268695",
    "tech": "NULL",
    "upgrade": "NULL_NA",
    "gnaf_pid": "GAWA_147412244",
    "ee": false,
    "tech_change_status": "Not Planned"
   }
  },
  {
   "type": "Feature",
   "geometry": {
    "type": "Point",
    "coordinates": [
     121.02797361,
     -29.69174334
    ]
   },
   "properties": {
    "name": "40 REID STREET MENZIES 6436",
    "locID": "LOC000103515149",
    "tech": "NULL",
    "upgrade": "NULL_NA",
    "gnaf_pid": "GAWA_147903929",
    "ee": false,
    "tech_change_status": "Not Planned"
   }
  },
  {
   "type": "Feature",
   "geometry": {
    "type": "Point",
    "coordinates": [
     121.02893639,
     -29.6901114
    ]
   },
   "properties": {
    "name": "22 SHENTON STREET MENZIES 6436",
    "locID": "LOC000069598835",
    "tech": "NULL",
    "upgrade": "NULL_NA",
    "gnaf_pid": "GAWA_160647807",
    "ee": false,
    "tech_change_status": "Not Planned"
   }
  },
  {
   "type": "Feature",
   "geometry": {
    "type": "Point",
    "coordinates": [
     121.02970983,
     -29.69120381
    ]
   },
   "properties": {
    "name": "6A WILSON STREET MENZIES 6436",
    "locID": "LOC000071422435",
    "tech": "SATELLITE",
    "upgrade": "NULL_NA",
    "gnaf_pid": "GAWA_161486099",
    "ee": false,
    "tech_change_status": "Not Planned"
   }
  },
  {
   "type": "Feature",
   "geometry": {
    "type": "Point",
    "coordinates": [
     121.03519418,
     -29.67983107
    ]
   },
   "properties": {
    "name": "LOT 138 GOLDFIELDS HIGHWAY MENZIES 6436",
    "locID": "LOC000172755237",
    "tech": "SATELLITE",
    "upgrade": "NULL_NA",
    "gnaf_pid": "GAWA_161546921",
    "ee": false,
    "tech_change_status": "Not Planned"
   }
  },
  {
   "type": "Feature",
   "geometry": {
    "type": "Point",
    "coordinates": [
     121.024426,
     -29.693076
    ]
   },
   "properties": {
    "name": "LOT 407 ONSLOW STREET MENZIES 6436",
    "locID": "LOC000051918906",
    "tech": "SATELLITE",
    "upgrade": "NULL_NA",
    "gnaf_pid": "GAWA_162488828",
    "ee": false,
    "tech_change_status": "Not Planned"
   }
  },
  {
   "type": "Feature",
   "geometry": {
    "type": "Point",
    "coordinates": [
     121.027173,
     -29.694156
    ]
   },
   "properties": {
    "name": "LOT 740 REID STREET MENZIES 6436",
    "locID": "LOC000019589633",
    "tech": "NULL",
    "upgrade": "NULL_NA",
    "gnaf_pid": "GAWA_162489605",
    "ee": false,
    "tech_change_status": "Not Planned"
   }
  },
  {
   "type": "Feature",
   "geometry": {
    "type": "Point",
    "coordinates": [
     121.27680835,
     -29.39741558
    ]
   },
   "properties": {
    "name": "LOT 141 GOLDFIELDS HIGHWAY MENZIES 6436",
    "locID": "LOC000172755237",
    "tech": "SATELLITE",
    "upgrade": "NULL_NA",
    "gnaf_pid": "GAWA_162786365",
    "ee": false,
    "tech_change_status": "Not Planned"
   }
  },
  {
   "type": "Feature",
   "geometry": {
    "type": "Point",
    "coordinates": [
     121.02887189,
     -29.6579483
    ]
   },
   "properties": {
    "name": "LOT 147 GOLDFIELDS HIGHWAY MENZIES 6436",
    "locID": "LOC000172755237",
    "tech": "SATELLITE",
    "upgrade": "NULL_NA",
    "gnaf_pid": "GAWA_162786366",
    "ee": false,
    "tech_change_status": "Not Planned"
   }
  },
  {
   "type": "Feature",
   "geometry": {
    "type": "Point",
    "coordinates": [
     121.04363099,
     -29.67730749
    ]
   },
   "properties": {
    "name": "LOT 148 GOLDFIELDS HIGHWAY MENZIES 6436",
    "locID": "LOC000172755237",
    "tech": "SATELLITE",
    "upgrade": "NULL_NA",
    "gnaf_pid": "GAWA_162786367",
    "ee": false,
    "tech_change_status": "Not Planned"
   }
  },
  {
   "type": "Feature",
   "geometry": {
    "type": "Point",
    "coordinates": [
     121.04431255,
     -29.67846521
    ]
   },
   "properties": {
    "name": "LOT 149 GOLDFIELDS HIGHWAY MENZIES 6436",
    "locID": "LOC000172755237",
    "tech": "SATELLITE",
    "upgrade": "NULL_NA",
    "gnaf_pid": "GAWA_162786368",
    "ee": false,
    "tech_change_status": "Not Planned"
   }
  },
  {
   "type": "Feature",
   "geometry": {
    "type": "Point",
    "coordinates": [
     121.05690535,
     -29.74783272
    ]
   },
   "properties": {
    "name": "LOT 14 GOLDFIELDS HIGHWAY MENZIES 6436",
    "locID": "LOC000172755237",
    "tech": "SATELLITE",
    "upgrade": "NULL_NA",
    "gnaf_pid": "GAWA_162786369",
    "ee": false,
    "tech_change_status": "Not Planned"
   }
  },
  {
   "type": "Feature",
   "geometry": {
    "type": "Point",
    "coordinates": [
     121.04941932,
     -29.677925
    ]
   },
   "properties": {
    "name": "LOT 150 GOLDFIELDS HIGHWAY MENZIES 6436",
    "locID": "LOC000172755237",
    "tech": "SATELLITE",
    "upgrade": "NULL_NA",
    "gnaf_pid": "GAWA_162786370",
    "ee": false,
    "tech_change_status": "Not Planned"
   }
  },
  {
   "type": "Feature",
   "geometry": {
    "type": "Point",
    "coordinates": [
     121.01714229,
     -29.68241588
    ]
   },
   "properties": {
    "name": "LOT 151 GOLDFIELDS HIGHWAY MENZIES 6436",
    "locID": "LOC000172755237",
    "tech": "SATELLITE",
    "upgrade": "NULL_NA",
    "gnaf_pid": "GAWA_162786371",
    "ee": false,
    "tech_change_status": "Not Planned"
   }
  },
  {
   "type": "Feature",
   "geometry": {
    "type": "Point",
    "coordinates": [
     121.02937623,
     -29.6861722
    ]
   },
   "properties": {
    "name": "LOT 152 GOLDFIELDS HIGHWAY MENZIES 6436",
    "locID": "LOC000172755237",
    "tech": "SATELLITE",
    "upgrade": "NULL_NA",
    "gnaf_pid": "GAWA_162786372",
    "ee": false,
    "tech_change_status": "Not Planned"
   }
  },
  {
   "type": "Feature",
   "geometry": {
    "type": "Point",
    "coordinates": [
     121.06292292,
     -29.69215375
    ]
   },
   "properties": {
    "name": "LOT 154 GOLDFIELDS HIGHWAY MENZIES 6436",
    "locID": "LOC000172755237",
    "tech": "SATELLITE",
    "upgrade": "NULL_NA",
    "gnaf_pid": "GAWA_162786374",
    "ee": false,
    "tech_change_status": "Not Planned"
   }
  },
  {
   "type": "Feature",
   "geometry": {
    "type": "Point",
    "coordinates": [
     121.04172083,
     -29.71467961
    ]
   },
   "properties": {
    "name": "LOT 155 GOLDFIELDS HIGHWAY MENZIES 6436",
    "locID": "LOC000172755237",
    "tech": "SATELLITE",
    "upgrade": "NULL_NA",
    "gnaf_pid": "GAWA_162786375",
    "ee": false,
    "tech_change_status": "Not Planned"
   }
  },
  {
   "type": "Feature",
   "geometry": {
    "type": "Point",
    "coordinates": [
     121.03860959,
     -29.70770995
    ]
   },
   "properties": {
    "name": "LOT 156 GOLDFIELDS HIGHWAY MENZIES 6436",
    "locID": "LOC000172755237",
    "tech": "SATELLITE",
    "upgrade": "NULL_NA",
    "gnaf_pid": "GAWA_162786376",
    "ee": false,
    "tech_change_status": "Not Planned"
   }
  },
  {
   "type": "Feature",
   "geometry": {
    "type": "Point",
    "coordinates": [
     121.04099677,
     -29.73552324
    ]
   },
   "properties": {
    "name": "LOT 157 GOLDFIELDS HIGHWAY MENZIES 6436",
    "locID": "LOC000172755237",
    "tech": "SATELLITE",
    "upgrade": "NULL_NA",
    "gnaf_pid": "GAWA_162786377",
    "ee": false,
    "tech_change_status": "Not Planned"
   }
  },
  {
   "type": "Feature",
   "geometry": {
    "type": "Point",
    "coordinates": [
     121.03068352,
     -29.70093692
    ]
   },
   "properties": {
    "name": "LOT 158 GOLDFIELDS HIGHWAY MENZIES 6436",
    "locID": "LOC000172755237",
    "tech": "SATELLITE",
    "upgrade": "NULL_NA",
    "gnaf_pid": "GAWA_162786378",
    "ee": false,
    "tech_change_status": "Not Planned"
   }
  },
  {
   "type": "Feature",
   "geometry": {
    "type": "Point",
    "coordinates": [
     121.06430366,
     -29.72944065
    ]
   },
   "properties": {
    "name": "LOT 159 GOLDFIELDS HIGHWAY MENZIES 6436",
    "locID": "LOC000172755237",
    "tech": "SATELLITE",
    "upgrade": "NULL_NA",
    "gnaf_pid": "GAWA_162786379",
    "ee": false,
    "tech_change_status": "Not Planned"
   }
  },
  {
   "type": "Feature",
   "geometry": {
    "type": "Point",
    "coordinates": [
     121.06743914,
     -29.76005078
    ]
   },
   "properties": {
    "name": "LOT 160 GOLDFIELDS HIGHWAY MENZIES 6436",
    "locID": "LOC000172755237",
    "tech": "SATELLITE",
    "upgrade": "NULL_NA",
    "gnaf_pid": "GAWA_162786381",
    "ee": false,
    "tech_change_status": "Not Planned"
   }
  },
  {
   "type": "Feature",
   "geometry": {
    "type": "Point",
    "coordinates": [
     121.05038864,
     -29.73548581
    ]
   },
   "properties": {
    "name": "LOT 161 GOLDFIELDS HIGHWAY MENZIES 6436",
    "locID": "LOC000172755237",
    "tech": "SATELLITE",
    "upgrade": "NULL_NA",
    "gnaf_pid": "GAWA_162786382",
    "ee": false,
    "tech_change_status": "Not Planned"
   }
  },
  {
   "type": "Feature",
   "geometry": {
    "type": "Point",
    "coordinates": [
     121.05899499,
     -29.75717221
    ]
   },
   "properties": {
    "name": "LOT 162 GOLDFIELDS HIGHWAY MENZIES 6436",
    "locID": "LOC000172755237",
    "tech": "SATELLITE",
    "upgrade": "NULL_NA",
    "gnaf_pid": "GAWA_162786383",
    "ee": false,
    "tech_change_status": "Not Planned"
   }
  },
  {
   "type": "Feature",
   "geometry": {
    "type": "Point",
    "coordinates": [
     121.05706172,
     -29.66447436
    ]
   },
   "properties": {
    "name": "LOT 164 GOLDFIELDS HIGHWAY MENZIES 6436",
    "locID": "LOC000172755237",
    "tech": "SATELLITE",
    "upgrade": "NULL_NA",
    "gnaf_pid": "GAWA_162786384",
    "ee": false,
    "tech_change_status": "Not Planned"
   }
  },
  {
   "type": "Feature",
   "geometry": {
    "type": "Point",
    "coordinates": [
     121.06365153,
     -29.67671719
    ]
   },
   "properties": {
    "name": "LOT 166 GOLDFIELDS HIGHWAY MENZIES 6436",
    "locID": "LOC000172755237",
    "tech": "SATELLITE",
    "upgrade": "NULL_NA",
    "gnaf_pid": "GAWA_162786385",
    "ee": false,
    "tech_change_status": "Not Planned"
   }
  },
  {
   "type": "Feature",
   "geometry": {
    "type": "Point",
    "coordinates": [
     121.05258343,
     -29.6723887
    ]
   },
   "properties": {
    "name": "LOT 167 GOLDFIELDS HIGHWAY MENZIES 6436",
    "locID": "LOC000172755237",
    "tech": "SATELLITE",
    "upgrade": "NULL_NA",
    "gnaf_pid": "GAWA_162786386",
    "ee": false,
    "tech_change_status": "Not Planned"
   }
  },
  {
   "type": "Feature",
   "geometry": {
    "type": "Point",
    "coordinates": [
     121.05656598,
     -29.67441176
    ]
   },
   "properties": {
    "name": "LOT 168 GOLDFIELDS HIGHWAY MENZIES 6436",
    "locID": "LOC000172755237",
    "tech": "SATELLITE",
    "upgrade": "NULL_NA",
    "gnaf_pid": "GAWA_162786387",
    "ee": false,
    "tech_change_status": "Not Planned"
   }
  },
  {
   "type": "Feature",
   "geometry": {
    "type": "Point",
    "coordinates": [
     121.06210026,
     -29.69236823
    ]
   },
   "properties": {
    "name": "LOT 169 GOLDFIELDS HIGHWAY MENZIES 6436",
    "locID": "LOC000172755237",
    "tech": "SATELLITE",
    "upgrade": "NULL_NA",
    "gnaf_pid": "GAWA_162786388",
    "ee": false,
    "tech_change_status": "Not Planned"
   }
  },
  {
   "type": "Feature",
   "geometry": {
    "type": "Point",
    "coordinates": [
     121.05723275,
     -29.74674876
    ]
   },
   "properties": {
    "name": "LOT 24 GOLDFIELDS HIGHWAY MENZIES 6436",
    "locID": "LOC000172755237",
    "tech": "SATELLITE",
    "upgrade": "NULL_NA",
    "gnaf_pid": "GAWA_162786398",
    "ee": false,
    "tech_change_status": "Not Planned"
   }
  },
  {
   "type": "Feature",
   "geometry": {
    "type": "Point",
    "coordinates": [
     121.07780813,
     -29.75456118
    ]
   },
   "properties": {
    "name": "LOT 4 GOLDFIELDS HIGHWAY MENZIES 6436",
    "locID": "LOC000183672409",
    "tech": "NULL",
    "upgrade": "NULL_NA",
    "gnaf_pid": "GAWA_162786401",
    "ee": false,
    "tech_change_status": "Not Planned"
   }
  },
  {
   "type": "Feature",
   "geometry": {
    "type": "Point",
    "coordinates": [
     121.05717103,
     -29.74589644
    ]
   },
   "properties": {
    "name": "LOT 50 GOLDFIELDS HIGHWAY MENZIES 6436",
    "locID": "LOC000172755237",
    "tech": "SATELLITE",
    "upgrade": "NULL_NA",
    "gnaf_pid": "GAWA_162786402",
    "ee": false,
    "tech_change_status": "Not Planned"
   }
  },
  {
   "type": "Feature",
   "geometry": {
    "type": "Point",
    "coordinates": [
     121.05626667,
     -29.74628016
    ]
   },
   "properties": {
    "name": "LOT 6 GOLDFIELDS HIGHWAY MENZIES 6436",
    "locID": "LOC000183672409",
    "tech": "NULL",
    "upgrade": "NULL_NA",
    "gnaf_pid": "GAWA_162786404",
    "ee": false,
    "tech_change_status": "Not Planned"
   }
  },
  {
   "type": "Feature",
   "geometry": {
    "type": "Point",
    "coordinates": [
     121.05640719,
     -29.74662176
    ]
   },
   "properties": {
    "name": "LOT 8 GOLDFIELDS HIGHWAY MENZIES 6436",
    "locID": "LOC000172755237",
    "tech": "SATELLITE",
    "upgrade": "NULL_NA",
    "gnaf_pid": "GAWA_162786406",
    "ee": false,
    "tech_change_status": "Not Planned"
   }
  },
  {
   "type": "Feature",
   "geometry": {
    "type": "Point",
    "coordinates": [
     121.02717476,
     -29.69426952
    ]
   },
   "properties": {
    "name": "LOT 741 REID STREET MENZIES 6436",
    "locID": "LOC000019589633",
    "tech": "NULL",
    "upgrade": "NULL_NA",
    "gnaf_pid": "GAWA_162805232",
    "ee": false,
    "tech_change_status": "Not Planned"
   }
  },
  {
   "type": "Feature",
   "geometry": {
    "type": "Point",
    "coordinates": [
     121.03038964,
     -29.69389681
    ]
   },
   "properties": {
    "name": "LOT 3611 WALSH STREET MENZIES 6436",
    "locID": "LOC000108653736",
    "tech": "NULL",
    "upgrade": "NULL_NA",
    "gnaf_pid": "GAWA_162821837",
    "ee": false,
    "tech_change_status": "Not Planned"
   }
  },
  {
   "type": "Feature",
   "geometry": {
    "type": "Point",
    "coordinates": [
     121.02717417,
     -29.69422415
    ]
   },
   "properties": {
    "name": "LOT 742 REID STREET MENZIES 6436",
    "locID": "LOC000019589633",
    "tech": "NULL",
    "upgrade": "NULL_NA",
    "gnaf_pid": "GAWA_163004408",
    "ee": false,
    "tech_change_status": "Not Planned"
   }
  },
  {
   "type": "Feature",
   "geometry": {
    "type": "Point",
    "coordinates": [
     121.02858,
     -29.69455
    ]
   },
   "properties": {
    "name": "UNIT 2, 29 SHENTON STREET MENZIES 6436",
    "locID": "LOC000100141792",
    "tech": "NULL",
    "upgrade": "NULL_NA",
    "gnaf_pid": "GAWA_163007036",
    "ee": false,
    "tech_change_status": "Not Planned"
   }
  },
  {
   "type": "Feature",
   "geometry": {
    "type": "Point",
    "coordinates": [
     121.03639,
     -29.69166
    ]
   },
   "properties": {
    "name": "60A WEBB STREET MENZIES 6436",
    "locID": "LOC100086025334",
    "tech": "SATELLITE",
    "upgrade": "NULL_NA",
    "gnaf_pid": "GAWA_163091229",
    "ee": false,
    "tech_change_status": "Not Planned"
   }
  },
  {
   "type": "Feature",
   "geometry": {
    "type": "Point",
    "coordinates": [
     121.02870434,
     -29.69338705
    ]
   },
   "properties": {
    "name": "LOT 500 SHENTON STREET MENZIES 6436",
    "locID": "LOC000019894880",
    "tech": "NULL",
    "upgrade": "NULL_NA",
    "gnaf_pid": "GAWA_163276797",
    "ee": false,
    "tech_change_status": "Not Planned"
   }
  },
  {
   "type": "Feature",
   "geometry": {
    "type": "Point",
    "coordinates": [
     121.04014203,
     -29.70422308
    ]
   },
   "properties": {
    "name": "LOT 500 GOLDFIELDS HIGHWAY MENZIES 6436",
    "locID": "LOC000172755237",
    "tech": "SATELLITE",
    "upgrade": "NULL_NA",
    "gnaf_pid": "GAWA_718251614",
    "ee": false,
    "tech_change_status": "Not Planned"
   }
  },
  {
   "type": "Feature",
   "geometry": {
    "type": "Point",
    "coordinates": [
     121.03071483,
     -29.69425856
    ]
   },
   "properties": {
    "name": "LOT 300 WALSH STREET MENZIES 6436",
    "locID": "LOC000133335973",
    "tech": "NULL",
    "upgrade": "NULL_NA",
    "gnaf_pid": "GAWA_718256053",
    "ee": false,
    "tech_change_status": "Not Planned"
   }
  },
  {
   "type": "Feature",
   "geometry": {
    "type": "Point",
    "coordinates": [
     121.03113257,
     -29.69533896
    ]
   },
   "properties": {
    "name": "LOT 301 WALSH STREET MENZIES 6436",
    "locID": "LOC000051861308",
    "tech": "NULL",
    "upgrade": "NULL_NA",
    "gnaf_pid": "GAWA_718256054",
    "ee": false,
    "tech_change_status": "Not Planned"
   }
  },
  {
   "type": "Feature",
   "geometry": {
    "type": "Point",
    "coordinates": [
     121.02692846,
     -29.69654873
    ]
   },
   "properties": {
    "name": "LOT 15 SHENTON STREET MENZIES 6436",
    "locID": "LOC000171692087",
    "tech": "NULL",
    "upgrade": "NULL_NA",
    "gnaf_pid": "GAWA_718342783",
    "ee": false,
    "tech_change_status": "Not Planned"
   }
  },
  {
   "type": "Feature",
   "geometry": {
    "type": "Point",
    "coordinates": [
     121.01796444,
     -29.69313889
    ]
   },
   "properties": {
    "name": "LOT 13 EVANSTON-MENZIES ROAD MENZIES 6436",
    "locID": "LOC000149129469",
    "tech": "SATELLITE",
    "upgrade": "NULL_NA",
    "gnaf_pid": "GAWA_718636617",
    "ee": false,
    "tech_change_status": "Not Planned"
   }
  },
  {
   "type": "Feature",
   "geometry": {
    "type": "Point",
    "coordinates": [
     121.02825531,
     -29.6894317
    ]
   },
   "properties": {
    "name": "LOT 890 ARCHIBALD STREET MENZIES 6436",
    "locID": "LOC000020346821",
    "tech": "NULL",
    "upgrade": "NULL_NA",
    "gnaf_pid": "GAWA_718791827",
    "ee": false,
    "tech_change_status": "Not Planned"
   }
  },
  {
   "type": "Feature",
   "geometry": {
    "type": "Point",
    "coordinates": [
     121.15766388,
     -29.58536133
    ]
   },
   "properties": {
    "name": "LOT 121 GOLDFIELDS HIGHWAY MENZIES 6436",
    "locID": "LOC000172755237",
    "tech": "SATELLITE",
    "upgrade": "NULL_NA",
    "gnaf_pid": "GAWA_719044915",
    "ee": false,
    "tech_change_status": "Not Planned"
   }
  },
  {
   "type": "Feature",
   "geometry": {
    "type": "Point",
    "coordinates": [
     121.16102972,
     -30.04743264
    ]
   },
   "properties": {
    "name": "8663 GOLDFIELDS HIGHWAY MENZIES 6436",
    "locID": "LOC100071936724",
    "tech": "NULL",
    "upgrade": "NULL_NA",
    "gnaf_pid": "GAWA_719967422",
    "ee": false,
    "tech_change_status": "Not Planned"
   }
  },
  {
   "type": "Feature",
   "geometry": {
    "type": "Point",
    "coordinates": [
     121.16118924,
     -30.04971654
    ]
   },
   "properties": {
    "name": "8641 GOLDFIELDS HIGHWAY MENZIES 6436",
    "locID": "LOC100071936753",
    "tech": "NULL",
    "upgrade": "NULL_NA",
    "gnaf_pid": "GAWA_719967907",
    "ee": false,
    "tech_change_status": "Not Planned"
   }
  },
  {
   "type": "Feature",
   "geometry": {
    "type": "Point",
    "coordinates": [
     121.16097924,
     -30.04795501
    ]
   },
   "properties": {
    "name": "8665 GOLDFIELDS HIGHWAY MENZIES 6436",
    "locID": "LOC100071936748",
    "tech": "NULL",
    "upgrade": "NULL_NA",
    "gnaf_pid": "GAWA_719969040",
    "ee": false,
    "tech_change_status": "Not Planned"
   }
  },
  {
   "type": "Feature",
   "geometry": {
    "type": "Point",
    "coordinates": [
     121.02692846,
     -29.69654873
    ]
   },
   "properties": {
    "name": "1 OFF SHENTON STREET MENZIES 6436",
    "locID": "LOC000172733690",
    "tech": "NULL",
    "upgrade": "NULL_NA",
    "gnaf_pid": "GAWA_720280253",
    "ee": false,
    "tech_change_status": "Not Planned"
   }
  }
 ]
}