{
 "type": "FeatureCollection",
 "generated": "2025-06-19T06:01:11.559025",
 "suburb": "MINGENEW",
 "features": [
  {
   "type": "Feature",
   "geometry": {
    "type": "Point",
    "coordinates": [
     115.43550751,
     -29.19252664
    ]
   },
   "properties": {
    "name": "23 OLIVER STREET MINGENEW 6522",
    "locID": "LOC100078038838",
    "tech": "NULL",
    "upgrade": "NULL_NA",
    "gnaf_pid": "GAWA_147036051",
    "ee": false,
    "tech_change_status": "Not Planned"
   }
  },
  {
   "type": "Feature",
   "geometry": {
    "type": "Point",
    "coordinates": [
     115.43550734,
     -29.19226399
    ]
   },
   "properties": {
    "name": "21 OLIVER STREET MINGENEW 6522",
    "locID": "LOC000086021421",
    "tech": "NULL",
    "upgrade": "NULL_NA",
    "gnaf_pid": "GAWA_147036052",
    "ee": false,
    "tech_change_status": "Not Planned"
   }
  },
  {
   "type": "Feature",
   "geometry": {
    "type": "Point",
    "coordinates": [
     115.44051,
     -29.19138
    ]
   },
   "properties": {
    "name": "55 LINTHORNE STREET MINGENEW 6522",
    "locID": "LOC000033161354",
    "tech": "NULL",
    "upgrade": "NULL_NA",
    "gnaf_pid": "GAWA_147036053",
    "ee": false,
    "tech_change_status": "Not Planned"
   }
  },
  {
   "type": "Feature",
   "geometry": {
    "type": "Point",
    "coordinates": [
     115.44046,
     -29.19118
    ]
   },
   "properties": {
    "name": "9 WILLIAM STREET MINGENEW 6522",
    "locID": "LOC000011182076",
    "tech": "NULL",
    "upgrade": "NULL_NA",
    "gnaf_pid": "GAWA_147036054",
    "ee": false,
    "tech_change_status": "Not Planned"
   }
  },
  {
   "type": "Feature",
   "geometry": {
    "type": "Point",
    "coordinates": [
     115.43504293,
     -29.19364747
    ]
   },
   "properties": {
    "name": "18 FOGARTY STREET MINGENEW 6522",
    "locID": "LOC000084061184",
    "tech": "NULL",
    "upgrade": "NULL_NA",
    "gnaf_pid": "GAWA_147044302",
    "ee": false,
    "tech_change_status": "Not Planned"
   }
  },
  {
   "type": "Feature",
   "geometry": {
    "type": "Point",
    "coordinates": [
     115.43504229,
     -29.19278545
    ]
   },
   "properties": {
    "name": "8 FOGARTY STREET MINGENEW 6522",
    "locID": "LOC000036731050",
    "tech": "NULL",
    "upgrade": "NULL_NA",
    "gnaf_pid": "GAWA_147047373",
    "ee": false,
    "tech_change_status": "Not Planned"
   }
  },
  {
   "type": "Feature",
   "geometry": {
    "type": "Point",
    "coordinates": [
     115.44052,
     -29.19062
    ]
   },
   "properties": {
    "name": "3 WILLIAM STREET MINGENEW 6522",
    "locID": "LOC000038672608",
    "tech": "NULL",
    "upgrade": "NULL_NA",
    "gnaf_pid": "GAWA_147052918",
    "ee": false,
    "tech_change_status": "Not Planned"
   }
  },
  {
   "type": "Feature",
   "geometry": {
    "type": "Point",
    "coordinates": [
     115.44046,
     -29.191
    ]
   },
   "properties": {
    "name": "7 WILLIAM STREET MINGENEW 6522",
    "locID": "LOC000038680708",
    "tech": "SATELLITE",
    "upgrade": "NULL_NA",
    "gnaf_pid": "GAWA_147052921",
    "ee": false,
    "tech_change_status": "Not Planned"
   }
  },
  {
   "type": "Feature",
   "geometry": {
    "type": "Point",
    "coordinates": [
     115.43989,
     -29.19062
    ]
   },
   "properties": {
    "name": "4 SPRING STREET MINGENEW 6522",
    "locID": "LOC000099047617",
    "tech": "SATELLITE",
    "upgrade": "NULL_NA",
    "gnaf_pid": "GAWA_147053651",
    "ee": false,
    "tech_change_status": "Not Planned"
   }
  },
  {
   "type": "Feature",
   "geometry": {
    "type": "Point",
    "coordinates": [
     115.43989,
     -29.19039
    ]
   },
   "properties": {
    "name": "2 SPRING STREET MINGENEW 6522",
    "locID": "LOC000095551535",
    "tech": "NULL",
    "upgrade": "NULL_NA",
    "gnaf_pid": "GAWA_147053652",
    "ee": false,
    "tech_change_status": "Not Planned"
   }
  },
  {
   "type": "Feature",
   "geometry": {
    "type": "Point",
    "coordinates": [
     115.44765,
     -29.19184
    ]
   },
   "properties": {
    "name": "56 KING STREET MINGENEW 6522",
    "locID": "LOC000012811901",
    "tech": "NULL",
    "upgrade": "NULL_NA",
    "gnaf_pid": "GAWA_147053659",
    "ee": false,
    "tech_change_status": "Not Planned"
   }
  },
  {
   "type": "Feature",
   "geometry": {
    "type": "Point",
    "coordinates": [
     115.43997588,
     -29.19257032
    ]
   },
   "properties": {
    "name": "46 LINTHORNE STREET MINGENEW 6522",
    "locID": "LOC000074805370",
    "tech": "NULL",
    "upgrade": "NULL_NA",
    "gnaf_pid": "GAWA_147053715",
    "ee": false,
    "tech_change_status": "Not Planned"
   }
  },
  {
   "type": "Feature",
   "geometry": {
    "type": "Point",
    "coordinates": [
     115.44242,
     -29.19189
    ]
   },
   "properties": {
    "name": "16 VICTORIA ROAD MINGENEW 6522",
    "locID": "LOC000011959287",
    "tech": "NULL",
    "upgrade": "NULL_NA",
    "gnaf_pid": "GAWA_147053716",
    "ee": false,
    "tech_change_status": "Not Planned"
   }
  },
  {
   "type": "Feature",
   "geometry": {
    "type": "Point",
    "coordinates": [
     115.43968744,
     -29.19281226
    ]
   },
   "properties": {
    "name": "42 LINTHORNE STREET MINGENEW 6522",
    "locID": "LOC000069416669",
    "tech": "NULL",
    "upgrade": "NULL_NA",
    "gnaf_pid": "GAWA_147053718",
    "ee": false,
    "tech_change_status": "Not Planned"
   }
  },
  {
   "type": "Feature",
   "geometry": {
    "type": "Point",
    "coordinates": [
     115.44176,
     -29.19062
    ]
   },
   "properties": {
    "name": "3 VICTORIA ROAD MINGENEW 6522",
    "locID": "LOC000042128880",
    "tech": "NULL",
    "upgrade": "NULL_NA",
    "gnaf_pid": "GAWA_147053721",
    "ee": false,
    "tech_change_status": "Not Planned"
   }
  },
  {
   "type": "Feature",
   "geometry": {
    "type": "Point",
    "coordinates": [
     115.4350428,
     -29.19347507
    ]
   },
   "properties": {
    "name": "16 FOGARTY STREET MINGENEW 6522",
    "locID": "LOC000049519078",
    "tech": "NULL",
    "upgrade": "NULL_NA",
    "gnaf_pid": "GAWA_147056561",
    "ee": false,
    "tech_change_status": "Not Planned"
   }
  },
  {
   "type": "Feature",
   "geometry": {
    "type": "Point",
    "coordinates": [
     115.43883679,
     -29.19380263
    ]
   },
   "properties": {
    "name": "10 ENANTY STREET MINGENEW 6522",
    "locID": "LOC000079457754",
    "tech": "NULL",
    "upgrade": "NULL_NA",
    "gnaf_pid": "GAWA_147058062",
    "ee": false,
    "tech_change_status": "Not Planned"
   }
  },
  {
   "type": "Feature",
   "geometry": {
    "type": "Point",
    "coordinates": [
     115.43883668,
     -29.19359935
    ]
   },
   "properties": {
    "name": "8 ENANTY STREET MINGENEW 6522",
    "locID": "LOC000091802945",
    "tech": "NULL",
    "upgrade": "NULL_NA",
    "gnaf_pid": "GAWA_147058063",
    "ee": false,
    "tech_change_status": "Not Planned"
   }
  },
  {
   "type": "Feature",
   "geometry": {
    "type": "Point",
    "coordinates": [
     115.44745,
     -29.19234
    ]
   },
   "properties": {
    "name": "13 IKEWA STREET MINGENEW 6522",
    "locID": "LOC000048830522",
    "tech": "NULL",
    "upgrade": "NULL_NA",
    "gnaf_pid": "GAWA_147058083",
    "ee": false,
    "tech_change_status": "Not Planned"
   }
  },
  {
   "type": "Feature",
   "geometry": {
    "type": "Point",
    "coordinates": [
     115.44392,
     -29.18855
    ]
   },
   "properties": {
    "name": "29 ELEANOR STREET MINGENEW 6522",
    "locID": "LOC000079328205",
    "tech": "NULL",
    "upgrade": "NULL_NA",
    "gnaf_pid": "GAWA_147058096",
    "ee": false,
    "tech_change_status": "Not Planned"
   }
  },
  {
   "type": "Feature",
   "geometry": {
    "type": "Point",
    "coordinates": [
     115.44016524,
     -29.19302482
    ]
   },
   "properties": {
    "name": "11 MOORE STREET MINGENEW 6522",
    "locID": "LOC000012068546",
    "tech": "NULL",
    "upgrade": "NULL_NA",
    "gnaf_pid": "GAWA_147058098",
    "ee": false,
    "tech_change_status": "Not Planned"
   }
  },
  {
   "type": "Feature",
   "geometry": {
    "type": "Point",
    "coordinates": [
     115.43985825,
     -29.19326795
    ]
   },
   "properties": {
    "name": "7 MOORE STREET MINGENEW 6522",
    "locID": "LOC000005512001",
    "tech": "NULL",
    "upgrade": "NULL_NA",
    "gnaf_pid": "GAWA_147058100",
    "ee": false,
    "tech_change_status": "Not Planned"
   }
  },
  {
   "type": "Feature",
   "geometry": {
    "type": "Point",
    "coordinates": [
     115.43969812,
     -29.19339481
    ]
   },
   "properties": {
    "name": "5 MOORE STREET MINGENEW 6522",
    "locID": "LOC000106461428",
    "tech": "NULL",
    "upgrade": "NULL_NA",
    "gnaf_pid": "GAWA_147058101",
    "ee": false,
    "tech_change_status": "Not Planned"
   }
  },
  {
   "type": "Feature",
   "geometry": {
    "type": "Point",
    "coordinates": [
     115.43927555,
     -29.19368423
    ]
   },
   "properties": {
    "name": "1 MOORE STREET MINGENEW 6522",
    "locID": "LOC000019040936",
    "tech": "NULL",
    "upgrade": "NULL_NA",
    "gnaf_pid": "GAWA_147058102",
    "ee": false,
    "tech_change_status": "Not Planned"
   }
  },
  {
   "type": "Feature",
   "geometry": {
    "type": "Point",
    "coordinates": [
     115.4417,
     -29.19082
    ]
   },
   "properties": {
    "name": "5 VICTORIA ROAD MINGENEW 6522",
    "locID": "LOC000007883272",
    "tech": "NULL",
    "upgrade": "NULL_NA",
    "gnaf_pid": "GAWA_147061172",
    "ee": false,
    "tech_change_status": "Not Planned"
   }
  },
  {
   "type": "Feature",
   "geometry": {
    "type": "Point",
    "coordinates": [
     115.44371748,
     -29.19081556
    ]
   },
   "properties": {
    "name": "6 SHENTON STREET MINGENEW 6522",
    "locID": "LOC000082228904",
    "tech": "NULL",
    "upgrade": "NULL_NA",
    "gnaf_pid": "GAWA_147061173",
    "ee": false,
    "tech_change_status": "Not Planned"
   }
  },
  {
   "type": "Feature",
   "geometry": {
    "type": "Point",
    "coordinates": [
     115.44127113,
     -29.1937692
    ]
   },
   "properties": {
    "name": "34 WILLIAM STREET MINGENEW 6522",
    "locID": "LOC000038672608",
    "tech": "NULL",
    "upgrade": "NULL_NA",
    "gnaf_pid": "GAWA_147061174",
    "ee": false,
    "tech_change_status": "Not Planned"
   }
  },
  {
   "type": "Feature",
   "geometry": {
    "type": "Point",
    "coordinates": [
     115.44110848,
     -29.19359008
    ]
   },
   "properties": {
    "name": "32 WILLIAM STREET MINGENEW 6522",
    "locID": "LOC000055175515",
    "tech": "NULL",
    "upgrade": "NULL_NA",
    "gnaf_pid": "GAWA_147061175",
    "ee": false,
    "tech_change_status": "Not Planned"
   }
  },
  {
   "type": "Feature",
   "geometry": {
    "type": "Point",
    "coordinates": [
     115.44120585,
     -29.19317402
    ]
   },
   "properties": {
    "name": "28 WILLIAM STREET MINGENEW 6522",
    "locID": "LOC000032310652",
    "tech": "NULL",
    "upgrade": "NULL_NA",
    "gnaf_pid": "GAWA_147061178",
    "ee": false,
    "tech_change_status": "Not Planned"
   }
  },
  {
   "type": "Feature",
   "geometry": {
    "type": "Point",
    "coordinates": [
     115.44118565,
     -29.19279619
    ]
   },
   "properties": {
    "name": "26 WILLIAM STREET MINGENEW 6522",
    "locID": "LOC000061175154",
    "tech": "NULL",
    "upgrade": "NULL_NA",
    "gnaf_pid": "GAWA_147061179",
    "ee": false,
    "tech_change_status": "Not Planned"
   }
  },
  {
   "type": "Feature",
   "geometry": {
    "type": "Point",
    "coordinates": [
     115.44118527,
     -29.19243305
    ]
   },
   "properties": {
    "name": "22 WILLIAM STREET MINGENEW 6522",
    "locID": "LOC000003721516",
    "tech": "NULL",
    "upgrade": "NULL_NA",
    "gnaf_pid": "GAWA_147061182",
    "ee": false,
    "tech_change_status": "Not Planned"
   }
  },
  {
   "type": "Feature",
   "geometry": {
    "type": "Point",
    "coordinates": [
     115.44174688,
     -29.19379514
    ]
   },
   "properties": {
    "name": "33 VICTORIA ROAD MINGENEW 6522",
    "locID": "LOC000043418030",
    "tech": "SATELLITE",
    "upgrade": "NULL_NA",
    "gnaf_pid": "GAWA_147061184",
    "ee": false,
    "tech_change_status": "Not Planned"
   }
  },
  {
   "type": "Feature",
   "geometry": {
    "type": "Point",
    "coordinates": [
     115.44171527,
     -29.19317398
    ]
   },
   "properties": {
    "name": "27 VICTORIA ROAD MINGENEW 6522",
    "locID": "LOC000055615391",
    "tech": "NULL",
    "upgrade": "NULL_NA",
    "gnaf_pid": "GAWA_147061185",
    "ee": false,
    "tech_change_status": "Not Planned"
   }
  },
  {
   "type": "Feature",
   "geometry": {
    "type": "Point",
    "coordinates": [
     115.44175052,
     -29.19358806
    ]
   },
   "properties": {
    "name": "31 VICTORIA ROAD MINGENEW 6522",
    "locID": "LOC000051542991",
    "tech": "NULL",
    "upgrade": "NULL_NA",
    "gnaf_pid": "GAWA_147061186",
    "ee": false,
    "tech_change_status": "Not Planned"
   }
  },
  {
   "type": "Feature",
   "geometry": {
    "type": "Point",
    "coordinates": [
     115.44170356,
     -29.19338119
    ]
   },
   "properties": {
    "name": "29 VICTORIA ROAD MINGENEW 6522",
    "locID": "LOC000079417163",
    "tech": "NULL",
    "upgrade": "NULL_NA",
    "gnaf_pid": "GAWA_147061187",
    "ee": false,
    "tech_change_status": "Not Planned"
   }
  },
  {
   "type": "Feature",
   "geometry": {
    "type": "Point",
    "coordinates": [
     115.44170258,
     -29.19243261
    ]
   },
   "properties": {
    "name": "21 VICTORIA ROAD MINGENEW 6522",
    "locID": "LOC000089147811",
    "tech": "NULL",
    "upgrade": "NULL_NA",
    "gnaf_pid": "GAWA_147061233",
    "ee": false,
    "tech_change_status": "Not Planned"
   }
  },
  {
   "type": "Feature",
   "geometry": {
    "type": "Point",
    "coordinates": [
     115.44433994,
     -29.19224855
    ]
   },
   "properties": {
    "name": "19 BRIDE STREET MINGENEW 6522",
    "locID": "LOC000076904146",
    "tech": "NULL",
    "upgrade": "NULL_NA",
    "gnaf_pid": "GAWA_147061234",
    "ee": false,
    "tech_change_status": "Not Planned"
   }
  },
  {
   "type": "Feature",
   "geometry": {
    "type": "Point",
    "coordinates": [
     115.44169,
     -29.19189
    ]
   },
   "properties": {
    "name": "15 VICTORIA ROAD MINGENEW 6522",
    "locID": "LOC000045776586",
    "tech": "NULL",
    "upgrade": "NULL_NA",
    "gnaf_pid": "GAWA_147061236",
    "ee": false,
    "tech_change_status": "Not Planned"
   }
  },
  {
   "type": "Feature",
   "geometry": {
    "type": "Point",
    "coordinates": [
     115.4417,
     -29.191
    ]
   },
   "properties": {
    "name": "7 VICTORIA ROAD MINGENEW 6522",
    "locID": "LOC000090856690",
    "tech": "NULL",
    "upgrade": "NULL_NA",
    "gnaf_pid": "GAWA_147061239",
    "ee": false,
    "tech_change_status": "Not Planned"
   }
  },
  {
   "type": "Feature",
   "geometry": {
    "type": "Point",
    "coordinates": [
     115.44827,
     -29.19184
    ]
   },
   "properties": {
    "name": "62 KING STREET MINGENEW 6522",
    "locID": "LOC000078403137",
    "tech": "NULL",
    "upgrade": "NULL_NA",
    "gnaf_pid": "GAWA_147061241",
    "ee": false,
    "tech_change_status": "Not Planned"
   }
  },
  {
   "type": "Feature",
   "geometry": {
    "type": "Point",
    "coordinates": [
     115.43994,
     -29.19082
    ]
   },
   "properties": {
    "name": "6 SPRING STREET MINGENEW 6522",
    "locID": "LOC000099047617",
    "tech": "SATELLITE",
    "upgrade": "NULL_NA",
    "gnaf_pid": "GAWA_147062457",
    "ee": false,
    "tech_change_status": "Not Planned"
   }
  },
  {
   "type": "Feature",
   "geometry": {
    "type": "Point",
    "coordinates": [
     115.43764397,
     -29.19056312
    ]
   },
   "properties": {
    "name": "2 LEE STEERE STREET MINGENEW 6522",
    "locID": "LOC000082888268",
    "tech": "NULL",
    "upgrade": "NULL_NA",
    "gnaf_pid": "GAWA_147062458",
    "ee": false,
    "tech_change_status": "Not Planned"
   }
  },
  {
   "type": "Feature",
   "geometry": {
    "type": "Point",
    "coordinates": [
     115.43793715,
     -29.1919867
    ]
   },
   "properties": {
    "name": "20 LEE STEERE STREET MINGENEW 6522",
    "locID": "LOC000082888268",
    "tech": "NULL",
    "upgrade": "NULL_NA",
    "gnaf_pid": "GAWA_147062460",
    "ee": false,
    "tech_change_status": "Not Planned"
   }
  },
  {
   "type": "Feature",
   "geometry": {
    "type": "Point",
    "coordinates": [
     115.44242476,
     -29.19081691
    ]
   },
   "properties": {
    "name": "6 VICTORIA ROAD MINGENEW 6522",
    "locID": "LOC000065510408",
    "tech": "NULL",
    "upgrade": "NULL_NA",
    "gnaf_pid": "GAWA_147062469",
    "ee": false,
    "tech_change_status": "Not Planned"
   }
  },
  {
   "type": "Feature",
   "geometry": {
    "type": "Point",
    "coordinates": [
     115.44242498,
     -29.19099846
    ]
   },
   "properties": {
    "name": "8 VICTORIA ROAD MINGENEW 6522",
    "locID": "LOC000019634063",
    "tech": "NULL",
    "upgrade": "NULL_NA",
    "gnaf_pid": "GAWA_147062470",
    "ee": false,
    "tech_change_status": "Not Planned"
   }
  },
  {
   "type": "Feature",
   "geometry": {
    "type": "Point",
    "coordinates": [
     115.44579,
     -29.19184
    ]
   },
   "properties": {
    "name": "40 KING STREET MINGENEW 6522",
    "locID": "LOC000068352500",
    "tech": "NULL",
    "upgrade": "NULL_NA",
    "gnaf_pid": "GAWA_147062476",
    "ee": false,
    "tech_change_status": "Not Planned"
   }
  },
  {
   "type": "Feature",
   "geometry": {
    "type": "Point",
    "coordinates": [
     115.44031893,
     -29.19290322
    ]
   },
   "properties": {
    "name": "13 MOORE STREET MINGENEW 6522",
    "locID": "LOC000031978232",
    "tech": "NULL",
    "upgrade": "NULL_NA",
    "gnaf_pid": "GAWA_147062485",
    "ee": false,
    "tech_change_status": "Not Planned"
   }
  },
  {
   "type": "Feature",
   "geometry": {
    "type": "Point",
    "coordinates": [
     115.44724,
     -29.19184
    ]
   },
   "properties": {
    "name": "52 KING STREET MINGENEW 6522",
    "locID": "LOC000079448902",
    "tech": "NULL",
    "upgrade": "NULL_NA",
    "gnaf_pid": "GAWA_147062487",
    "ee": false,
    "tech_change_status": "Not Planned"
   }
  },
  {
   "type": "Feature",
   "geometry": {
    "type": "Point",
    "coordinates": [
     115.44703,
     -29.19184
    ]
   },
   "properties": {
    "name": "50 KING STREET MINGENEW 6522",
    "locID": "LOC000061401597",
    "tech": "NULL",
    "upgrade": "NULL_NA",
    "gnaf_pid": "GAWA_147062489",
    "ee": false,
    "tech_change_status": "Not Planned"
   }
  },
  {
   "type": "Feature",
   "geometry": {
    "type": "Point",
    "coordinates": [
     115.44703,
     -29.19118
    ]
   },
   "properties": {
    "name": "49 KING STREET MINGENEW 6522",
    "locID": "LOC000035968411",
    "tech": "NULL",
    "upgrade": "NULL_NA",
    "gnaf_pid": "GAWA_147062490",
    "ee": false,
    "tech_change_status": "Not Planned"
   }
  },
  {
   "type": "Feature",
   "geometry": {
    "type": "Point",
    "coordinates": [
     115.44682,
     -29.19184
    ]
   },
   "properties": {
    "name": "48 KING STREET MINGENEW 6522",
    "locID": "LOC000055034020",
    "tech": "NULL",
    "upgrade": "NULL_NA",
    "gnaf_pid": "GAWA_147062491",
    "ee": false,
    "tech_change_status": "Not Planned"
   }
  },
  {
   "type": "Feature",
   "geometry": {
    "type": "Point",
    "coordinates": [
     115.44802,
     -29.19132
    ]
   },
   "properties": {
    "name": "57 KING STREET MINGENEW 6522",
    "locID": "LOC000005659254",
    "tech": "NULL",
    "upgrade": "NULL_NA",
    "gnaf_pid": "GAWA_147062496",
    "ee": false,
    "tech_change_status": "Not Planned"
   }
  },
  {
   "type": "Feature",
   "geometry": {
    "type": "Point",
    "coordinates": [
     115.43649602,
     -29.19159752
    ]
   },
   "properties": {
    "name": "20 FIELD STREET MINGENEW 6522",
    "locID": "LOC000028704682",
    "tech": "NULL",
    "upgrade": "NULL_NA",
    "gnaf_pid": "GAWA_147064074",
    "ee": false,
    "tech_change_status": "Not Planned"
   }
  },
  {
   "type": "Feature",
   "geometry": {
    "type": "Point",
    "coordinates": [
     115.43604922,
     -29.19085153
    ]
   },
   "properties": {
    "name": "15 FIELD STREET MINGENEW 6522",
    "locID": "LOC000069436082",
    "tech": "NULL",
    "upgrade": "NULL_NA",
    "gnaf_pid": "GAWA_147064075",
    "ee": false,
    "tech_change_status": "Not Planned"
   }
  },
  {
   "type": "Feature",
   "geometry": {
    "type": "Point",
    "coordinates": [
     115.44055837,
     -29.19338902
    ]
   },
   "properties": {
    "name": "8 MOORE STREET MINGENEW 6522",
    "locID": "LOC000073391759",
    "tech": "NULL",
    "upgrade": "NULL_NA",
    "gnaf_pid": "GAWA_147064076",
    "ee": false,
    "tech_change_status": "Not Planned"
   }
  },
  {
   "type": "Feature",
   "geometry": {
    "type": "Point",
    "coordinates": [
     115.44048345,
     -29.19371106
    ]
   },
   "properties": {
    "name": "31 WILLIAM STREET MINGENEW 6522",
    "locID": "LOC000061112627",
    "tech": "NULL",
    "upgrade": "NULL_NA",
    "gnaf_pid": "GAWA_147064077",
    "ee": false,
    "tech_change_status": "Not Planned"
   }
  },
  {
   "type": "Feature",
   "geometry": {
    "type": "Point",
    "coordinates": [
     115.43439491,
     -29.19141768
    ]
   },
   "properties": {
    "name": "2 FIELD STREET MINGENEW 6522",
    "locID": "LOC000039145033",
    "tech": "NULL",
    "upgrade": "NULL_NA",
    "gnaf_pid": "GAWA_147064807",
    "ee": false,
    "tech_change_status": "Not Planned"
   }
  },
  {
   "type": "Feature",
   "geometry": {
    "type": "Point",
    "coordinates": [
     115.44531,
     -29.1919
    ]
   },
   "properties": {
    "name": "4 YANDANOOKA ROAD MINGENEW 6522",
    "locID": "LOC000010484024",
    "tech": "NULL",
    "upgrade": "NULL_NA",
    "gnaf_pid": "GAWA_147064919",
    "ee": false,
    "tech_change_status": "Not Planned"
   }
  },
  {
   "type": "Feature",
   "geometry": {
    "type": "Point",
    "coordinates": [
     115.44518,
     -29.1917
    ]
   },
   "properties": {
    "name": "2 YANDANOOKA ROAD MINGENEW 6522",
    "locID": "LOC000012067399",
    "tech": "NULL",
    "upgrade": "NULL_NA",
    "gnaf_pid": "GAWA_147064922",
    "ee": false,
    "tech_change_status": "Not Planned"
   }
  },
  {
   "type": "Feature",
   "geometry": {
    "type": "Point",
    "coordinates": [
     115.43434425,
     -29.1929581
    ]
   },
   "properties": {
    "name": "9 FOGARTY STREET MINGENEW 6522",
    "locID": "LOC000092789831",
    "tech": "SATELLITE",
    "upgrade": "NULL_NA",
    "gnaf_pid": "GAWA_147066069",
    "ee": false,
    "tech_change_status": "Not Planned"
   }
  },
  {
   "type": "Feature",
   "geometry": {
    "type": "Point",
    "coordinates": [
     115.44433867,
     -29.19135013
    ]
   },
   "properties": {
    "name": "11 BRIDE STREET MINGENEW 6522",
    "locID": "LOC000071528879",
    "tech": "NULL",
    "upgrade": "NULL_NA",
    "gnaf_pid": "GAWA_147067012",
    "ee": false,
    "tech_change_status": "Not Planned"
   }
  },
  {
   "type": "Feature",
   "geometry": {
    "type": "Point",
    "coordinates": [
     115.44433891,
     -29.19179487
    ]
   },
   "properties": {
    "name": "13 BRIDE STREET MINGENEW 6522",
    "locID": "LOC000077476304",
    "tech": "NULL",
    "upgrade": "NULL_NA",
    "gnaf_pid": "GAWA_147067013",
    "ee": false,
    "tech_change_status": "Not Planned"
   }
  },
  {
   "type": "Feature",
   "geometry": {
    "type": "Point",
    "coordinates": [
     115.44433841,
     -29.19117807
    ]
   },
   "properties": {
    "name": "9 BRIDE STREET MINGENEW 6522",
    "locID": "LOC000079103157",
    "tech": "NULL",
    "upgrade": "NULL_NA",
    "gnaf_pid": "GAWA_147067014",
    "ee": false,
    "tech_change_status": "Not Planned"
   }
  },
  {
   "type": "Feature",
   "geometry": {
    "type": "Point",
    "coordinates": [
     115.43668757,
     -29.19381913
    ]
   },
   "properties": {
    "name": "11 BROAD STREET MINGENEW 6522",
    "locID": "LOC000068026500",
    "tech": "NULL",
    "upgrade": "NULL_NA",
    "gnaf_pid": "GAWA_147068141",
    "ee": false,
    "tech_change_status": "Not Planned"
   }
  },
  {
   "type": "Feature",
   "geometry": {
    "type": "Point",
    "coordinates": [
     115.438064,
     -29.1938185
    ]
   },
   "properties": {
    "name": "11 ENANTY STREET MINGENEW 6522",
    "locID": "LOC000073102073",
    "tech": "NULL",
    "upgrade": "NULL_NA",
    "gnaf_pid": "GAWA_147069098",
    "ee": false,
    "tech_change_status": "Not Planned"
   }
  },
  {
   "type": "Feature",
   "geometry": {
    "type": "Point",
    "coordinates": [
     115.43460201,
     -29.19180106
    ]
   },
   "properties": {
    "name": "3 LINTHORNE STREET MINGENEW 6522",
    "locID": "LOC000047592863",
    "tech": "NULL",
    "upgrade": "NULL_NA",
    "gnaf_pid": "GAWA_147069397",
    "ee": false,
    "tech_change_status": "Not Planned"
   }
  },
  {
   "type": "Feature",
   "geometry": {
    "type": "Point",
    "coordinates": [
     115.44434052,
     -29.19337915
    ]
   },
   "properties": {
    "name": "29 BRIDE STREET MINGENEW 6522",
    "locID": "LOC000102466819",
    "tech": "NULL",
    "upgrade": "NULL_NA",
    "gnaf_pid": "GAWA_147069802",
    "ee": false,
    "tech_change_status": "Not Planned"
   }
  },
  {
   "type": "Feature",
   "geometry": {
    "type": "Point",
    "coordinates": [
     115.44434,
     -29.19318
    ]
   },
   "properties": {
    "name": "27 BRIDE STREET MINGENEW 6522",
    "locID": "LOC000095905864",
    "tech": "NULL",
    "upgrade": "NULL_NA",
    "gnaf_pid": "GAWA_147069803",
    "ee": false,
    "tech_change_status": "Not Planned"
   }
  },
  {
   "type": "Feature",
   "geometry": {
    "type": "Point",
    "coordinates": [
     115.44434,
     -29.1928
    ]
   },
   "properties": {
    "name": "25 BRIDE STREET MINGENEW 6522",
    "locID": "LOC000009512256",
    "tech": "NULL",
    "upgrade": "NULL_NA",
    "gnaf_pid": "GAWA_147069804",
    "ee": false,
    "tech_change_status": "Not Planned"
   }
  },
  {
   "type": "Feature",
   "geometry": {
    "type": "Point",
    "coordinates": [
     115.44434,
     -29.19262
    ]
   },
   "properties": {
    "name": "23 BRIDE STREET MINGENEW 6522",
    "locID": "LOC000067961940",
    "tech": "NULL",
    "upgrade": "NULL_NA",
    "gnaf_pid": "GAWA_147069805",
    "ee": false,
    "tech_change_status": "Not Planned"
   }
  },
  {
   "type": "Feature",
   "geometry": {
    "type": "Point",
    "coordinates": [
     115.44434,
     -29.19244
    ]
   },
   "properties": {
    "name": "21 BRIDE STREET MINGENEW 6522",
    "locID": "LOC000023620609",
    "tech": "NULL",
    "upgrade": "NULL_NA",
    "gnaf_pid": "GAWA_147069806",
    "ee": false,
    "tech_change_status": "Not Planned"
   }
  },
  {
   "type": "Feature",
   "geometry": {
    "type": "Point",
    "coordinates": [
     115.44243,
     -29.19119
    ]
   },
   "properties": {
    "name": "10 VICTORIA ROAD MINGENEW 6522",
    "locID": "LOC000064234964",
    "tech": "NULL",
    "upgrade": "NULL_NA",
    "gnaf_pid": "GAWA_147069950",
    "ee": false,
    "tech_change_status": "Not Planned"
   }
  },
  {
   "type": "Feature",
   "geometry": {
    "type": "Point",
    "coordinates": [
     115.44579,
     -29.19118
    ]
   },
   "properties": {
    "name": "39 KING STREET MINGENEW 6522",
    "locID": "LOC000012275191",
    "tech": "NULL",
    "upgrade": "NULL_NA",
    "gnaf_pid": "GAWA_147070545",
    "ee": false,
    "tech_change_status": "Not Planned"
   }
  },
  {
   "type": "Feature",
   "geometry": {
    "type": "Point",
    "coordinates": [
     115.43619383,
     -29.19295752
    ]
   },
   "properties": {
    "name": "30 OLIVER STREET MINGENEW 6522",
    "locID": "LOC000038271701",
    "tech": "NULL",
    "upgrade": "NULL_NA",
    "gnaf_pid": "GAWA_147072136",
    "ee": false,
    "tech_change_status": "Not Planned"
   }
  },
  {
   "type": "Feature",
   "geometry": {
    "type": "Point",
    "coordinates": [
     115.44744,
     -29.19118
    ]
   },
   "properties": {
    "name": "53 KING STREET MINGENEW 6522",
    "locID": "LOC000029420256",
    "tech": "NULL",
    "upgrade": "NULL_NA",
    "gnaf_pid": "GAWA_147072877",
    "ee": false,
    "tech_change_status": "Not Planned"
   }
  },
  {
   "type": "Feature",
   "geometry": {
    "type": "Point",
    "coordinates": [
     115.44371911,
     -29.19206759
    ]
   },
   "properties": {
    "name": "18 SHENTON STREET MINGENEW 6522",
    "locID": "LOC000100799442",
    "tech": "NULL",
    "upgrade": "NULL_NA",
    "gnaf_pid": "GAWA_147073569",
    "ee": false,
    "tech_change_status": "Not Planned"
   }
  },
  {
   "type": "Feature",
   "geometry": {
    "type": "Point",
    "coordinates": [
     115.4464,
     -29.19118
    ]
   },
   "properties": {
    "name": "45 KING STREET MINGENEW 6522",
    "locID": "LOC100087660933",
    "tech": "NULL",
    "upgrade": "NULL_NA",
    "gnaf_pid": "GAWA_147074503",
    "ee": false,
    "tech_change_status": "Not Planned"
   }
  },
  {
   "type": "Feature",
   "geometry": {
    "type": "Point",
    "coordinates": [
     115.4462,
     -29.19184
    ]
   },
   "properties": {
    "name": "44 KING STREET MINGENEW 6522",
    "locID": "LOC000062623441",
    "tech": "NULL",
    "upgrade": "NULL_NA",
    "gnaf_pid": "GAWA_147074506",
    "ee": false,
    "tech_change_status": "Not Planned"
   }
  },
  {
   "type": "Feature",
   "geometry": {
    "type": "Point",
    "coordinates": [
     115.4462,
     -29.19118
    ]
   },
   "properties": {
    "name": "43 KING STREET MINGENEW 6522",
    "locID": "LOC000088692559",
    "tech": "NULL",
    "upgrade": "NULL_NA",
    "gnaf_pid": "GAWA_147074507",
    "ee": false,
    "tech_change_status": "Not Planned"
   }
  },
  {
   "type": "Feature",
   "geometry": {
    "type": "Point",
    "coordinates": [
     115.44599,
     -29.19184
    ]
   },
   "properties": {
    "name": "42 KING STREET MINGENEW 6522",
    "locID": "LOC000037242925",
    "tech": "NULL",
    "upgrade": "NULL_NA",
    "gnaf_pid": "GAWA_147074509",
    "ee": false,
    "tech_change_status": "Not Planned"
   }
  },
  {
   "type": "Feature",
   "geometry": {
    "type": "Point",
    "coordinates": [
     115.44599,
     -29.19118
    ]
   },
   "properties": {
    "name": "41 KING STREET MINGENEW 6522",
    "locID": "LOC000063873413",
    "tech": "NULL",
    "upgrade": "NULL_NA",
    "gnaf_pid": "GAWA_147074510",
    "ee": false,
    "tech_change_status": "Not Planned"
   }
  },
  {
   "type": "Feature",
   "geometry": {
    "type": "Point",
    "coordinates": [
     115.43668746,
     -29.19364678
    ]
   },
   "properties": {
    "name": "9 BROAD STREET MINGENEW 6522",
    "locID": "LOC000049777635",
    "tech": "NULL",
    "upgrade": "NULL_NA",
    "gnaf_pid": "GAWA_147078453",
    "ee": false,
    "tech_change_status": "Not Planned"
   }
  },
  {
   "type": "Feature",
   "geometry": {
    "type": "Point",
    "coordinates": [
     115.44619,
     -29.19287
    ]
   },
   "properties": {
    "name": "2 IKEWA STREET MINGENEW 6522",
    "locID": "LOC000079876451",
    "tech": "NULL",
    "upgrade": "NULL_NA",
    "gnaf_pid": "GAWA_147079115",
    "ee": false,
    "tech_change_status": "Not Planned"
   }
  },
  {
   "type": "Feature",
   "geometry": {
    "type": "Point",
    "coordinates": [
     115.43887606,
     -29.19431302
    ]
   },
   "properties": {
    "name": "46 PHILLIP STREET MINGENEW 6522",
    "locID": "LOC000109250273",
    "tech": "NULL",
    "upgrade": "NULL_NA",
    "gnaf_pid": "GAWA_147079117",
    "ee": false,
    "tech_change_status": "Not Planned"
   }
  },
  {
   "type": "Feature",
   "geometry": {
    "type": "Point",
    "coordinates": [
     115.43857422,
     -29.19431322
    ]
   },
   "properties": {
    "name": "44 PHILLIP STREET MINGENEW 6522",
    "locID": "LOC000069099804",
    "tech": "NULL",
    "upgrade": "NULL_NA",
    "gnaf_pid": "GAWA_147079118",
    "ee": false,
    "tech_change_status": "Not Planned"
   }
  },
  {
   "type": "Feature",
   "geometry": {
    "type": "Point",
    "coordinates": [
     115.43889831,
     -29.19537361
    ]
   },
   "properties": {
    "name": "50 PHILLIP STREET MINGENEW 6522",
    "locID": "LOC000061058323",
    "tech": "NULL",
    "upgrade": "NULL_NA",
    "gnaf_pid": "GAWA_147079119",
    "ee": false,
    "tech_change_status": "Not Planned"
   }
  },
  {
   "type": "Feature",
   "geometry": {
    "type": "Point",
    "coordinates": [
     115.44372,
     -29.1928
    ]
   },
   "properties": {
    "name": "26 SHENTON STREET MINGENEW 6522",
    "locID": "LOC000019501861",
    "tech": "NULL",
    "upgrade": "NULL_NA",
    "gnaf_pid": "GAWA_147082670",
    "ee": false,
    "tech_change_status": "Not Planned"
   }
  },
  {
   "type": "Feature",
   "geometry": {
    "type": "Point",
    "coordinates": [
     115.44372,
     -29.19244
    ]
   },
   "properties": {
    "name": "22 SHENTON STREET MINGENEW 6522",
    "locID": "LOC000069347350",
    "tech": "NULL",
    "upgrade": "NULL_NA",
    "gnaf_pid": "GAWA_147082671",
    "ee": false,
    "tech_change_status": "Not Planned"
   }
  },
  {
   "type": "Feature",
   "geometry": {
    "type": "Point",
    "coordinates": [
     115.43610194,
     -29.19230459
    ]
   },
   "properties": {
    "name": "22 OLIVER STREET MINGENEW 6522",
    "locID": "LOC000055496458",
    "tech": "NULL",
    "upgrade": "NULL_NA",
    "gnaf_pid": "GAWA_147084128",
    "ee": false,
    "tech_change_status": "Not Planned"
   }
  },
  {
   "type": "Feature",
   "geometry": {
    "type": "Point",
    "coordinates": [
     115.442428,
     -29.19379804
    ]
   },
   "properties": {
    "name": "34 VICTORIA ROAD MINGENEW 6522",
    "locID": "LOC000007065869",
    "tech": "NULL",
    "upgrade": "NULL_NA",
    "gnaf_pid": "GAWA_147085003",
    "ee": false,
    "tech_change_status": "Not Planned"
   }
  },
  {
   "type": "Feature",
   "geometry": {
    "type": "Point",
    "coordinates": [
     115.44242779,
     -29.19358935
    ]
   },
   "properties": {
    "name": "32 VICTORIA ROAD MINGENEW 6522",
    "locID": "LOC000105012730",
    "tech": "NULL",
    "upgrade": "NULL_NA",
    "gnaf_pid": "GAWA_147085004",
    "ee": false,
    "tech_change_status": "Not Planned"
   }
  },
  {
   "type": "Feature",
   "geometry": {
    "type": "Point",
    "coordinates": [
     115.44242758,
     -29.19338066
    ]
   },
   "properties": {
    "name": "30 VICTORIA ROAD MINGENEW 6522",
    "locID": "LOC000015370783",
    "tech": "NULL",
    "upgrade": "NULL_NA",
    "gnaf_pid": "GAWA_147085005",
    "ee": false,
    "tech_change_status": "Not Planned"
   }
  },
  {
   "type": "Feature",
   "geometry": {
    "type": "Point",
    "coordinates": [
     115.44242736,
     -29.19317196
    ]
   },
   "properties": {
    "name": "28 VICTORIA ROAD MINGENEW 6522",
    "locID": "LOC000021997149",
    "tech": "NULL",
    "upgrade": "NULL_NA",
    "gnaf_pid": "GAWA_147085006",
    "ee": false,
    "tech_change_status": "Not Planned"
   }
  },
  {
   "type": "Feature",
   "geometry": {
    "type": "Point",
    "coordinates": [
     115.44272212,
     -29.19248364
    ]
   },
   "properties": {
    "name": "20 VICTORIA ROAD MINGENEW 6522",
    "locID": "LOC000006262537",
    "tech": "NULL",
    "upgrade": "NULL_NA",
    "gnaf_pid": "GAWA_147085009",
    "ee": false,
    "tech_change_status": "Not Planned"
   }
  },
  {
   "type": "Feature",
   "geometry": {
    "type": "Point",
    "coordinates": [
     115.44242,
     -29.19207
    ]
   },
   "properties": {
    "name": "18 VICTORIA ROAD MINGENEW 6522",
    "locID": "LOC000058430256",
    "tech": "NULL",
    "upgrade": "NULL_NA",
    "gnaf_pid": "GAWA_147085010",
    "ee": false,
    "tech_change_status": "Not Planned"
   }
  },
  {
   "type": "Feature",
   "geometry": {
    "type": "Point",
    "coordinates": [
     115.44242,
     -29.19171
    ]
   },
   "properties": {
    "name": "14 VICTORIA ROAD MINGENEW 6522",
    "locID": "LOC000063543432",
    "tech": "NULL",
    "upgrade": "NULL_NA",
    "gnaf_pid": "GAWA_147085011",
    "ee": false,
    "tech_change_status": "Not Planned"
   }
  },
  {
   "type": "Feature",
   "geometry": {
    "type": "Point",
    "coordinates": [
     115.43668498,
     -29.19295789
    ]
   },
   "properties": {
    "name": "1 BROAD STREET MINGENEW 6522",
    "locID": "LOC000069219587",
    "tech": "NULL",
    "upgrade": "NULL_NA",
    "gnaf_pid": "GAWA_147085551",
    "ee": false,
    "tech_change_status": "Not Planned"
   }
  },
  {
   "type": "Feature",
   "geometry": {
    "type": "Point",
    "coordinates": [
     115.44372055,
     -29.19379701
    ]
   },
   "properties": {
    "name": "34 SHENTON STREET MINGENEW 6522",
    "locID": "LOC000054974863",
    "tech": "NULL",
    "upgrade": "NULL_NA",
    "gnaf_pid": "GAWA_147085709",
    "ee": false,
    "tech_change_status": "Not Planned"
   }
  },
  {
   "type": "Feature",
   "geometry": {
    "type": "Point",
    "coordinates": [
     115.44433969,
     -29.19206696
    ]
   },
   "properties": {
    "name": "17 BRIDE STREET MINGENEW 6522",
    "locID": "LOC000090470215",
    "tech": "NULL",
    "upgrade": "NULL_NA",
    "gnaf_pid": "GAWA_147085793",
    "ee": false,
    "tech_change_status": "Not Planned"
   }
  },
  {
   "type": "Feature",
   "geometry": {
    "type": "Point",
    "coordinates": [
     115.44371,
     -29.19317
    ]
   },
   "properties": {
    "name": "28 SHENTON STREET MINGENEW 6522",
    "locID": "LOC000065960794",
    "tech": "NULL",
    "upgrade": "NULL_NA",
    "gnaf_pid": "GAWA_147166552",
    "ee": false,
    "tech_change_status": "Not Planned"
   }
  },
  {
   "type": "Feature",
   "geometry": {
    "type": "Point",
    "coordinates": [
     115.44827,
     -29.19234
    ]
   },
   "properties": {
    "name": "21 IKEWA STREET MINGENEW 6522",
    "locID": "LOC000079876451",
    "tech": "NULL",
    "upgrade": "NULL_NA",
    "gnaf_pid": "GAWA_147185090",
    "ee": false,
    "tech_change_status": "Not Planned"
   }
  },
  {
   "type": "Feature",
   "geometry": {
    "type": "Point",
    "coordinates": [
     115.44806,
     -29.19234
    ]
   },
   "properties": {
    "name": "19 IKEWA STREET MINGENEW 6522",
    "locID": "LOC000090859034",
    "tech": "NULL",
    "upgrade": "NULL_NA",
    "gnaf_pid": "GAWA_147190758",
    "ee": false,
    "tech_change_status": "Not Planned"
   }
  },
  {
   "type": "Feature",
   "geometry": {
    "type": "Point",
    "coordinates": [
     115.44786,
     -29.19234
    ]
   },
   "properties": {
    "name": "17 IKEWA STREET MINGENEW 6522",
    "locID": "LOC000009575500",
    "tech": "NULL",
    "upgrade": "NULL_NA",
    "gnaf_pid": "GAWA_147202845",
    "ee": false,
    "tech_change_status": "Not Planned"
   }
  },
  {
   "type": "Feature",
   "geometry": {
    "type": "Point",
    "coordinates": [
     115.44765,
     -29.19234
    ]
   },
   "properties": {
    "name": "15 IKEWA STREET MINGENEW 6522",
    "locID": "LOC000045315918",
    "tech": "SATELLITE",
    "upgrade": "NULL_NA",
    "gnaf_pid": "GAWA_147202846",
    "ee": false,
    "tech_change_status": "Not Planned"
   }
  },
  {
   "type": "Feature",
   "geometry": {
    "type": "Point",
    "coordinates": [
     115.44371,
     -29.19338
    ]
   },
   "properties": {
    "name": "30 SHENTON STREET MINGENEW 6522",
    "locID": "LOC000065960794",
    "tech": "NULL",
    "upgrade": "NULL_NA",
    "gnaf_pid": "GAWA_147237800",
    "ee": false,
    "tech_change_status": "Not Planned"
   }
  },
  {
   "type": "Feature",
   "geometry": {
    "type": "Point",
    "coordinates": [
     115.43908576,
     -29.19314157
    ]
   },
   "properties": {
    "name": "38 LINTHORNE STREET MINGENEW 6522",
    "locID": "LOC000104194715",
    "tech": "NULL",
    "upgrade": "NULL_NA",
    "gnaf_pid": "GAWA_147245236",
    "ee": false,
    "tech_change_status": "Not Planned"
   }
  },
  {
   "type": "Feature",
   "geometry": {
    "type": "Point",
    "coordinates": [
     115.44807,
     -29.19184
    ]
   },
   "properties": {
    "name": "60 KING STREET MINGENEW 6522",
    "locID": "LOC000053851767",
    "tech": "NULL",
    "upgrade": "NULL_NA",
    "gnaf_pid": "GAWA_147246551",
    "ee": false,
    "tech_change_status": "Not Planned"
   }
  },
  {
   "type": "Feature",
   "geometry": {
    "type": "Point",
    "coordinates": [
     115.43764384,
     -29.19037255
    ]
   },
   "properties": {
    "name": "1 LEE STEERE STREET MINGENEW 6522",
    "locID": "LOC000033679689",
    "tech": "NULL",
    "upgrade": "NULL_NA",
    "gnaf_pid": "GAWA_147247608",
    "ee": false,
    "tech_change_status": "Not Planned"
   }
  },
  {
   "type": "Feature",
   "geometry": {
    "type": "Point",
    "coordinates": [
     115.44786,
     -29.19184
    ]
   },
   "properties": {
    "name": "58 KING STREET MINGENEW 6522",
    "locID": "LOC000087355319",
    "tech": "NULL",
    "upgrade": "NULL_NA",
    "gnaf_pid": "GAWA_147247620",
    "ee": false,
    "tech_change_status": "Not Planned"
   }
  },
  {
   "type": "Feature",
   "geometry": {
    "type": "Point",
    "coordinates": [
     115.44118,
     -29.19135
    ]
   },
   "properties": {
    "name": "12 WILLIAM STREET MINGENEW 6522",
    "locID": "LOC000083221053",
    "tech": "NULL",
    "upgrade": "NULL_NA",
    "gnaf_pid": "GAWA_147247623",
    "ee": false,
    "tech_change_status": "Not Planned"
   }
  },
  {
   "type": "Feature",
   "geometry": {
    "type": "Point",
    "coordinates": [
     115.44118,
     -29.19118
    ]
   },
   "properties": {
    "name": "10 WILLIAM STREET MINGENEW 6522",
    "locID": "LOC000063200810",
    "tech": "NULL",
    "upgrade": "NULL_NA",
    "gnaf_pid": "GAWA_147249585",
    "ee": false,
    "tech_change_status": "Not Planned"
   }
  },
  {
   "type": "Feature",
   "geometry": {
    "type": "Point",
    "coordinates": [
     115.44118,
     -29.19082
    ]
   },
   "properties": {
    "name": "6 WILLIAM STREET MINGENEW 6522",
    "locID": "LOC000003721516",
    "tech": "NULL",
    "upgrade": "NULL_NA",
    "gnaf_pid": "GAWA_147249587",
    "ee": false,
    "tech_change_status": "Not Planned"
   }
  },
  {
   "type": "Feature",
   "geometry": {
    "type": "Point",
    "coordinates": [
     115.44113,
     -29.19062
    ]
   },
   "properties": {
    "name": "4 WILLIAM STREET MINGENEW 6522",
    "locID": "LOC000089147732",
    "tech": "SATELLITE",
    "upgrade": "NULL_NA",
    "gnaf_pid": "GAWA_147249588",
    "ee": false,
    "tech_change_status": "Not Planned"
   }
  },
  {
   "type": "Feature",
   "geometry": {
    "type": "Point",
    "coordinates": [
     115.44185,
     -29.18849
    ]
   },
   "properties": {
    "name": "9 ELEANOR STREET MINGENEW 6522",
    "locID": "LOC000031494128",
    "tech": "NULL",
    "upgrade": "NULL_NA",
    "gnaf_pid": "GAWA_147299878",
    "ee": false,
    "tech_change_status": "Not Planned"
   }
  },
  {
   "type": "Feature",
   "geometry": {
    "type": "Point",
    "coordinates": [
     115.44332,
     -29.18789
    ]
   },
   "properties": {
    "name": "17 DONALD STREET MINGENEW 6522",
    "locID": "LOC000071840066",
    "tech": "NULL",
    "upgrade": "NULL_NA",
    "gnaf_pid": "GAWA_147299884",
    "ee": false,
    "tech_change_status": "Not Planned"
   }
  },
  {
   "type": "Feature",
   "geometry": {
    "type": "Point",
    "coordinates": [
     115.44789641,
     -29.19320687
    ]
   },
   "properties": {
    "name": "2 WATTLE STREET MINGENEW 6522",
    "locID": "LOC000017124019",
    "tech": "SATELLITE",
    "upgrade": "NULL_NA",
    "gnaf_pid": "GAWA_147299894",
    "ee": false,
    "tech_change_status": "Not Planned"
   }
  },
  {
   "type": "Feature",
   "geometry": {
    "type": "Point",
    "coordinates": [
     115.44737817,
     -29.19294038
    ]
   },
   "properties": {
    "name": "12 IKEWA STREET MINGENEW 6522",
    "locID": "LOC000098865889",
    "tech": "NULL",
    "upgrade": "NULL_NA",
    "gnaf_pid": "GAWA_147299895",
    "ee": false,
    "tech_change_status": "Not Planned"
   }
  },
  {
   "type": "Feature",
   "geometry": {
    "type": "Point",
    "coordinates": [
     115.4433,
     -29.18853
    ]
   },
   "properties": {
    "name": "23 ELEANOR STREET MINGENEW 6522",
    "locID": "LOC000087464473",
    "tech": "NULL",
    "upgrade": "NULL_NA",
    "gnaf_pid": "GAWA_147302895",
    "ee": false,
    "tech_change_status": "Not Planned"
   }
  },
  {
   "type": "Feature",
   "geometry": {
    "type": "Point",
    "coordinates": [
     115.44703,
     -29.19234
    ]
   },
   "properties": {
    "name": "9 IKEWA STREET MINGENEW 6522",
    "locID": "LOC000090217751",
    "tech": "NULL",
    "upgrade": "NULL_NA",
    "gnaf_pid": "GAWA_147302897",
    "ee": false,
    "tech_change_status": "Not Planned"
   }
  },
  {
   "type": "Feature",
   "geometry": {
    "type": "Point",
    "coordinates": [
     115.4464,
     -29.19234
    ]
   },
   "properties": {
    "name": "5 IKEWA STREET MINGENEW 6522",
    "locID": "LOC000032811709",
    "tech": "NULL",
    "upgrade": "NULL_NA",
    "gnaf_pid": "GAWA_147302898",
    "ee": false,
    "tech_change_status": "Not Planned"
   }
  },
  {
   "type": "Feature",
   "geometry": {
    "type": "Point",
    "coordinates": [
     115.44371,
     -29.18854
    ]
   },
   "properties": {
    "name": "27 ELEANOR STREET MINGENEW 6522",
    "locID": "LOC000004607029",
    "tech": "NULL",
    "upgrade": "NULL_NA",
    "gnaf_pid": "GAWA_147302899",
    "ee": false,
    "tech_change_status": "Not Planned"
   }
  },
  {
   "type": "Feature",
   "geometry": {
    "type": "Point",
    "coordinates": [
     115.43563595,
     -29.19141641
    ]
   },
   "properties": {
    "name": "14 FIELD STREET MINGENEW 6522",
    "locID": "LOC000026926386",
    "tech": "NULL",
    "upgrade": "NULL_NA",
    "gnaf_pid": "GAWA_147302902",
    "ee": false,
    "tech_change_status": "Not Planned"
   }
  },
  {
   "type": "Feature",
   "geometry": {
    "type": "Point",
    "coordinates": [
     115.43563555,
     -29.19085196
    ]
   },
   "properties": {
    "name": "13 FIELD STREET MINGENEW 6522",
    "locID": "LOC000032409193",
    "tech": "NULL",
    "upgrade": "NULL_NA",
    "gnaf_pid": "GAWA_147302903",
    "ee": false,
    "tech_change_status": "Not Planned"
   }
  },
  {
   "type": "Feature",
   "geometry": {
    "type": "Point",
    "coordinates": [
     115.44373,
     -29.18791
    ]
   },
   "properties": {
    "name": "21 DONALD STREET MINGENEW 6522",
    "locID": "LOC000015412155",
    "tech": "NULL",
    "upgrade": "NULL_NA",
    "gnaf_pid": "GAWA_147302906",
    "ee": false,
    "tech_change_status": "Not Planned"
   }
  },
  {
   "type": "Feature",
   "geometry": {
    "type": "Point",
    "coordinates": [
     115.4462,
     -29.19234
    ]
   },
   "properties": {
    "name": "3 IKEWA STREET MINGENEW 6522",
    "locID": "LOC000042146242",
    "tech": "NULL",
    "upgrade": "NULL_NA",
    "gnaf_pid": "GAWA_147305918",
    "ee": false,
    "tech_change_status": "Not Planned"
   }
  },
  {
   "type": "Feature",
   "geometry": {
    "type": "Point",
    "coordinates": [
     115.44568,
     -29.1923
    ]
   },
   "properties": {
    "name": "6 YANDANOOKA ROAD MINGENEW 6522",
    "locID": "LOC000107567870",
    "tech": "NULL",
    "upgrade": "NULL_NA",
    "gnaf_pid": "GAWA_147305919",
    "ee": false,
    "tech_change_status": "Not Planned"
   }
  },
  {
   "type": "Feature",
   "geometry": {
    "type": "Point",
    "coordinates": [
     115.44800866,
     -29.19292594
    ]
   },
   "properties": {
    "name": "16 IKEWA STREET MINGENEW 6522",
    "locID": "LOC000029619244",
    "tech": "NULL",
    "upgrade": "NULL_NA",
    "gnaf_pid": "GAWA_147305925",
    "ee": false,
    "tech_change_status": "Not Planned"
   }
  },
  {
   "type": "Feature",
   "geometry": {
    "type": "Point",
    "coordinates": [
     115.44780484,
     -29.19294038
    ]
   },
   "properties": {
    "name": "14 IKEWA STREET MINGENEW 6522",
    "locID": "LOC100087818590",
    "tech": "SATELLITE",
    "upgrade": "NULL_NA",
    "gnaf_pid": "GAWA_147305926",
    "ee": false,
    "tech_change_status": "Not Planned"
   }
  },
  {
   "type": "Feature",
   "geometry": {
    "type": "Point",
    "coordinates": [
     115.43738253,
     -29.19096276
    ]
   },
   "properties": {
    "name": "23 FIELD STREET MINGENEW 6522",
    "locID": "LOC000039145033",
    "tech": "NULL",
    "upgrade": "NULL_NA",
    "gnaf_pid": "GAWA_147306660",
    "ee": false,
    "tech_change_status": "Not Planned"
   }
  },
  {
   "type": "Feature",
   "geometry": {
    "type": "Point",
    "coordinates": [
     115.44696695,
     -29.19294302
    ]
   },
   "properties": {
    "name": "8 IKEWA STREET MINGENEW 6522",
    "locID": "LOC000073391759",
    "tech": "NULL",
    "upgrade": "NULL_NA",
    "gnaf_pid": "GAWA_147311284",
    "ee": false,
    "tech_change_status": "Not Planned"
   }
  },
  {
   "type": "Feature",
   "geometry": {
    "type": "Point",
    "coordinates": [
     115.44707,
     -29.19389
    ]
   },
   "properties": {
    "name": "18 YANDANOOKA ROAD MINGENEW 6522",
    "locID": "LOC000042545029",
    "tech": "NULL",
    "upgrade": "NULL_NA",
    "gnaf_pid": "GAWA_147311285",
    "ee": false,
    "tech_change_status": "Not Planned"
   }
  },
  {
   "type": "Feature",
   "geometry": {
    "type": "Point",
    "coordinates": [
     115.44599,
     -29.19234
    ]
   },
   "properties": {
    "name": "1 IKEWA STREET MINGENEW 6522",
    "locID": "LOC000110122909",
    "tech": "NULL",
    "upgrade": "NULL_NA",
    "gnaf_pid": "GAWA_147311287",
    "ee": false,
    "tech_change_status": "Not Planned"
   }
  },
  {
   "type": "Feature",
   "geometry": {
    "type": "Point",
    "coordinates": [
     115.44676789,
     -29.1929256
    ]
   },
   "properties": {
    "name": "6 IKEWA STREET MINGENEW 6522",
    "locID": "LOC000079876451",
    "tech": "NULL",
    "upgrade": "NULL_NA",
    "gnaf_pid": "GAWA_147311288",
    "ee": false,
    "tech_change_status": "Not Planned"
   }
  },
  {
   "type": "Feature",
   "geometry": {
    "type": "Point",
    "coordinates": [
     115.44685,
     -29.1935
    ]
   },
   "properties": {
    "name": "14 YANDANOOKA ROAD MINGENEW 6522",
    "locID": "LOC000092832800",
    "tech": "NULL",
    "upgrade": "NULL_NA",
    "gnaf_pid": "GAWA_147311289",
    "ee": false,
    "tech_change_status": "Not Planned"
   }
  },
  {
   "type": "Feature",
   "geometry": {
    "type": "Point",
    "coordinates": [
     115.43744863,
     -29.19381875
    ]
   },
   "properties": {
    "name": "12 BROAD STREET MINGENEW 6522",
    "locID": "LOC000069219587",
    "tech": "NULL",
    "upgrade": "NULL_NA",
    "gnaf_pid": "GAWA_147311307",
    "ee": false,
    "tech_change_status": "Not Planned"
   }
  },
  {
   "type": "Feature",
   "geometry": {
    "type": "Point",
    "coordinates": [
     115.44307,
     -29.19181
    ]
   },
   "properties": {
    "name": "13 SHENTON STREET MINGENEW 6522",
    "locID": "LOC000009580357",
    "tech": "NULL",
    "upgrade": "NULL_NA",
    "gnaf_pid": "GAWA_147312676",
    "ee": false,
    "tech_change_status": "Not Planned"
   }
  },
  {
   "type": "Feature",
   "geometry": {
    "type": "Point",
    "coordinates": [
     115.44299332,
     -29.19061212
    ]
   },
   "properties": {
    "name": "3 SHENTON STREET MINGENEW 6522",
    "locID": "LOC000054974863",
    "tech": "NULL",
    "upgrade": "NULL_NA",
    "gnaf_pid": "GAWA_147312677",
    "ee": false,
    "tech_change_status": "Not Planned"
   }
  },
  {
   "type": "Feature",
   "geometry": {
    "type": "Point",
    "coordinates": [
     115.44294765,
     -29.19453515
    ]
   },
   "properties": {
    "name": "39 SHENTON STREET MINGENEW 6522",
    "locID": "LOC000065246042",
    "tech": "NULL",
    "upgrade": "NULL_NA",
    "gnaf_pid": "GAWA_147312678",
    "ee": false,
    "tech_change_status": "Not Planned"
   }
  },
  {
   "type": "Feature",
   "geometry": {
    "type": "Point",
    "coordinates": [
     115.44294501,
     -29.19379763
    ]
   },
   "properties": {
    "name": "33 SHENTON STREET MINGENEW 6522",
    "locID": "LOC000080990364",
    "tech": "SATELLITE",
    "upgrade": "NULL_NA",
    "gnaf_pid": "GAWA_147312689",
    "ee": false,
    "tech_change_status": "Not Planned"
   }
  },
  {
   "type": "Feature",
   "geometry": {
    "type": "Point",
    "coordinates": [
     115.44294479,
     -29.19358894
    ]
   },
   "properties": {
    "name": "31 SHENTON STREET MINGENEW 6522",
    "locID": "LOC000065421966",
    "tech": "NULL",
    "upgrade": "NULL_NA",
    "gnaf_pid": "GAWA_147312691",
    "ee": false,
    "tech_change_status": "Not Planned"
   }
  },
  {
   "type": "Feature",
   "geometry": {
    "type": "Point",
    "coordinates": [
     115.44294458,
     -29.19338025
    ]
   },
   "properties": {
    "name": "29 SHENTON STREET MINGENEW 6522",
    "locID": "LOC000100666106",
    "tech": "NULL",
    "upgrade": "NULL_NA",
    "gnaf_pid": "GAWA_147312692",
    "ee": false,
    "tech_change_status": "Not Planned"
   }
  },
  {
   "type": "Feature",
   "geometry": {
    "type": "Point",
    "coordinates": [
     115.44294437,
     -29.19317156
    ]
   },
   "properties": {
    "name": "27 SHENTON STREET MINGENEW 6522",
    "locID": "LOC000019964859",
    "tech": "NULL",
    "upgrade": "NULL_NA",
    "gnaf_pid": "GAWA_147321431",
    "ee": false,
    "tech_change_status": "Not Planned"
   }
  },
  {
   "type": "Feature",
   "geometry": {
    "type": "Point",
    "coordinates": [
     115.43816617,
     -29.19431347
    ]
   },
   "properties": {
    "name": "40 PHILLIP STREET MINGENEW 6522",
    "locID": "LOC000106202009",
    "tech": "NULL",
    "upgrade": "NULL_NA",
    "gnaf_pid": "GAWA_147323875",
    "ee": false,
    "tech_change_status": "Not Planned"
   }
  },
  {
   "type": "Feature",
   "geometry": {
    "type": "Point",
    "coordinates": [
     115.4466,
     -29.19322
    ]
   },
   "properties": {
    "name": "10 YANDANOOKA ROAD MINGENEW 6522",
    "locID": "LOC000007088085",
    "tech": "NULL",
    "upgrade": "NULL_NA",
    "gnaf_pid": "GAWA_147338557",
    "ee": false,
    "tech_change_status": "Not Planned"
   }
  },
  {
   "type": "Feature",
   "geometry": {
    "type": "Point",
    "coordinates": [
     115.44282,
     -29.1918
    ]
   },
   "properties": {
    "name": "16 KING STREET MINGENEW 6522",
    "locID": "LOC000060046915",
    "tech": "NULL",
    "upgrade": "NULL_NA",
    "gnaf_pid": "GAWA_147338559",
    "ee": false,
    "tech_change_status": "Not Planned"
   }
  },
  {
   "type": "Feature",
   "geometry": {
    "type": "Point",
    "coordinates": [
     115.44227486,
     -29.19431206
    ]
   },
   "properties": {
    "name": "74 PHILLIP STREET MINGENEW 6522",
    "locID": "LOC000045441946",
    "tech": "NULL",
    "upgrade": "NULL_NA",
    "gnaf_pid": "GAWA_147341606",
    "ee": false,
    "tech_change_status": "Not Planned"
   }
  },
  {
   "type": "Feature",
   "geometry": {
    "type": "Point",
    "coordinates": [
     115.44433,
     -29.1938
    ]
   },
   "properties": {
    "name": "33 BRIDE STREET MINGENEW 6522",
    "locID": "LOC000020396297",
    "tech": "NULL",
    "upgrade": "NULL_NA",
    "gnaf_pid": "GAWA_147341607",
    "ee": false,
    "tech_change_status": "Not Planned"
   }
  },
  {
   "type": "Feature",
   "geometry": {
    "type": "Point",
    "coordinates": [
     115.44433,
     -29.19359
    ]
   },
   "properties": {
    "name": "31 BRIDE STREET MINGENEW 6522",
    "locID": "LOC000076163852",
    "tech": "SATELLITE",
    "upgrade": "NULL_NA",
    "gnaf_pid": "GAWA_147341608",
    "ee": false,
    "tech_change_status": "Not Planned"
   }
  },
  {
   "type": "Feature",
   "geometry": {
    "type": "Point",
    "coordinates": [
     115.44371806,
     -29.19125996
    ]
   },
   "properties": {
    "name": "10 SHENTON STREET MINGENEW 6522",
    "locID": "LOC000102026187",
    "tech": "SATELLITE",
    "upgrade": "NULL_NA",
    "gnaf_pid": "GAWA_147341610",
    "ee": false,
    "tech_change_status": "Not Planned"
   }
  },
  {
   "type": "Feature",
   "geometry": {
    "type": "Point",
    "coordinates": [
     115.44724,
     -29.19234
    ]
   },
   "properties": {
    "name": "11 IKEWA STREET MINGENEW 6522",
    "locID": "LOC000008714933",
    "tech": "NULL",
    "upgrade": "NULL_NA",
    "gnaf_pid": "GAWA_147341611",
    "ee": false,
    "tech_change_status": "Not Planned"
   }
  },
  {
   "type": "Feature",
   "geometry": {
    "type": "Point",
    "coordinates": [
     115.44682,
     -29.19234
    ]
   },
   "properties": {
    "name": "7 IKEWA STREET MINGENEW 6522",
    "locID": "LOC000109742922",
    "tech": "NULL",
    "upgrade": "NULL_NA",
    "gnaf_pid": "GAWA_147341612",
    "ee": false,
    "tech_change_status": "Not Planned"
   }
  },
  {
   "type": "Feature",
   "geometry": {
    "type": "Point",
    "coordinates": [
     115.43542872,
     -29.19085217
    ]
   },
   "properties": {
    "name": "11 FIELD STREET MINGENEW 6522",
    "locID": "LOC000100529606",
    "tech": "NULL",
    "upgrade": "NULL_NA",
    "gnaf_pid": "GAWA_147341614",
    "ee": false,
    "tech_change_status": "Not Planned"
   }
  },
  {
   "type": "Feature",
   "geometry": {
    "type": "Point",
    "coordinates": [
     115.43744839,
     -29.19330168
    ]
   },
   "properties": {
    "name": "6 BROAD STREET MINGENEW 6522",
    "locID": "LOC000049777635",
    "tech": "NULL",
    "upgrade": "NULL_NA",
    "gnaf_pid": "GAWA_147341620",
    "ee": false,
    "tech_change_status": "Not Planned"
   }
  },
  {
   "type": "Feature",
   "geometry": {
    "type": "Point",
    "coordinates": [
     115.44075,
     -29.19497
    ]
   },
   "properties": {
    "name": "70 PHILLIP STREET MINGENEW 6522",
    "locID": "LOC000109742922",
    "tech": "NULL",
    "upgrade": "NULL_NA",
    "gnaf_pid": "GAWA_147344652",
    "ee": false,
    "tech_change_status": "Not Planned"
   }
  },
  {
   "type": "Feature",
   "geometry": {
    "type": "Point",
    "coordinates": [
     115.44747,
     -29.19364
    ]
   },
   "properties": {
    "name": "7 WATTLE STREET MINGENEW 6522",
    "locID": "LOC000037864986",
    "tech": "NULL",
    "upgrade": "NULL_NA",
    "gnaf_pid": "GAWA_147344653",
    "ee": false,
    "tech_change_status": "Not Planned"
   }
  },
  {
   "type": "Feature",
   "geometry": {
    "type": "Point",
    "coordinates": [
     115.4471688,
     -29.19293069
    ]
   },
   "properties": {
    "name": "10 IKEWA STREET MINGENEW 6522",
    "locID": "LOC000019434335",
    "tech": "NULL",
    "upgrade": "NULL_NA",
    "gnaf_pid": "GAWA_147344654",
    "ee": false,
    "tech_change_status": "Not Planned"
   }
  },
  {
   "type": "Feature",
   "geometry": {
    "type": "Point",
    "coordinates": [
     115.43434477,
     -29.19373105
    ]
   },
   "properties": {
    "name": "19 FOGARTY STREET MINGENEW 6522",
    "locID": "LOC000006471742",
    "tech": "NULL",
    "upgrade": "NULL_NA",
    "gnaf_pid": "GAWA_147346660",
    "ee": false,
    "tech_change_status": "Not Planned"
   }
  },
  {
   "type": "Feature",
   "geometry": {
    "type": "Point",
    "coordinates": [
     115.43434442,
     -29.19321673
    ]
   },
   "properties": {
    "name": "11 FOGARTY STREET MINGENEW 6522",
    "locID": "LOC000048337276",
    "tech": "NULL",
    "upgrade": "NULL_NA",
    "gnaf_pid": "GAWA_147350144",
    "ee": false,
    "tech_change_status": "Not Planned"
   }
  },
  {
   "type": "Feature",
   "geometry": {
    "type": "Point",
    "coordinates": [
     115.43480885,
     -29.19180085
    ]
   },
   "properties": {
    "name": "5 LINTHORNE STREET MINGENEW 6522",
    "locID": "LOC000033161354",
    "tech": "NULL",
    "upgrade": "NULL_NA",
    "gnaf_pid": "GAWA_147352587",
    "ee": false,
    "tech_change_status": "Not Planned"
   }
  },
  {
   "type": "Feature",
   "geometry": {
    "type": "Point",
    "coordinates": [
     115.43480859,
     -29.19141726
    ]
   },
   "properties": {
    "name": "6 FIELD STREET MINGENEW 6522",
    "locID": "LOC000026926386",
    "tech": "NULL",
    "upgrade": "NULL_NA",
    "gnaf_pid": "GAWA_147352588",
    "ee": false,
    "tech_change_status": "Not Planned"
   }
  },
  {
   "type": "Feature",
   "geometry": {
    "type": "Point",
    "coordinates": [
     115.44475679,
     -29.19206963
    ]
   },
   "properties": {
    "name": "1 BRIDE STREET MINGENEW 6522",
    "locID": "LOC000071528879",
    "tech": "NULL",
    "upgrade": "NULL_NA",
    "gnaf_pid": "GAWA_147425839",
    "ee": false,
    "tech_change_status": "Not Planned"
   }
  },
  {
   "type": "Feature",
   "geometry": {
    "type": "Point",
    "coordinates": [
     115.43877613,
     -29.19322566
    ]
   },
   "properties": {
    "name": "4 ENANTY STREET MINGENEW 6522",
    "locID": "LOC000093886683",
    "tech": "NULL",
    "upgrade": "NULL_NA",
    "gnaf_pid": "GAWA_147910247",
    "ee": false,
    "tech_change_status": "Not Planned"
   }
  },
  {
   "type": "Feature",
   "geometry": {
    "type": "Point",
    "coordinates": [
     115.44300671,
     -29.19193911
    ]
   },
   "properties": {
    "name": "15 SHENTON STREET MINGENEW 6522",
    "locID": "LOC000082228904",
    "tech": "NULL",
    "upgrade": "NULL_NA",
    "gnaf_pid": "GAWA_147914039",
    "ee": false,
    "tech_change_status": "Not Planned"
   }
  },
  {
   "type": "Feature",
   "geometry": {
    "type": "Point",
    "coordinates": [
     115.44495836,
     -29.1911805
    ]
   },
   "properties": {
    "name": "6 BRIDE STREET MINGENEW 6522",
    "locID": "LOC000038537732",
    "tech": "NULL",
    "upgrade": "NULL_NA",
    "gnaf_pid": "GAWA_147929545",
    "ee": false,
    "tech_change_status": "Not Planned"
   }
  },
  {
   "type": "Feature",
   "geometry": {
    "type": "Point",
    "coordinates": [
     115.44195984,
     -29.20122643
    ]
   },
   "properties": {
    "name": "1 VICTORIA ROAD MINGENEW 6522",
    "locID": "LOC000063543432",
    "tech": "NULL",
    "upgrade": "NULL_NA",
    "gnaf_pid": "GAWA_147931536",
    "ee": false,
    "tech_change_status": "Not Planned"
   }
  },
  {
   "type": "Feature",
   "geometry": {
    "type": "Point",
    "coordinates": [
     115.43940866,
     -29.19397536
    ]
   },
   "properties": {
    "name": "1 PHILLIP STREET MINGENEW 6522",
    "locID": "LOC000185931964",
    "tech": "NULL",
    "upgrade": "NULL_NA",
    "gnaf_pid": "GAWA_147943611",
    "ee": false,
    "tech_change_status": "Not Planned"
   }
  },
  {
   "type": "Feature",
   "geometry": {
    "type": "Point",
    "coordinates": [
     115.44195984,
     -29.20122643
    ]
   },
   "properties": {
    "name": "2 VICTORIA ROAD MINGENEW 6522",
    "locID": "LOC000006262537",
    "tech": "NULL",
    "upgrade": "NULL_NA",
    "gnaf_pid": "GAWA_147943617",
    "ee": false,
    "tech_change_status": "Not Planned"
   }
  },
  {
   "type": "Feature",
   "geometry": {
    "type": "Point",
    "coordinates": [
     115.44475679,
     -29.19206963
    ]
   },
   "properties": {
    "name": "3 BRIDE STREET MINGENEW 6522",
    "locID": "LOC000020396297",
    "tech": "NULL",
    "upgrade": "NULL_NA",
    "gnaf_pid": "GAWA_149145838",
    "ee": false,
    "tech_change_status": "Not Planned"
   }
  },
  {
   "type": "Feature",
   "geometry": {
    "type": "Point",
    "coordinates": [
     115.43940866,
     -29.19397536
    ]
   },
   "properties": {
    "name": "7 PHILLIP STREET MINGENEW 6522",
    "locID": "LOC000109742922",
    "tech": "NULL",
    "upgrade": "NULL_NA",
    "gnaf_pid": "GAWA_149179241",
    "ee": false,
    "tech_change_status": "Not Planned"
   }
  },
  {
   "type": "Feature",
   "geometry": {
    "type": "Point",
    "coordinates": [
     115.43940866,
     -29.19397536
    ]
   },
   "properties": {
    "name": "5 PHILLIP STREET MINGENEW 6522",
    "locID": "LOC000189952611",
    "tech": "NULL",
    "upgrade": "NULL_NA",
    "gnaf_pid": "GAWA_149179243",
    "ee": false,
    "tech_change_status": "Not Planned"
   }
  },
  {
   "type": "Feature",
   "geometry": {
    "type": "Point",
    "coordinates": [
     115.43434385,
     -29.19226478
    ]
   },
   "properties": {
    "name": "1 FOGARTY STREET MINGENEW 6522",
    "locID": "LOC000005666932",
    "tech": "NULL",
    "upgrade": "NULL_NA",
    "gnaf_pid": "GAWA_161035619",
    "ee": false,
    "tech_change_status": "Not Planned"
   }
  },
  {
   "type": "Feature",
   "geometry": {
    "type": "Point",
    "coordinates": [
     115.4350421,
     -29.19252685
    ]
   },
   "properties": {
    "name": "4 FOGARTY STREET MINGENEW 6522",
    "locID": "LOC000044453303",
    "tech": "NULL",
    "upgrade": "NULL_NA",
    "gnaf_pid": "GAWA_161035620",
    "ee": false,
    "tech_change_status": "Not Planned"
   }
  },
  {
   "type": "Feature",
   "geometry": {
    "type": "Point",
    "coordinates": [
     115.44744,
     -29.19184
    ]
   },
   "properties": {
    "name": "54 KING STREET MINGENEW 6522",
    "locID": "LOC000044520783",
    "tech": "NULL",
    "upgrade": "NULL_NA",
    "gnaf_pid": "GAWA_161036476",
    "ee": false,
    "tech_change_status": "Not Planned"
   }
  },
  {
   "type": "Feature",
   "geometry": {
    "type": "Point",
    "coordinates": [
     115.44764,
     -29.19118
    ]
   },
   "properties": {
    "name": "55 KING STREET MINGENEW 6522",
    "locID": "LOC000007046084",
    "tech": "NULL",
    "upgrade": "NULL_NA",
    "gnaf_pid": "GAWA_161036477",
    "ee": false,
    "tech_change_status": "Not Planned"
   }
  },
  {
   "type": "Feature",
   "geometry": {
    "type": "Point",
    "coordinates": [
     115.44294341,
     -29.19206821
    ]
   },
   "properties": {
    "name": "17 SHENTON STREET MINGENEW 6522",
    "locID": "LOC000106476741",
    "tech": "NULL",
    "upgrade": "NULL_NA",
    "gnaf_pid": "GAWA_161038077",
    "ee": false,
    "tech_change_status": "Not Planned"
   }
  },
  {
   "type": "Feature",
   "geometry": {
    "type": "Point",
    "coordinates": [
     115.44294028,
     -29.19417682
    ]
   },
   "properties": {
    "name": "80 PHILLIP STREET MINGENEW 6522",
    "locID": "LOC000046522411",
    "tech": "NULL",
    "upgrade": "NULL_NA",
    "gnaf_pid": "GAWA_161572478",
    "ee": false,
    "tech_change_status": "Not Planned"
   }
  },
  {
   "type": "Feature",
   "geometry": {
    "type": "Point",
    "coordinates": [
     115.44800737,
     -29.19426793
    ]
   },
   "properties": {
    "name": "LOT 72 YANDANOOKA ROAD MINGENEW 6522",
    "locID": "LOC000107567870",
    "tech": "NULL",
    "upgrade": "NULL_NA",
    "gnaf_pid": "GAWA_161593883",
    "ee": false,
    "tech_change_status": "Not Planned"
   }
  },
  {
   "type": "Feature",
   "geometry": {
    "type": "Point",
    "coordinates": [
     115.44195984,
     -29.20122643
    ]
   },
   "properties": {
    "name": "65 VICTORIA ROAD MINGENEW 6522",
    "locID": "LOC000063543432",
    "tech": "NULL",
    "upgrade": "NULL_NA",
    "gnaf_pid": "GAWA_161612593",
    "ee": false,
    "tech_change_status": "Not Planned"
   }
  },
  {
   "type": "Feature",
   "geometry": {
    "type": "Point",
    "coordinates": [
     115.43604896,
     -29.19046947
    ]
   },
   "properties": {
    "name": "16 MIDLANDS ROAD MINGENEW 6522",
    "locID": "LOC000059613109",
    "tech": "NULL",
    "upgrade": "NULL_NA",
    "gnaf_pid": "GAWA_161905272",
    "ee": false,
    "tech_change_status": "Not Planned"
   }
  },
  {
   "type": "Feature",
   "geometry": {
    "type": "Point",
    "coordinates": [
     115.43625579,
     -29.19046926
    ]
   },
   "properties": {
    "name": "18 MIDLANDS ROAD MINGENEW 6522",
    "locID": "LOC000011600884",
    "tech": "NULL",
    "upgrade": "NULL_NA",
    "gnaf_pid": "GAWA_161905273",
    "ee": false,
    "tech_change_status": "Not Planned"
   }
  },
  {
   "type": "Feature",
   "geometry": {
    "type": "Point",
    "coordinates": [
     115.43646261,
     -29.19046905
    ]
   },
   "properties": {
    "name": "20 MIDLANDS ROAD MINGENEW 6522",
    "locID": "LOC000101344333",
    "tech": "NULL",
    "upgrade": "NULL_NA",
    "gnaf_pid": "GAWA_161905274",
    "ee": false,
    "tech_change_status": "Not Planned"
   }
  },
  {
   "type": "Feature",
   "geometry": {
    "type": "Point",
    "coordinates": [
     115.43666944,
     -29.19046884
    ]
   },
   "properties": {
    "name": "22 MIDLANDS ROAD MINGENEW 6522",
    "locID": "LOC000069550754",
    "tech": "NULL",
    "upgrade": "NULL_NA",
    "gnaf_pid": "GAWA_161905275",
    "ee": false,
    "tech_change_status": "Not Planned"
   }
  },
  {
   "type": "Feature",
   "geometry": {
    "type": "Point",
    "coordinates": [
     115.43687628,
     -29.19046862
    ]
   },
   "properties": {
    "name": "24 MIDLANDS ROAD MINGENEW 6522",
    "locID": "LOC000031478929",
    "tech": "SATELLITE",
    "upgrade": "NULL_NA",
    "gnaf_pid": "GAWA_161905276",
    "ee": false,
    "tech_change_status": "Not Planned"
   }
  },
  {
   "type": "Feature",
   "geometry": {
    "type": "Point",
    "coordinates": [
     115.44052,
     -29.19039
    ]
   },
   "properties": {
    "name": "46 MIDLANDS ROAD MINGENEW 6522",
    "locID": "LOC000089285286",
    "tech": "NULL",
    "upgrade": "NULL_NA",
    "gnaf_pid": "GAWA_161905282",
    "ee": false,
    "tech_change_status": "Not Planned"
   }
  },
  {
   "type": "Feature",
   "geometry": {
    "type": "Point",
    "coordinates": [
     115.44114,
     -29.19039
    ]
   },
   "properties": {
    "name": "48 MIDLANDS ROAD MINGENEW 6522",
    "locID": "LOC000051958379",
    "tech": "NULL",
    "upgrade": "NULL_NA",
    "gnaf_pid": "GAWA_161905283",
    "ee": false,
    "tech_change_status": "Not Planned"
   }
  },
  {
   "type": "Feature",
   "geometry": {
    "type": "Point",
    "coordinates": [
     115.43460541,
     -29.19067116
    ]
   },
   "properties": {
    "name": "4 MIDLANDS ROAD MINGENEW 6522",
    "locID": "LOC000069434108",
    "tech": "NULL",
    "upgrade": "NULL_NA",
    "gnaf_pid": "GAWA_161905284",
    "ee": false,
    "tech_change_status": "Not Planned"
   }
  },
  {
   "type": "Feature",
   "geometry": {
    "type": "Point",
    "coordinates": [
     115.44145,
     -29.1905
    ]
   },
   "properties": {
    "name": "50 MIDLANDS ROAD MINGENEW 6522",
    "locID": "LOC000004622408",
    "tech": "SATELLITE",
    "upgrade": "NULL_NA",
    "gnaf_pid": "GAWA_161905285",
    "ee": false,
    "tech_change_status": "Not Planned"
   }
  },
  {
   "type": "Feature",
   "geometry": {
    "type": "Point",
    "coordinates": [
     115.44176,
     -29.19039
    ]
   },
   "properties": {
    "name": "52 MIDLANDS ROAD MINGENEW 6522",
    "locID": "LOC000086646390",
    "tech": "NULL",
    "upgrade": "NULL_NA",
    "gnaf_pid": "GAWA_161905286",
    "ee": false,
    "tech_change_status": "Not Planned"
   }
  },
  {
   "type": "Feature",
   "geometry": {
    "type": "Point",
    "coordinates": [
     115.44237251,
     -29.19038583
    ]
   },
   "properties": {
    "name": "54 MIDLANDS ROAD MINGENEW 6522",
    "locID": "LOC000081252536",
    "tech": "NULL",
    "upgrade": "NULL_NA",
    "gnaf_pid": "GAWA_161905287",
    "ee": false,
    "tech_change_status": "Not Planned"
   }
  },
  {
   "type": "Feature",
   "geometry": {
    "type": "Point",
    "coordinates": [
     115.44268291,
     -29.19049897
    ]
   },
   "properties": {
    "name": "56 MIDLANDS ROAD MINGENEW 6522",
    "locID": "LOC000063748351",
    "tech": "NULL",
    "upgrade": "NULL_NA",
    "gnaf_pid": "GAWA_161905288",
    "ee": false,
    "tech_change_status": "Not Planned"
   }
  },
  {
   "type": "Feature",
   "geometry": {
    "type": "Point",
    "coordinates": [
     115.44376813,
     -29.19066908
    ]
   },
   "properties": {
    "name": "60 MIDLANDS ROAD MINGENEW 6522",
    "locID": "LOC000002935560",
    "tech": "NULL",
    "upgrade": "NULL_NA",
    "gnaf_pid": "GAWA_161905290",
    "ee": false,
    "tech_change_status": "Not Planned"
   }
  },
  {
   "type": "Feature",
   "geometry": {
    "type": "Point",
    "coordinates": [
     115.44416608,
     -29.19047467
    ]
   },
   "properties": {
    "name": "64 MIDLANDS ROAD MINGENEW 6522",
    "locID": "LOC000089892675",
    "tech": "NULL",
    "upgrade": "NULL_NA",
    "gnaf_pid": "GAWA_161905292",
    "ee": false,
    "tech_change_status": "Not Planned"
   }
  },
  {
   "type": "Feature",
   "geometry": {
    "type": "Point",
    "coordinates": [
     115.4442819,
     -29.19047455
    ]
   },
   "properties": {
    "name": "66 MIDLANDS ROAD MINGENEW 6522",
    "locID": "LOC000098170435",
    "tech": "NULL",
    "upgrade": "NULL_NA",
    "gnaf_pid": "GAWA_161905293",
    "ee": false,
    "tech_change_status": "Not Planned"
   }
  },
  {
   "type": "Feature",
   "geometry": {
    "type": "Point",
    "coordinates": [
     115.44449323,
     -29.19047432
    ]
   },
   "properties": {
    "name": "68 MIDLANDS ROAD MINGENEW 6522",
    "locID": "LOC000092654760",
    "tech": "NULL",
    "upgrade": "NULL_NA",
    "gnaf_pid": "GAWA_161905294",
    "ee": false,
    "tech_change_status": "Not Planned"
   }
  },
  {
   "type": "Feature",
   "geometry": {
    "type": "Point",
    "coordinates": [
     115.44517,
     -29.19062
    ]
   },
   "properties": {
    "name": "72 MIDLANDS ROAD MINGENEW 6522",
    "locID": "LOC000026533463",
    "tech": "NULL",
    "upgrade": "NULL_NA",
    "gnaf_pid": "GAWA_161905296",
    "ee": false,
    "tech_change_status": "Not Planned"
   }
  },
  {
   "type": "Feature",
   "geometry": {
    "type": "Point",
    "coordinates": [
     115.44537,
     -29.19062
    ]
   },
   "properties": {
    "name": "74 MIDLANDS ROAD MINGENEW 6522",
    "locID": "LOC000026546903",
    "tech": "SATELLITE",
    "upgrade": "NULL_NA",
    "gnaf_pid": "GAWA_161905297",
    "ee": false,
    "tech_change_status": "Not Planned"
   }
  },
  {
   "type": "Feature",
   "geometry": {
    "type": "Point",
    "coordinates": [
     115.44688,
     -29.19066
    ]
   },
   "properties": {
    "name": "86 MIDLANDS ROAD MINGENEW 6522",
    "locID": "LOC000042367805",
    "tech": "NULL",
    "upgrade": "NULL_NA",
    "gnaf_pid": "GAWA_161905302",
    "ee": false,
    "tech_change_status": "Not Planned"
   }
  },
  {
   "type": "Feature",
   "geometry": {
    "type": "Point",
    "coordinates": [
     115.4464,
     -29.19118
    ]
   },
   "properties": {
    "name": "UNIT 1, 45 KING STREET MINGENEW 6522",
    "locID": "LOC100087660933",
    "tech": "NULL",
    "upgrade": "NULL_NA",
    "gnaf_pid": "GAWA_161997780",
    "ee": false,
    "tech_change_status": "Not Planned"
   }
  },
  {
   "type": "Feature",
   "geometry": {
    "type": "Point",
    "coordinates": [
     115.43369792,
     -29.1910912
    ]
   },
   "properties": {
    "name": "18 NELSON PEARSE STREET MINGENEW 6522",
    "locID": "LOC000098606243",
    "tech": "NULL",
    "upgrade": "NULL_NA",
    "gnaf_pid": "GAWA_161998190",
    "ee": false,
    "tech_change_status": "Not Planned"
   }
  },
  {
   "type": "Feature",
   "geometry": {
    "type": "Point",
    "coordinates": [
     115.43286,
     -29.192898
    ]
   },
   "properties": {
    "name": "32 NELSON PEARSE STREET MINGENEW 6522",
    "locID": "LOC000074841826",
    "tech": "NULL",
    "upgrade": "NULL_NA",
    "gnaf_pid": "GAWA_161998191",
    "ee": false,
    "tech_change_status": "Not Planned"
   }
  },
  {
   "type": "Feature",
   "geometry": {
    "type": "Point",
    "coordinates": [
     115.42936562,
     -29.19172968
    ]
   },
   "properties": {
    "name": "23129 MIDLANDS ROAD MINGENEW 6522",
    "locID": "LOC000064613552",
    "tech": "SATELLITE",
    "upgrade": "NULL_NA",
    "gnaf_pid": "GAWA_162001552",
    "ee": false,
    "tech_change_status": "Not Planned"
   }
  },
  {
   "type": "Feature",
   "geometry": {
    "type": "Point",
    "coordinates": [
     115.43722487,
     -29.19969218
    ]
   },
   "properties": {
    "name": "LOT 445 PHILLIP STREET MINGENEW 6522",
    "locID": "LOC000109742922",
    "tech": "NULL",
    "upgrade": "NULL_NA",
    "gnaf_pid": "GAWA_162802676",
    "ee": false,
    "tech_change_status": "Not Planned"
   }
  },
  {
   "type": "Feature",
   "geometry": {
    "type": "Point",
    "coordinates": [
     115.43311352,
     -29.19917548
    ]
   },
   "properties": {
    "name": "LOT 446 PHILLIP STREET MINGENEW 6522",
    "locID": "LOC000109742922",
    "tech": "NULL",
    "upgrade": "NULL_NA",
    "gnaf_pid": "GAWA_162802677",
    "ee": false,
    "tech_change_status": "Not Planned"
   }
  },
  {
   "type": "Feature",
   "geometry": {
    "type": "Point",
    "coordinates": [
     115.44253182,
     -29.19431054
    ]
   },
   "properties": {
    "name": "76 PHILLIP STREET MINGENEW 6522",
    "locID": "LOC000133367182",
    "tech": "NULL",
    "upgrade": "NULL_NA",
    "gnaf_pid": "GAWA_162870697",
    "ee": false,
    "tech_change_status": "Not Planned"
   }
  },
  {
   "type": "Feature",
   "geometry": {
    "type": "Point",
    "coordinates": [
     115.4464,
     -29.19118
    ]
   },
   "properties": {
    "name": "UNIT 4, 45 KING STREET MINGENEW 6522",
    "locID": "LOC100087660933",
    "tech": "NULL",
    "upgrade": "NULL_NA",
    "gnaf_pid": "GAWA_163006594",
    "ee": false,
    "tech_change_status": "Not Planned"
   }
  },
  {
   "type": "Feature",
   "geometry": {
    "type": "Point",
    "coordinates": [
     115.44543078,
     -29.18884903
    ]
   },
   "properties": {
    "name": "30 ELEANOR STREET MINGENEW 6522",
    "locID": "LOC000185941645",
    "tech": "NULL",
    "upgrade": "NULL_NA",
    "gnaf_pid": "GAWA_719044911",
    "ee": false,
    "tech_change_status": "Not Planned"
   }
  },
  {
   "type": "Feature",
   "geometry": {
    "type": "Point",
    "coordinates": [
     115.44294253,
     -29.19135152
    ]
   },
   "properties": {
    "name": "15 KING STREET MINGENEW 6522",
    "locID": "LOC000186784774",
    "tech": "SATELLITE",
    "upgrade": "NULL_NA",
    "gnaf_pid": "GAWA_719497818",
    "ee": false,
    "tech_change_status": "Not Planned"
   }
  }
 ]
}