{
 "type": "FeatureCollection",
 "generated": "2025-06-19T06:28:43.366477",
 "suburb": "MOUNT HARDMAN",
 "features": [
  {
   "type": "Feature",
   "geometry": {
    "type": "Point",
    "coordinates": [
     124.84142744,
     -18.49117135
    ]
   },
   "properties": {
    "name": "LOT 339 CALWYNYARDAH-NOONKANBAH ROAD MOUNT HARDMAN 6765",
    "locID": "LOC000133503112",
    "tech": "NULL",
    "upgrade": "NULL_NA",
    "gnaf_pid": "GAWA_162558110",
    "ee": false,
    "tech_change_status": "Not Planned"
   }
  },
  {
   "type": "Feature",
   "geometry": {
    "type": "Point",
    "coordinates": [
     124.82329605,
     -18.50487794
    ]
   },
   "properties": {
    "name": "LOT 43 OFFICE STREET MOUNT HARDMAN 6765",
    "locID": "LOC000133453869",
    "tech": "NULL",
    "upgrade": "NULL_NA",
    "gnaf_pid": "GAWA_718341868",
    "ee": false,
    "tech_change_status": "Not Planned"
   }
  },
  {
   "type": "Feature",
   "geometry": {
    "type": "Point",
    "coordinates": [
     124.82329605,
     -18.50487794
    ]
   },
   "properties": {
    "name": "LOT 48 OFFICE STREET MOUNT HARDMAN 6765",
    "locID": "LOC000133453876",
    "tech": "NULL",
    "upgrade": "NULL_NA",
    "gnaf_pid": "GAWA_718341869",
    "ee": false,
    "tech_change_status": "Not Planned"
   }
  },
  {
   "type": "Feature",
   "geometry": {
    "type": "Point",
    "coordinates": [
     124.82329605,
     -18.50487794
    ]
   },
   "properties": {
    "name": "LOT 49 OFFICE STREET MOUNT HARDMAN 6765",
    "locID": "LOC000133453882",
    "tech": "SATELLITE",
    "upgrade": "NULL_NA",
    "gnaf_pid": "GAWA_718341870",
    "ee": false,
    "tech_change_status": "Not Planned"
   }
  },
  {
   "type": "Feature",
   "geometry": {
    "type": "Point",
    "coordinates": [
     124.82329605,
     -18.50487794
    ]
   },
   "properties": {
    "name": "LOT 69 OFFICE STREET MOUNT HARDMAN 6765",
    "locID": "LOC000133457474",
    "tech": "NULL",
    "upgrade": "NULL_NA",
    "gnaf_pid": "GAWA_718341871",
    "ee": false,
    "tech_change_status": "Not Planned"
   }
  },
  {
   "type": "Feature",
   "geometry": {
    "type": "Point",
    "coordinates": [
     124.82329605,
     -18.50487794
    ]
   },
   "properties": {
    "name": "LOT 75 OFFICE STREET MOUNT HARDMAN 6765",
    "locID": "LOC000133457474",
    "tech": "NULL",
    "upgrade": "NULL_NA",
    "gnaf_pid": "GAWA_718341872",
    "ee": false,
    "tech_change_status": "Not Planned"
   }
  },
  {
   "type": "Feature",
   "geometry": {
    "type": "Point",
    "coordinates": [
     124.84142744,
     -18.49117135
    ]
   },
   "properties": {
    "name": "LOT 18 SCHOOL LOOP MOUNT HARDMAN 6765",
    "locID": "LOC000133457564",
    "tech": "SATELLITE",
    "upgrade": "NULL_NA",
    "gnaf_pid": "GAWA_718342743",
    "ee": false,
    "tech_change_status": "Not Planned"
   }
  },
  {
   "type": "Feature",
   "geometry": {
    "type": "Point",
    "coordinates": [
     124.84142744,
     -18.49117135
    ]
   },
   "properties": {
    "name": "LOT 19 SCHOOL LOOP MOUNT HARDMAN 6765",
    "locID": "LOC000133457564",
    "tech": "SATELLITE",
    "upgrade": "NULL_NA",
    "gnaf_pid": "GAWA_718342744",
    "ee": false,
    "tech_change_status": "Not Planned"
   }
  },
  {
   "type": "Feature",
   "geometry": {
    "type": "Point",
    "coordinates": [
     124.84142744,
     -18.49117135
    ]
   },
   "properties": {
    "name": "LOT 20 SCHOOL LOOP MOUNT HARDMAN 6765",
    "locID": "LOC000133457564",
    "tech": "SATELLITE",
    "upgrade": "NULL_NA",
    "gnaf_pid": "GAWA_718342745",
    "ee": false,
    "tech_change_status": "Not Planned"
   }
  },
  {
   "type": "Feature",
   "geometry": {
    "type": "Point",
    "coordinates": [
     124.82967538,
     -18.50042183
    ]
   },
   "properties": {
    "name": "LOT 21 SCHOOL LOOP MOUNT HARDMAN 6765",
    "locID": "LOC000133457564",
    "tech": "SATELLITE",
    "upgrade": "NULL_NA",
    "gnaf_pid": "GAWA_718342746",
    "ee": false,
    "tech_change_status": "Not Planned"
   }
  },
  {
   "type": "Feature",
   "geometry": {
    "type": "Point",
    "coordinates": [
     124.82967538,
     -18.50042183
    ]
   },
   "properties": {
    "name": "LOT 22 SCHOOL LOOP MOUNT HARDMAN 6765",
    "locID": "LOC000133457564",
    "tech": "SATELLITE",
    "upgrade": "NULL_NA",
    "gnaf_pid": "GAWA_718342747",
    "ee": false,
    "tech_change_status": "Not Planned"
   }
  },
  {
   "type": "Feature",
   "geometry": {
    "type": "Point",
    "coordinates": [
     124.82967538,
     -18.50042183
    ]
   },
   "properties": {
    "name": "LOT 23 SCHOOL LOOP MOUNT HARDMAN 6765",
    "locID": "LOC000133457564",
    "tech": "SATELLITE",
    "upgrade": "NULL_NA",
    "gnaf_pid": "GAWA_718342748",
    "ee": false,
    "tech_change_status": "Not Planned"
   }
  },
  {
   "type": "Feature",
   "geometry": {
    "type": "Point",
    "coordinates": [
     124.82967538,
     -18.50042183
    ]
   },
   "properties": {
    "name": "LOT 24 SCHOOL LOOP MOUNT HARDMAN 6765",
    "locID": "LOC000133457564",
    "tech": "SATELLITE",
    "upgrade": "NULL_NA",
    "gnaf_pid": "GAWA_718342749",
    "ee": false,
    "tech_change_status": "Not Planned"
   }
  },
  {
   "type": "Feature",
   "geometry": {
    "type": "Point",
    "coordinates": [
     124.82329605,
     -18.50487794
    ]
   },
   "properties": {
    "name": "LOT 25 SCHOOL LOOP MOUNT HARDMAN 6765",
    "locID": "LOC000133457564",
    "tech": "SATELLITE",
    "upgrade": "NULL_NA",
    "gnaf_pid": "GAWA_718342750",
    "ee": false,
    "tech_change_status": "Not Planned"
   }
  },
  {
   "type": "Feature",
   "geometry": {
    "type": "Point",
    "coordinates": [
     124.82329605,
     -18.50487794
    ]
   },
   "properties": {
    "name": "LOT 26 SCHOOL LOOP MOUNT HARDMAN 6765",
    "locID": "LOC000133457564",
    "tech": "SATELLITE",
    "upgrade": "NULL_NA",
    "gnaf_pid": "GAWA_718342751",
    "ee": false,
    "tech_change_status": "Not Planned"
   }
  },
  {
   "type": "Feature",
   "geometry": {
    "type": "Point",
    "coordinates": [
     124.82329605,
     -18.50487794
    ]
   },
   "properties": {
    "name": "LOT 27 SCHOOL LOOP MOUNT HARDMAN 6765",
    "locID": "LOC000133457564",
    "tech": "SATELLITE",
    "upgrade": "NULL_NA",
    "gnaf_pid": "GAWA_718342752",
    "ee": false,
    "tech_change_status": "Not Planned"
   }
  },
  {
   "type": "Feature",
   "geometry": {
    "type": "Point",
    "coordinates": [
     124.82329605,
     -18.50487794
    ]
   },
   "properties": {
    "name": "LOT 28 SCHOOL LOOP MOUNT HARDMAN 6765",
    "locID": "LOC000133457564",
    "tech": "SATELLITE",
    "upgrade": "NULL_NA",
    "gnaf_pid": "GAWA_718342753",
    "ee": false,
    "tech_change_status": "Not Planned"
   }
  },
  {
   "type": "Feature",
   "geometry": {
    "type": "Point",
    "coordinates": [
     124.82329605,
     -18.50487794
    ]
   },
   "properties": {
    "name": "LOT 29 SCHOOL LOOP MOUNT HARDMAN 6765",
    "locID": "LOC000133457564",
    "tech": "SATELLITE",
    "upgrade": "NULL_NA",
    "gnaf_pid": "GAWA_718342754",
    "ee": false,
    "tech_change_status": "Not Planned"
   }
  },
  {
   "type": "Feature",
   "geometry": {
    "type": "Point",
    "coordinates": [
     124.82329605,
     -18.50487794
    ]
   },
   "properties": {
    "name": "LOT 30 SCHOOL LOOP MOUNT HARDMAN 6765",
    "locID": "LOC000133457564",
    "tech": "SATELLITE",
    "upgrade": "NULL_NA",
    "gnaf_pid": "GAWA_718342755",
    "ee": false,
    "tech_change_status": "Not Planned"
   }
  },
  {
   "type": "Feature",
   "geometry": {
    "type": "Point",
    "coordinates": [
     124.82329605,
     -18.50487794
    ]
   },
   "properties": {
    "name": "LOT 62 SCHOOL LOOP MOUNT HARDMAN 6765",
    "locID": "LOC000133457564",
    "tech": "SATELLITE",
    "upgrade": "NULL_NA",
    "gnaf_pid": "GAWA_718342756",
    "ee": false,
    "tech_change_status": "Not Planned"
   }
  },
  {
   "type": "Feature",
   "geometry": {
    "type": "Point",
    "coordinates": [
     124.82329605,
     -18.50487794
    ]
   },
   "properties": {
    "name": "LOT 99 SCHOOL LOOP MOUNT HARDMAN 6765",
    "locID": "LOC000133457564",
    "tech": "SATELLITE",
    "upgrade": "NULL_NA",
    "gnaf_pid": "GAWA_718342757",
    "ee": false,
    "tech_change_status": "Not Planned"
   }
  },
  {
   "type": "Feature",
   "geometry": {
    "type": "Point",
    "coordinates": [
     124.82329605,
     -18.50487794
    ]
   },
   "properties": {
    "name": "LOT 31 YUNGNGORA LOOP MOUNT HARDMAN 6765",
    "locID": "LOC000133461431",
    "tech": "SATELLITE",
    "upgrade": "NULL_NA",
    "gnaf_pid": "GAWA_718343774",
    "ee": false,
    "tech_change_status": "Not Planned"
   }
  },
  {
   "type": "Feature",
   "geometry": {
    "type": "Point",
    "coordinates": [
     124.82329605,
     -18.50487794
    ]
   },
   "properties": {
    "name": "LOT 32 YUNGNGORA LOOP MOUNT HARDMAN 6765",
    "locID": "LOC000133461431",
    "tech": "SATELLITE",
    "upgrade": "NULL_NA",
    "gnaf_pid": "GAWA_718343775",
    "ee": false,
    "tech_change_status": "Not Planned"
   }
  },
  {
   "type": "Feature",
   "geometry": {
    "type": "Point",
    "coordinates": [
     124.82329605,
     -18.50487794
    ]
   },
   "properties": {
    "name": "LOT 33 YUNGNGORA LOOP MOUNT HARDMAN 6765",
    "locID": "LOC000133461431",
    "tech": "SATELLITE",
    "upgrade": "NULL_NA",
    "gnaf_pid": "GAWA_718343776",
    "ee": false,
    "tech_change_status": "Not Planned"
   }
  },
  {
   "type": "Feature",
   "geometry": {
    "type": "Point",
    "coordinates": [
     124.82329605,
     -18.50487794
    ]
   },
   "properties": {
    "name": "LOT 34 YUNGNGORA LOOP MOUNT HARDMAN 6765",
    "locID": "LOC000133457777",
    "tech": "SATELLITE",
    "upgrade": "NULL_NA",
    "gnaf_pid": "GAWA_718343777",
    "ee": false,
    "tech_change_status": "Not Planned"
   }
  },
  {
   "type": "Feature",
   "geometry": {
    "type": "Point",
    "coordinates": [
     124.82329605,
     -18.50487794
    ]
   },
   "properties": {
    "name": "LOT 35 YUNGNGORA LOOP MOUNT HARDMAN 6765",
    "locID": "LOC000133461431",
    "tech": "SATELLITE",
    "upgrade": "NULL_NA",
    "gnaf_pid": "GAWA_718343778",
    "ee": false,
    "tech_change_status": "Not Planned"
   }
  },
  {
   "type": "Feature",
   "geometry": {
    "type": "Point",
    "coordinates": [
     124.82329605,
     -18.50487794
    ]
   },
   "properties": {
    "name": "LOT 36 YUNGNGORA LOOP MOUNT HARDMAN 6765",
    "locID": "LOC000133461431",
    "tech": "SATELLITE",
    "upgrade": "NULL_NA",
    "gnaf_pid": "GAWA_718343779",
    "ee": false,
    "tech_change_status": "Not Planned"
   }
  },
  {
   "type": "Feature",
   "geometry": {
    "type": "Point",
    "coordinates": [
     124.82329605,
     -18.50487794
    ]
   },
   "properties": {
    "name": "LOT 37 YUNGNGORA LOOP MOUNT HARDMAN 6765",
    "locID": "LOC000133461431",
    "tech": "SATELLITE",
    "upgrade": "NULL_NA",
    "gnaf_pid": "GAWA_718343780",
    "ee": false,
    "tech_change_status": "Not Planned"
   }
  },
  {
   "type": "Feature",
   "geometry": {
    "type": "Point",
    "coordinates": [
     124.82329605,
     -18.50487794
    ]
   },
   "properties": {
    "name": "LOT 38 YUNGNGORA LOOP MOUNT HARDMAN 6765",
    "locID": "LOC000142893814",
    "tech": "NULL",
    "upgrade": "NULL_NA",
    "gnaf_pid": "GAWA_718343781",
    "ee": false,
    "tech_change_status": "Not Planned"
   }
  },
  {
   "type": "Feature",
   "geometry": {
    "type": "Point",
    "coordinates": [
     124.82329605,
     -18.50487794
    ]
   },
   "properties": {
    "name": "LOT 39 YUNGNGORA LOOP MOUNT HARDMAN 6765",
    "locID": "LOC000133461431",
    "tech": "SATELLITE",
    "upgrade": "NULL_NA",
    "gnaf_pid": "GAWA_718343782",
    "ee": false,
    "tech_change_status": "Not Planned"
   }
  },
  {
   "type": "Feature",
   "geometry": {
    "type": "Point",
    "coordinates": [
     124.82329605,
     -18.50487794
    ]
   },
   "properties": {
    "name": "LOT 40 YUNGNGORA LOOP MOUNT HARDMAN 6765",
    "locID": "LOC000133461420",
    "tech": "SATELLITE",
    "upgrade": "NULL_NA",
    "gnaf_pid": "GAWA_718343783",
    "ee": false,
    "tech_change_status": "Not Planned"
   }
  },
  {
   "type": "Feature",
   "geometry": {
    "type": "Point",
    "coordinates": [
     124.82329605,
     -18.50487794
    ]
   },
   "properties": {
    "name": "LOT 41 YUNGNGORA LOOP MOUNT HARDMAN 6765",
    "locID": "LOC000133461431",
    "tech": "SATELLITE",
    "upgrade": "NULL_NA",
    "gnaf_pid": "GAWA_718343784",
    "ee": false,
    "tech_change_status": "Not Planned"
   }
  },
  {
   "type": "Feature",
   "geometry": {
    "type": "Point",
    "coordinates": [
     124.82329605,
     -18.50487794
    ]
   },
   "properties": {
    "name": "LOT 42 YUNGNGORA LOOP MOUNT HARDMAN 6765",
    "locID": "LOC000133461431",
    "tech": "SATELLITE",
    "upgrade": "NULL_NA",
    "gnaf_pid": "GAWA_718343785",
    "ee": false,
    "tech_change_status": "Not Planned"
   }
  },
  {
   "type": "Feature",
   "geometry": {
    "type": "Point",
    "coordinates": [
     124.82329605,
     -18.50487794
    ]
   },
   "properties": {
    "name": "LOT 56 YUNGNGORA LOOP MOUNT HARDMAN 6765",
    "locID": "LOC000133461431",
    "tech": "SATELLITE",
    "upgrade": "NULL_NA",
    "gnaf_pid": "GAWA_718343786",
    "ee": false,
    "tech_change_status": "Not Planned"
   }
  },
  {
   "type": "Feature",
   "geometry": {
    "type": "Point",
    "coordinates": [
     124.82329605,
     -18.50487794
    ]
   },
   "properties": {
    "name": "LOT 59 YUNGNGORA LOOP MOUNT HARDMAN 6765",
    "locID": "LOC000133461431",
    "tech": "SATELLITE",
    "upgrade": "NULL_NA",
    "gnaf_pid": "GAWA_718343788",
    "ee": false,
    "tech_change_status": "Not Planned"
   }
  },
  {
   "type": "Feature",
   "geometry": {
    "type": "Point",
    "coordinates": [
     124.82329605,
     -18.50487794
    ]
   },
   "properties": {
    "name": "LOT 60B YUNGNGORA LOOP MOUNT HARDMAN 6765",
    "locID": "LOC000133461483",
    "tech": "NULL",
    "upgrade": "NULL_NA",
    "gnaf_pid": "GAWA_718343789",
    "ee": false,
    "tech_change_status": "Not Planned"
   }
  },
  {
   "type": "Feature",
   "geometry": {
    "type": "Point",
    "coordinates": [
     124.82329605,
     -18.50487794
    ]
   },
   "properties": {
    "name": "LOT 66B YUNGNGORA LOOP MOUNT HARDMAN 6765",
    "locID": "LOC000133461496",
    "tech": "NULL",
    "upgrade": "NULL_NA",
    "gnaf_pid": "GAWA_718343790",
    "ee": false,
    "tech_change_status": "Not Planned"
   }
  },
  {
   "type": "Feature",
   "geometry": {
    "type": "Point",
    "coordinates": [
     124.82329605,
     -18.50487794
    ]
   },
   "properties": {
    "name": "LOT 67A YUNGNGORA LOOP MOUNT HARDMAN 6765",
    "locID": "LOC000133461505",
    "tech": "NULL",
    "upgrade": "NULL_NA",
    "gnaf_pid": "GAWA_718343791",
    "ee": false,
    "tech_change_status": "Not Planned"
   }
  },
  {
   "type": "Feature",
   "geometry": {
    "type": "Point",
    "coordinates": [
     124.82329605,
     -18.50487794
    ]
   },
   "properties": {
    "name": "LOT 67B YUNGNGORA LOOP MOUNT HARDMAN 6765",
    "locID": "LOC000133461514",
    "tech": "NULL",
    "upgrade": "NULL_NA",
    "gnaf_pid": "GAWA_718343792",
    "ee": false,
    "tech_change_status": "Not Planned"
   }
  },
  {
   "type": "Feature",
   "geometry": {
    "type": "Point",
    "coordinates": [
     124.82329605,
     -18.50487794
    ]
   },
   "properties": {
    "name": "LOT 71 YUNGNGORA LOOP MOUNT HARDMAN 6765",
    "locID": "LOC000133461522",
    "tech": "SATELLITE",
    "upgrade": "NULL_NA",
    "gnaf_pid": "GAWA_718343793",
    "ee": false,
    "tech_change_status": "Not Planned"
   }
  },
  {
   "type": "Feature",
   "geometry": {
    "type": "Point",
    "coordinates": [
     124.82329605,
     -18.50487794
    ]
   },
   "properties": {
    "name": "LOT 76 YUNGNGORA LOOP MOUNT HARDMAN 6765",
    "locID": "LOC000133461533",
    "tech": "SATELLITE",
    "upgrade": "NULL_NA",
    "gnaf_pid": "GAWA_718343794",
    "ee": false,
    "tech_change_status": "Not Planned"
   }
  },
  {
   "type": "Feature",
   "geometry": {
    "type": "Point",
    "coordinates": [
     124.82329605,
     -18.50487794
    ]
   },
   "properties": {
    "name": "LOT 10 CALWYNYARDAH-NOONKANBAH ROAD MOUNT HARDMAN 6765",
    "locID": "LOC100071634279",
    "tech": "NULL",
    "upgrade": "NULL_NA",
    "gnaf_pid": "GAWA_718713428",
    "ee": false,
    "tech_change_status": "Not Planned"
   }
  },
  {
   "type": "Feature",
   "geometry": {
    "type": "Point",
    "coordinates": [
     124.76955322,
     -17.51567601
    ]
   },
   "properties": {
    "name": "LOT 245 DERBY-GIBB RIVER ROAD MOUNT HARDMAN 6765",
    "locID": "LOC000183665987",
    "tech": "SATELLITE",
    "upgrade": "NULL_NA",
    "gnaf_pid": "GAWA_721529733",
    "ee": false,
    "tech_change_status": "Not Planned"
   }
  }
 ]
}