{
 "type": "FeatureCollection",
 "generated": "2025-06-19T07:06:06.774430",
 "suburb": "NANGA BROOK",
 "features": [
  {
   "type": "Feature",
   "geometry": {
    "type": "Point",
    "coordinates": [
     116.07705014,
     -32.76641846
    ]
   },
   "properties": {
    "name": "691 NANGA ROAD NANGA BROOK 6215",
    "locID": "LOC000108740313",
    "tech": "SATELLITE",
    "upgrade": "NULL_NA",
    "gnaf_pid": "GAWA_718914405",
    "ee": true,
    "tech_change_status": "Not Planned"
   }
  }
 ]
}