{
 "type": "FeatureCollection",
 "generated": "2025-06-19T07:41:05.097652",
 "suburb": "NORTH MOULYINNING",
 "features": [
  {
   "type": "Feature",
   "geometry": {
    "type": "Point",
    "coordinates": [
     117.92341696,
     -33.12080494
    ]
   },
   "properties": {
    "name": "8747 RABBIT PROOF FENCE ROAD NORTH MOULYINNING 6351",
    "locID": "LOC000029468246",
    "tech": "NULL",
    "upgrade": "NULL_NA",
    "gnaf_pid": "GAWA_161925078",
    "ee": false,
    "tech_change_status": "Not Planned"
   }
  },
  {
   "type": "Feature",
   "geometry": {
    "type": "Point",
    "coordinates": [
     117.88018,
     -33.18638
    ]
   },
   "properties": {
    "name": "1875 DUMBLEYUNG-LAKE GRACE ROAD NORTH MOULYINNING 6351",
    "locID": "LOC000051779304",
    "tech": "NULL",
    "upgrade": "NULL_NA",
    "gnaf_pid": "GAWA_161927316",
    "ee": false,
    "tech_change_status": "Not Planned"
   }
  },
  {
   "type": "Feature",
   "geometry": {
    "type": "Point",
    "coordinates": [
     117.95648505,
     -33.1680268
    ]
   },
   "properties": {
    "name": "2745 DUMBLEYUNG-LAKE GRACE ROAD NORTH MOULYINNING 6351",
    "locID": "LOC000030638461",
    "tech": "NULL",
    "upgrade": "NULL_NA",
    "gnaf_pid": "GAWA_161927317",
    "ee": false,
    "tech_change_status": "Not Planned"
   }
  },
  {
   "type": "Feature",
   "geometry": {
    "type": "Point",
    "coordinates": [
     117.87907874,
     -33.13576322
    ]
   },
   "properties": {
    "name": "1825 ONE FOURTEEN ROAD NORTH MOULYINNING 6351",
    "locID": "LOC000016909384",
    "tech": "SATELLITE",
    "upgrade": "NULL_NA",
    "gnaf_pid": "GAWA_161929176",
    "ee": false,
    "tech_change_status": "Not Planned"
   }
  },
  {
   "type": "Feature",
   "geometry": {
    "type": "Point",
    "coordinates": [
     117.93278923,
     -33.07322331
    ]
   },
   "properties": {
    "name": "8335 RABBIT PROOF FENCE ROAD NORTH MOULYINNING 6351",
    "locID": "LOC000091440098",
    "tech": "SATELLITE",
    "upgrade": "NULL_NA",
    "gnaf_pid": "GAWA_161929535",
    "ee": false,
    "tech_change_status": "Not Planned"
   }
  },
  {
   "type": "Feature",
   "geometry": {
    "type": "Point",
    "coordinates": [
     117.94401,
     -33.08809
    ]
   },
   "properties": {
    "name": "8483 RABBIT PROOF FENCE ROAD NORTH MOULYINNING 6351",
    "locID": "LOC000102012605",
    "tech": "SATELLITE",
    "upgrade": "NULL_NA",
    "gnaf_pid": "GAWA_161929536",
    "ee": false,
    "tech_change_status": "Not Planned"
   }
  },
  {
   "type": "Feature",
   "geometry": {
    "type": "Point",
    "coordinates": [
     117.90394,
     -33.09377
    ]
   },
   "properties": {
    "name": "8508 RABBIT PROOF FENCE ROAD NORTH MOULYINNING 6351",
    "locID": "LOC000003676004",
    "tech": "SATELLITE",
    "upgrade": "NULL_NA",
    "gnaf_pid": "GAWA_161929537",
    "ee": false,
    "tech_change_status": "Not Planned"
   }
  },
  {
   "type": "Feature",
   "geometry": {
    "type": "Point",
    "coordinates": [
     117.95495,
     -33.12167
    ]
   },
   "properties": {
    "name": "405 SPRINGHURST ROAD NORTH MOULYINNING 6351",
    "locID": "LOC000022818806",
    "tech": "SATELLITE",
    "upgrade": "NULL_NA",
    "gnaf_pid": "GAWA_161929874",
    "ee": false,
    "tech_change_status": "Not Planned"
   }
  },
  {
   "type": "Feature",
   "geometry": {
    "type": "Point",
    "coordinates": [
     117.86045288,
     -33.1670828
    ]
   },
   "properties": {
    "name": "2874 WISHBONE ROAD NORTH MOULYINNING 6351",
    "locID": "LOC000047582159",
    "tech": "SATELLITE",
    "upgrade": "NULL_NA",
    "gnaf_pid": "GAWA_161930467",
    "ee": false,
    "tech_change_status": "Not Planned"
   }
  },
  {
   "type": "Feature",
   "geometry": {
    "type": "Point",
    "coordinates": [
     117.87907874,
     -33.13576322
    ]
   },
   "properties": {
    "name": "1827 ONE FOURTEEN ROAD NORTH MOULYINNING 6351",
    "locID": "LOC000002923435",
    "tech": "NULL",
    "upgrade": "NULL_NA",
    "gnaf_pid": "GAWA_161931829",
    "ee": false,
    "tech_change_status": "Not Planned"
   }
  },
  {
   "type": "Feature",
   "geometry": {
    "type": "Point",
    "coordinates": [
     117.89405022,
     -33.12595703
    ]
   },
   "properties": {
    "name": "1983 ONE FOURTEEN ROAD NORTH MOULYINNING 6351",
    "locID": "LOC000036428772",
    "tech": "SATELLITE",
    "upgrade": "NULL_NA",
    "gnaf_pid": "GAWA_161931830",
    "ee": false,
    "tech_change_status": "Not Planned"
   }
  },
  {
   "type": "Feature",
   "geometry": {
    "type": "Point",
    "coordinates": [
     117.93278923,
     -33.07322331
    ]
   },
   "properties": {
    "name": "8337 RABBIT PROOF FENCE ROAD NORTH MOULYINNING 6351",
    "locID": "LOC000073338092",
    "tech": "NULL",
    "upgrade": "NULL_NA",
    "gnaf_pid": "GAWA_161931964",
    "ee": false,
    "tech_change_status": "Not Planned"
   }
  },
  {
   "type": "Feature",
   "geometry": {
    "type": "Point",
    "coordinates": [
     117.853842,
     -33.187567
    ]
   },
   "properties": {
    "name": "238 WHITE WELL ROAD NORTH MOULYINNING 6351",
    "locID": "LOC000022894949",
    "tech": "NULL",
    "upgrade": "NULL_NA",
    "gnaf_pid": "GAWA_161932492",
    "ee": false,
    "tech_change_status": "Not Planned"
   }
  },
  {
   "type": "Feature",
   "geometry": {
    "type": "Point",
    "coordinates": [
     117.84719,
     -33.1186
    ]
   },
   "properties": {
    "name": "3444 WISHBONE ROAD NORTH MOULYINNING 6351",
    "locID": "LOC000076615846",
    "tech": "SATELLITE",
    "upgrade": "NULL_NA",
    "gnaf_pid": "GAWA_161932501",
    "ee": false,
    "tech_change_status": "Not Planned"
   }
  }
 ]
}