{
 "type": "FeatureCollection",
 "generated": "2025-06-19T07:44:27.993683",
 "suburb": "NORTH WEST CAPE",
 "features": [
  {
   "type": "Feature",
   "geometry": {
    "type": "Point",
    "coordinates": [
     114.11132507,
     -22.02618013
    ]
   },
   "properties": {
    "name": "LOT 301 MINILYA-EXMOUTH ROAD NORTH WEST CAPE 6707",
    "locID": "LOC000108634056",
    "tech": "SATELLITE",
    "upgrade": "NULL_NA",
    "gnaf_pid": "GAWA_161565307",
    "ee": true,
    "tech_change_status": "Not Planned"
   }
  },
  {
   "type": "Feature",
   "geometry": {
    "type": "Point",
    "coordinates": [
     114.11273,
     -22.04251
    ]
   },
   "properties": {
    "name": "LOT 313 PEBBLE BEACH ROAD NORTH WEST CAPE 6707",
    "locID": "LOC000108093505",
    "tech": "NULL",
    "upgrade": "NULL_NA",
    "gnaf_pid": "GAWA_161571923",
    "ee": true,
    "tech_change_status": "Not Planned"
   }
  },
  {
   "type": "Feature",
   "geometry": {
    "type": "Point",
    "coordinates": [
     114.11036721,
     -21.80957683
    ]
   },
   "properties": {
    "name": "LOT 1 YARDIE CREEK ROAD NORTH WEST CAPE 6707",
    "locID": "LOC000142478623",
    "tech": "SATELLITE",
    "upgrade": "NULL_NA",
    "gnaf_pid": "GAWA_161593914",
    "ee": true,
    "tech_change_status": "Not Planned"
   }
  },
  {
   "type": "Feature",
   "geometry": {
    "type": "Point",
    "coordinates": [
     114.11758017,
     -22.0091021
    ]
   },
   "properties": {
    "name": "15 INGRAM STREET NORTH WEST CAPE 6707",
    "locID": "LOC000032348540",
    "tech": "NULL",
    "upgrade": "NULL_NA",
    "gnaf_pid": "GAWA_162273675",
    "ee": true,
    "tech_change_status": "Not Planned"
   }
  },
  {
   "type": "Feature",
   "geometry": {
    "type": "Point",
    "coordinates": [
     114.11813404,
     -22.00908905
    ]
   },
   "properties": {
    "name": "23 INGRAM STREET NORTH WEST CAPE 6707",
    "locID": "LOC000034218998",
    "tech": "NULL",
    "upgrade": "NULL_NA",
    "gnaf_pid": "GAWA_162273676",
    "ee": true,
    "tech_change_status": "Not Planned"
   }
  },
  {
   "type": "Feature",
   "geometry": {
    "type": "Point",
    "coordinates": [
     114.11830329,
     -22.01000926
    ]
   },
   "properties": {
    "name": "26 INGRAM STREET NORTH WEST CAPE 6707",
    "locID": "LOC000084143345",
    "tech": "SATELLITE",
    "upgrade": "NULL_NA",
    "gnaf_pid": "GAWA_162273677",
    "ee": true,
    "tech_change_status": "Not Planned"
   }
  },
  {
   "type": "Feature",
   "geometry": {
    "type": "Point",
    "coordinates": [
     114.11888731,
     -22.01012366
    ]
   },
   "properties": {
    "name": "32 INGRAM STREET NORTH WEST CAPE 6707",
    "locID": "LOC000018097268",
    "tech": "NULL",
    "upgrade": "NULL_NA",
    "gnaf_pid": "GAWA_162273679",
    "ee": true,
    "tech_change_status": "Not Planned"
   }
  },
  {
   "type": "Feature",
   "geometry": {
    "type": "Point",
    "coordinates": [
     114.11906064,
     -22.00916514
    ]
   },
   "properties": {
    "name": "35 INGRAM STREET NORTH WEST CAPE 6707",
    "locID": "LOC000076693631",
    "tech": "SATELLITE",
    "upgrade": "NULL_NA",
    "gnaf_pid": "GAWA_162273680",
    "ee": true,
    "tech_change_status": "Not Planned"
   }
  },
  {
   "type": "Feature",
   "geometry": {
    "type": "Point",
    "coordinates": [
     114.11933081,
     -22.0101614
    ]
   },
   "properties": {
    "name": "38 INGRAM STREET NORTH WEST CAPE 6707",
    "locID": "LOC000045269113",
    "tech": "NULL",
    "upgrade": "NULL_NA",
    "gnaf_pid": "GAWA_162273681",
    "ee": true,
    "tech_change_status": "Not Planned"
   }
  },
  {
   "type": "Feature",
   "geometry": {
    "type": "Point",
    "coordinates": [
     114.1197747,
     -22.01019708
    ]
   },
   "properties": {
    "name": "44 INGRAM STREET NORTH WEST CAPE 6707",
    "locID": "LOC000012917718",
    "tech": "NULL",
    "upgrade": "NULL_NA",
    "gnaf_pid": "GAWA_162273683",
    "ee": true,
    "tech_change_status": "Not Planned"
   }
  },
  {
   "type": "Feature",
   "geometry": {
    "type": "Point",
    "coordinates": [
     114.11998677,
     -22.009238
    ]
   },
   "properties": {
    "name": "47 INGRAM STREET NORTH WEST CAPE 6707",
    "locID": "LOC000100127193",
    "tech": "NULL",
    "upgrade": "NULL_NA",
    "gnaf_pid": "GAWA_162273684",
    "ee": true,
    "tech_change_status": "Not Planned"
   }
  },
  {
   "type": "Feature",
   "geometry": {
    "type": "Point",
    "coordinates": [
     114.12045018,
     -22.00927685
    ]
   },
   "properties": {
    "name": "53 INGRAM STREET NORTH WEST CAPE 6707",
    "locID": "LOC000033737161",
    "tech": "NULL",
    "upgrade": "NULL_NA",
    "gnaf_pid": "GAWA_162273686",
    "ee": true,
    "tech_change_status": "Not Planned"
   }
  },
  {
   "type": "Feature",
   "geometry": {
    "type": "Point",
    "coordinates": [
     114.12066246,
     -22.01026845
    ]
   },
   "properties": {
    "name": "56 INGRAM STREET NORTH WEST CAPE 6707",
    "locID": "LOC000037355370",
    "tech": "SATELLITE",
    "upgrade": "NULL_NA",
    "gnaf_pid": "GAWA_162273687",
    "ee": true,
    "tech_change_status": "Not Planned"
   }
  },
  {
   "type": "Feature",
   "geometry": {
    "type": "Point",
    "coordinates": [
     114.12091337,
     -22.00931408
    ]
   },
   "properties": {
    "name": "59 INGRAM STREET NORTH WEST CAPE 6707",
    "locID": "LOC000029560818",
    "tech": "NULL",
    "upgrade": "NULL_NA",
    "gnaf_pid": "GAWA_162273688",
    "ee": true,
    "tech_change_status": "Not Planned"
   }
  },
  {
   "type": "Feature",
   "geometry": {
    "type": "Point",
    "coordinates": [
     114.11892728,
     -22.00968585
    ]
   },
   "properties": {
    "name": "5 INGRAM STREET NORTH WEST CAPE 6707",
    "locID": "LOC000033737161",
    "tech": "NULL",
    "upgrade": "NULL_NA",
    "gnaf_pid": "GAWA_162273689",
    "ee": true,
    "tech_change_status": "Not Planned"
   }
  },
  {
   "type": "Feature",
   "geometry": {
    "type": "Point",
    "coordinates": [
     114.12137655,
     -22.00935132
    ]
   },
   "properties": {
    "name": "65 INGRAM STREET NORTH WEST CAPE 6707",
    "locID": "LOC000072988337",
    "tech": "NULL",
    "upgrade": "NULL_NA",
    "gnaf_pid": "GAWA_162273691",
    "ee": true,
    "tech_change_status": "Not Planned"
   }
  },
  {
   "type": "Feature",
   "geometry": {
    "type": "Point",
    "coordinates": [
     114.11695912,
     -22.0109105
    ]
   },
   "properties": {
    "name": "14 TUCKEY STREET NORTH WEST CAPE 6707",
    "locID": "LOC000105339279",
    "tech": "NULL",
    "upgrade": "NULL_NA",
    "gnaf_pid": "GAWA_162275259",
    "ee": true,
    "tech_change_status": "Not Planned"
   }
  },
  {
   "type": "Feature",
   "geometry": {
    "type": "Point",
    "coordinates": [
     114.11713799,
     -22.01041761
    ]
   },
   "properties": {
    "name": "8 TUCKEY STREET NORTH WEST CAPE 6707",
    "locID": "LOC000003709976",
    "tech": "NULL",
    "upgrade": "NULL_NA",
    "gnaf_pid": "GAWA_162275261",
    "ee": true,
    "tech_change_status": "Not Planned"
   }
  },
  {
   "type": "Feature",
   "geometry": {
    "type": "Point",
    "coordinates": [
     114.11820199,
     -22.01044252
    ]
   },
   "properties": {
    "name": "9 TUCKEY STREET NORTH WEST CAPE 6707",
    "locID": "LOC000030618470",
    "tech": "NULL",
    "upgrade": "NULL_NA",
    "gnaf_pid": "GAWA_162275262",
    "ee": true,
    "tech_change_status": "Not Planned"
   }
  },
  {
   "type": "Feature",
   "geometry": {
    "type": "Point",
    "coordinates": [
     114.11882733,
     -22.01076346
    ]
   },
   "properties": {
    "name": "11 YOUNG STREET NORTH WEST CAPE 6707",
    "locID": "LOC000015366970",
    "tech": "NULL",
    "upgrade": "NULL_NA",
    "gnaf_pid": "GAWA_162275528",
    "ee": true,
    "tech_change_status": "Not Planned"
   }
  },
  {
   "type": "Feature",
   "geometry": {
    "type": "Point",
    "coordinates": [
     114.11850162,
     -22.01162579
    ]
   },
   "properties": {
    "name": "14 YOUNG STREET NORTH WEST CAPE 6707",
    "locID": "LOC000071677920",
    "tech": "NULL",
    "upgrade": "NULL_NA",
    "gnaf_pid": "GAWA_162275529",
    "ee": true,
    "tech_change_status": "Not Planned"
   }
  },
  {
   "type": "Feature",
   "geometry": {
    "type": "Point",
    "coordinates": [
     114.11927156,
     -22.01080185
    ]
   },
   "properties": {
    "name": "17 YOUNG STREET NORTH WEST CAPE 6707",
    "locID": "LOC000011146250",
    "tech": "NULL",
    "upgrade": "NULL_NA",
    "gnaf_pid": "GAWA_162275530",
    "ee": true,
    "tech_change_status": "Not Planned"
   }
  },
  {
   "type": "Feature",
   "geometry": {
    "type": "Point",
    "coordinates": [
     114.11892901,
     -22.01162983
    ]
   },
   "properties": {
    "name": "20 YOUNG STREET NORTH WEST CAPE 6707",
    "locID": "LOC000089131396",
    "tech": "NULL",
    "upgrade": "NULL_NA",
    "gnaf_pid": "GAWA_162275531",
    "ee": true,
    "tech_change_status": "Not Planned"
   }
  },
  {
   "type": "Feature",
   "geometry": {
    "type": "Point",
    "coordinates": [
     114.1197153,
     -22.01083822
    ]
   },
   "properties": {
    "name": "23 YOUNG STREET NORTH WEST CAPE 6707",
    "locID": "LOC000067039297",
    "tech": "NULL",
    "upgrade": "NULL_NA",
    "gnaf_pid": "GAWA_162275532",
    "ee": true,
    "tech_change_status": "Not Planned"
   }
  },
  {
   "type": "Feature",
   "geometry": {
    "type": "Point",
    "coordinates": [
     114.1193552,
     -22.01164782
    ]
   },
   "properties": {
    "name": "26 YOUNG STREET NORTH WEST CAPE 6707",
    "locID": "LOC000002149166",
    "tech": "NULL",
    "upgrade": "NULL_NA",
    "gnaf_pid": "GAWA_162275533",
    "ee": true,
    "tech_change_status": "Not Planned"
   }
  },
  {
   "type": "Feature",
   "geometry": {
    "type": "Point",
    "coordinates": [
     114.12015919,
     -22.0108739
    ]
   },
   "properties": {
    "name": "29 YOUNG STREET NORTH WEST CAPE 6707",
    "locID": "LOC000063548171",
    "tech": "NULL",
    "upgrade": "NULL_NA",
    "gnaf_pid": "GAWA_162275534",
    "ee": true,
    "tech_change_status": "Not Planned"
   }
  },
  {
   "type": "Feature",
   "geometry": {
    "type": "Point",
    "coordinates": [
     114.11761418,
     -22.01153955
    ]
   },
   "properties": {
    "name": "2 YOUNG STREET NORTH WEST CAPE 6707",
    "locID": "LOC000018184090",
    "tech": "NULL",
    "upgrade": "NULL_NA",
    "gnaf_pid": "GAWA_162275535",
    "ee": true,
    "tech_change_status": "Not Planned"
   }
  },
  {
   "type": "Feature",
   "geometry": {
    "type": "Point",
    "coordinates": [
     114.11977978,
     -22.01168196
    ]
   },
   "properties": {
    "name": "32 YOUNG STREET NORTH WEST CAPE 6707",
    "locID": "LOC000095989809",
    "tech": "NULL",
    "upgrade": "NULL_NA",
    "gnaf_pid": "GAWA_162275536",
    "ee": true,
    "tech_change_status": "Not Planned"
   }
  },
  {
   "type": "Feature",
   "geometry": {
    "type": "Point",
    "coordinates": [
     114.12060307,
     -22.01090959
    ]
   },
   "properties": {
    "name": "35 YOUNG STREET NORTH WEST CAPE 6707",
    "locID": "LOC000010475683",
    "tech": "NULL",
    "upgrade": "NULL_NA",
    "gnaf_pid": "GAWA_162275537",
    "ee": true,
    "tech_change_status": "Not Planned"
   }
  },
  {
   "type": "Feature",
   "geometry": {
    "type": "Point",
    "coordinates": [
     114.12020422,
     -22.01171686
    ]
   },
   "properties": {
    "name": "38 YOUNG STREET NORTH WEST CAPE 6707",
    "locID": "LOC000036570502",
    "tech": "SATELLITE",
    "upgrade": "NULL_NA",
    "gnaf_pid": "GAWA_162275538",
    "ee": true,
    "tech_change_status": "Not Planned"
   }
  },
  {
   "type": "Feature",
   "geometry": {
    "type": "Point",
    "coordinates": [
     114.12104663,
     -22.01094704
    ]
   },
   "properties": {
    "name": "41 YOUNG STREET NORTH WEST CAPE 6707",
    "locID": "LOC000032033731",
    "tech": "SATELLITE",
    "upgrade": "NULL_NA",
    "gnaf_pid": "GAWA_162275539",
    "ee": true,
    "tech_change_status": "Not Planned"
   }
  },
  {
   "type": "Feature",
   "geometry": {
    "type": "Point",
    "coordinates": [
     114.12061457,
     -22.01175317
    ]
   },
   "properties": {
    "name": "42 YOUNG STREET NORTH WEST CAPE 6707",
    "locID": "LOC000055076593",
    "tech": "SATELLITE",
    "upgrade": "NULL_NA",
    "gnaf_pid": "GAWA_162275540",
    "ee": true,
    "tech_change_status": "Not Planned"
   }
  },
  {
   "type": "Feature",
   "geometry": {
    "type": "Point",
    "coordinates": [
     114.11807488,
     -22.01161834
    ]
   },
   "properties": {
    "name": "8 YOUNG STREET NORTH WEST CAPE 6707",
    "locID": "LOC000077380194",
    "tech": "NULL",
    "upgrade": "NULL_NA",
    "gnaf_pid": "GAWA_162275541",
    "ee": true,
    "tech_change_status": "Not Planned"
   }
  },
  {
   "type": "Feature",
   "geometry": {
    "type": "Point",
    "coordinates": [
     114.12014548,
     -22.01239137
    ]
   },
   "properties": {
    "name": "10 HUNT STREET NORTH WEST CAPE 6707",
    "locID": "LOC000133571761",
    "tech": "NULL",
    "upgrade": "NULL_NA",
    "gnaf_pid": "GAWA_162570638",
    "ee": true,
    "tech_change_status": "Not Planned"
   }
  },
  {
   "type": "Feature",
   "geometry": {
    "type": "Point",
    "coordinates": [
     114.11972093,
     -22.01235715
    ]
   },
   "properties": {
    "name": "14 HUNT STREET NORTH WEST CAPE 6707",
    "locID": "LOC000133524555",
    "tech": "SATELLITE",
    "upgrade": "NULL_NA",
    "gnaf_pid": "GAWA_162570641",
    "ee": true,
    "tech_change_status": "Not Planned"
   }
  },
  {
   "type": "Feature",
   "geometry": {
    "type": "Point",
    "coordinates": [
     114.12044503,
     -22.01492271
    ]
   },
   "properties": {
    "name": "1 HUNT STREET NORTH WEST CAPE 6707",
    "locID": "LOC000133524555",
    "tech": "SATELLITE",
    "upgrade": "NULL_NA",
    "gnaf_pid": "GAWA_162570644",
    "ee": true,
    "tech_change_status": "Not Planned"
   }
  },
  {
   "type": "Feature",
   "geometry": {
    "type": "Point",
    "coordinates": [
     114.1189911,
     -22.01327687
    ]
   },
   "properties": {
    "name": "23 HUNT STREET NORTH WEST CAPE 6707",
    "locID": "LOC000133533417",
    "tech": "NULL",
    "upgrade": "NULL_NA",
    "gnaf_pid": "GAWA_162570645",
    "ee": true,
    "tech_change_status": "Not Planned"
   }
  },
  {
   "type": "Feature",
   "geometry": {
    "type": "Point",
    "coordinates": [
     114.12055517,
     -22.01242654
    ]
   },
   "properties": {
    "name": "6 HUNT STREET NORTH WEST CAPE 6707",
    "locID": "LOC000133524555",
    "tech": "SATELLITE",
    "upgrade": "NULL_NA",
    "gnaf_pid": "GAWA_162570653",
    "ee": true,
    "tech_change_status": "Not Planned"
   }
  },
  {
   "type": "Feature",
   "geometry": {
    "type": "Point",
    "coordinates": [
     114.12182461,
     -22.01023563
    ]
   },
   "properties": {
    "name": "LOT 111 THRESHER STREET NORTH WEST CAPE 6707",
    "locID": "LOC000133524806",
    "tech": "SATELLITE",
    "upgrade": "NULL_NA",
    "gnaf_pid": "GAWA_162589053",
    "ee": true,
    "tech_change_status": "Not Planned"
   }
  },
  {
   "type": "Feature",
   "geometry": {
    "type": "Point",
    "coordinates": [
     114.11659743,
     -22.01189561
    ]
   },
   "properties": {
    "name": "26 TUCKEY STREET NORTH WEST CAPE 6707",
    "locID": "LOC000133536204",
    "tech": "SATELLITE",
    "upgrade": "NULL_NA",
    "gnaf_pid": "GAWA_162589532",
    "ee": true,
    "tech_change_status": "Not Planned"
   }
  },
  {
   "type": "Feature",
   "geometry": {
    "type": "Point",
    "coordinates": [
     114.11218484,
     -22.02809146
    ]
   },
   "properties": {
    "name": "LOT 302 MINILYA-EXMOUTH ROAD NORTH WEST CAPE 6707",
    "locID": "LOC000108198346",
    "tech": "NULL",
    "upgrade": "NULL_NA",
    "gnaf_pid": "GAWA_162798125",
    "ee": true,
    "tech_change_status": "Not Planned"
   }
  },
  {
   "type": "Feature",
   "geometry": {
    "type": "Point",
    "coordinates": [
     114.11002831,
     -22.03258232
    ]
   },
   "properties": {
    "name": "LOT 305 MINILYA-EXMOUTH ROAD NORTH WEST CAPE 6707",
    "locID": "LOC000109040090",
    "tech": "SATELLITE",
    "upgrade": "NULL_NA",
    "gnaf_pid": "GAWA_162798128",
    "ee": true,
    "tech_change_status": "Not Planned"
   }
  },
  {
   "type": "Feature",
   "geometry": {
    "type": "Point",
    "coordinates": [
     114.10999826,
     -22.03399043
    ]
   },
   "properties": {
    "name": "LOT 306 MINILYA-EXMOUTH ROAD NORTH WEST CAPE 6707",
    "locID": "LOC000109599200",
    "tech": "SATELLITE",
    "upgrade": "NULL_NA",
    "gnaf_pid": "GAWA_162798129",
    "ee": true,
    "tech_change_status": "Not Planned"
   }
  },
  {
   "type": "Feature",
   "geometry": {
    "type": "Point",
    "coordinates": [
     114.10996989,
     -22.03536469
    ]
   },
   "properties": {
    "name": "LOT 307 MINILYA-EXMOUTH ROAD NORTH WEST CAPE 6707",
    "locID": "LOC000107648059",
    "tech": "SATELLITE",
    "upgrade": "NULL_NA",
    "gnaf_pid": "GAWA_162798130",
    "ee": true,
    "tech_change_status": "Not Planned"
   }
  },
  {
   "type": "Feature",
   "geometry": {
    "type": "Point",
    "coordinates": [
     114.10991509,
     -22.03712767
    ]
   },
   "properties": {
    "name": "LOT 308 MINILYA-EXMOUTH ROAD NORTH WEST CAPE 6707",
    "locID": "LOC000109586786",
    "tech": "SATELLITE",
    "upgrade": "NULL_NA",
    "gnaf_pid": "GAWA_162798131",
    "ee": true,
    "tech_change_status": "Not Planned"
   }
  },
  {
   "type": "Feature",
   "geometry": {
    "type": "Point",
    "coordinates": [
     114.11093192,
     -22.04077145
    ]
   },
   "properties": {
    "name": "LOT 310 MINILYA-EXMOUTH ROAD NORTH WEST CAPE 6707",
    "locID": "LOC000109369041",
    "tech": "SATELLITE",
    "upgrade": "NULL_NA",
    "gnaf_pid": "GAWA_162798133",
    "ee": true,
    "tech_change_status": "Not Planned"
   }
  },
  {
   "type": "Feature",
   "geometry": {
    "type": "Point",
    "coordinates": [
     114.11110655,
     -22.04260198
    ]
   },
   "properties": {
    "name": "LOT 312 MINILYA-EXMOUTH ROAD NORTH WEST CAPE 6707",
    "locID": "LOC000108622597",
    "tech": "SATELLITE",
    "upgrade": "NULL_NA",
    "gnaf_pid": "GAWA_162798135",
    "ee": true,
    "tech_change_status": "Not Planned"
   }
  },
  {
   "type": "Feature",
   "geometry": {
    "type": "Point",
    "coordinates": [
     114.11211684,
     -22.04557763
    ]
   },
   "properties": {
    "name": "LOT 315 MINILYA-EXMOUTH ROAD NORTH WEST CAPE 6707",
    "locID": "LOC000108203962",
    "tech": "NULL",
    "upgrade": "NULL_NA",
    "gnaf_pid": "GAWA_162798137",
    "ee": true,
    "tech_change_status": "Not Planned"
   }
  },
  {
   "type": "Feature",
   "geometry": {
    "type": "Point",
    "coordinates": [
     114.11259452,
     -22.04820954
    ]
   },
   "properties": {
    "name": "LOT 317 MINILYA-EXMOUTH ROAD NORTH WEST CAPE 6707",
    "locID": "LOC000108695625",
    "tech": "SATELLITE",
    "upgrade": "NULL_NA",
    "gnaf_pid": "GAWA_162798139",
    "ee": true,
    "tech_change_status": "Not Planned"
   }
  },
  {
   "type": "Feature",
   "geometry": {
    "type": "Point",
    "coordinates": [
     114.11248664,
     -22.04954796
    ]
   },
   "properties": {
    "name": "LOT 318 MINILYA-EXMOUTH ROAD NORTH WEST CAPE 6707",
    "locID": "LOC000108264908",
    "tech": "SATELLITE",
    "upgrade": "NULL_NA",
    "gnaf_pid": "GAWA_162798140",
    "ee": true,
    "tech_change_status": "Not Planned"
   }
  },
  {
   "type": "Feature",
   "geometry": {
    "type": "Point",
    "coordinates": [
     114.1123321,
     -22.05092149
    ]
   },
   "properties": {
    "name": "LOT 319 MINILYA-EXMOUTH ROAD NORTH WEST CAPE 6707",
    "locID": "LOC000108557428",
    "tech": "SATELLITE",
    "upgrade": "NULL_NA",
    "gnaf_pid": "GAWA_162798141",
    "ee": true,
    "tech_change_status": "Not Planned"
   }
  },
  {
   "type": "Feature",
   "geometry": {
    "type": "Point",
    "coordinates": [
     114.1077068,
     -22.06133058
    ]
   },
   "properties": {
    "name": "LOT 326 MINILYA-EXMOUTH ROAD NORTH WEST CAPE 6707",
    "locID": "LOC000108422324",
    "tech": "SATELLITE",
    "upgrade": "NULL_NA",
    "gnaf_pid": "GAWA_162798148",
    "ee": true,
    "tech_change_status": "Not Planned"
   }
  },
  {
   "type": "Feature",
   "geometry": {
    "type": "Point",
    "coordinates": [
     114.10671434,
     -22.06222165
    ]
   },
   "properties": {
    "name": "LOT 327 MINILYA-EXMOUTH ROAD NORTH WEST CAPE 6707",
    "locID": "LOC000109017883",
    "tech": "SATELLITE",
    "upgrade": "NULL_NA",
    "gnaf_pid": "GAWA_162798149",
    "ee": true,
    "tech_change_status": "Not Planned"
   }
  },
  {
   "type": "Feature",
   "geometry": {
    "type": "Point",
    "coordinates": [
     114.12176315,
     -22.01061971
    ]
   },
   "properties": {
    "name": "LOT 112 THRESHER STREET NORTH WEST CAPE 6707",
    "locID": "LOC000133524806",
    "tech": "SATELLITE",
    "upgrade": "NULL_NA",
    "gnaf_pid": "GAWA_162811216",
    "ee": true,
    "tech_change_status": "Not Planned"
   }
  },
  {
   "type": "Feature",
   "geometry": {
    "type": "Point",
    "coordinates": [
     114.121658,
     -22.01105276
    ]
   },
   "properties": {
    "name": "LOT 128 THRESHER STREET NORTH WEST CAPE 6707",
    "locID": "LOC000133524806",
    "tech": "SATELLITE",
    "upgrade": "NULL_NA",
    "gnaf_pid": "GAWA_162811217",
    "ee": true,
    "tech_change_status": "Not Planned"
   }
  },
  {
   "type": "Feature",
   "geometry": {
    "type": "Point",
    "coordinates": [
     114.12130304,
     -22.01167996
    ]
   },
   "properties": {
    "name": "LOT 129 THRESHER STREET NORTH WEST CAPE 6707",
    "locID": "LOC000133524806",
    "tech": "SATELLITE",
    "upgrade": "NULL_NA",
    "gnaf_pid": "GAWA_162811218",
    "ee": true,
    "tech_change_status": "Not Planned"
   }
  },
  {
   "type": "Feature",
   "geometry": {
    "type": "Point",
    "coordinates": [
     114.1211177,
     -22.01252273
    ]
   },
   "properties": {
    "name": "LOT 148 THRESHER STREET NORTH WEST CAPE 6707",
    "locID": "LOC000133524806",
    "tech": "SATELLITE",
    "upgrade": "NULL_NA",
    "gnaf_pid": "GAWA_162811219",
    "ee": true,
    "tech_change_status": "Not Planned"
   }
  },
  {
   "type": "Feature",
   "geometry": {
    "type": "Point",
    "coordinates": [
     114.13351643,
     -21.8126776
    ]
   },
   "properties": {
    "name": "LOT 281 YARDIE CREEK ROAD NORTH WEST CAPE 6707",
    "locID": "LOC000142478623",
    "tech": "SATELLITE",
    "upgrade": "NULL_NA",
    "gnaf_pid": "GAWA_162816284",
    "ee": true,
    "tech_change_status": "Not Planned"
   }
  },
  {
   "type": "Feature",
   "geometry": {
    "type": "Point",
    "coordinates": [
     114.11398707,
     -21.80921143
    ]
   },
   "properties": {
    "name": "LOT 2 YARDIE CREEK ROAD NORTH WEST CAPE 6707",
    "locID": "LOC000133528018",
    "tech": "SATELLITE",
    "upgrade": "NULL_NA",
    "gnaf_pid": "GAWA_162816285",
    "ee": true,
    "tech_change_status": "Not Planned"
   }
  },
  {
   "type": "Feature",
   "geometry": {
    "type": "Point",
    "coordinates": [
     114.12122526,
     -22.01207744
    ]
   },
   "properties": {
    "name": "LOT 130 THRESHER STREET NORTH WEST CAPE 6707",
    "locID": "LOC000133524806",
    "tech": "SATELLITE",
    "upgrade": "NULL_NA",
    "gnaf_pid": "GAWA_163204567",
    "ee": true,
    "tech_change_status": "Not Planned"
   }
  },
  {
   "type": "Feature",
   "geometry": {
    "type": "Point",
    "coordinates": [
     114.10733062,
     -21.80452648
    ]
   },
   "properties": {
    "name": "LOT 141 YARDIE CREEK ROAD NORTH WEST CAPE 6707",
    "locID": "LOC000142478623",
    "tech": "SATELLITE",
    "upgrade": "NULL_NA",
    "gnaf_pid": "GAWA_163205604",
    "ee": true,
    "tech_change_status": "Not Planned"
   }
  },
  {
   "type": "Feature",
   "geometry": {
    "type": "Point",
    "coordinates": [
     114.08316174,
     -21.83343936
    ]
   },
   "properties": {
    "name": "LOT 307 YARDIE CREEK ROAD NORTH WEST CAPE 6707",
    "locID": "LOC000142478623",
    "tech": "SATELLITE",
    "upgrade": "NULL_NA",
    "gnaf_pid": "GAWA_163205605",
    "ee": true,
    "tech_change_status": "Not Planned"
   }
  },
  {
   "type": "Feature",
   "geometry": {
    "type": "Point",
    "coordinates": [
     114.11772153,
     -21.81114487
    ]
   },
   "properties": {
    "name": "LOT 319 YARDIE CREEK ROAD NORTH WEST CAPE 6707",
    "locID": "LOC000142478623",
    "tech": "SATELLITE",
    "upgrade": "NULL_NA",
    "gnaf_pid": "GAWA_163205606",
    "ee": true,
    "tech_change_status": "Not Planned"
   }
  },
  {
   "type": "Feature",
   "geometry": {
    "type": "Point",
    "coordinates": [
     114.10087808,
     -22.04472802
    ]
   },
   "properties": {
    "name": "LOT 73 MINILYA-EXMOUTH ROAD NORTH WEST CAPE 6707",
    "locID": "LOC000142459411",
    "tech": "SATELLITE",
    "upgrade": "NULL_NA",
    "gnaf_pid": "GAWA_718677256",
    "ee": true,
    "tech_change_status": "Not Planned"
   }
  },
  {
   "type": "Feature",
   "geometry": {
    "type": "Point",
    "coordinates": [
     114.01358642,
     -21.88665944
    ]
   },
   "properties": {
    "name": "LOT 198 PACE RETREAT NORTH WEST CAPE 6707",
    "locID": "LOC000148163529",
    "tech": "SATELLITE",
    "upgrade": "NULL_NA",
    "gnaf_pid": "GAWA_718677792",
    "ee": true,
    "tech_change_status": "Not Planned"
   }
  },
  {
   "type": "Feature",
   "geometry": {
    "type": "Point",
    "coordinates": [
     114.1188183,
     -22.01236289
    ]
   },
   "properties": {
    "name": "22 HUNT STREET NORTH WEST CAPE 6707",
    "locID": "LOC100055397937",
    "tech": "NULL",
    "upgrade": "NULL_NA",
    "gnaf_pid": "GAWA_720417768",
    "ee": true,
    "tech_change_status": "Not Planned"
   }
  },
  {
   "type": "Feature",
   "geometry": {
    "type": "Point",
    "coordinates": [
     114.12091337,
     -22.00931408
    ]
   },
   "properties": {
    "name": "UNIT 9, 59 INGRAM STREET NORTH WEST CAPE 6707",
    "locID": "LOC000029560818",
    "tech": "NULL",
    "upgrade": "NULL_NA",
    "gnaf_pid": "GAWA_720972060",
    "ee": true,
    "tech_change_status": "Not Planned"
   }
  },
  {
   "type": "Feature",
   "geometry": {
    "type": "Point",
    "coordinates": [
     114.12091337,
     -22.00931408
    ]
   },
   "properties": {
    "name": "UNIT 28, 59 INGRAM STREET NORTH WEST CAPE 6707",
    "locID": "LOC000029560818",
    "tech": "NULL",
    "upgrade": "NULL_NA",
    "gnaf_pid": "GAWA_720972078",
    "ee": true,
    "tech_change_status": "Not Planned"
   }
  },
  {
   "type": "Feature",
   "geometry": {
    "type": "Point",
    "coordinates": [
     114.12091337,
     -22.00931408
    ]
   },
   "properties": {
    "name": "UNIT 3, 59 INGRAM STREET NORTH WEST CAPE 6707",
    "locID": "LOC000029560818",
    "tech": "NULL",
    "upgrade": "NULL_NA",
    "gnaf_pid": "GAWA_720972139",
    "ee": true,
    "tech_change_status": "Not Planned"
   }
  },
  {
   "type": "Feature",
   "geometry": {
    "type": "Point",
    "coordinates": [
     114.12091337,
     -22.00931408
    ]
   },
   "properties": {
    "name": "UNIT 20, 59 INGRAM STREET NORTH WEST CAPE 6707",
    "locID": "LOC000029560818",
    "tech": "NULL",
    "upgrade": "NULL_NA",
    "gnaf_pid": "GAWA_720972188",
    "ee": true,
    "tech_change_status": "Not Planned"
   }
  },
  {
   "type": "Feature",
   "geometry": {
    "type": "Point",
    "coordinates": [
     114.12091337,
     -22.00931408
    ]
   },
   "properties": {
    "name": "UNIT 29, 59 INGRAM STREET NORTH WEST CAPE 6707",
    "locID": "LOC000029560818",
    "tech": "NULL",
    "upgrade": "NULL_NA",
    "gnaf_pid": "GAWA_720972268",
    "ee": true,
    "tech_change_status": "Not Planned"
   }
  },
  {
   "type": "Feature",
   "geometry": {
    "type": "Point",
    "coordinates": [
     114.12091337,
     -22.00931408
    ]
   },
   "properties": {
    "name": "UNIT 23, 59 INGRAM STREET NORTH WEST CAPE 6707",
    "locID": "LOC000029560818",
    "tech": "NULL",
    "upgrade": "NULL_NA",
    "gnaf_pid": "GAWA_720972344",
    "ee": true,
    "tech_change_status": "Not Planned"
   }
  },
  {
   "type": "Feature",
   "geometry": {
    "type": "Point",
    "coordinates": [
     114.12091337,
     -22.00931408
    ]
   },
   "properties": {
    "name": "UNIT 24, 59 INGRAM STREET NORTH WEST CAPE 6707",
    "locID": "LOC000029560818",
    "tech": "NULL",
    "upgrade": "NULL_NA",
    "gnaf_pid": "GAWA_720972366",
    "ee": true,
    "tech_change_status": "Not Planned"
   }
  },
  {
   "type": "Feature",
   "geometry": {
    "type": "Point",
    "coordinates": [
     114.12091337,
     -22.00931408
    ]
   },
   "properties": {
    "name": "UNIT 31, 59 INGRAM STREET NORTH WEST CAPE 6707",
    "locID": "LOC000029560818",
    "tech": "NULL",
    "upgrade": "NULL_NA",
    "gnaf_pid": "GAWA_720972557",
    "ee": true,
    "tech_change_status": "Not Planned"
   }
  },
  {
   "type": "Feature",
   "geometry": {
    "type": "Point",
    "coordinates": [
     114.12091337,
     -22.00931408
    ]
   },
   "properties": {
    "name": "UNIT 30, 59 INGRAM STREET NORTH WEST CAPE 6707",
    "locID": "LOC000029560818",
    "tech": "NULL",
    "upgrade": "NULL_NA",
    "gnaf_pid": "GAWA_720972627",
    "ee": true,
    "tech_change_status": "Not Planned"
   }
  },
  {
   "type": "Feature",
   "geometry": {
    "type": "Point",
    "coordinates": [
     114.12091337,
     -22.00931408
    ]
   },
   "properties": {
    "name": "UNIT 13, 59 INGRAM STREET NORTH WEST CAPE 6707",
    "locID": "LOC000029560818",
    "tech": "NULL",
    "upgrade": "NULL_NA",
    "gnaf_pid": "GAWA_720972923",
    "ee": true,
    "tech_change_status": "Not Planned"
   }
  },
  {
   "type": "Feature",
   "geometry": {
    "type": "Point",
    "coordinates": [
     114.12091337,
     -22.00931408
    ]
   },
   "properties": {
    "name": "UNIT 10, 59 INGRAM STREET NORTH WEST CAPE 6707",
    "locID": "LOC000029560818",
    "tech": "NULL",
    "upgrade": "NULL_NA",
    "gnaf_pid": "GAWA_720972980",
    "ee": true,
    "tech_change_status": "Not Planned"
   }
  },
  {
   "type": "Feature",
   "geometry": {
    "type": "Point",
    "coordinates": [
     114.12091337,
     -22.00931408
    ]
   },
   "properties": {
    "name": "UNIT 17, 59 INGRAM STREET NORTH WEST CAPE 6707",
    "locID": "LOC000029560818",
    "tech": "NULL",
    "upgrade": "NULL_NA",
    "gnaf_pid": "GAWA_720973333",
    "ee": true,
    "tech_change_status": "Not Planned"
   }
  },
  {
   "type": "Feature",
   "geometry": {
    "type": "Point",
    "coordinates": [
     114.12091337,
     -22.00931408
    ]
   },
   "properties": {
    "name": "UNIT 32, 59 INGRAM STREET NORTH WEST CAPE 6707",
    "locID": "LOC000029560818",
    "tech": "NULL",
    "upgrade": "NULL_NA",
    "gnaf_pid": "GAWA_720973431",
    "ee": true,
    "tech_change_status": "Not Planned"
   }
  },
  {
   "type": "Feature",
   "geometry": {
    "type": "Point",
    "coordinates": [
     114.12091337,
     -22.00931408
    ]
   },
   "properties": {
    "name": "UNIT 14, 59 INGRAM STREET NORTH WEST CAPE 6707",
    "locID": "LOC000029560818",
    "tech": "NULL",
    "upgrade": "NULL_NA",
    "gnaf_pid": "GAWA_720973483",
    "ee": true,
    "tech_change_status": "Not Planned"
   }
  },
  {
   "type": "Feature",
   "geometry": {
    "type": "Point",
    "coordinates": [
     114.12091337,
     -22.00931408
    ]
   },
   "properties": {
    "name": "UNIT 16, 59 INGRAM STREET NORTH WEST CAPE 6707",
    "locID": "LOC000029560818",
    "tech": "NULL",
    "upgrade": "NULL_NA",
    "gnaf_pid": "GAWA_720973516",
    "ee": true,
    "tech_change_status": "Not Planned"
   }
  },
  {
   "type": "Feature",
   "geometry": {
    "type": "Point",
    "coordinates": [
     114.12091337,
     -22.00931408
    ]
   },
   "properties": {
    "name": "UNIT 5, 59 INGRAM STREET NORTH WEST CAPE 6707",
    "locID": "LOC000029560818",
    "tech": "NULL",
    "upgrade": "NULL_NA",
    "gnaf_pid": "GAWA_720973541",
    "ee": true,
    "tech_change_status": "Not Planned"
   }
  },
  {
   "type": "Feature",
   "geometry": {
    "type": "Point",
    "coordinates": [
     114.12091337,
     -22.00931408
    ]
   },
   "properties": {
    "name": "UNIT 25, 59 INGRAM STREET NORTH WEST CAPE 6707",
    "locID": "LOC000029560818",
    "tech": "NULL",
    "upgrade": "NULL_NA",
    "gnaf_pid": "GAWA_720973610",
    "ee": true,
    "tech_change_status": "Not Planned"
   }
  },
  {
   "type": "Feature",
   "geometry": {
    "type": "Point",
    "coordinates": [
     114.12091337,
     -22.00931408
    ]
   },
   "properties": {
    "name": "UNIT 19, 59 INGRAM STREET NORTH WEST CAPE 6707",
    "locID": "LOC000029560818",
    "tech": "NULL",
    "upgrade": "NULL_NA",
    "gnaf_pid": "GAWA_720973846",
    "ee": true,
    "tech_change_status": "Not Planned"
   }
  },
  {
   "type": "Feature",
   "geometry": {
    "type": "Point",
    "coordinates": [
     114.12091337,
     -22.00931408
    ]
   },
   "properties": {
    "name": "UNIT 1, 59 INGRAM STREET NORTH WEST CAPE 6707",
    "locID": "LOC000029560818",
    "tech": "NULL",
    "upgrade": "NULL_NA",
    "gnaf_pid": "GAWA_720973860",
    "ee": true,
    "tech_change_status": "Not Planned"
   }
  },
  {
   "type": "Feature",
   "geometry": {
    "type": "Point",
    "coordinates": [
     114.12091337,
     -22.00931408
    ]
   },
   "properties": {
    "name": "UNIT 6, 59 INGRAM STREET NORTH WEST CAPE 6707",
    "locID": "LOC000029560818",
    "tech": "NULL",
    "upgrade": "NULL_NA",
    "gnaf_pid": "GAWA_720973909",
    "ee": true,
    "tech_change_status": "Not Planned"
   }
  },
  {
   "type": "Feature",
   "geometry": {
    "type": "Point",
    "coordinates": [
     114.12091337,
     -22.00931408
    ]
   },
   "properties": {
    "name": "UNIT 27, 59 INGRAM STREET NORTH WEST CAPE 6707",
    "locID": "LOC000029560818",
    "tech": "NULL",
    "upgrade": "NULL_NA",
    "gnaf_pid": "GAWA_720974119",
    "ee": true,
    "tech_change_status": "Not Planned"
   }
  },
  {
   "type": "Feature",
   "geometry": {
    "type": "Point",
    "coordinates": [
     114.12091337,
     -22.00931408
    ]
   },
   "properties": {
    "name": "UNIT 12, 59 INGRAM STREET NORTH WEST CAPE 6707",
    "locID": "LOC000029560818",
    "tech": "NULL",
    "upgrade": "NULL_NA",
    "gnaf_pid": "GAWA_720974277",
    "ee": true,
    "tech_change_status": "Not Planned"
   }
  },
  {
   "type": "Feature",
   "geometry": {
    "type": "Point",
    "coordinates": [
     114.12091337,
     -22.00931408
    ]
   },
   "properties": {
    "name": "UNIT 8, 59 INGRAM STREET NORTH WEST CAPE 6707",
    "locID": "LOC000029560818",
    "tech": "NULL",
    "upgrade": "NULL_NA",
    "gnaf_pid": "GAWA_720974383",
    "ee": true,
    "tech_change_status": "Not Planned"
   }
  },
  {
   "type": "Feature",
   "geometry": {
    "type": "Point",
    "coordinates": [
     114.12091337,
     -22.00931408
    ]
   },
   "properties": {
    "name": "UNIT 22, 59 INGRAM STREET NORTH WEST CAPE 6707",
    "locID": "LOC000029560818",
    "tech": "NULL",
    "upgrade": "NULL_NA",
    "gnaf_pid": "GAWA_720974431",
    "ee": true,
    "tech_change_status": "Not Planned"
   }
  },
  {
   "type": "Feature",
   "geometry": {
    "type": "Point",
    "coordinates": [
     114.12091337,
     -22.00931408
    ]
   },
   "properties": {
    "name": "UNIT 2, 59 INGRAM STREET NORTH WEST CAPE 6707",
    "locID": "LOC000029560818",
    "tech": "NULL",
    "upgrade": "NULL_NA",
    "gnaf_pid": "GAWA_720974464",
    "ee": true,
    "tech_change_status": "Not Planned"
   }
  },
  {
   "type": "Feature",
   "geometry": {
    "type": "Point",
    "coordinates": [
     114.12091337,
     -22.00931408
    ]
   },
   "properties": {
    "name": "UNIT 26, 59 INGRAM STREET NORTH WEST CAPE 6707",
    "locID": "LOC000029560818",
    "tech": "NULL",
    "upgrade": "NULL_NA",
    "gnaf_pid": "GAWA_720974550",
    "ee": true,
    "tech_change_status": "Not Planned"
   }
  },
  {
   "type": "Feature",
   "geometry": {
    "type": "Point",
    "coordinates": [
     114.12091337,
     -22.00931408
    ]
   },
   "properties": {
    "name": "UNIT 18, 59 INGRAM STREET NORTH WEST CAPE 6707",
    "locID": "LOC000029560818",
    "tech": "NULL",
    "upgrade": "NULL_NA",
    "gnaf_pid": "GAWA_720974609",
    "ee": true,
    "tech_change_status": "Not Planned"
   }
  },
  {
   "type": "Feature",
   "geometry": {
    "type": "Point",
    "coordinates": [
     114.12091337,
     -22.00931408
    ]
   },
   "properties": {
    "name": "UNIT 11, 59 INGRAM STREET NORTH WEST CAPE 6707",
    "locID": "LOC000029560818",
    "tech": "NULL",
    "upgrade": "NULL_NA",
    "gnaf_pid": "GAWA_720974654",
    "ee": true,
    "tech_change_status": "Not Planned"
   }
  },
  {
   "type": "Feature",
   "geometry": {
    "type": "Point",
    "coordinates": [
     114.12091337,
     -22.00931408
    ]
   },
   "properties": {
    "name": "UNIT 4, 59 INGRAM STREET NORTH WEST CAPE 6707",
    "locID": "LOC000029560818",
    "tech": "NULL",
    "upgrade": "NULL_NA",
    "gnaf_pid": "GAWA_720974708",
    "ee": true,
    "tech_change_status": "Not Planned"
   }
  },
  {
   "type": "Feature",
   "geometry": {
    "type": "Point",
    "coordinates": [
     114.12091337,
     -22.00931408
    ]
   },
   "properties": {
    "name": "UNIT 21, 59 INGRAM STREET NORTH WEST CAPE 6707",
    "locID": "LOC000029560818",
    "tech": "NULL",
    "upgrade": "NULL_NA",
    "gnaf_pid": "GAWA_720974845",
    "ee": true,
    "tech_change_status": "Not Planned"
   }
  },
  {
   "type": "Feature",
   "geometry": {
    "type": "Point",
    "coordinates": [
     114.12091337,
     -22.00931408
    ]
   },
   "properties": {
    "name": "UNIT 7, 59 INGRAM STREET NORTH WEST CAPE 6707",
    "locID": "LOC000029560818",
    "tech": "NULL",
    "upgrade": "NULL_NA",
    "gnaf_pid": "GAWA_720975214",
    "ee": true,
    "tech_change_status": "Not Planned"
   }
  },
  {
   "type": "Feature",
   "geometry": {
    "type": "Point",
    "coordinates": [
     114.12091337,
     -22.00931408
    ]
   },
   "properties": {
    "name": "UNIT 15, 59 INGRAM STREET NORTH WEST CAPE 6707",
    "locID": "LOC000029560818",
    "tech": "NULL",
    "upgrade": "NULL_NA",
    "gnaf_pid": "GAWA_720975329",
    "ee": true,
    "tech_change_status": "Not Planned"
   }
  },
  {
   "type": "Feature",
   "geometry": {
    "type": "Point",
    "coordinates": [
     114.12091337,
     -22.00931408
    ]
   },
   "properties": {
    "name": "UNIT 33, 59 INGRAM STREET NORTH WEST CAPE 6707",
    "locID": "LOC000029560818",
    "tech": "NULL",
    "upgrade": "NULL_NA",
    "gnaf_pid": "GAWA_721016694",
    "ee": true,
    "tech_change_status": "Not Planned"
   }
  }
 ]
}