{
 "type": "FeatureCollection",
 "generated": "2025-06-19T12:58:06.906516",
 "suburb": "ORCHID VALLEY",
 "features": [
  {
   "type": "Feature",
   "geometry": {
    "type": "Point",
    "coordinates": [
     116.95455444,
     -33.92664961
    ]
   },
   "properties": {
    "name": "785 PARKER ROAD ORCHID VALLEY 6394",
    "locID": "LOC000148163691",
    "tech": "NULL",
    "upgrade": "NULL_NA",
    "gnaf_pid": "GAWA_719053959",
    "ee": true,
    "tech_change_status": "Not Planned"
   }
  },
  {
   "type": "Feature",
   "geometry": {
    "type": "Point",
    "coordinates": [
     116.8989645,
     -33.97599066
    ]
   },
   "properties": {
    "name": "1565 TONE ROAD ORCHID VALLEY 6394",
    "locID": "LOC000170802036",
    "tech": "SATELLITE",
    "upgrade": "NULL_NA",
    "gnaf_pid": "GAWA_719053960",
    "ee": true,
    "tech_change_status": "Not Planned"
   }
  },
  {
   "type": "Feature",
   "geometry": {
    "type": "Point",
    "coordinates": [
     116.90724442,
     -33.95514598
    ]
   },
   "properties": {
    "name": "1127 TONE ROAD ORCHID VALLEY 6394",
    "locID": "LOC100071990167",
    "tech": "NULL",
    "upgrade": "NULL_NA",
    "gnaf_pid": "GAWA_719054231",
    "ee": true,
    "tech_change_status": "Not Planned"
   }
  },
  {
   "type": "Feature",
   "geometry": {
    "type": "Point",
    "coordinates": [
     116.82240838,
     -33.98128861
    ]
   },
   "properties": {
    "name": "802 ERISWELL ROAD ORCHID VALLEY 6394",
    "locID": "LOC100071990840",
    "tech": "NULL",
    "upgrade": "NULL_NA",
    "gnaf_pid": "GAWA_719054232",
    "ee": false,
    "tech_change_status": "Not Planned"
   }
  },
  {
   "type": "Feature",
   "geometry": {
    "type": "Point",
    "coordinates": [
     116.93624587,
     -33.94264591
    ]
   },
   "properties": {
    "name": "358 WOODENUP ROAD ORCHID VALLEY 6394",
    "locID": "LOC100071989982",
    "tech": "NULL",
    "upgrade": "NULL_NA",
    "gnaf_pid": "GAWA_719054470",
    "ee": true,
    "tech_change_status": "Not Planned"
   }
  },
  {
   "type": "Feature",
   "geometry": {
    "type": "Point",
    "coordinates": [
     116.84519503,
     -33.94912201
    ]
   },
   "properties": {
    "name": "180 ERISWELL ROAD ORCHID VALLEY 6394",
    "locID": "LOC000148160444",
    "tech": "SATELLITE",
    "upgrade": "NULL_NA",
    "gnaf_pid": "GAWA_719054473",
    "ee": false,
    "tech_change_status": "Not Planned"
   }
  },
  {
   "type": "Feature",
   "geometry": {
    "type": "Point",
    "coordinates": [
     116.88450274,
     -33.97873417
    ]
   },
   "properties": {
    "name": "1638 TONE ROAD ORCHID VALLEY 6394",
    "locID": "LOC100078090911",
    "tech": "NULL",
    "upgrade": "NULL_NA",
    "gnaf_pid": "GAWA_719054689",
    "ee": false,
    "tech_change_status": "Not Planned"
   }
  },
  {
   "type": "Feature",
   "geometry": {
    "type": "Point",
    "coordinates": [
     116.79324661,
     -33.97715032
    ]
   },
   "properties": {
    "name": "747 TENNER ROAD ORCHID VALLEY 6394",
    "locID": "LOC100071990727",
    "tech": "NULL",
    "upgrade": "NULL_NA",
    "gnaf_pid": "GAWA_719054691",
    "ee": false,
    "tech_change_status": "Not Planned"
   }
  },
  {
   "type": "Feature",
   "geometry": {
    "type": "Point",
    "coordinates": [
     116.86436971,
     -33.98588021
    ]
   },
   "properties": {
    "name": "100 DUNCAN ROAD ORCHID VALLEY 6394",
    "locID": "LOC100079779327",
    "tech": "NULL",
    "upgrade": "NULL_NA",
    "gnaf_pid": "GAWA_719054920",
    "ee": false,
    "tech_change_status": "Not Planned"
   }
  },
  {
   "type": "Feature",
   "geometry": {
    "type": "Point",
    "coordinates": [
     116.81586167,
     -34.02846155
    ]
   },
   "properties": {
    "name": "1333 TENNER ROAD ORCHID VALLEY 6394",
    "locID": "LOC100071992129",
    "tech": "NULL",
    "upgrade": "NULL_NA",
    "gnaf_pid": "GAWA_719055177",
    "ee": false,
    "tech_change_status": "Not Planned"
   }
  },
  {
   "type": "Feature",
   "geometry": {
    "type": "Point",
    "coordinates": [
     116.85436359,
     -34.01801013
    ]
   },
   "properties": {
    "name": "2012 TONE ROAD ORCHID VALLEY 6394",
    "locID": "LOC100071991902",
    "tech": "SATELLITE",
    "upgrade": "NULL_NA",
    "gnaf_pid": "GAWA_719055178",
    "ee": false,
    "tech_change_status": "Not Planned"
   }
  },
  {
   "type": "Feature",
   "geometry": {
    "type": "Point",
    "coordinates": [
     116.88950547,
     -33.99956449
    ]
   },
   "properties": {
    "name": "1769 TONE ROAD ORCHID VALLEY 6394",
    "locID": "LOC100071991301",
    "tech": "NULL",
    "upgrade": "NULL_NA",
    "gnaf_pid": "GAWA_719055179",
    "ee": false,
    "tech_change_status": "Not Planned"
   }
  },
  {
   "type": "Feature",
   "geometry": {
    "type": "Point",
    "coordinates": [
     116.75833497,
     -33.99320233
    ]
   },
   "properties": {
    "name": "42 HARDINGHAM ROAD ORCHID VALLEY 6394",
    "locID": "LOC100071991113",
    "tech": "NULL",
    "upgrade": "NULL_NA",
    "gnaf_pid": "GAWA_719055180",
    "ee": false,
    "tech_change_status": "Not Planned"
   }
  },
  {
   "type": "Feature",
   "geometry": {
    "type": "Point",
    "coordinates": [
     116.96501033,
     -33.9201828
    ]
   },
   "properties": {
    "name": "172 WOODENUP ROAD ORCHID VALLEY 6394",
    "locID": "LOC100071989656",
    "tech": "NULL",
    "upgrade": "NULL_NA",
    "gnaf_pid": "GAWA_719055181",
    "ee": true,
    "tech_change_status": "Not Planned"
   }
  },
  {
   "type": "Feature",
   "geometry": {
    "type": "Point",
    "coordinates": [
     116.79208055,
     -33.9632675
    ]
   },
   "properties": {
    "name": "509 TENNER ROAD ORCHID VALLEY 6394",
    "locID": "LOC100071990339",
    "tech": "NULL",
    "upgrade": "NULL_NA",
    "gnaf_pid": "GAWA_719055429",
    "ee": false,
    "tech_change_status": "Not Planned"
   }
  },
  {
   "type": "Feature",
   "geometry": {
    "type": "Point",
    "coordinates": [
     116.87914921,
     -33.93621338
    ]
   },
   "properties": {
    "name": "712 ORCHID VALLEY ROAD ORCHID VALLEY 6394",
    "locID": "LOC100071989809",
    "tech": "NULL",
    "upgrade": "NULL_NA",
    "gnaf_pid": "GAWA_719055430",
    "ee": true,
    "tech_change_status": "Not Planned"
   }
  },
  {
   "type": "Feature",
   "geometry": {
    "type": "Point",
    "coordinates": [
     116.79033117,
     -33.95426216
    ]
   },
   "properties": {
    "name": "803 EATT ROAD ORCHID VALLEY 6394",
    "locID": "LOC100071990122",
    "tech": "NULL",
    "upgrade": "NULL_NA",
    "gnaf_pid": "GAWA_719055431",
    "ee": false,
    "tech_change_status": "Not Planned"
   }
  },
  {
   "type": "Feature",
   "geometry": {
    "type": "Point",
    "coordinates": [
     116.81458757,
     -33.99525561
    ]
   },
   "properties": {
    "name": "1095 TENNER ROAD ORCHID VALLEY 6394",
    "locID": "LOC100078091164",
    "tech": "NULL",
    "upgrade": "NULL_NA",
    "gnaf_pid": "GAWA_719055653",
    "ee": false,
    "tech_change_status": "Not Planned"
   }
  },
  {
   "type": "Feature",
   "geometry": {
    "type": "Point",
    "coordinates": [
     116.84567814,
     -33.93950928
    ]
   },
   "properties": {
    "name": "134 ERISWELL ROAD ORCHID VALLEY 6394",
    "locID": "LOC100071989832",
    "tech": "NULL",
    "upgrade": "NULL_NA",
    "gnaf_pid": "GAWA_719055654",
    "ee": false,
    "tech_change_status": "Not Planned"
   }
  },
  {
   "type": "Feature",
   "geometry": {
    "type": "Point",
    "coordinates": [
     116.83297644,
     -33.96700721
    ]
   },
   "properties": {
    "name": "352 ERISWELL ROAD ORCHID VALLEY 6394",
    "locID": "LOC100071990497",
    "tech": "NULL",
    "upgrade": "NULL_NA",
    "gnaf_pid": "GAWA_719055655",
    "ee": false,
    "tech_change_status": "Not Planned"
   }
  },
  {
   "type": "Feature",
   "geometry": {
    "type": "Point",
    "coordinates": [
     116.83307388,
     -33.94164664
    ]
   },
   "properties": {
    "name": "333 EATT ROAD ORCHID VALLEY 6394",
    "locID": "LOC000148160369",
    "tech": "SATELLITE",
    "upgrade": "NULL_NA",
    "gnaf_pid": "GAWA_719055656",
    "ee": false,
    "tech_change_status": "Not Planned"
   }
  },
  {
   "type": "Feature",
   "geometry": {
    "type": "Point",
    "coordinates": [
     116.79936379,
     -34.01355176
    ]
   },
   "properties": {
    "name": "1226 TENNER ROAD ORCHID VALLEY 6394",
    "locID": "LOC100078091350",
    "tech": "NULL",
    "upgrade": "NULL_NA",
    "gnaf_pid": "GAWA_719055657",
    "ee": false,
    "tech_change_status": "Not Planned"
   }
  },
  {
   "type": "Feature",
   "geometry": {
    "type": "Point",
    "coordinates": [
     116.79433742,
     -34.00435721
    ]
   },
   "properties": {
    "name": "1100 TENNER ROAD ORCHID VALLEY 6394",
    "locID": "LOC000148164859",
    "tech": "NULL",
    "upgrade": "NULL_NA",
    "gnaf_pid": "GAWA_719055658",
    "ee": false,
    "tech_change_status": "Not Planned"
   }
  }
 ]
}