{
 "type": "FeatureCollection",
 "generated": "2025-06-19T13:02:56.756337",
 "suburb": "PEACEFUL BAY",
 "features": [
  {
   "type": "Feature",
   "geometry": {
    "type": "Point",
    "coordinates": [
     116.92831466,
     -35.03968516
    ]
   },
   "properties": {
    "name": "22 FIRST AVENUE PEACEFUL BAY 6333",
    "locID": "LOC000064219043",
    "tech": "WIRELESS",
    "upgrade": "NULL_NA",
    "gnaf_pid": "GAWA_161600775",
    "ee": false,
    "tech_change_status": "Not Planned",
    "program_type": "Fixed Wireless and Satellite Upgrade Program",
    "target_eligibility_quarter": "NA"
   }
  },
  {
   "type": "Feature",
   "geometry": {
    "type": "Point",
    "coordinates": [
     116.92390974,
     -35.0317927
    ]
   },
   "properties": {
    "name": "LOT 1424 PEACEFUL BAY ROAD PEACEFUL BAY 6333",
    "locID": "LOC000143012571",
    "tech": "WIRELESS",
    "upgrade": "NULL_NA",
    "gnaf_pid": "GAWA_161607802",
    "ee": false,
    "tech_change_status": "Not Planned",
    "program_type": "Fixed Wireless and Satellite Upgrade Program",
    "target_eligibility_quarter": "NA"
   }
  },
  {
   "type": "Feature",
   "geometry": {
    "type": "Point",
    "coordinates": [
     116.92831466,
     -35.03968516
    ]
   },
   "properties": {
    "name": "36 SECOND AVENUE PEACEFUL BAY 6333",
    "locID": "LOC000171792363",
    "tech": "WIRELESS",
    "upgrade": "NULL_NA",
    "gnaf_pid": "GAWA_161610061",
    "ee": false,
    "tech_change_status": "Not Planned",
    "program_type": "Fixed Wireless and Satellite Upgrade Program",
    "target_eligibility_quarter": "NA"
   }
  },
  {
   "type": "Feature",
   "geometry": {
    "type": "Point",
    "coordinates": [
     116.906614,
     -35.033405
    ]
   },
   "properties": {
    "name": "261 FICIFOLIA ROAD PEACEFUL BAY 6333",
    "locID": "LOC000142986245",
    "tech": "WIRELESS",
    "upgrade": "NULL_NA",
    "gnaf_pid": "GAWA_162244243",
    "ee": false,
    "tech_change_status": "Not Planned",
    "program_type": "Fixed Wireless and Satellite Upgrade Program",
    "target_eligibility_quarter": "NA"
   }
  },
  {
   "type": "Feature",
   "geometry": {
    "type": "Point",
    "coordinates": [
     116.925895,
     -35.03999861
    ]
   },
   "properties": {
    "name": "LOT 21 FIRST AVENUE PEACEFUL BAY 6333",
    "locID": "LOC100017917924",
    "tech": "WIRELESS",
    "upgrade": "NULL_NA",
    "gnaf_pid": "GAWA_162784342",
    "ee": false,
    "tech_change_status": "Not Planned",
    "program_type": "Fixed Wireless and Satellite Upgrade Program",
    "target_eligibility_quarter": "NA"
   }
  },
  {
   "type": "Feature",
   "geometry": {
    "type": "Point",
    "coordinates": [
     116.925895,
     -35.03999861
    ]
   },
   "properties": {
    "name": "LOT 22 FIRST AVENUE PEACEFUL BAY 6333",
    "locID": "LOC000064219043",
    "tech": "WIRELESS",
    "upgrade": "NULL_NA",
    "gnaf_pid": "GAWA_162784343",
    "ee": false,
    "tech_change_status": "Not Planned",
    "program_type": "Fixed Wireless and Satellite Upgrade Program",
    "target_eligibility_quarter": "NA"
   }
  },
  {
   "type": "Feature",
   "geometry": {
    "type": "Point",
    "coordinates": [
     116.925895,
     -35.03999861
    ]
   },
   "properties": {
    "name": "LOT 23 FIRST AVENUE PEACEFUL BAY 6333",
    "locID": "LOC000169832321",
    "tech": "WIRELESS",
    "upgrade": "NULL_NA",
    "gnaf_pid": "GAWA_162784344",
    "ee": false,
    "tech_change_status": "Not Planned",
    "program_type": "Fixed Wireless and Satellite Upgrade Program",
    "target_eligibility_quarter": "NA"
   }
  },
  {
   "type": "Feature",
   "geometry": {
    "type": "Point",
    "coordinates": [
     116.92831466,
     -35.03968516
    ]
   },
   "properties": {
    "name": "1 PEACEFUL BAY ROAD PEACEFUL BAY 6333",
    "locID": "LOC100055760526",
    "tech": "WIRELESS",
    "upgrade": "NULL_NA",
    "gnaf_pid": "GAWA_163202110",
    "ee": false,
    "tech_change_status": "Not Planned",
    "program_type": "Fixed Wireless and Satellite Upgrade Program",
    "target_eligibility_quarter": "NA"
   }
  },
  {
   "type": "Feature",
   "geometry": {
    "type": "Point",
    "coordinates": [
     116.92140482,
     -35.03858484
    ]
   },
   "properties": {
    "name": "8 RAME HEAD ROAD PEACEFUL BAY 6333",
    "locID": "LOC100032019562",
    "tech": "WIRELESS",
    "upgrade": "NULL_NA",
    "gnaf_pid": "GAWA_718512129",
    "ee": false,
    "tech_change_status": "Not Planned",
    "program_type": "Fixed Wireless and Satellite Upgrade Program",
    "target_eligibility_quarter": "NA"
   }
  },
  {
   "type": "Feature",
   "geometry": {
    "type": "Point",
    "coordinates": [
     116.92831466,
     -35.03968516
    ]
   },
   "properties": {
    "name": "10 SECOND AVENUE PEACEFUL BAY 6333",
    "locID": "LOC100055760382",
    "tech": "WIRELESS",
    "upgrade": "NULL_NA",
    "gnaf_pid": "GAWA_718512208",
    "ee": false,
    "tech_change_status": "Not Planned",
    "program_type": "Fixed Wireless and Satellite Upgrade Program",
    "target_eligibility_quarter": "NA"
   }
  },
  {
   "type": "Feature",
   "geometry": {
    "type": "Point",
    "coordinates": [
     116.92831466,
     -35.03968516
    ]
   },
   "properties": {
    "name": "12 SECOND AVENUE PEACEFUL BAY 6333",
    "locID": "LOC100055760808",
    "tech": "WIRELESS",
    "upgrade": "NULL_NA",
    "gnaf_pid": "GAWA_718512209",
    "ee": false,
    "tech_change_status": "Not Planned",
    "program_type": "Fixed Wireless and Satellite Upgrade Program",
    "target_eligibility_quarter": "NA"
   }
  },
  {
   "type": "Feature",
   "geometry": {
    "type": "Point",
    "coordinates": [
     116.92831466,
     -35.03968516
    ]
   },
   "properties": {
    "name": "32 SECOND AVENUE PEACEFUL BAY 6333",
    "locID": "LOC100055759942",
    "tech": "WIRELESS",
    "upgrade": "NULL_NA",
    "gnaf_pid": "GAWA_718512210",
    "ee": false,
    "tech_change_status": "Not Planned",
    "program_type": "Fixed Wireless and Satellite Upgrade Program",
    "target_eligibility_quarter": "NA"
   }
  },
  {
   "type": "Feature",
   "geometry": {
    "type": "Point",
    "coordinates": [
     116.92831466,
     -35.03968516
    ]
   },
   "properties": {
    "name": "37 SECOND AVENUE PEACEFUL BAY 6333",
    "locID": "LOC100024219732",
    "tech": "WIRELESS",
    "upgrade": "NULL_NA",
    "gnaf_pid": "GAWA_718512211",
    "ee": false,
    "tech_change_status": "Not Planned",
    "program_type": "Fixed Wireless and Satellite Upgrade Program",
    "target_eligibility_quarter": "NA"
   }
  },
  {
   "type": "Feature",
   "geometry": {
    "type": "Point",
    "coordinates": [
     116.92831466,
     -35.03968516
    ]
   },
   "properties": {
    "name": "39 SECOND AVENUE PEACEFUL BAY 6333",
    "locID": "LOC100016442841",
    "tech": "WIRELESS",
    "upgrade": "NULL_NA",
    "gnaf_pid": "GAWA_718512212",
    "ee": false,
    "tech_change_status": "Not Planned",
    "program_type": "Fixed Wireless and Satellite Upgrade Program",
    "target_eligibility_quarter": "NA"
   }
  },
  {
   "type": "Feature",
   "geometry": {
    "type": "Point",
    "coordinates": [
     116.92831466,
     -35.03968516
    ]
   },
   "properties": {
    "name": "5 SECOND AVENUE PEACEFUL BAY 6333",
    "locID": "LOC000173754867",
    "tech": "WIRELESS",
    "upgrade": "NULL_NA",
    "gnaf_pid": "GAWA_718512213",
    "ee": false,
    "tech_change_status": "Not Planned",
    "program_type": "Fixed Wireless and Satellite Upgrade Program",
    "target_eligibility_quarter": "NA"
   }
  },
  {
   "type": "Feature",
   "geometry": {
    "type": "Point",
    "coordinates": [
     116.92831466,
     -35.03968516
    ]
   },
   "properties": {
    "name": "6 SECOND AVENUE PEACEFUL BAY 6333",
    "locID": "LOC100055760018",
    "tech": "WIRELESS",
    "upgrade": "NULL_NA",
    "gnaf_pid": "GAWA_718512214",
    "ee": false,
    "tech_change_status": "Not Planned",
    "program_type": "Fixed Wireless and Satellite Upgrade Program",
    "target_eligibility_quarter": "NA"
   }
  },
  {
   "type": "Feature",
   "geometry": {
    "type": "Point",
    "coordinates": [
     116.91774604,
     -35.03819811
    ]
   },
   "properties": {
    "name": "11 WILLIAMS ROAD PEACEFUL BAY 6333",
    "locID": "LOC100055760672",
    "tech": "WIRELESS",
    "upgrade": "NULL_NA",
    "gnaf_pid": "GAWA_718512582",
    "ee": false,
    "tech_change_status": "Not Planned",
    "program_type": "Fixed Wireless and Satellite Upgrade Program",
    "target_eligibility_quarter": "NA"
   }
  },
  {
   "type": "Feature",
   "geometry": {
    "type": "Point",
    "coordinates": [
     116.91861124,
     -35.03803125
    ]
   },
   "properties": {
    "name": "14 WILLIAMS ROAD PEACEFUL BAY 6333",
    "locID": "LOC100055760526",
    "tech": "WIRELESS",
    "upgrade": "NULL_NA",
    "gnaf_pid": "GAWA_718512583",
    "ee": false,
    "tech_change_status": "Not Planned",
    "program_type": "Fixed Wireless and Satellite Upgrade Program",
    "target_eligibility_quarter": "NA"
   }
  },
  {
   "type": "Feature",
   "geometry": {
    "type": "Point",
    "coordinates": [
     116.91867401,
     -35.0378574
    ]
   },
   "properties": {
    "name": "16 WILLIAMS ROAD PEACEFUL BAY 6333",
    "locID": "LOC100055759988",
    "tech": "WIRELESS",
    "upgrade": "NULL_NA",
    "gnaf_pid": "GAWA_718512584",
    "ee": false,
    "tech_change_status": "Not Planned",
    "program_type": "Fixed Wireless and Satellite Upgrade Program",
    "target_eligibility_quarter": "NA"
   }
  },
  {
   "type": "Feature",
   "geometry": {
    "type": "Point",
    "coordinates": [
     116.91796569,
     -35.0375898
    ]
   },
   "properties": {
    "name": "17 WILLIAMS ROAD PEACEFUL BAY 6333",
    "locID": "LOC100055760629",
    "tech": "WIRELESS",
    "upgrade": "NULL_NA",
    "gnaf_pid": "GAWA_718512585",
    "ee": false,
    "tech_change_status": "Not Planned",
    "program_type": "Fixed Wireless and Satellite Upgrade Program",
    "target_eligibility_quarter": "NA"
   }
  },
  {
   "type": "Feature",
   "geometry": {
    "type": "Point",
    "coordinates": [
     116.91873678,
     -35.03768356
    ]
   },
   "properties": {
    "name": "18 WILLIAMS ROAD PEACEFUL BAY 6333",
    "locID": "LOC100055760590",
    "tech": "WIRELESS",
    "upgrade": "NULL_NA",
    "gnaf_pid": "GAWA_718512586",
    "ee": false,
    "tech_change_status": "Not Planned",
    "program_type": "Fixed Wireless and Satellite Upgrade Program",
    "target_eligibility_quarter": "NA"
   }
  },
  {
   "type": "Feature",
   "geometry": {
    "type": "Point",
    "coordinates": [
     116.91879954,
     -35.03750976
    ]
   },
   "properties": {
    "name": "20 WILLIAMS ROAD PEACEFUL BAY 6333",
    "locID": "LOC100055759974",
    "tech": "WIRELESS",
    "upgrade": "NULL_NA",
    "gnaf_pid": "GAWA_718512587",
    "ee": false,
    "tech_change_status": "Not Planned",
    "program_type": "Fixed Wireless and Satellite Upgrade Program",
    "target_eligibility_quarter": "NA"
   }
  },
  {
   "type": "Feature",
   "geometry": {
    "type": "Point",
    "coordinates": [
     116.91805492,
     -35.03732928
    ]
   },
   "properties": {
    "name": "21 WILLIAMS ROAD PEACEFUL BAY 6333",
    "locID": "LOC100055760883",
    "tech": "WIRELESS",
    "upgrade": "NULL_NA",
    "gnaf_pid": "GAWA_718512588",
    "ee": false,
    "tech_change_status": "Not Planned",
    "program_type": "Fixed Wireless and Satellite Upgrade Program",
    "target_eligibility_quarter": "NA"
   }
  },
  {
   "type": "Feature",
   "geometry": {
    "type": "Point",
    "coordinates": [
     116.9188623,
     -35.03733596
    ]
   },
   "properties": {
    "name": "22 WILLIAMS ROAD PEACEFUL BAY 6333",
    "locID": "LOC100038477241",
    "tech": "WIRELESS",
    "upgrade": "NULL_NA",
    "gnaf_pid": "GAWA_718512589",
    "ee": false,
    "tech_change_status": "Not Planned",
    "program_type": "Fixed Wireless and Satellite Upgrade Program",
    "target_eligibility_quarter": "NA"
   }
  },
  {
   "type": "Feature",
   "geometry": {
    "type": "Point",
    "coordinates": [
     116.91888364,
     -35.03714415
    ]
   },
   "properties": {
    "name": "24 WILLIAMS ROAD PEACEFUL BAY 6333",
    "locID": "LOC100055760041",
    "tech": "WIRELESS",
    "upgrade": "NULL_NA",
    "gnaf_pid": "GAWA_718512590",
    "ee": false,
    "tech_change_status": "Not Planned",
    "program_type": "Fixed Wireless and Satellite Upgrade Program",
    "target_eligibility_quarter": "NA"
   }
  },
  {
   "type": "Feature",
   "geometry": {
    "type": "Point",
    "coordinates": [
     116.91824811,
     -35.03680766
    ]
   },
   "properties": {
    "name": "25 WILLIAMS ROAD PEACEFUL BAY 6333",
    "locID": "LOC100029280973",
    "tech": "WIRELESS",
    "upgrade": "NULL_NA",
    "gnaf_pid": "GAWA_718512591",
    "ee": false,
    "tech_change_status": "Not Planned",
    "program_type": "Fixed Wireless and Satellite Upgrade Program",
    "target_eligibility_quarter": "NA"
   }
  },
  {
   "type": "Feature",
   "geometry": {
    "type": "Point",
    "coordinates": [
     116.91758853,
     -35.03857036
    ]
   },
   "properties": {
    "name": "7 WILLIAMS ROAD PEACEFUL BAY 6333",
    "locID": "LOC100055760981",
    "tech": "WIRELESS",
    "upgrade": "NULL_NA",
    "gnaf_pid": "GAWA_718512592",
    "ee": false,
    "tech_change_status": "Not Planned",
    "program_type": "Fixed Wireless and Satellite Upgrade Program",
    "target_eligibility_quarter": "NA"
   }
  },
  {
   "type": "Feature",
   "geometry": {
    "type": "Point",
    "coordinates": [
     116.91842298,
     -35.0385526
    ]
   },
   "properties": {
    "name": "8 WILLIAMS ROAD PEACEFUL BAY 6333",
    "locID": "LOC100055760353",
    "tech": "WIRELESS",
    "upgrade": "NULL_NA",
    "gnaf_pid": "GAWA_718512593",
    "ee": false,
    "tech_change_status": "Not Planned",
    "program_type": "Fixed Wireless and Satellite Upgrade Program",
    "target_eligibility_quarter": "NA"
   }
  },
  {
   "type": "Feature",
   "geometry": {
    "type": "Point",
    "coordinates": [
     116.91768328,
     -35.03837192
    ]
   },
   "properties": {
    "name": "9 WILLIAMS ROAD PEACEFUL BAY 6333",
    "locID": "LOC100055760686",
    "tech": "WIRELESS",
    "upgrade": "NULL_NA",
    "gnaf_pid": "GAWA_718512594",
    "ee": false,
    "tech_change_status": "Not Planned",
    "program_type": "Fixed Wireless and Satellite Upgrade Program",
    "target_eligibility_quarter": "NA"
   }
  },
  {
   "type": "Feature",
   "geometry": {
    "type": "Point",
    "coordinates": [
     116.92001231,
     -35.0379533
    ]
   },
   "properties": {
    "name": "11 BAY COURT PEACEFUL BAY 6333",
    "locID": "LOC100023825043",
    "tech": "WIRELESS",
    "upgrade": "NULL_NA",
    "gnaf_pid": "GAWA_718520187",
    "ee": false,
    "tech_change_status": "Not Planned",
    "program_type": "Fixed Wireless and Satellite Upgrade Program",
    "target_eligibility_quarter": "NA"
   }
  },
  {
   "type": "Feature",
   "geometry": {
    "type": "Point",
    "coordinates": [
     116.92037365,
     -35.03794965
    ]
   },
   "properties": {
    "name": "13 BAY COURT PEACEFUL BAY 6333",
    "locID": "LOC100037191198",
    "tech": "WIRELESS",
    "upgrade": "NULL_NA",
    "gnaf_pid": "GAWA_718520188",
    "ee": false,
    "tech_change_status": "Not Planned",
    "program_type": "Fixed Wireless and Satellite Upgrade Program",
    "target_eligibility_quarter": "NA"
   }
  },
  {
   "type": "Feature",
   "geometry": {
    "type": "Point",
    "coordinates": [
     116.92037735,
     -35.03845414
    ]
   },
   "properties": {
    "name": "4 BAY COURT PEACEFUL BAY 6333",
    "locID": "LOC100020579018",
    "tech": "WIRELESS",
    "upgrade": "NULL_NA",
    "gnaf_pid": "GAWA_718520192",
    "ee": false,
    "tech_change_status": "Not Planned",
    "program_type": "Fixed Wireless and Satellite Upgrade Program",
    "target_eligibility_quarter": "NA"
   }
  },
  {
   "type": "Feature",
   "geometry": {
    "type": "Point",
    "coordinates": [
     116.9197224,
     -35.03849837
    ]
   },
   "properties": {
    "name": "5 BAY COURT PEACEFUL BAY 6333",
    "locID": "LOC100034300978",
    "tech": "WIRELESS",
    "upgrade": "NULL_NA",
    "gnaf_pid": "GAWA_718520193",
    "ee": false,
    "tech_change_status": "Not Planned",
    "program_type": "Fixed Wireless and Satellite Upgrade Program",
    "target_eligibility_quarter": "NA"
   }
  },
  {
   "type": "Feature",
   "geometry": {
    "type": "Point",
    "coordinates": [
     116.92077527,
     -35.03822237
    ]
   },
   "properties": {
    "name": "6 BAY COURT PEACEFUL BAY 6333",
    "locID": "LOC100018050589",
    "tech": "WIRELESS",
    "upgrade": "NULL_NA",
    "gnaf_pid": "GAWA_718520194",
    "ee": false,
    "tech_change_status": "Not Planned",
    "program_type": "Fixed Wireless and Satellite Upgrade Program",
    "target_eligibility_quarter": "NA"
   }
  },
  {
   "type": "Feature",
   "geometry": {
    "type": "Point",
    "coordinates": [
     116.91965748,
     -35.03827087
    ]
   },
   "properties": {
    "name": "7 BAY COURT PEACEFUL BAY 6333",
    "locID": "LOC100016602991",
    "tech": "WIRELESS",
    "upgrade": "NULL_NA",
    "gnaf_pid": "GAWA_718520195",
    "ee": false,
    "tech_change_status": "Not Planned",
    "program_type": "Fixed Wireless and Satellite Upgrade Program",
    "target_eligibility_quarter": "NA"
   }
  },
  {
   "type": "Feature",
   "geometry": {
    "type": "Point",
    "coordinates": [
     116.91972958,
     -35.03806936
    ]
   },
   "properties": {
    "name": "9 BAY COURT PEACEFUL BAY 6333",
    "locID": "LOC100037551780",
    "tech": "WIRELESS",
    "upgrade": "NULL_NA",
    "gnaf_pid": "GAWA_718520196",
    "ee": false,
    "tech_change_status": "Not Planned",
    "program_type": "Fixed Wireless and Satellite Upgrade Program",
    "target_eligibility_quarter": "NA"
   }
  },
  {
   "type": "Feature",
   "geometry": {
    "type": "Point",
    "coordinates": [
     116.92085391,
     -35.03687448
    ]
   },
   "properties": {
    "name": "UNIT 1, 15 PEPPERMINT WAY PEACEFUL BAY 6333",
    "locID": "LOC100055761128",
    "tech": "WIRELESS",
    "upgrade": "NULL_NA",
    "gnaf_pid": "GAWA_718523891",
    "ee": false,
    "tech_change_status": "Not Planned",
    "program_type": "Fixed Wireless and Satellite Upgrade Program",
    "target_eligibility_quarter": "NA"
   }
  },
  {
   "type": "Feature",
   "geometry": {
    "type": "Point",
    "coordinates": [
     116.92093428,
     -35.03698651
    ]
   },
   "properties": {
    "name": "UNIT 2, 13 PEPPERMINT WAY PEACEFUL BAY 6333",
    "locID": "LOC100055761088",
    "tech": "WIRELESS",
    "upgrade": "NULL_NA",
    "gnaf_pid": "GAWA_718523893",
    "ee": false,
    "tech_change_status": "Not Planned",
    "program_type": "Fixed Wireless and Satellite Upgrade Program",
    "target_eligibility_quarter": "NA"
   }
  },
  {
   "type": "Feature",
   "geometry": {
    "type": "Point",
    "coordinates": [
     116.92103289,
     -35.03725125
    ]
   },
   "properties": {
    "name": "UNIT 3, 13 PEPPERMINT WAY PEACEFUL BAY 6333",
    "locID": "LOC100055761159",
    "tech": "WIRELESS",
    "upgrade": "NULL_NA",
    "gnaf_pid": "GAWA_718523896",
    "ee": false,
    "tech_change_status": "Not Planned",
    "program_type": "Fixed Wireless and Satellite Upgrade Program",
    "target_eligibility_quarter": "NA"
   }
  },
  {
   "type": "Feature",
   "geometry": {
    "type": "Point",
    "coordinates": [
     116.92103338,
     -35.03738069
    ]
   },
   "properties": {
    "name": "UNIT 4, 11 PEPPERMINT WAY PEACEFUL BAY 6333",
    "locID": "LOC100055761163",
    "tech": "WIRELESS",
    "upgrade": "NULL_NA",
    "gnaf_pid": "GAWA_718523897",
    "ee": false,
    "tech_change_status": "Not Planned",
    "program_type": "Fixed Wireless and Satellite Upgrade Program",
    "target_eligibility_quarter": "NA"
   }
  },
  {
   "type": "Feature",
   "geometry": {
    "type": "Point",
    "coordinates": [
     116.92077591,
     -35.03745034
    ]
   },
   "properties": {
    "name": "UNIT 5, 11 PEPPERMINT WAY PEACEFUL BAY 6333",
    "locID": "LOC100055761100",
    "tech": "WIRELESS",
    "upgrade": "NULL_NA",
    "gnaf_pid": "GAWA_718523898",
    "ee": false,
    "tech_change_status": "Not Planned",
    "program_type": "Fixed Wireless and Satellite Upgrade Program",
    "target_eligibility_quarter": "NA"
   }
  },
  {
   "type": "Feature",
   "geometry": {
    "type": "Point",
    "coordinates": [
     116.92061975,
     -35.03752239
    ]
   },
   "properties": {
    "name": "UNIT 6, 11 PEPPERMINT WAY PEACEFUL BAY 6333",
    "locID": "LOC100055761074",
    "tech": "WIRELESS",
    "upgrade": "NULL_NA",
    "gnaf_pid": "GAWA_718523899",
    "ee": false,
    "tech_change_status": "Not Planned",
    "program_type": "Fixed Wireless and Satellite Upgrade Program",
    "target_eligibility_quarter": "NA"
   }
  },
  {
   "type": "Feature",
   "geometry": {
    "type": "Point",
    "coordinates": [
     116.92077591,
     -35.03745034
    ]
   },
   "properties": {
    "name": "11 PEPPERMINT WAY PEACEFUL BAY 6333",
    "locID": "LOC100055761074",
    "tech": "WIRELESS",
    "upgrade": "NULL_NA",
    "gnaf_pid": "GAWA_718523901",
    "ee": false,
    "tech_change_status": "Not Planned",
    "program_type": "Fixed Wireless and Satellite Upgrade Program",
    "target_eligibility_quarter": "NA"
   }
  },
  {
   "type": "Feature",
   "geometry": {
    "type": "Point",
    "coordinates": [
     116.92006274,
     -35.03673632
    ]
   },
   "properties": {
    "name": "17 PEPPERMINT WAY PEACEFUL BAY 6333",
    "locID": "LOC100055760640",
    "tech": "WIRELESS",
    "upgrade": "NULL_NA",
    "gnaf_pid": "GAWA_718523902",
    "ee": false,
    "tech_change_status": "Not Planned",
    "program_type": "Fixed Wireless and Satellite Upgrade Program",
    "target_eligibility_quarter": "NA"
   }
  },
  {
   "type": "Feature",
   "geometry": {
    "type": "Point",
    "coordinates": [
     116.9205673,
     -35.03657229
    ]
   },
   "properties": {
    "name": "19 PEPPERMINT WAY PEACEFUL BAY 6333",
    "locID": "LOC100022399747",
    "tech": "WIRELESS",
    "upgrade": "NULL_NA",
    "gnaf_pid": "GAWA_718523903",
    "ee": false,
    "tech_change_status": "Not Planned",
    "program_type": "Fixed Wireless and Satellite Upgrade Program",
    "target_eligibility_quarter": "NA"
   }
  },
  {
   "type": "Feature",
   "geometry": {
    "type": "Point",
    "coordinates": [
     116.92130227,
     -35.03833036
    ]
   },
   "properties": {
    "name": "3 PEPPERMINT WAY PEACEFUL BAY 6333",
    "locID": "LOC100025648452",
    "tech": "WIRELESS",
    "upgrade": "NULL_NA",
    "gnaf_pid": "GAWA_718523904",
    "ee": false,
    "tech_change_status": "Not Planned",
    "program_type": "Fixed Wireless and Satellite Upgrade Program",
    "target_eligibility_quarter": "NA"
   }
  },
  {
   "type": "Feature",
   "geometry": {
    "type": "Point",
    "coordinates": [
     116.92122869,
     -35.03806724
    ]
   },
   "properties": {
    "name": "5 PEPPERMINT WAY PEACEFUL BAY 6333",
    "locID": "LOC100029082068",
    "tech": "WIRELESS",
    "upgrade": "NULL_NA",
    "gnaf_pid": "GAWA_718523905",
    "ee": false,
    "tech_change_status": "Not Planned",
    "program_type": "Fixed Wireless and Satellite Upgrade Program",
    "target_eligibility_quarter": "NA"
   }
  },
  {
   "type": "Feature",
   "geometry": {
    "type": "Point",
    "coordinates": [
     116.92108646,
     -35.03782927
    ]
   },
   "properties": {
    "name": "9 PEPPERMINT WAY PEACEFUL BAY 6333",
    "locID": "LOC100055761090",
    "tech": "WIRELESS",
    "upgrade": "NULL_NA",
    "gnaf_pid": "GAWA_718523906",
    "ee": false,
    "tech_change_status": "Not Planned",
    "program_type": "Fixed Wireless and Satellite Upgrade Program",
    "target_eligibility_quarter": "NA"
   }
  },
  {
   "type": "Feature",
   "geometry": {
    "type": "Point",
    "coordinates": [
     116.92101251,
     -35.03855246
    ]
   },
   "properties": {
    "name": "10 RAME HEAD ROAD PEACEFUL BAY 6333",
    "locID": "LOC100055760245",
    "tech": "WIRELESS",
    "upgrade": "NULL_NA",
    "gnaf_pid": "GAWA_718524188",
    "ee": false,
    "tech_change_status": "Not Planned",
    "program_type": "Fixed Wireless and Satellite Upgrade Program",
    "target_eligibility_quarter": "NA"
   }
  },
  {
   "type": "Feature",
   "geometry": {
    "type": "Point",
    "coordinates": [
     116.92077389,
     -35.0386174
    ]
   },
   "properties": {
    "name": "12 RAME HEAD ROAD PEACEFUL BAY 6333",
    "locID": "LOC100037033046",
    "tech": "WIRELESS",
    "upgrade": "NULL_NA",
    "gnaf_pid": "GAWA_718524189",
    "ee": false,
    "tech_change_status": "Not Planned",
    "program_type": "Fixed Wireless and Satellite Upgrade Program",
    "target_eligibility_quarter": "NA"
   }
  },
  {
   "type": "Feature",
   "geometry": {
    "type": "Point",
    "coordinates": [
     116.91970719,
     -35.03881755
    ]
   },
   "properties": {
    "name": "18 RAME HEAD ROAD PEACEFUL BAY 6333",
    "locID": "LOC100016125414",
    "tech": "WIRELESS",
    "upgrade": "NULL_NA",
    "gnaf_pid": "GAWA_718524190",
    "ee": false,
    "tech_change_status": "Not Planned",
    "program_type": "Fixed Wireless and Satellite Upgrade Program",
    "target_eligibility_quarter": "NA"
   }
  },
  {
   "type": "Feature",
   "geometry": {
    "type": "Point",
    "coordinates": [
     116.91945826,
     -35.038832
    ]
   },
   "properties": {
    "name": "20 RAME HEAD ROAD PEACEFUL BAY 6333",
    "locID": "LOC100029132172",
    "tech": "WIRELESS",
    "upgrade": "NULL_NA",
    "gnaf_pid": "GAWA_718524191",
    "ee": false,
    "tech_change_status": "Not Planned",
    "program_type": "Fixed Wireless and Satellite Upgrade Program",
    "target_eligibility_quarter": "NA"
   }
  },
  {
   "type": "Feature",
   "geometry": {
    "type": "Point",
    "coordinates": [
     116.9192427,
     -35.03886958
    ]
   },
   "properties": {
    "name": "22 RAME HEAD ROAD PEACEFUL BAY 6333",
    "locID": "LOC100026198752",
    "tech": "WIRELESS",
    "upgrade": "NULL_NA",
    "gnaf_pid": "GAWA_718524192",
    "ee": false,
    "tech_change_status": "Not Planned",
    "program_type": "Fixed Wireless and Satellite Upgrade Program",
    "target_eligibility_quarter": "NA"
   }
  },
  {
   "type": "Feature",
   "geometry": {
    "type": "Point",
    "coordinates": [
     116.91902702,
     -35.0389072
    ]
   },
   "properties": {
    "name": "24 RAME HEAD ROAD PEACEFUL BAY 6333",
    "locID": "LOC100025517567",
    "tech": "WIRELESS",
    "upgrade": "NULL_NA",
    "gnaf_pid": "GAWA_718524193",
    "ee": false,
    "tech_change_status": "Not Planned",
    "program_type": "Fixed Wireless and Satellite Upgrade Program",
    "target_eligibility_quarter": "NA"
   }
  },
  {
   "type": "Feature",
   "geometry": {
    "type": "Point",
    "coordinates": [
     116.91881129,
     -35.03894482
    ]
   },
   "properties": {
    "name": "26 RAME HEAD ROAD PEACEFUL BAY 6333",
    "locID": "LOC100055759961",
    "tech": "WIRELESS",
    "upgrade": "NULL_NA",
    "gnaf_pid": "GAWA_718524194",
    "ee": false,
    "tech_change_status": "Not Planned",
    "program_type": "Fixed Wireless and Satellite Upgrade Program",
    "target_eligibility_quarter": "NA"
   }
  },
  {
   "type": "Feature",
   "geometry": {
    "type": "Point",
    "coordinates": [
     116.91857306,
     -35.03900434
    ]
   },
   "properties": {
    "name": "28 RAME HEAD ROAD PEACEFUL BAY 6333",
    "locID": "LOC100020103680",
    "tech": "WIRELESS",
    "upgrade": "NULL_NA",
    "gnaf_pid": "GAWA_718524195",
    "ee": false,
    "tech_change_status": "Not Planned",
    "program_type": "Fixed Wireless and Satellite Upgrade Program",
    "target_eligibility_quarter": "NA"
   }
  },
  {
   "type": "Feature",
   "geometry": {
    "type": "Point",
    "coordinates": [
     116.91762502,
     -35.03915172
    ]
   },
   "properties": {
    "name": "34 RAME HEAD ROAD PEACEFUL BAY 6333",
    "locID": "LOC000167748192",
    "tech": "WIRELESS",
    "upgrade": "NULL_NA",
    "gnaf_pid": "GAWA_718524196",
    "ee": false,
    "tech_change_status": "Not Planned",
    "program_type": "Fixed Wireless and Satellite Upgrade Program",
    "target_eligibility_quarter": "NA"
   }
  },
  {
   "type": "Feature",
   "geometry": {
    "type": "Point",
    "coordinates": [
     116.91740934,
     -35.03918933
    ]
   },
   "properties": {
    "name": "36 RAME HEAD ROAD PEACEFUL BAY 6333",
    "locID": "LOC100055760459",
    "tech": "WIRELESS",
    "upgrade": "NULL_NA",
    "gnaf_pid": "GAWA_718524197",
    "ee": false,
    "tech_change_status": "Not Planned",
    "program_type": "Fixed Wireless and Satellite Upgrade Program",
    "target_eligibility_quarter": "NA"
   }
  },
  {
   "type": "Feature",
   "geometry": {
    "type": "Point",
    "coordinates": [
     116.91854847,
     -35.03820505
    ]
   },
   "properties": {
    "name": "12 WILLIAMS ROAD PEACEFUL BAY 6333",
    "locID": "LOC100035784525",
    "tech": "WIRELESS",
    "upgrade": "NULL_NA",
    "gnaf_pid": "GAWA_718525426",
    "ee": false,
    "tech_change_status": "Not Planned",
    "program_type": "Fixed Wireless and Satellite Upgrade Program",
    "target_eligibility_quarter": "NA"
   }
  },
  {
   "type": "Feature",
   "geometry": {
    "type": "Point",
    "coordinates": [
     116.91784018,
     -35.0379374
    ]
   },
   "properties": {
    "name": "13 WILLIAMS ROAD PEACEFUL BAY 6333",
    "locID": "LOC100055760617",
    "tech": "WIRELESS",
    "upgrade": "NULL_NA",
    "gnaf_pid": "GAWA_718525427",
    "ee": false,
    "tech_change_status": "Not Planned",
    "program_type": "Fixed Wireless and Satellite Upgrade Program",
    "target_eligibility_quarter": "NA"
   }
  },
  {
   "type": "Feature",
   "geometry": {
    "type": "Point",
    "coordinates": [
     116.91783815,
     -35.03911065
    ]
   },
   "properties": {
    "name": "1 WILLIAMS ROAD PEACEFUL BAY 6333",
    "locID": "LOC100055760526",
    "tech": "WIRELESS",
    "upgrade": "NULL_NA",
    "gnaf_pid": "GAWA_718525428",
    "ee": false,
    "tech_change_status": "Not Planned",
    "program_type": "Fixed Wireless and Satellite Upgrade Program",
    "target_eligibility_quarter": "NA"
   }
  },
  {
   "type": "Feature",
   "geometry": {
    "type": "Point",
    "coordinates": [
     116.9183045,
     -35.03904809
    ]
   },
   "properties": {
    "name": "4 WILLIAMS ROAD PEACEFUL BAY 6333",
    "locID": "LOC100055759926",
    "tech": "WIRELESS",
    "upgrade": "NULL_NA",
    "gnaf_pid": "GAWA_718525430",
    "ee": false,
    "tech_change_status": "Not Planned",
    "program_type": "Fixed Wireless and Satellite Upgrade Program",
    "target_eligibility_quarter": "NA"
   }
  },
  {
   "type": "Feature",
   "geometry": {
    "type": "Point",
    "coordinates": [
     116.91757708,
     -35.03880618
    ]
   },
   "properties": {
    "name": "5 WILLIAMS ROAD PEACEFUL BAY 6333",
    "locID": "LOC100055760849",
    "tech": "WIRELESS",
    "upgrade": "NULL_NA",
    "gnaf_pid": "GAWA_718525431",
    "ee": false,
    "tech_change_status": "Not Planned",
    "program_type": "Fixed Wireless and Satellite Upgrade Program",
    "target_eligibility_quarter": "NA"
   }
  },
  {
   "type": "Feature",
   "geometry": {
    "type": "Point",
    "coordinates": [
     116.91832305,
     -35.03872957
    ]
   },
   "properties": {
    "name": "6 WILLIAMS ROAD PEACEFUL BAY 6333",
    "locID": "LOC100055759926",
    "tech": "WIRELESS",
    "upgrade": "NULL_NA",
    "gnaf_pid": "GAWA_718525432",
    "ee": false,
    "tech_change_status": "Not Planned",
    "program_type": "Fixed Wireless and Satellite Upgrade Program",
    "target_eligibility_quarter": "NA"
   }
  },
  {
   "type": "Feature",
   "geometry": {
    "type": "Point",
    "coordinates": [
     116.92390974,
     -35.0317927
    ]
   },
   "properties": {
    "name": "10 FIFTH AVENUE PEACEFUL BAY 6333",
    "locID": "LOC100034929434",
    "tech": "WIRELESS",
    "upgrade": "NULL_NA",
    "gnaf_pid": "GAWA_718538103",
    "ee": false,
    "tech_change_status": "Not Planned",
    "program_type": "Fixed Wireless and Satellite Upgrade Program",
    "target_eligibility_quarter": "NA"
   }
  },
  {
   "type": "Feature",
   "geometry": {
    "type": "Point",
    "coordinates": [
     116.92390974,
     -35.0317927
    ]
   },
   "properties": {
    "name": "11 FIFTH AVENUE PEACEFUL BAY 6333",
    "locID": "LOC100055760733",
    "tech": "WIRELESS",
    "upgrade": "NULL_NA",
    "gnaf_pid": "GAWA_718538104",
    "ee": false,
    "tech_change_status": "Not Planned",
    "program_type": "Fixed Wireless and Satellite Upgrade Program",
    "target_eligibility_quarter": "NA"
   }
  },
  {
   "type": "Feature",
   "geometry": {
    "type": "Point",
    "coordinates": [
     116.92390974,
     -35.0317927
    ]
   },
   "properties": {
    "name": "12 FIFTH AVENUE PEACEFUL BAY 6333",
    "locID": "LOC100055760136",
    "tech": "WIRELESS",
    "upgrade": "NULL_NA",
    "gnaf_pid": "GAWA_718538105",
    "ee": false,
    "tech_change_status": "Not Planned",
    "program_type": "Fixed Wireless and Satellite Upgrade Program",
    "target_eligibility_quarter": "NA"
   }
  },
  {
   "type": "Feature",
   "geometry": {
    "type": "Point",
    "coordinates": [
     116.92390974,
     -35.0317927
    ]
   },
   "properties": {
    "name": "13 FIFTH AVENUE PEACEFUL BAY 6333",
    "locID": "LOC100024088678",
    "tech": "WIRELESS",
    "upgrade": "NULL_NA",
    "gnaf_pid": "GAWA_718538106",
    "ee": false,
    "tech_change_status": "Not Planned",
    "program_type": "Fixed Wireless and Satellite Upgrade Program",
    "target_eligibility_quarter": "NA"
   }
  },
  {
   "type": "Feature",
   "geometry": {
    "type": "Point",
    "coordinates": [
     116.92390974,
     -35.0317927
    ]
   },
   "properties": {
    "name": "14 FIFTH AVENUE PEACEFUL BAY 6333",
    "locID": "LOC100055760158",
    "tech": "WIRELESS",
    "upgrade": "NULL_NA",
    "gnaf_pid": "GAWA_718538107",
    "ee": false,
    "tech_change_status": "Not Planned",
    "program_type": "Fixed Wireless and Satellite Upgrade Program",
    "target_eligibility_quarter": "NA"
   }
  },
  {
   "type": "Feature",
   "geometry": {
    "type": "Point",
    "coordinates": [
     116.92390974,
     -35.0317927
    ]
   },
   "properties": {
    "name": "15 FIFTH AVENUE PEACEFUL BAY 6333",
    "locID": "LOC100055760115",
    "tech": "WIRELESS",
    "upgrade": "NULL_NA",
    "gnaf_pid": "GAWA_718538108",
    "ee": false,
    "tech_change_status": "Not Planned",
    "program_type": "Fixed Wireless and Satellite Upgrade Program",
    "target_eligibility_quarter": "NA"
   }
  },
  {
   "type": "Feature",
   "geometry": {
    "type": "Point",
    "coordinates": [
     116.92390974,
     -35.0317927
    ]
   },
   "properties": {
    "name": "16 FIFTH AVENUE PEACEFUL BAY 6333",
    "locID": "LOC100032758221",
    "tech": "WIRELESS",
    "upgrade": "NULL_NA",
    "gnaf_pid": "GAWA_718538109",
    "ee": false,
    "tech_change_status": "Not Planned",
    "program_type": "Fixed Wireless and Satellite Upgrade Program",
    "target_eligibility_quarter": "NA"
   }
  },
  {
   "type": "Feature",
   "geometry": {
    "type": "Point",
    "coordinates": [
     116.92390974,
     -35.0317927
    ]
   },
   "properties": {
    "name": "17 FIFTH AVENUE PEACEFUL BAY 6333",
    "locID": "LOC100028422390",
    "tech": "WIRELESS",
    "upgrade": "NULL_NA",
    "gnaf_pid": "GAWA_718538110",
    "ee": false,
    "tech_change_status": "Not Planned",
    "program_type": "Fixed Wireless and Satellite Upgrade Program",
    "target_eligibility_quarter": "NA"
   }
  },
  {
   "type": "Feature",
   "geometry": {
    "type": "Point",
    "coordinates": [
     116.92390974,
     -35.0317927
    ]
   },
   "properties": {
    "name": "18 FIFTH AVENUE PEACEFUL BAY 6333",
    "locID": "LOC100027283946",
    "tech": "WIRELESS",
    "upgrade": "NULL_NA",
    "gnaf_pid": "GAWA_718538111",
    "ee": false,
    "tech_change_status": "Not Planned",
    "program_type": "Fixed Wireless and Satellite Upgrade Program",
    "target_eligibility_quarter": "NA"
   }
  },
  {
   "type": "Feature",
   "geometry": {
    "type": "Point",
    "coordinates": [
     116.92390974,
     -35.0317927
    ]
   },
   "properties": {
    "name": "19 FIFTH AVENUE PEACEFUL BAY 6333",
    "locID": "LOC100055760060",
    "tech": "WIRELESS",
    "upgrade": "NULL_NA",
    "gnaf_pid": "GAWA_718538112",
    "ee": false,
    "tech_change_status": "Not Planned",
    "program_type": "Fixed Wireless and Satellite Upgrade Program",
    "target_eligibility_quarter": "NA"
   }
  },
  {
   "type": "Feature",
   "geometry": {
    "type": "Point",
    "coordinates": [
     116.92390974,
     -35.0317927
    ]
   },
   "properties": {
    "name": "20 FIFTH AVENUE PEACEFUL BAY 6333",
    "locID": "LOC100055760232",
    "tech": "WIRELESS",
    "upgrade": "NULL_NA",
    "gnaf_pid": "GAWA_718538113",
    "ee": false,
    "tech_change_status": "Not Planned",
    "program_type": "Fixed Wireless and Satellite Upgrade Program",
    "target_eligibility_quarter": "NA"
   }
  },
  {
   "type": "Feature",
   "geometry": {
    "type": "Point",
    "coordinates": [
     116.92390974,
     -35.0317927
    ]
   },
   "properties": {
    "name": "21 FIFTH AVENUE PEACEFUL BAY 6333",
    "locID": "LOC100055760039",
    "tech": "WIRELESS",
    "upgrade": "NULL_NA",
    "gnaf_pid": "GAWA_718538114",
    "ee": false,
    "tech_change_status": "Not Planned",
    "program_type": "Fixed Wireless and Satellite Upgrade Program",
    "target_eligibility_quarter": "NA"
   }
  },
  {
   "type": "Feature",
   "geometry": {
    "type": "Point",
    "coordinates": [
     116.92390974,
     -35.0317927
    ]
   },
   "properties": {
    "name": "23 FIFTH AVENUE PEACEFUL BAY 6333",
    "locID": "LOC100055760127",
    "tech": "WIRELESS",
    "upgrade": "NULL_NA",
    "gnaf_pid": "GAWA_718538115",
    "ee": false,
    "tech_change_status": "Not Planned",
    "program_type": "Fixed Wireless and Satellite Upgrade Program",
    "target_eligibility_quarter": "NA"
   }
  },
  {
   "type": "Feature",
   "geometry": {
    "type": "Point",
    "coordinates": [
     116.92390974,
     -35.0317927
    ]
   },
   "properties": {
    "name": "25 FIFTH AVENUE PEACEFUL BAY 6333",
    "locID": "LOC100031673409",
    "tech": "WIRELESS",
    "upgrade": "NULL_NA",
    "gnaf_pid": "GAWA_718538116",
    "ee": false,
    "tech_change_status": "Not Planned",
    "program_type": "Fixed Wireless and Satellite Upgrade Program",
    "target_eligibility_quarter": "NA"
   }
  },
  {
   "type": "Feature",
   "geometry": {
    "type": "Point",
    "coordinates": [
     116.92390974,
     -35.0317927
    ]
   },
   "properties": {
    "name": "27 FIFTH AVENUE PEACEFUL BAY 6333",
    "locID": "LOC100038541834",
    "tech": "WIRELESS",
    "upgrade": "NULL_NA",
    "gnaf_pid": "GAWA_718538118",
    "ee": false,
    "tech_change_status": "Not Planned",
    "program_type": "Fixed Wireless and Satellite Upgrade Program",
    "target_eligibility_quarter": "NA"
   }
  },
  {
   "type": "Feature",
   "geometry": {
    "type": "Point",
    "coordinates": [
     116.92390974,
     -35.0317927
    ]
   },
   "properties": {
    "name": "28 FIFTH AVENUE PEACEFUL BAY 6333",
    "locID": "LOC100055759935",
    "tech": "WIRELESS",
    "upgrade": "NULL_NA",
    "gnaf_pid": "GAWA_718538119",
    "ee": false,
    "tech_change_status": "Not Planned",
    "program_type": "Fixed Wireless and Satellite Upgrade Program",
    "target_eligibility_quarter": "NA"
   }
  },
  {
   "type": "Feature",
   "geometry": {
    "type": "Point",
    "coordinates": [
     116.92390974,
     -35.0317927
    ]
   },
   "properties": {
    "name": "32 FIFTH AVENUE PEACEFUL BAY 6333",
    "locID": "LOC100019757283",
    "tech": "WIRELESS",
    "upgrade": "NULL_NA",
    "gnaf_pid": "GAWA_718538123",
    "ee": false,
    "tech_change_status": "Not Planned",
    "program_type": "Fixed Wireless and Satellite Upgrade Program",
    "target_eligibility_quarter": "NA"
   }
  },
  {
   "type": "Feature",
   "geometry": {
    "type": "Point",
    "coordinates": [
     116.92390974,
     -35.0317927
    ]
   },
   "properties": {
    "name": "34 FIFTH AVENUE PEACEFUL BAY 6333",
    "locID": "LOC100029871140",
    "tech": "WIRELESS",
    "upgrade": "NULL_NA",
    "gnaf_pid": "GAWA_718538125",
    "ee": false,
    "tech_change_status": "Not Planned",
    "program_type": "Fixed Wireless and Satellite Upgrade Program",
    "target_eligibility_quarter": "NA"
   }
  },
  {
   "type": "Feature",
   "geometry": {
    "type": "Point",
    "coordinates": [
     116.92390974,
     -35.0317927
    ]
   },
   "properties": {
    "name": "35 FIFTH AVENUE PEACEFUL BAY 6333",
    "locID": "LOC100037453778",
    "tech": "WIRELESS",
    "upgrade": "NULL_NA",
    "gnaf_pid": "GAWA_718538126",
    "ee": false,
    "tech_change_status": "Not Planned",
    "program_type": "Fixed Wireless and Satellite Upgrade Program",
    "target_eligibility_quarter": "NA"
   }
  },
  {
   "type": "Feature",
   "geometry": {
    "type": "Point",
    "coordinates": [
     116.92390974,
     -35.0317927
    ]
   },
   "properties": {
    "name": "36 FIFTH AVENUE PEACEFUL BAY 6333",
    "locID": "LOC100055760025",
    "tech": "WIRELESS",
    "upgrade": "NULL_NA",
    "gnaf_pid": "GAWA_718538127",
    "ee": false,
    "tech_change_status": "Not Planned",
    "program_type": "Fixed Wireless and Satellite Upgrade Program",
    "target_eligibility_quarter": "NA"
   }
  },
  {
   "type": "Feature",
   "geometry": {
    "type": "Point",
    "coordinates": [
     116.92390974,
     -35.0317927
    ]
   },
   "properties": {
    "name": "37 FIFTH AVENUE PEACEFUL BAY 6333",
    "locID": "LOC100032758232",
    "tech": "WIRELESS",
    "upgrade": "NULL_NA",
    "gnaf_pid": "GAWA_718538128",
    "ee": false,
    "tech_change_status": "Not Planned",
    "program_type": "Fixed Wireless and Satellite Upgrade Program",
    "target_eligibility_quarter": "NA"
   }
  },
  {
   "type": "Feature",
   "geometry": {
    "type": "Point",
    "coordinates": [
     116.92390974,
     -35.0317927
    ]
   },
   "properties": {
    "name": "38 FIFTH AVENUE PEACEFUL BAY 6333",
    "locID": "LOC100055760746",
    "tech": "WIRELESS",
    "upgrade": "NULL_NA",
    "gnaf_pid": "GAWA_718538129",
    "ee": false,
    "tech_change_status": "Not Planned",
    "program_type": "Fixed Wireless and Satellite Upgrade Program",
    "target_eligibility_quarter": "NA"
   }
  },
  {
   "type": "Feature",
   "geometry": {
    "type": "Point",
    "coordinates": [
     116.92390974,
     -35.0317927
    ]
   },
   "properties": {
    "name": "39 FIFTH AVENUE PEACEFUL BAY 6333",
    "locID": "LOC100027341124",
    "tech": "WIRELESS",
    "upgrade": "NULL_NA",
    "gnaf_pid": "GAWA_718538130",
    "ee": false,
    "tech_change_status": "Not Planned",
    "program_type": "Fixed Wireless and Satellite Upgrade Program",
    "target_eligibility_quarter": "NA"
   }
  },
  {
   "type": "Feature",
   "geometry": {
    "type": "Point",
    "coordinates": [
     116.92390974,
     -35.0317927
    ]
   },
   "properties": {
    "name": "40 FIFTH AVENUE PEACEFUL BAY 6333",
    "locID": "LOC100026559221",
    "tech": "WIRELESS",
    "upgrade": "NULL_NA",
    "gnaf_pid": "GAWA_718538131",
    "ee": false,
    "tech_change_status": "Not Planned",
    "program_type": "Fixed Wireless and Satellite Upgrade Program",
    "target_eligibility_quarter": "NA"
   }
  },
  {
   "type": "Feature",
   "geometry": {
    "type": "Point",
    "coordinates": [
     116.92390974,
     -35.0317927
    ]
   },
   "properties": {
    "name": "41 FIFTH AVENUE PEACEFUL BAY 6333",
    "locID": "LOC100023363905",
    "tech": "WIRELESS",
    "upgrade": "NULL_NA",
    "gnaf_pid": "GAWA_718538132",
    "ee": false,
    "tech_change_status": "Not Planned",
    "program_type": "Fixed Wireless and Satellite Upgrade Program",
    "target_eligibility_quarter": "NA"
   }
  },
  {
   "type": "Feature",
   "geometry": {
    "type": "Point",
    "coordinates": [
     116.92390974,
     -35.0317927
    ]
   },
   "properties": {
    "name": "42 FIFTH AVENUE PEACEFUL BAY 6333",
    "locID": "LOC100028422666",
    "tech": "WIRELESS",
    "upgrade": "NULL_NA",
    "gnaf_pid": "GAWA_718538133",
    "ee": false,
    "tech_change_status": "Not Planned",
    "program_type": "Fixed Wireless and Satellite Upgrade Program",
    "target_eligibility_quarter": "NA"
   }
  },
  {
   "type": "Feature",
   "geometry": {
    "type": "Point",
    "coordinates": [
     116.92390974,
     -35.0317927
    ]
   },
   "properties": {
    "name": "44 FIFTH AVENUE PEACEFUL BAY 6333",
    "locID": "LOC100028422678",
    "tech": "WIRELESS",
    "upgrade": "NULL_NA",
    "gnaf_pid": "GAWA_718538135",
    "ee": false,
    "tech_change_status": "Not Planned",
    "program_type": "Fixed Wireless and Satellite Upgrade Program",
    "target_eligibility_quarter": "NA"
   }
  },
  {
   "type": "Feature",
   "geometry": {
    "type": "Point",
    "coordinates": [
     116.92390974,
     -35.0317927
    ]
   },
   "properties": {
    "name": "9 FIFTH AVENUE PEACEFUL BAY 6333",
    "locID": "LOC100023665968",
    "tech": "WIRELESS",
    "upgrade": "NULL_NA",
    "gnaf_pid": "GAWA_718538143",
    "ee": false,
    "tech_change_status": "Not Planned",
    "program_type": "Fixed Wireless and Satellite Upgrade Program",
    "target_eligibility_quarter": "NA"
   }
  },
  {
   "type": "Feature",
   "geometry": {
    "type": "Point",
    "coordinates": [
     116.92831466,
     -35.03968516
    ]
   },
   "properties": {
    "name": "14 FIRST AVENUE PEACEFUL BAY 6333",
    "locID": "LOC100020807151",
    "tech": "WIRELESS",
    "upgrade": "NULL_NA",
    "gnaf_pid": "GAWA_718538151",
    "ee": false,
    "tech_change_status": "Not Planned",
    "program_type": "Fixed Wireless and Satellite Upgrade Program",
    "target_eligibility_quarter": "NA"
   }
  },
  {
   "type": "Feature",
   "geometry": {
    "type": "Point",
    "coordinates": [
     116.92831466,
     -35.03968516
    ]
   },
   "properties": {
    "name": "20 FIRST AVENUE PEACEFUL BAY 6333",
    "locID": "LOC100032724815",
    "tech": "WIRELESS",
    "upgrade": "NULL_NA",
    "gnaf_pid": "GAWA_718538156",
    "ee": false,
    "tech_change_status": "Not Planned",
    "program_type": "Fixed Wireless and Satellite Upgrade Program",
    "target_eligibility_quarter": "NA"
   }
  },
  {
   "type": "Feature",
   "geometry": {
    "type": "Point",
    "coordinates": [
     116.92831466,
     -35.03968516
    ]
   },
   "properties": {
    "name": "21 FIRST AVENUE PEACEFUL BAY 6333",
    "locID": "LOC100017917924",
    "tech": "WIRELESS",
    "upgrade": "NULL_NA",
    "gnaf_pid": "GAWA_718538157",
    "ee": false,
    "tech_change_status": "Not Planned",
    "program_type": "Fixed Wireless and Satellite Upgrade Program",
    "target_eligibility_quarter": "NA"
   }
  },
  {
   "type": "Feature",
   "geometry": {
    "type": "Point",
    "coordinates": [
     116.92831466,
     -35.03968516
    ]
   },
   "properties": {
    "name": "24 FIRST AVENUE PEACEFUL BAY 6333",
    "locID": "LOC100016078475",
    "tech": "WIRELESS",
    "upgrade": "NULL_NA",
    "gnaf_pid": "GAWA_718538158",
    "ee": false,
    "tech_change_status": "Not Planned",
    "program_type": "Fixed Wireless and Satellite Upgrade Program",
    "target_eligibility_quarter": "NA"
   }
  },
  {
   "type": "Feature",
   "geometry": {
    "type": "Point",
    "coordinates": [
     116.92831466,
     -35.03968516
    ]
   },
   "properties": {
    "name": "27 FIRST AVENUE PEACEFUL BAY 6333",
    "locID": "LOC100025472291",
    "tech": "WIRELESS",
    "upgrade": "NULL_NA",
    "gnaf_pid": "GAWA_718538159",
    "ee": false,
    "tech_change_status": "Not Planned",
    "program_type": "Fixed Wireless and Satellite Upgrade Program",
    "target_eligibility_quarter": "NA"
   }
  },
  {
   "type": "Feature",
   "geometry": {
    "type": "Point",
    "coordinates": [
     116.92831466,
     -35.03968516
    ]
   },
   "properties": {
    "name": "5 FIRST AVENUE PEACEFUL BAY 6333",
    "locID": "LOC100021169185",
    "tech": "WIRELESS",
    "upgrade": "NULL_NA",
    "gnaf_pid": "GAWA_718538167",
    "ee": false,
    "tech_change_status": "Not Planned",
    "program_type": "Fixed Wireless and Satellite Upgrade Program",
    "target_eligibility_quarter": "NA"
   }
  },
  {
   "type": "Feature",
   "geometry": {
    "type": "Point",
    "coordinates": [
     116.92831466,
     -35.03968516
    ]
   },
   "properties": {
    "name": "6 FIRST AVENUE PEACEFUL BAY 6333",
    "locID": "LOC000064219043",
    "tech": "WIRELESS",
    "upgrade": "NULL_NA",
    "gnaf_pid": "GAWA_718538168",
    "ee": false,
    "tech_change_status": "Not Planned",
    "program_type": "Fixed Wireless and Satellite Upgrade Program",
    "target_eligibility_quarter": "NA"
   }
  },
  {
   "type": "Feature",
   "geometry": {
    "type": "Point",
    "coordinates": [
     116.92831466,
     -35.03968516
    ]
   },
   "properties": {
    "name": "12 FOURTH AVENUE PEACEFUL BAY 6333",
    "locID": "LOC100032150417",
    "tech": "WIRELESS",
    "upgrade": "NULL_NA",
    "gnaf_pid": "GAWA_718538197",
    "ee": false,
    "tech_change_status": "Not Planned",
    "program_type": "Fixed Wireless and Satellite Upgrade Program",
    "target_eligibility_quarter": "NA"
   }
  },
  {
   "type": "Feature",
   "geometry": {
    "type": "Point",
    "coordinates": [
     116.92390974,
     -35.0317927
    ]
   },
   "properties": {
    "name": "13 FOURTH AVENUE PEACEFUL BAY 6333",
    "locID": "LOC100078121051",
    "tech": "WIRELESS",
    "upgrade": "NULL_NA",
    "gnaf_pid": "GAWA_718538198",
    "ee": false,
    "tech_change_status": "Not Planned",
    "program_type": "Fixed Wireless and Satellite Upgrade Program",
    "target_eligibility_quarter": "NA"
   }
  },
  {
   "type": "Feature",
   "geometry": {
    "type": "Point",
    "coordinates": [
     116.92831466,
     -35.03968516
    ]
   },
   "properties": {
    "name": "31 FOURTH AVENUE PEACEFUL BAY 6333",
    "locID": "LOC100022399710",
    "tech": "WIRELESS",
    "upgrade": "NULL_NA",
    "gnaf_pid": "GAWA_718538214",
    "ee": false,
    "tech_change_status": "Not Planned",
    "program_type": "Fixed Wireless and Satellite Upgrade Program",
    "target_eligibility_quarter": "NA"
   }
  },
  {
   "type": "Feature",
   "geometry": {
    "type": "Point",
    "coordinates": [
     116.92831466,
     -35.03968516
    ]
   },
   "properties": {
    "name": "32 FOURTH AVENUE PEACEFUL BAY 6333",
    "locID": "LOC100024562347",
    "tech": "WIRELESS",
    "upgrade": "NULL_NA",
    "gnaf_pid": "GAWA_718538215",
    "ee": false,
    "tech_change_status": "Not Planned",
    "program_type": "Fixed Wireless and Satellite Upgrade Program",
    "target_eligibility_quarter": "NA"
   }
  },
  {
   "type": "Feature",
   "geometry": {
    "type": "Point",
    "coordinates": [
     116.92831466,
     -35.03968516
    ]
   },
   "properties": {
    "name": "33 FOURTH AVENUE PEACEFUL BAY 6333",
    "locID": "LOC100055760896",
    "tech": "WIRELESS",
    "upgrade": "NULL_NA",
    "gnaf_pid": "GAWA_718538216",
    "ee": false,
    "tech_change_status": "Not Planned",
    "program_type": "Fixed Wireless and Satellite Upgrade Program",
    "target_eligibility_quarter": "NA"
   }
  },
  {
   "type": "Feature",
   "geometry": {
    "type": "Point",
    "coordinates": [
     116.92831466,
     -35.03968516
    ]
   },
   "properties": {
    "name": "34 FOURTH AVENUE PEACEFUL BAY 6333",
    "locID": "LOC100029805263",
    "tech": "WIRELESS",
    "upgrade": "NULL_NA",
    "gnaf_pid": "GAWA_718538217",
    "ee": false,
    "tech_change_status": "Not Planned",
    "program_type": "Fixed Wireless and Satellite Upgrade Program",
    "target_eligibility_quarter": "NA"
   }
  },
  {
   "type": "Feature",
   "geometry": {
    "type": "Point",
    "coordinates": [
     116.92831466,
     -35.03968516
    ]
   },
   "properties": {
    "name": "35 FOURTH AVENUE PEACEFUL BAY 6333",
    "locID": "LOC100037929474",
    "tech": "WIRELESS",
    "upgrade": "NULL_NA",
    "gnaf_pid": "GAWA_718538218",
    "ee": false,
    "tech_change_status": "Not Planned",
    "program_type": "Fixed Wireless and Satellite Upgrade Program",
    "target_eligibility_quarter": "NA"
   }
  },
  {
   "type": "Feature",
   "geometry": {
    "type": "Point",
    "coordinates": [
     116.92831466,
     -35.03968516
    ]
   },
   "properties": {
    "name": "36 FOURTH AVENUE PEACEFUL BAY 6333",
    "locID": "LOC100037929488",
    "tech": "WIRELESS",
    "upgrade": "NULL_NA",
    "gnaf_pid": "GAWA_718538219",
    "ee": false,
    "tech_change_status": "Not Planned",
    "program_type": "Fixed Wireless and Satellite Upgrade Program",
    "target_eligibility_quarter": "NA"
   }
  },
  {
   "type": "Feature",
   "geometry": {
    "type": "Point",
    "coordinates": [
     116.92831466,
     -35.03968516
    ]
   },
   "properties": {
    "name": "37 FOURTH AVENUE PEACEFUL BAY 6333",
    "locID": "LOC100031068059",
    "tech": "WIRELESS",
    "upgrade": "NULL_NA",
    "gnaf_pid": "GAWA_718538220",
    "ee": false,
    "tech_change_status": "Not Planned",
    "program_type": "Fixed Wireless and Satellite Upgrade Program",
    "target_eligibility_quarter": "NA"
   }
  },
  {
   "type": "Feature",
   "geometry": {
    "type": "Point",
    "coordinates": [
     116.92831466,
     -35.03968516
    ]
   },
   "properties": {
    "name": "39 FOURTH AVENUE PEACEFUL BAY 6333",
    "locID": "LOC100020776184",
    "tech": "WIRELESS",
    "upgrade": "NULL_NA",
    "gnaf_pid": "GAWA_718538222",
    "ee": false,
    "tech_change_status": "Not Planned",
    "program_type": "Fixed Wireless and Satellite Upgrade Program",
    "target_eligibility_quarter": "NA"
   }
  },
  {
   "type": "Feature",
   "geometry": {
    "type": "Point",
    "coordinates": [
     116.92831466,
     -35.03968516
    ]
   },
   "properties": {
    "name": "40 FOURTH AVENUE PEACEFUL BAY 6333",
    "locID": "LOC100022399723",
    "tech": "WIRELESS",
    "upgrade": "NULL_NA",
    "gnaf_pid": "GAWA_718538223",
    "ee": false,
    "tech_change_status": "Not Planned",
    "program_type": "Fixed Wireless and Satellite Upgrade Program",
    "target_eligibility_quarter": "NA"
   }
  },
  {
   "type": "Feature",
   "geometry": {
    "type": "Point",
    "coordinates": [
     116.92831466,
     -35.03968516
    ]
   },
   "properties": {
    "name": "41 FOURTH AVENUE PEACEFUL BAY 6333",
    "locID": "LOC100022399734",
    "tech": "WIRELESS",
    "upgrade": "NULL_NA",
    "gnaf_pid": "GAWA_718538224",
    "ee": false,
    "tech_change_status": "Not Planned",
    "program_type": "Fixed Wireless and Satellite Upgrade Program",
    "target_eligibility_quarter": "NA"
   }
  },
  {
   "type": "Feature",
   "geometry": {
    "type": "Point",
    "coordinates": [
     116.92831466,
     -35.03968516
    ]
   },
   "properties": {
    "name": "42 FOURTH AVENUE PEACEFUL BAY 6333",
    "locID": "LOC100029263727",
    "tech": "WIRELESS",
    "upgrade": "NULL_NA",
    "gnaf_pid": "GAWA_718538225",
    "ee": false,
    "tech_change_status": "Not Planned",
    "program_type": "Fixed Wireless and Satellite Upgrade Program",
    "target_eligibility_quarter": "NA"
   }
  },
  {
   "type": "Feature",
   "geometry": {
    "type": "Point",
    "coordinates": [
     116.92831466,
     -35.03968516
    ]
   },
   "properties": {
    "name": "43 FOURTH AVENUE PEACEFUL BAY 6333",
    "locID": "LOC100055760073",
    "tech": "WIRELESS",
    "upgrade": "NULL_NA",
    "gnaf_pid": "GAWA_718538226",
    "ee": false,
    "tech_change_status": "Not Planned",
    "program_type": "Fixed Wireless and Satellite Upgrade Program",
    "target_eligibility_quarter": "NA"
   }
  },
  {
   "type": "Feature",
   "geometry": {
    "type": "Point",
    "coordinates": [
     116.92831466,
     -35.03968516
    ]
   },
   "properties": {
    "name": "44 FOURTH AVENUE PEACEFUL BAY 6333",
    "locID": "LOC100019333441",
    "tech": "WIRELESS",
    "upgrade": "NULL_NA",
    "gnaf_pid": "GAWA_718538227",
    "ee": false,
    "tech_change_status": "Not Planned",
    "program_type": "Fixed Wireless and Satellite Upgrade Program",
    "target_eligibility_quarter": "NA"
   }
  },
  {
   "type": "Feature",
   "geometry": {
    "type": "Point",
    "coordinates": [
     116.92831466,
     -35.03968516
    ]
   },
   "properties": {
    "name": "45 FOURTH AVENUE PEACEFUL BAY 6333",
    "locID": "LOC100055760428",
    "tech": "WIRELESS",
    "upgrade": "NULL_NA",
    "gnaf_pid": "GAWA_718538228",
    "ee": false,
    "tech_change_status": "Not Planned",
    "program_type": "Fixed Wireless and Satellite Upgrade Program",
    "target_eligibility_quarter": "NA"
   }
  },
  {
   "type": "Feature",
   "geometry": {
    "type": "Point",
    "coordinates": [
     116.92831466,
     -35.03968516
    ]
   },
   "properties": {
    "name": "46 FOURTH AVENUE PEACEFUL BAY 6333",
    "locID": "LOC100023841137",
    "tech": "WIRELESS",
    "upgrade": "NULL_NA",
    "gnaf_pid": "GAWA_718538229",
    "ee": false,
    "tech_change_status": "Not Planned",
    "program_type": "Fixed Wireless and Satellite Upgrade Program",
    "target_eligibility_quarter": "NA"
   }
  },
  {
   "type": "Feature",
   "geometry": {
    "type": "Point",
    "coordinates": [
     116.92103289,
     -35.03725125
    ]
   },
   "properties": {
    "name": "13 PEPPERMINT WAY PEACEFUL BAY 6333",
    "locID": "LOC100055761088",
    "tech": "WIRELESS",
    "upgrade": "NULL_NA",
    "gnaf_pid": "GAWA_718538499",
    "ee": false,
    "tech_change_status": "Not Planned",
    "program_type": "Fixed Wireless and Satellite Upgrade Program",
    "target_eligibility_quarter": "NA"
   }
  },
  {
   "type": "Feature",
   "geometry": {
    "type": "Point",
    "coordinates": [
     116.92085391,
     -35.03687448
    ]
   },
   "properties": {
    "name": "15 PEPPERMINT WAY PEACEFUL BAY 6333",
    "locID": "LOC100055761128",
    "tech": "WIRELESS",
    "upgrade": "NULL_NA",
    "gnaf_pid": "GAWA_718538500",
    "ee": false,
    "tech_change_status": "Not Planned",
    "program_type": "Fixed Wireless and Satellite Upgrade Program",
    "target_eligibility_quarter": "NA"
   }
  },
  {
   "type": "Feature",
   "geometry": {
    "type": "Point",
    "coordinates": [
     116.92831466,
     -35.03968516
    ]
   },
   "properties": {
    "name": "11 SECOND AVENUE PEACEFUL BAY 6333",
    "locID": "LOC100055760191",
    "tech": "WIRELESS",
    "upgrade": "NULL_NA",
    "gnaf_pid": "GAWA_718538522",
    "ee": false,
    "tech_change_status": "Not Planned",
    "program_type": "Fixed Wireless and Satellite Upgrade Program",
    "target_eligibility_quarter": "NA"
   }
  },
  {
   "type": "Feature",
   "geometry": {
    "type": "Point",
    "coordinates": [
     116.92831466,
     -35.03968516
    ]
   },
   "properties": {
    "name": "15 SECOND AVENUE PEACEFUL BAY 6333",
    "locID": "LOC100055760162",
    "tech": "WIRELESS",
    "upgrade": "NULL_NA",
    "gnaf_pid": "GAWA_718538525",
    "ee": false,
    "tech_change_status": "Not Planned",
    "program_type": "Fixed Wireless and Satellite Upgrade Program",
    "target_eligibility_quarter": "NA"
   }
  },
  {
   "type": "Feature",
   "geometry": {
    "type": "Point",
    "coordinates": [
     116.92831466,
     -35.03968516
    ]
   },
   "properties": {
    "name": "16 SECOND AVENUE PEACEFUL BAY 6333",
    "locID": "LOC100055760209",
    "tech": "WIRELESS",
    "upgrade": "NULL_NA",
    "gnaf_pid": "GAWA_718538526",
    "ee": false,
    "tech_change_status": "Not Planned",
    "program_type": "Fixed Wireless and Satellite Upgrade Program",
    "target_eligibility_quarter": "NA"
   }
  },
  {
   "type": "Feature",
   "geometry": {
    "type": "Point",
    "coordinates": [
     116.92831466,
     -35.03968516
    ]
   },
   "properties": {
    "name": "18 SECOND AVENUE PEACEFUL BAY 6333",
    "locID": "LOC100029280987",
    "tech": "WIRELESS",
    "upgrade": "NULL_NA",
    "gnaf_pid": "GAWA_718538528",
    "ee": false,
    "tech_change_status": "Not Planned",
    "program_type": "Fixed Wireless and Satellite Upgrade Program",
    "target_eligibility_quarter": "NA"
   }
  },
  {
   "type": "Feature",
   "geometry": {
    "type": "Point",
    "coordinates": [
     116.92831466,
     -35.03968516
    ]
   },
   "properties": {
    "name": "25 SECOND AVENUE PEACEFUL BAY 6333",
    "locID": "LOC100025108910",
    "tech": "WIRELESS",
    "upgrade": "NULL_NA",
    "gnaf_pid": "GAWA_718538531",
    "ee": false,
    "tech_change_status": "Not Planned",
    "program_type": "Fixed Wireless and Satellite Upgrade Program",
    "target_eligibility_quarter": "NA"
   }
  },
  {
   "type": "Feature",
   "geometry": {
    "type": "Point",
    "coordinates": [
     116.92831466,
     -35.03968516
    ]
   },
   "properties": {
    "name": "27 SECOND AVENUE PEACEFUL BAY 6333",
    "locID": "LOC100024579506",
    "tech": "WIRELESS",
    "upgrade": "NULL_NA",
    "gnaf_pid": "GAWA_718538533",
    "ee": false,
    "tech_change_status": "Not Planned",
    "program_type": "Fixed Wireless and Satellite Upgrade Program",
    "target_eligibility_quarter": "NA"
   }
  },
  {
   "type": "Feature",
   "geometry": {
    "type": "Point",
    "coordinates": [
     116.92831466,
     -35.03968516
    ]
   },
   "properties": {
    "name": "29 SECOND AVENUE PEACEFUL BAY 6333",
    "locID": "LOC100055760213",
    "tech": "WIRELESS",
    "upgrade": "NULL_NA",
    "gnaf_pid": "GAWA_718538535",
    "ee": false,
    "tech_change_status": "Not Planned",
    "program_type": "Fixed Wireless and Satellite Upgrade Program",
    "target_eligibility_quarter": "NA"
   }
  },
  {
   "type": "Feature",
   "geometry": {
    "type": "Point",
    "coordinates": [
     116.92831466,
     -35.03968516
    ]
   },
   "properties": {
    "name": "2 SECOND AVENUE PEACEFUL BAY 6333",
    "locID": "LOC100023136045",
    "tech": "WIRELESS",
    "upgrade": "NULL_NA",
    "gnaf_pid": "GAWA_718538536",
    "ee": false,
    "tech_change_status": "Not Planned",
    "program_type": "Fixed Wireless and Satellite Upgrade Program",
    "target_eligibility_quarter": "NA"
   }
  },
  {
   "type": "Feature",
   "geometry": {
    "type": "Point",
    "coordinates": [
     116.92831466,
     -35.03968516
    ]
   },
   "properties": {
    "name": "31 SECOND AVENUE PEACEFUL BAY 6333",
    "locID": "LOC100016802359",
    "tech": "WIRELESS",
    "upgrade": "NULL_NA",
    "gnaf_pid": "GAWA_718538538",
    "ee": false,
    "tech_change_status": "Not Planned",
    "program_type": "Fixed Wireless and Satellite Upgrade Program",
    "target_eligibility_quarter": "NA"
   }
  },
  {
   "type": "Feature",
   "geometry": {
    "type": "Point",
    "coordinates": [
     116.92831466,
     -35.03968516
    ]
   },
   "properties": {
    "name": "3 SECOND AVENUE PEACEFUL BAY 6333",
    "locID": "LOC100022941942",
    "tech": "WIRELESS",
    "upgrade": "NULL_NA",
    "gnaf_pid": "GAWA_718538543",
    "ee": false,
    "tech_change_status": "Not Planned",
    "program_type": "Fixed Wireless and Satellite Upgrade Program",
    "target_eligibility_quarter": "NA"
   }
  },
  {
   "type": "Feature",
   "geometry": {
    "type": "Point",
    "coordinates": [
     116.92831466,
     -35.03968516
    ]
   },
   "properties": {
    "name": "4 SECOND AVENUE PEACEFUL BAY 6333",
    "locID": "LOC100035784539",
    "tech": "WIRELESS",
    "upgrade": "NULL_NA",
    "gnaf_pid": "GAWA_718538544",
    "ee": false,
    "tech_change_status": "Not Planned",
    "program_type": "Fixed Wireless and Satellite Upgrade Program",
    "target_eligibility_quarter": "NA"
   }
  },
  {
   "type": "Feature",
   "geometry": {
    "type": "Point",
    "coordinates": [
     116.92831466,
     -35.03968516
    ]
   },
   "properties": {
    "name": "8 SECOND AVENUE PEACEFUL BAY 6333",
    "locID": "LOC100032167938",
    "tech": "WIRELESS",
    "upgrade": "NULL_NA",
    "gnaf_pid": "GAWA_718538546",
    "ee": false,
    "tech_change_status": "Not Planned",
    "program_type": "Fixed Wireless and Satellite Upgrade Program",
    "target_eligibility_quarter": "NA"
   }
  },
  {
   "type": "Feature",
   "geometry": {
    "type": "Point",
    "coordinates": [
     116.92831466,
     -35.03968516
    ]
   },
   "properties": {
    "name": "9 SECOND AVENUE PEACEFUL BAY 6333",
    "locID": "LOC100055760189",
    "tech": "WIRELESS",
    "upgrade": "NULL_NA",
    "gnaf_pid": "GAWA_718538547",
    "ee": false,
    "tech_change_status": "Not Planned",
    "program_type": "Fixed Wireless and Satellite Upgrade Program",
    "target_eligibility_quarter": "NA"
   }
  },
  {
   "type": "Feature",
   "geometry": {
    "type": "Point",
    "coordinates": [
     116.92831466,
     -35.03968516
    ]
   },
   "properties": {
    "name": "10 THIRD AVENUE PEACEFUL BAY 6333",
    "locID": "LOC100037077527",
    "tech": "WIRELESS",
    "upgrade": "NULL_NA",
    "gnaf_pid": "GAWA_718538601",
    "ee": false,
    "tech_change_status": "Not Planned",
    "program_type": "Fixed Wireless and Satellite Upgrade Program",
    "target_eligibility_quarter": "NA"
   }
  },
  {
   "type": "Feature",
   "geometry": {
    "type": "Point",
    "coordinates": [
     116.92831466,
     -35.03968516
    ]
   },
   "properties": {
    "name": "13 THIRD AVENUE PEACEFUL BAY 6333",
    "locID": "LOC100055760655",
    "tech": "WIRELESS",
    "upgrade": "NULL_NA",
    "gnaf_pid": "GAWA_718538604",
    "ee": false,
    "tech_change_status": "Not Planned",
    "program_type": "Fixed Wireless and Satellite Upgrade Program",
    "target_eligibility_quarter": "NA"
   }
  },
  {
   "type": "Feature",
   "geometry": {
    "type": "Point",
    "coordinates": [
     116.92831466,
     -35.03968516
    ]
   },
   "properties": {
    "name": "14 THIRD AVENUE PEACEFUL BAY 6333",
    "locID": "LOC100020464840",
    "tech": "WIRELESS",
    "upgrade": "NULL_NA",
    "gnaf_pid": "GAWA_718538605",
    "ee": false,
    "tech_change_status": "Not Planned",
    "program_type": "Fixed Wireless and Satellite Upgrade Program",
    "target_eligibility_quarter": "NA"
   }
  },
  {
   "type": "Feature",
   "geometry": {
    "type": "Point",
    "coordinates": [
     116.92831466,
     -35.03968516
    ]
   },
   "properties": {
    "name": "15 THIRD AVENUE PEACEFUL BAY 6333",
    "locID": "LOC100032742691",
    "tech": "WIRELESS",
    "upgrade": "NULL_NA",
    "gnaf_pid": "GAWA_718538606",
    "ee": false,
    "tech_change_status": "Not Planned",
    "program_type": "Fixed Wireless and Satellite Upgrade Program",
    "target_eligibility_quarter": "NA"
   }
  },
  {
   "type": "Feature",
   "geometry": {
    "type": "Point",
    "coordinates": [
     116.92831466,
     -35.03968516
    ]
   },
   "properties": {
    "name": "16 THIRD AVENUE PEACEFUL BAY 6333",
    "locID": "LOC100017935727",
    "tech": "WIRELESS",
    "upgrade": "NULL_NA",
    "gnaf_pid": "GAWA_718538607",
    "ee": false,
    "tech_change_status": "Not Planned",
    "program_type": "Fixed Wireless and Satellite Upgrade Program",
    "target_eligibility_quarter": "NA"
   }
  },
  {
   "type": "Feature",
   "geometry": {
    "type": "Point",
    "coordinates": [
     116.92831466,
     -35.03968516
    ]
   },
   "properties": {
    "name": "17 THIRD AVENUE PEACEFUL BAY 6333",
    "locID": "LOC100030576281",
    "tech": "WIRELESS",
    "upgrade": "NULL_NA",
    "gnaf_pid": "GAWA_718538608",
    "ee": false,
    "tech_change_status": "Not Planned",
    "program_type": "Fixed Wireless and Satellite Upgrade Program",
    "target_eligibility_quarter": "NA"
   }
  },
  {
   "type": "Feature",
   "geometry": {
    "type": "Point",
    "coordinates": [
     116.92831466,
     -35.03968516
    ]
   },
   "properties": {
    "name": "18 THIRD AVENUE PEACEFUL BAY 6333",
    "locID": "LOC100035635455",
    "tech": "WIRELESS",
    "upgrade": "NULL_NA",
    "gnaf_pid": "GAWA_718538609",
    "ee": false,
    "tech_change_status": "Not Planned",
    "program_type": "Fixed Wireless and Satellite Upgrade Program",
    "target_eligibility_quarter": "NA"
   }
  },
  {
   "type": "Feature",
   "geometry": {
    "type": "Point",
    "coordinates": [
     116.92831466,
     -35.03968516
    ]
   },
   "properties": {
    "name": "19 THIRD AVENUE PEACEFUL BAY 6333",
    "locID": "LOC100022585905",
    "tech": "WIRELESS",
    "upgrade": "NULL_NA",
    "gnaf_pid": "GAWA_718538610",
    "ee": false,
    "tech_change_status": "Not Planned",
    "program_type": "Fixed Wireless and Satellite Upgrade Program",
    "target_eligibility_quarter": "NA"
   }
  },
  {
   "type": "Feature",
   "geometry": {
    "type": "Point",
    "coordinates": [
     116.92831466,
     -35.03968516
    ]
   },
   "properties": {
    "name": "1 THIRD AVENUE PEACEFUL BAY 6333",
    "locID": "LOC100022988355",
    "tech": "WIRELESS",
    "upgrade": "NULL_NA",
    "gnaf_pid": "GAWA_718538611",
    "ee": false,
    "tech_change_status": "Not Planned",
    "program_type": "Fixed Wireless and Satellite Upgrade Program",
    "target_eligibility_quarter": "NA"
   }
  },
  {
   "type": "Feature",
   "geometry": {
    "type": "Point",
    "coordinates": [
     116.92831466,
     -35.03968516
    ]
   },
   "properties": {
    "name": "22 THIRD AVENUE PEACEFUL BAY 6333",
    "locID": "LOC100024027984",
    "tech": "WIRELESS",
    "upgrade": "NULL_NA",
    "gnaf_pid": "GAWA_718538613",
    "ee": false,
    "tech_change_status": "Not Planned",
    "program_type": "Fixed Wireless and Satellite Upgrade Program",
    "target_eligibility_quarter": "NA"
   }
  },
  {
   "type": "Feature",
   "geometry": {
    "type": "Point",
    "coordinates": [
     116.92831466,
     -35.03968516
    ]
   },
   "properties": {
    "name": "23 THIRD AVENUE PEACEFUL BAY 6333",
    "locID": "LOC100022628718",
    "tech": "WIRELESS",
    "upgrade": "NULL_NA",
    "gnaf_pid": "GAWA_718538614",
    "ee": false,
    "tech_change_status": "Not Planned",
    "program_type": "Fixed Wireless and Satellite Upgrade Program",
    "target_eligibility_quarter": "NA"
   }
  },
  {
   "type": "Feature",
   "geometry": {
    "type": "Point",
    "coordinates": [
     116.92831466,
     -35.03968516
    ]
   },
   "properties": {
    "name": "24 THIRD AVENUE PEACEFUL BAY 6333",
    "locID": "LOC100016915574",
    "tech": "WIRELESS",
    "upgrade": "NULL_NA",
    "gnaf_pid": "GAWA_718538615",
    "ee": false,
    "tech_change_status": "Not Planned",
    "program_type": "Fixed Wireless and Satellite Upgrade Program",
    "target_eligibility_quarter": "NA"
   }
  },
  {
   "type": "Feature",
   "geometry": {
    "type": "Point",
    "coordinates": [
     116.92831466,
     -35.03968516
    ]
   },
   "properties": {
    "name": "25 THIRD AVENUE PEACEFUL BAY 6333",
    "locID": "LOC100032019570",
    "tech": "WIRELESS",
    "upgrade": "NULL_NA",
    "gnaf_pid": "GAWA_718538616",
    "ee": false,
    "tech_change_status": "Not Planned",
    "program_type": "Fixed Wireless and Satellite Upgrade Program",
    "target_eligibility_quarter": "NA"
   }
  },
  {
   "type": "Feature",
   "geometry": {
    "type": "Point",
    "coordinates": [
     116.92831466,
     -35.03968516
    ]
   },
   "properties": {
    "name": "26 THIRD AVENUE PEACEFUL BAY 6333",
    "locID": "LOC100030576299",
    "tech": "WIRELESS",
    "upgrade": "NULL_NA",
    "gnaf_pid": "GAWA_718538617",
    "ee": false,
    "tech_change_status": "Not Planned",
    "program_type": "Fixed Wireless and Satellite Upgrade Program",
    "target_eligibility_quarter": "NA"
   }
  },
  {
   "type": "Feature",
   "geometry": {
    "type": "Point",
    "coordinates": [
     116.92831466,
     -35.03968516
    ]
   },
   "properties": {
    "name": "27 THIRD AVENUE PEACEFUL BAY 6333",
    "locID": "LOC100038161164",
    "tech": "WIRELESS",
    "upgrade": "NULL_NA",
    "gnaf_pid": "GAWA_718538618",
    "ee": false,
    "tech_change_status": "Not Planned",
    "program_type": "Fixed Wireless and Satellite Upgrade Program",
    "target_eligibility_quarter": "NA"
   }
  },
  {
   "type": "Feature",
   "geometry": {
    "type": "Point",
    "coordinates": [
     116.92831466,
     -35.03968516
    ]
   },
   "properties": {
    "name": "28 THIRD AVENUE PEACEFUL BAY 6333",
    "locID": "LOC100025880520",
    "tech": "WIRELESS",
    "upgrade": "NULL_NA",
    "gnaf_pid": "GAWA_718538619",
    "ee": false,
    "tech_change_status": "Not Planned",
    "program_type": "Fixed Wireless and Satellite Upgrade Program",
    "target_eligibility_quarter": "NA"
   }
  },
  {
   "type": "Feature",
   "geometry": {
    "type": "Point",
    "coordinates": [
     116.92831466,
     -35.03968516
    ]
   },
   "properties": {
    "name": "29 THIRD AVENUE PEACEFUL BAY 6333",
    "locID": "LOC100027325217",
    "tech": "WIRELESS",
    "upgrade": "NULL_NA",
    "gnaf_pid": "GAWA_718538620",
    "ee": false,
    "tech_change_status": "Not Planned",
    "program_type": "Fixed Wireless and Satellite Upgrade Program",
    "target_eligibility_quarter": "NA"
   }
  },
  {
   "type": "Feature",
   "geometry": {
    "type": "Point",
    "coordinates": [
     116.92831466,
     -35.03968516
    ]
   },
   "properties": {
    "name": "31 THIRD AVENUE PEACEFUL BAY 6333",
    "locID": "LOC100038480257",
    "tech": "WIRELESS",
    "upgrade": "NULL_NA",
    "gnaf_pid": "GAWA_718538622",
    "ee": false,
    "tech_change_status": "Not Planned",
    "program_type": "Fixed Wireless and Satellite Upgrade Program",
    "target_eligibility_quarter": "NA"
   }
  },
  {
   "type": "Feature",
   "geometry": {
    "type": "Point",
    "coordinates": [
     116.92831466,
     -35.03968516
    ]
   },
   "properties": {
    "name": "32 THIRD AVENUE PEACEFUL BAY 6333",
    "locID": "LOC100025156147",
    "tech": "WIRELESS",
    "upgrade": "NULL_NA",
    "gnaf_pid": "GAWA_718538623",
    "ee": false,
    "tech_change_status": "Not Planned",
    "program_type": "Fixed Wireless and Satellite Upgrade Program",
    "target_eligibility_quarter": "NA"
   }
  },
  {
   "type": "Feature",
   "geometry": {
    "type": "Point",
    "coordinates": [
     116.92831466,
     -35.03968516
    ]
   },
   "properties": {
    "name": "33 THIRD AVENUE PEACEFUL BAY 6333",
    "locID": "LOC100033464574",
    "tech": "WIRELESS",
    "upgrade": "NULL_NA",
    "gnaf_pid": "GAWA_718538624",
    "ee": false,
    "tech_change_status": "Not Planned",
    "program_type": "Fixed Wireless and Satellite Upgrade Program",
    "target_eligibility_quarter": "NA"
   }
  },
  {
   "type": "Feature",
   "geometry": {
    "type": "Point",
    "coordinates": [
     116.92831466,
     -35.03968516
    ]
   },
   "properties": {
    "name": "34 THIRD AVENUE PEACEFUL BAY 6333",
    "locID": "LOC100020464855",
    "tech": "WIRELESS",
    "upgrade": "NULL_NA",
    "gnaf_pid": "GAWA_718538625",
    "ee": false,
    "tech_change_status": "Not Planned",
    "program_type": "Fixed Wireless and Satellite Upgrade Program",
    "target_eligibility_quarter": "NA"
   }
  },
  {
   "type": "Feature",
   "geometry": {
    "type": "Point",
    "coordinates": [
     116.92831466,
     -35.03968516
    ]
   },
   "properties": {
    "name": "35 THIRD AVENUE PEACEFUL BAY 6333",
    "locID": "LOC100032742708",
    "tech": "WIRELESS",
    "upgrade": "NULL_NA",
    "gnaf_pid": "GAWA_718538626",
    "ee": false,
    "tech_change_status": "Not Planned",
    "program_type": "Fixed Wireless and Satellite Upgrade Program",
    "target_eligibility_quarter": "NA"
   }
  },
  {
   "type": "Feature",
   "geometry": {
    "type": "Point",
    "coordinates": [
     116.92831466,
     -35.03968516
    ]
   },
   "properties": {
    "name": "37 THIRD AVENUE PEACEFUL BAY 6333",
    "locID": "LOC100017935743",
    "tech": "WIRELESS",
    "upgrade": "NULL_NA",
    "gnaf_pid": "GAWA_718538628",
    "ee": false,
    "tech_change_status": "Not Planned",
    "program_type": "Fixed Wireless and Satellite Upgrade Program",
    "target_eligibility_quarter": "NA"
   }
  },
  {
   "type": "Feature",
   "geometry": {
    "type": "Point",
    "coordinates": [
     116.92831466,
     -35.03968516
    ]
   },
   "properties": {
    "name": "38 THIRD AVENUE PEACEFUL BAY 6333",
    "locID": "LOC100019382571",
    "tech": "WIRELESS",
    "upgrade": "NULL_NA",
    "gnaf_pid": "GAWA_718538629",
    "ee": false,
    "tech_change_status": "Not Planned",
    "program_type": "Fixed Wireless and Satellite Upgrade Program",
    "target_eligibility_quarter": "NA"
   }
  },
  {
   "type": "Feature",
   "geometry": {
    "type": "Point",
    "coordinates": [
     116.92831466,
     -35.03968516
    ]
   },
   "properties": {
    "name": "3 THIRD AVENUE PEACEFUL BAY 6333",
    "locID": "LOC100025156134",
    "tech": "WIRELESS",
    "upgrade": "NULL_NA",
    "gnaf_pid": "GAWA_718538630",
    "ee": false,
    "tech_change_status": "Not Planned",
    "program_type": "Fixed Wireless and Satellite Upgrade Program",
    "target_eligibility_quarter": "NA"
   }
  },
  {
   "type": "Feature",
   "geometry": {
    "type": "Point",
    "coordinates": [
     116.92831466,
     -35.03968516
    ]
   },
   "properties": {
    "name": "4 THIRD AVENUE PEACEFUL BAY 6333",
    "locID": "LOC100037077536",
    "tech": "WIRELESS",
    "upgrade": "NULL_NA",
    "gnaf_pid": "GAWA_718538631",
    "ee": false,
    "tech_change_status": "Not Planned",
    "program_type": "Fixed Wireless and Satellite Upgrade Program",
    "target_eligibility_quarter": "NA"
   }
  },
  {
   "type": "Feature",
   "geometry": {
    "type": "Point",
    "coordinates": [
     116.92831466,
     -35.03968516
    ]
   },
   "properties": {
    "name": "5 THIRD AVENUE PEACEFUL BAY 6333",
    "locID": "LOC100055759990",
    "tech": "WIRELESS",
    "upgrade": "NULL_NA",
    "gnaf_pid": "GAWA_718538632",
    "ee": false,
    "tech_change_status": "Not Planned",
    "program_type": "Fixed Wireless and Satellite Upgrade Program",
    "target_eligibility_quarter": "NA"
   }
  },
  {
   "type": "Feature",
   "geometry": {
    "type": "Point",
    "coordinates": [
     116.92831466,
     -35.03968516
    ]
   },
   "properties": {
    "name": "6 THIRD AVENUE PEACEFUL BAY 6333",
    "locID": "LOC100032742712",
    "tech": "WIRELESS",
    "upgrade": "NULL_NA",
    "gnaf_pid": "GAWA_718538633",
    "ee": false,
    "tech_change_status": "Not Planned",
    "program_type": "Fixed Wireless and Satellite Upgrade Program",
    "target_eligibility_quarter": "NA"
   }
  },
  {
   "type": "Feature",
   "geometry": {
    "type": "Point",
    "coordinates": [
     116.92831466,
     -35.03968516
    ]
   },
   "properties": {
    "name": "8 THIRD AVENUE PEACEFUL BAY 6333",
    "locID": "LOC100017935736",
    "tech": "WIRELESS",
    "upgrade": "NULL_NA",
    "gnaf_pid": "GAWA_718538635",
    "ee": false,
    "tech_change_status": "Not Planned",
    "program_type": "Fixed Wireless and Satellite Upgrade Program",
    "target_eligibility_quarter": "NA"
   }
  },
  {
   "type": "Feature",
   "geometry": {
    "type": "Point",
    "coordinates": [
     116.92831466,
     -35.03968516
    ]
   },
   "properties": {
    "name": "9 THIRD AVENUE PEACEFUL BAY 6333",
    "locID": "LOC100021908696",
    "tech": "WIRELESS",
    "upgrade": "NULL_NA",
    "gnaf_pid": "GAWA_718538636",
    "ee": false,
    "tech_change_status": "Not Planned",
    "program_type": "Fixed Wireless and Satellite Upgrade Program",
    "target_eligibility_quarter": "NA"
   }
  },
  {
   "type": "Feature",
   "geometry": {
    "type": "Point",
    "coordinates": [
     116.92831466,
     -35.03968516
    ]
   },
   "properties": {
    "name": "6 WEST AVENUE PEACEFUL BAY 6333",
    "locID": "LOC100032742712",
    "tech": "WIRELESS",
    "upgrade": "NULL_NA",
    "gnaf_pid": "GAWA_718538686",
    "ee": false,
    "tech_change_status": "Not Planned",
    "program_type": "Fixed Wireless and Satellite Upgrade Program",
    "target_eligibility_quarter": "NA"
   }
  },
  {
   "type": "Feature",
   "geometry": {
    "type": "Point",
    "coordinates": [
     116.92429838,
     -35.03915838
    ]
   },
   "properties": {
    "name": "8 WEST AVENUE PEACEFUL BAY 6333",
    "locID": "LOC100032167938",
    "tech": "WIRELESS",
    "upgrade": "NULL_NA",
    "gnaf_pid": "GAWA_718538687",
    "ee": false,
    "tech_change_status": "Not Planned",
    "program_type": "Fixed Wireless and Satellite Upgrade Program",
    "target_eligibility_quarter": "NA"
   }
  },
  {
   "type": "Feature",
   "geometry": {
    "type": "Point",
    "coordinates": [
     116.92831466,
     -35.03968516
    ]
   },
   "properties": {
    "name": "18 WEST AVENUE PEACEFUL BAY 6333",
    "locID": "LOC100027283946",
    "tech": "WIRELESS",
    "upgrade": "NULL_NA",
    "gnaf_pid": "GAWA_718633061",
    "ee": false,
    "tech_change_status": "Not Planned",
    "program_type": "Fixed Wireless and Satellite Upgrade Program",
    "target_eligibility_quarter": "NA"
   }
  },
  {
   "type": "Feature",
   "geometry": {
    "type": "Point",
    "coordinates": [
     116.92831466,
     -35.03968516
    ]
   },
   "properties": {
    "name": "3 WEST AVENUE PEACEFUL BAY 6333",
    "locID": "LOC100022941942",
    "tech": "WIRELESS",
    "upgrade": "NULL_NA",
    "gnaf_pid": "GAWA_718633062",
    "ee": false,
    "tech_change_status": "Not Planned",
    "program_type": "Fixed Wireless and Satellite Upgrade Program",
    "target_eligibility_quarter": "NA"
   }
  },
  {
   "type": "Feature",
   "geometry": {
    "type": "Point",
    "coordinates": [
     116.92831466,
     -35.03968516
    ]
   },
   "properties": {
    "name": "5 WEST AVENUE PEACEFUL BAY 6333",
    "locID": "LOC100055759990",
    "tech": "WIRELESS",
    "upgrade": "NULL_NA",
    "gnaf_pid": "GAWA_718633063",
    "ee": false,
    "tech_change_status": "Not Planned",
    "program_type": "Fixed Wireless and Satellite Upgrade Program",
    "target_eligibility_quarter": "NA"
   }
  },
  {
   "type": "Feature",
   "geometry": {
    "type": "Point",
    "coordinates": [
     116.92786532,
     -35.03926417
    ]
   },
   "properties": {
    "name": "33 EAST AVENUE PEACEFUL BAY 6333",
    "locID": "LOC000189705579",
    "tech": "WIRELESS",
    "upgrade": "NULL_NA",
    "gnaf_pid": "GAWA_718651865",
    "ee": false,
    "tech_change_status": "Not Planned",
    "program_type": "Fixed Wireless and Satellite Upgrade Program",
    "target_eligibility_quarter": "NA"
   }
  },
  {
   "type": "Feature",
   "geometry": {
    "type": "Point",
    "coordinates": [
     116.92592612,
     -35.03804634
    ]
   },
   "properties": {
    "name": "47 FOURTH AVENUE PEACEFUL BAY 6333",
    "locID": "LOC000183732917",
    "tech": "WIRELESS",
    "upgrade": "NULL_NA",
    "gnaf_pid": "GAWA_718651976",
    "ee": false,
    "tech_change_status": "Not Planned",
    "program_type": "Fixed Wireless and Satellite Upgrade Program",
    "target_eligibility_quarter": "NA"
   }
  },
  {
   "type": "Feature",
   "geometry": {
    "type": "Point",
    "coordinates": [
     116.92610405,
     -35.0393174
    ]
   },
   "properties": {
    "name": "1 SECOND AVENUE PEACEFUL BAY 6333",
    "locID": "LOC100055760382",
    "tech": "WIRELESS",
    "upgrade": "NULL_NA",
    "gnaf_pid": "GAWA_718653285",
    "ee": false,
    "tech_change_status": "Not Planned",
    "program_type": "Fixed Wireless and Satellite Upgrade Program",
    "target_eligibility_quarter": "NA"
   }
  },
  {
   "type": "Feature",
   "geometry": {
    "type": "Point",
    "coordinates": [
     116.91998514,
     -35.03877656
    ]
   },
   "properties": {
    "name": "1 BAY COURT PEACEFUL BAY 6333",
    "locID": "LOC100055760638",
    "tech": "WIRELESS",
    "upgrade": "NULL_NA",
    "gnaf_pid": "GAWA_718753891",
    "ee": false,
    "tech_change_status": "Not Planned",
    "program_type": "Fixed Wireless and Satellite Upgrade Program",
    "target_eligibility_quarter": "NA"
   }
  },
  {
   "type": "Feature",
   "geometry": {
    "type": "Point",
    "coordinates": [
     116.92044792,
     -35.03758519
    ]
   },
   "properties": {
    "name": "UNIT 10, 11 PEPPERMINT WAY PEACEFUL BAY 6333",
    "locID": "LOC100055761144",
    "tech": "WIRELESS",
    "upgrade": "NULL_NA",
    "gnaf_pid": "GAWA_718789838",
    "ee": false,
    "tech_change_status": "Not Planned",
    "program_type": "Fixed Wireless and Satellite Upgrade Program",
    "target_eligibility_quarter": "NA"
   }
  },
  {
   "type": "Feature",
   "geometry": {
    "type": "Point",
    "coordinates": [
     116.92000529,
     -35.03738654
    ]
   },
   "properties": {
    "name": "UNIT 11, 11 PEPPERMINT WAY PEACEFUL BAY 6333",
    "locID": "LOC100055761074",
    "tech": "WIRELESS",
    "upgrade": "NULL_NA",
    "gnaf_pid": "GAWA_718789839",
    "ee": false,
    "tech_change_status": "Not Planned",
    "program_type": "Fixed Wireless and Satellite Upgrade Program",
    "target_eligibility_quarter": "NA"
   }
  },
  {
   "type": "Feature",
   "geometry": {
    "type": "Point",
    "coordinates": [
     116.92003184,
     -35.03756549
    ]
   },
   "properties": {
    "name": "UNIT 12, 11 PEPPERMINT WAY PEACEFUL BAY 6333",
    "locID": "LOC100055761137",
    "tech": "WIRELESS",
    "upgrade": "NULL_NA",
    "gnaf_pid": "GAWA_718789840",
    "ee": false,
    "tech_change_status": "Not Planned",
    "program_type": "Fixed Wireless and Satellite Upgrade Program",
    "target_eligibility_quarter": "NA"
   }
  },
  {
   "type": "Feature",
   "geometry": {
    "type": "Point",
    "coordinates": [
     116.92085026,
     -35.03715309
    ]
   },
   "properties": {
    "name": "UNIT 7, 13 PEPPERMINT WAY PEACEFUL BAY 6333",
    "locID": "LOC100055761088",
    "tech": "WIRELESS",
    "upgrade": "NULL_NA",
    "gnaf_pid": "GAWA_718789841",
    "ee": false,
    "tech_change_status": "Not Planned",
    "program_type": "Fixed Wireless and Satellite Upgrade Program",
    "target_eligibility_quarter": "NA"
   }
  },
  {
   "type": "Feature",
   "geometry": {
    "type": "Point",
    "coordinates": [
     116.92060376,
     -35.03695372
    ]
   },
   "properties": {
    "name": "UNIT 8, 15 PEPPERMINT WAY PEACEFUL BAY 6333",
    "locID": "LOC100055761116",
    "tech": "WIRELESS",
    "upgrade": "NULL_NA",
    "gnaf_pid": "GAWA_718789842",
    "ee": false,
    "tech_change_status": "Not Planned",
    "program_type": "Fixed Wireless and Satellite Upgrade Program",
    "target_eligibility_quarter": "NA"
   }
  },
  {
   "type": "Feature",
   "geometry": {
    "type": "Point",
    "coordinates": [
     116.92040747,
     -35.0373903
    ]
   },
   "properties": {
    "name": "UNIT 9, 11 PEPPERMINT WAY PEACEFUL BAY 6333",
    "locID": "LOC100055761090",
    "tech": "WIRELESS",
    "upgrade": "NULL_NA",
    "gnaf_pid": "GAWA_718789843",
    "ee": false,
    "tech_change_status": "Not Planned",
    "program_type": "Fixed Wireless and Satellite Upgrade Program",
    "target_eligibility_quarter": "NA"
   }
  },
  {
   "type": "Feature",
   "geometry": {
    "type": "Point",
    "coordinates": [
     116.92831466,
     -35.03968516
    ]
   },
   "properties": {
    "name": "899 PEACEFUL BAY ROAD PEACEFUL BAY 6333",
    "locID": "LOC100055759926",
    "tech": "WIRELESS",
    "upgrade": "NULL_NA",
    "gnaf_pid": "GAWA_719969936",
    "ee": false,
    "tech_change_status": "Not Planned",
    "program_type": "Fixed Wireless and Satellite Upgrade Program",
    "target_eligibility_quarter": "NA"
   }
  },
  {
   "type": "Feature",
   "geometry": {
    "type": "Point",
    "coordinates": [
     116.90080212,
     -35.02676672
    ]
   },
   "properties": {
    "name": "LOT 120 FICIFOLIA ROAD PEACEFUL BAY 6333",
    "locID": "LOC000094018941",
    "tech": "WIRELESS",
    "upgrade": "NULL_NA",
    "gnaf_pid": "GAWA_721282594",
    "ee": false,
    "tech_change_status": "Not Planned",
    "program_type": "Fixed Wireless and Satellite Upgrade Program",
    "target_eligibility_quarter": "NA"
   }
  }
 ]
}