{
 "type": "FeatureCollection",
 "generated": "2025-06-19T13:02:58.456469",
 "suburb": "PEEDAMULLA",
 "features": [
  {
   "type": "Feature",
   "geometry": {
    "type": "Point",
    "coordinates": [
     115.10511394,
     -21.74866683
    ]
   },
   "properties": {
    "name": "LOT 306 ONSLOW ROAD PEEDAMULLA 6710",
    "locID": "LOC000133546989",
    "tech": "NULL",
    "upgrade": "NULL_NA",
    "gnaf_pid": "GAWA_163341127",
    "ee": true,
    "tech_change_status": "Not Planned"
   }
  }
 ]
}