{
 "type": "FeatureCollection",
 "generated": "2025-06-19T08:50:44.042720",
 "suburb": "RAWLINNA",
 "features": [
  {
   "type": "Feature",
   "geometry": {
    "type": "Point",
    "coordinates": [
     124.82753,
     -30.9935
    ]
   },
   "properties": {
    "name": "LOT 1 TRANS ACCESS ROAD RAWLINNA 6434",
    "locID": "LOC000107755871",
    "tech": "SATELLITE",
    "upgrade": "NULL_NA",
    "gnaf_pid": "GAWA_161995392",
    "ee": false,
    "tech_change_status": "Not Planned"
   }
  },
  {
   "type": "Feature",
   "geometry": {
    "type": "Point",
    "coordinates": [
     125.54287335,
     -31.01256636
    ]
   },
   "properties": {
    "name": "836 TRANS ACCESS ROAD RAWLINNA 6434",
    "locID": "LOC000164590015",
    "tech": "SATELLITE",
    "upgrade": "NULL_NA",
    "gnaf_pid": "GAWA_720280321",
    "ee": false,
    "tech_change_status": "Not Planned"
   }
  }
 ]
}