{
 "type": "FeatureCollection",
 "generated": "2025-06-19T08:51:38.853202",
 "suburb": "REDBANK",
 "features": [
  {
   "type": "Feature",
   "geometry": {
    "type": "Point",
    "coordinates": [
     118.62393,
     -20.34541
    ]
   },
   "properties": {
    "name": "87 REDBANK ROAD REDBANK 6721",
    "locID": "LOC000008636774",
    "tech": "FTTN",
    "upgrade": "NULL_NA",
    "gnaf_pid": "GAWA_147016946",
    "ee": true,
    "tech_change_status": "Not Planned"
   }
  },
  {
   "type": "Feature",
   "geometry": {
    "type": "Point",
    "coordinates": [
     118.62487,
     -20.3433
    ]
   },
   "properties": {
    "name": "74 REDBANK ROAD REDBANK 6721",
    "locID": "LOC000002141679",
    "tech": "FTTN",
    "upgrade": "NULL_NA",
    "gnaf_pid": "GAWA_147016947",
    "ee": true,
    "tech_change_status": "Not Planned"
   }
  },
  {
   "type": "Feature",
   "geometry": {
    "type": "Point",
    "coordinates": [
     118.62504,
     -20.3453
    ]
   },
   "properties": {
    "name": "75 REDBANK ROAD REDBANK 6721",
    "locID": "LOC000101630419",
    "tech": "FTTN",
    "upgrade": "NULL_NA",
    "gnaf_pid": "GAWA_147016948",
    "ee": true,
    "tech_change_status": "Not Planned"
   }
  },
  {
   "type": "Feature",
   "geometry": {
    "type": "Point",
    "coordinates": [
     118.62967,
     -20.34311
    ]
   },
   "properties": {
    "name": "30 REDBANK ROAD REDBANK 6721",
    "locID": "LOC000089571158",
    "tech": "FTTN",
    "upgrade": "NULL_NA",
    "gnaf_pid": "GAWA_147050352",
    "ee": true,
    "tech_change_status": "Not Planned"
   }
  },
  {
   "type": "Feature",
   "geometry": {
    "type": "Point",
    "coordinates": [
     118.62885,
     -20.34631
    ]
   },
   "properties": {
    "name": "26 ROCHE ROAD REDBANK 6721",
    "locID": "LOC000063892260",
    "tech": "FTTN",
    "upgrade": "NULL_NA",
    "gnaf_pid": "GAWA_147050353",
    "ee": true,
    "tech_change_status": "Not Planned"
   }
  },
  {
   "type": "Feature",
   "geometry": {
    "type": "Point",
    "coordinates": [
     118.62439214,
     -20.34480372
    ]
   },
   "properties": {
    "name": "33 REDBANK ROAD REDBANK 6721",
    "locID": "LOC000068201543",
    "tech": "FTTN",
    "upgrade": "NULL_NA",
    "gnaf_pid": "GAWA_147050354",
    "ee": true,
    "tech_change_status": "Not Planned"
   }
  },
  {
   "type": "Feature",
   "geometry": {
    "type": "Point",
    "coordinates": [
     118.62601,
     -20.34526
    ]
   },
   "properties": {
    "name": "65 REDBANK ROAD REDBANK 6721",
    "locID": "LOC000094391152",
    "tech": "FTTN",
    "upgrade": "NULL_NA",
    "gnaf_pid": "GAWA_147146448",
    "ee": true,
    "tech_change_status": "Not Planned"
   }
  },
  {
   "type": "Feature",
   "geometry": {
    "type": "Point",
    "coordinates": [
     118.62687,
     -20.34527
    ]
   },
   "properties": {
    "name": "55 REDBANK ROAD REDBANK 6721",
    "locID": "LOC000084224611",
    "tech": "FTTN",
    "upgrade": "NULL_NA",
    "gnaf_pid": "GAWA_147146449",
    "ee": true,
    "tech_change_status": "Not Planned"
   }
  },
  {
   "type": "Feature",
   "geometry": {
    "type": "Point",
    "coordinates": [
     118.62274,
     -20.34366
    ]
   },
   "properties": {
    "name": "92 REDBANK ROAD REDBANK 6721",
    "locID": "LOC000033583698",
    "tech": "FTTN",
    "upgrade": "NULL_NA",
    "gnaf_pid": "GAWA_147160130",
    "ee": true,
    "tech_change_status": "Not Planned"
   }
  },
  {
   "type": "Feature",
   "geometry": {
    "type": "Point",
    "coordinates": [
     118.62328,
     -20.34367
    ]
   },
   "properties": {
    "name": "86 REDBANK ROAD REDBANK 6721",
    "locID": "LOC000035504324",
    "tech": "FTTN",
    "upgrade": "NULL_NA",
    "gnaf_pid": "GAWA_147160131",
    "ee": true,
    "tech_change_status": "Not Planned"
   }
  },
  {
   "type": "Feature",
   "geometry": {
    "type": "Point",
    "coordinates": [
     118.62373,
     -20.34362
    ]
   },
   "properties": {
    "name": "80 REDBANK ROAD REDBANK 6721",
    "locID": "LOC000042205227",
    "tech": "FTTN",
    "upgrade": "NULL_NA",
    "gnaf_pid": "GAWA_147160132",
    "ee": true,
    "tech_change_status": "Not Planned"
   }
  },
  {
   "type": "Feature",
   "geometry": {
    "type": "Point",
    "coordinates": [
     118.6262,
     -20.34318
    ]
   },
   "properties": {
    "name": "54 REDBANK ROAD REDBANK 6721",
    "locID": "LOC000082334004",
    "tech": "FTTN",
    "upgrade": "NULL_NA",
    "gnaf_pid": "GAWA_147165230",
    "ee": true,
    "tech_change_status": "Not Planned"
   }
  },
  {
   "type": "Feature",
   "geometry": {
    "type": "Point",
    "coordinates": [
     118.62677,
     -20.34317
    ]
   },
   "properties": {
    "name": "48 REDBANK ROAD REDBANK 6721",
    "locID": "LOC000027014337",
    "tech": "FTTN",
    "upgrade": "NULL_NA",
    "gnaf_pid": "GAWA_147165231",
    "ee": true,
    "tech_change_status": "Not Planned"
   }
  },
  {
   "type": "Feature",
   "geometry": {
    "type": "Point",
    "coordinates": [
     118.62735,
     -20.34316
    ]
   },
   "properties": {
    "name": "42 REDBANK ROAD REDBANK 6721",
    "locID": "LOC000081595267",
    "tech": "FTTN",
    "upgrade": "NULL_NA",
    "gnaf_pid": "GAWA_147165232",
    "ee": true,
    "tech_change_status": "Not Planned"
   }
  },
  {
   "type": "Feature",
   "geometry": {
    "type": "Point",
    "coordinates": [
     118.62793,
     -20.34315
    ]
   },
   "properties": {
    "name": "36 REDBANK ROAD REDBANK 6721",
    "locID": "LOC000003691039",
    "tech": "FTTN",
    "upgrade": "NULL_NA",
    "gnaf_pid": "GAWA_147165233",
    "ee": true,
    "tech_change_status": "Not Planned"
   }
  },
  {
   "type": "Feature",
   "geometry": {
    "type": "Point",
    "coordinates": [
     118.62764,
     -20.34474
    ]
   },
   "properties": {
    "name": "47 REDBANK ROAD REDBANK 6721",
    "locID": "LOC000094621874",
    "tech": "FTTN",
    "upgrade": "NULL_NA",
    "gnaf_pid": "GAWA_147166084",
    "ee": true,
    "tech_change_status": "Not Planned"
   }
  },
  {
   "type": "Feature",
   "geometry": {
    "type": "Point",
    "coordinates": [
     118.62848,
     -20.34472
    ]
   },
   "properties": {
    "name": "39 REDBANK ROAD REDBANK 6721",
    "locID": "LOC000036501381",
    "tech": "FTTN",
    "upgrade": "NULL_NA",
    "gnaf_pid": "GAWA_147166085",
    "ee": true,
    "tech_change_status": "Not Planned"
   }
  },
  {
   "type": "Feature",
   "geometry": {
    "type": "Point",
    "coordinates": [
     118.62074123,
     -20.34370004
    ]
   },
   "properties": {
    "name": "128 REDBANK ROAD REDBANK 6721",
    "locID": "LOC000045796229",
    "tech": "FTTN",
    "upgrade": "NULL_NA",
    "gnaf_pid": "GAWA_147190310",
    "ee": true,
    "tech_change_status": "Not Planned"
   }
  },
  {
   "type": "Feature",
   "geometry": {
    "type": "Point",
    "coordinates": [
     118.62439214,
     -20.34480372
    ]
   },
   "properties": {
    "name": "1 REDBANK ROAD REDBANK 6721",
    "locID": "LOC000045796229",
    "tech": "FTTN",
    "upgrade": "NULL_NA",
    "gnaf_pid": "GAWA_148054033",
    "ee": true,
    "tech_change_status": "Not Planned"
   }
  },
  {
   "type": "Feature",
   "geometry": {
    "type": "Point",
    "coordinates": [
     118.62635104,
     -20.34320818
    ]
   },
   "properties": {
    "name": "52 REDBANK ROAD REDBANK 6721",
    "locID": "LOC100032496087",
    "tech": "FTTN",
    "upgrade": "NULL_NA",
    "gnaf_pid": "GAWA_148054034",
    "ee": true,
    "tech_change_status": "Not Planned"
   }
  },
  {
   "type": "Feature",
   "geometry": {
    "type": "Point",
    "coordinates": [
     118.61973329,
     -20.34432093
    ]
   },
   "properties": {
    "name": "LOT 2 REDBANK ROAD REDBANK 6721",
    "locID": "LOC000057030351",
    "tech": "WIRELESS",
    "upgrade": "NULL_NA",
    "gnaf_pid": "GAWA_162805118",
    "ee": true,
    "tech_change_status": "Not Planned",
    "program_type": "Fixed Wireless and Satellite Upgrade Program",
    "target_eligibility_quarter": "NA"
   }
  },
  {
   "type": "Feature",
   "geometry": {
    "type": "Point",
    "coordinates": [
     118.61785996,
     -20.34408986
    ]
   },
   "properties": {
    "name": "LOT 6252 REDBANK ROAD REDBANK 6721",
    "locID": "LOC000008282858",
    "tech": "WIRELESS",
    "upgrade": "NULL_NA",
    "gnaf_pid": "GAWA_162805119",
    "ee": true,
    "tech_change_status": "Not Planned",
    "program_type": "Fixed Wireless and Satellite Upgrade Program",
    "target_eligibility_quarter": "NA"
   }
  },
  {
   "type": "Feature",
   "geometry": {
    "type": "Point",
    "coordinates": [
     118.62813438,
     -20.34579619
    ]
   },
   "properties": {
    "name": "LOT 52 ROCHE ROAD REDBANK 6721",
    "locID": "LOC100032496087",
    "tech": "FTTN",
    "upgrade": "NULL_NA",
    "gnaf_pid": "GAWA_718255021",
    "ee": true,
    "tech_change_status": "Not Planned"
   }
  }
 ]
}