{
 "type": "FeatureCollection",
 "generated": "2025-06-19T13:11:16.789634",
 "suburb": "ROCKLEA",
 "features": [
  {
   "type": "Feature",
   "geometry": {
    "type": "Point",
    "coordinates": [
     117.81757398,
     -22.87980424
    ]
   },
   "properties": {
    "name": "LOT 105 TOM PRICE-PARABURDOO ROAD ROCKLEA 6751",
    "locID": "LOC000133547117",
    "tech": "NULL",
    "upgrade": "NULL_NA",
    "gnaf_pid": "GAWA_718343200",
    "ee": true,
    "tech_change_status": "Not Planned"
   }
  }
 ]
}