{
 "type": "FeatureCollection",
 "generated": "2025-06-19T09:07:21.251803",
 "suburb": "ROTTNEST ISLAND",
 "features": [
  {
   "type": "Feature",
   "geometry": {
    "type": "Point",
    "coordinates": [
     115.51234594,
     -32.00620247
    ]
   },
   "properties": {
    "name": "1 SOMERVILLE DRIVE ROTTNEST ISLAND 6161",
    "locID": "LOC000132684345",
    "tech": "NULL",
    "upgrade": "NULL_NA",
    "gnaf_pid": "GAWA_148861515",
    "ee": true,
    "tech_change_status": "Not Planned"
   }
  },
  {
   "type": "Feature",
   "geometry": {
    "type": "Point",
    "coordinates": [
     115.51234594,
     -32.00620247
    ]
   },
   "properties": {
    "name": "532 LANCIER STREET ROTTNEST ISLAND 6161",
    "locID": "LOC000132704450",
    "tech": "NULL",
    "upgrade": "NULL_NA",
    "gnaf_pid": "GAWA_163152586",
    "ee": true,
    "tech_change_status": "Not Planned"
   }
  },
  {
   "type": "Feature",
   "geometry": {
    "type": "Point",
    "coordinates": [
     115.51234594,
     -32.00620247
    ]
   },
   "properties": {
    "name": "342 SOMERVILLE DRIVE ROTTNEST ISLAND 6161",
    "locID": "LOC000132696317",
    "tech": "SATELLITE",
    "upgrade": "NULL_NA",
    "gnaf_pid": "GAWA_163155029",
    "ee": true,
    "tech_change_status": "Not Planned"
   }
  },
  {
   "type": "Feature",
   "geometry": {
    "type": "Point",
    "coordinates": [
     115.51234594,
     -32.00620247
    ]
   },
   "properties": {
    "name": "343 SOMERVILLE DRIVE ROTTNEST ISLAND 6161",
    "locID": "LOC000132696329",
    "tech": "NULL",
    "upgrade": "NULL_NA",
    "gnaf_pid": "GAWA_163155030",
    "ee": true,
    "tech_change_status": "Not Planned"
   }
  },
  {
   "type": "Feature",
   "geometry": {
    "type": "Point",
    "coordinates": [
     115.51234594,
     -32.00620247
    ]
   },
   "properties": {
    "name": "523 TRANSIT ROAD ROTTNEST ISLAND 6161",
    "locID": "LOC000132704360",
    "tech": "NULL",
    "upgrade": "NULL_NA",
    "gnaf_pid": "GAWA_163155614",
    "ee": true,
    "tech_change_status": "Not Planned"
   }
  },
  {
   "type": "Feature",
   "geometry": {
    "type": "Point",
    "coordinates": [
     115.51234594,
     -32.00620247
    ]
   },
   "properties": {
    "name": "212 VLAMINGH WAY ROTTNEST ISLAND 6161",
    "locID": "LOC000132688306",
    "tech": "NULL",
    "upgrade": "NULL_NA",
    "gnaf_pid": "GAWA_163155831",
    "ee": true,
    "tech_change_status": "Not Planned"
   }
  },
  {
   "type": "Feature",
   "geometry": {
    "type": "Point",
    "coordinates": [
     115.53969065,
     -31.99541537
    ]
   },
   "properties": {
    "name": "4 KITSON STREET ROTTNEST ISLAND 6161",
    "locID": "LOC000178817489",
    "tech": "NULL",
    "upgrade": "NULL_NA",
    "gnaf_pid": "GAWA_718740690",
    "ee": true,
    "tech_change_status": "Not Planned"
   }
  }
 ]
}