{
 "type": "FeatureCollection",
 "generated": "2025-06-19T09:13:34.706952",
 "suburb": "SANDSPRINGS",
 "features": [
  {
   "type": "Feature",
   "geometry": {
    "type": "Point",
    "coordinates": [
     114.971342,
     -28.801666
    ]
   },
   "properties": {
    "name": "325 SANDSPRINGS ROAD SANDSPRINGS 6532",
    "locID": "LOC000050824072",
    "tech": "NULL",
    "upgrade": "NULL_NA",
    "gnaf_pid": "GAWA_162257345",
    "ee": true,
    "tech_change_status": "Not Planned"
   }
  },
  {
   "type": "Feature",
   "geometry": {
    "type": "Point",
    "coordinates": [
     114.93800768,
     -28.78514853
    ]
   },
   "properties": {
    "name": "620 SANDSPRINGS ROAD SANDSPRINGS 6532",
    "locID": "LOC000108937082",
    "tech": "NULL",
    "upgrade": "NULL_NA",
    "gnaf_pid": "GAWA_162257346",
    "ee": true,
    "tech_change_status": "Not Planned"
   }
  }
 ]
}