{
 "type": "FeatureCollection",
 "generated": "2025-06-19T09:49:49.358818",
 "suburb": "SOUTH YILGARN",
 "features": [
  {
   "type": "Feature",
   "geometry": {
    "type": "Point",
    "coordinates": [
     119.36870181,
     -31.85913192
    ]
   },
   "properties": {
    "name": "LOT 1 CRAMPHORNE ROAD SOUTH YILGARN 6426",
    "locID": "LOC000143028239",
    "tech": "SATELLITE",
    "upgrade": "NULL_NA",
    "gnaf_pid": "GAWA_162780579",
    "ee": false,
    "tech_change_status": "Not Planned"
   }
  },
  {
   "type": "Feature",
   "geometry": {
    "type": "Point",
    "coordinates": [
     119.30529849,
     -31.75142405
    ]
   },
   "properties": {
    "name": "1286 BRENNAND ROAD SOUTH YILGARN 6426",
    "locID": "LOC000133334495",
    "tech": "SATELLITE",
    "upgrade": "NULL_NA",
    "gnaf_pid": "GAWA_720408988",
    "ee": false,
    "tech_change_status": "Not Planned"
   }
  },
  {
   "type": "Feature",
   "geometry": {
    "type": "Point",
    "coordinates": [
     119.21678835,
     -31.74152378
    ]
   },
   "properties": {
    "name": "282 BRENNAND ROAD SOUTH YILGARN 6426",
    "locID": "LOC100078059211",
    "tech": "NULL",
    "upgrade": "NULL_NA",
    "gnaf_pid": "GAWA_720409132",
    "ee": false,
    "tech_change_status": "Not Planned"
   }
  },
  {
   "type": "Feature",
   "geometry": {
    "type": "Point",
    "coordinates": [
     119.25847178,
     -31.81874517
    ]
   },
   "properties": {
    "name": "6575 SOUTHERN CROSS SOUTH ROAD SOUTH YILGARN 6426",
    "locID": "LOC100078060112",
    "tech": "NULL",
    "upgrade": "NULL_NA",
    "gnaf_pid": "GAWA_720409537",
    "ee": false,
    "tech_change_status": "Not Planned"
   }
  },
  {
   "type": "Feature",
   "geometry": {
    "type": "Point",
    "coordinates": [
     119.23579834,
     -31.91570317
    ]
   },
   "properties": {
    "name": "5073 MERANDA NORTH ROAD SOUTH YILGARN 6426",
    "locID": "LOC000133337019",
    "tech": "SATELLITE",
    "upgrade": "NULL_NA",
    "gnaf_pid": "GAWA_720409602",
    "ee": false,
    "tech_change_status": "Not Planned"
   }
  },
  {
   "type": "Feature",
   "geometry": {
    "type": "Point",
    "coordinates": [
     119.23879911,
     -31.74878522
    ]
   },
   "properties": {
    "name": "5906 SOUTHERN CROSS SOUTH ROAD SOUTH YILGARN 6426",
    "locID": "LOC100078059253",
    "tech": "NULL",
    "upgrade": "NULL_NA",
    "gnaf_pid": "GAWA_720409746",
    "ee": false,
    "tech_change_status": "Not Planned"
   }
  },
  {
   "type": "Feature",
   "geometry": {
    "type": "Point",
    "coordinates": [
     119.24226092,
     -31.87693248
    ]
   },
   "properties": {
    "name": "7319 SOUTHERN CROSS SOUTH ROAD SOUTH YILGARN 6426",
    "locID": "LOC100078061050",
    "tech": "NULL",
    "upgrade": "NULL_NA",
    "gnaf_pid": "GAWA_720409764",
    "ee": false,
    "tech_change_status": "Not Planned"
   }
  },
  {
   "type": "Feature",
   "geometry": {
    "type": "Point",
    "coordinates": [
     119.26243971,
     -31.92921326
    ]
   },
   "properties": {
    "name": "5227 MERANDA NORTH ROAD SOUTH YILGARN 6426",
    "locID": "LOC100078061803",
    "tech": "SATELLITE",
    "upgrade": "NULL_NA",
    "gnaf_pid": "GAWA_720410054",
    "ee": false,
    "tech_change_status": "Not Planned"
   }
  },
  {
   "type": "Feature",
   "geometry": {
    "type": "Point",
    "coordinates": [
     119.19713987,
     -31.68968983
    ]
   },
   "properties": {
    "name": "491 GREEN ROAD SOUTH YILGARN 6426",
    "locID": "LOC100078058498",
    "tech": "NULL",
    "upgrade": "NULL_NA",
    "gnaf_pid": "GAWA_720410198",
    "ee": false,
    "tech_change_status": "Not Planned"
   }
  },
  {
   "type": "Feature",
   "geometry": {
    "type": "Point",
    "coordinates": [
     119.42441803,
     -31.71946472
    ]
   },
   "properties": {
    "name": "5150 EMU FENCE ROAD SOUTH YILGARN 6426",
    "locID": "LOC100078058887",
    "tech": "SATELLITE",
    "upgrade": "NULL_NA",
    "gnaf_pid": "GAWA_720411407",
    "ee": false,
    "tech_change_status": "Not Planned"
   }
  },
  {
   "type": "Feature",
   "geometry": {
    "type": "Point",
    "coordinates": [
     119.31745678,
     -31.80594041
    ]
   },
   "properties": {
    "name": "10491 CRAMPHORNE ROAD SOUTH YILGARN 6426",
    "locID": "LOC000143028239",
    "tech": "SATELLITE",
    "upgrade": "NULL_NA",
    "gnaf_pid": "GAWA_720411540",
    "ee": false,
    "tech_change_status": "Not Planned"
   }
  },
  {
   "type": "Feature",
   "geometry": {
    "type": "Point",
    "coordinates": [
     119.29189689,
     -31.83603907
    ]
   },
   "properties": {
    "name": "10690 CRAMPHORNE ROAD SOUTH YILGARN 6426",
    "locID": "LOC100078060521",
    "tech": "NULL",
    "upgrade": "NULL_NA",
    "gnaf_pid": "GAWA_720411984",
    "ee": false,
    "tech_change_status": "Not Planned"
   }
  },
  {
   "type": "Feature",
   "geometry": {
    "type": "Point",
    "coordinates": [
     119.37463533,
     -31.77145147
    ]
   },
   "properties": {
    "name": "2020 BRENNAND ROAD SOUTH YILGARN 6426",
    "locID": "LOC000108163192",
    "tech": "SATELLITE",
    "upgrade": "NULL_NA",
    "gnaf_pid": "GAWA_720412165",
    "ee": false,
    "tech_change_status": "Not Planned"
   }
  },
  {
   "type": "Feature",
   "geometry": {
    "type": "Point",
    "coordinates": [
     119.23773188,
     -31.71682058
    ]
   },
   "properties": {
    "name": "5468 SOUTHERN CROSS SOUTH ROAD SOUTH YILGARN 6426",
    "locID": "LOC100076710190",
    "tech": "NULL",
    "upgrade": "NULL_NA",
    "gnaf_pid": "GAWA_720412439",
    "ee": false,
    "tech_change_status": "Not Planned"
   }
  },
  {
   "type": "Feature",
   "geometry": {
    "type": "Point",
    "coordinates": [
     119.20288609,
     -31.82795672
    ]
   },
   "properties": {
    "name": "7106 SOUTHERN CROSS SOUTH ROAD SOUTH YILGARN 6426",
    "locID": "LOC100078060371",
    "tech": "NULL",
    "upgrade": "NULL_NA",
    "gnaf_pid": "GAWA_720412590",
    "ee": false,
    "tech_change_status": "Not Planned"
   }
  },
  {
   "type": "Feature",
   "geometry": {
    "type": "Point",
    "coordinates": [
     119.34352585,
     -31.87132719
    ]
   },
   "properties": {
    "name": "11252 CRAMPHORNE ROAD SOUTH YILGARN 6426",
    "locID": "LOC100078060972",
    "tech": "NULL",
    "upgrade": "NULL_NA",
    "gnaf_pid": "GAWA_720412736",
    "ee": false,
    "tech_change_status": "Not Planned"
   }
  },
  {
   "type": "Feature",
   "geometry": {
    "type": "Point",
    "coordinates": [
     119.42184093,
     -31.6870525
    ]
   },
   "properties": {
    "name": "1896 GUERINI ROAD SOUTH YILGARN 6426",
    "locID": "LOC100087624204",
    "tech": "NULL",
    "upgrade": "NULL_NA",
    "gnaf_pid": "GAWA_721194721",
    "ee": false,
    "tech_change_status": "Not Planned"
   }
  }
 ]
}