{
 "type": "FeatureCollection",
 "generated": "2025-06-19T09:54:54.525297",
 "suburb": "SPRINGS",
 "features": [
  {
   "type": "Feature",
   "geometry": {
    "type": "Point",
    "coordinates": [
     116.56602,
     -32.59614
    ]
   },
   "properties": {
    "name": "1286 NORTH BANNISTER-WANDERING ROAD SPRINGS 6308",
    "locID": "LOC000142444898",
    "tech": "SATELLITE",
    "upgrade": "NULL_NA",
    "gnaf_pid": "GAWA_147243195",
    "ee": false,
    "tech_change_status": "Not Planned"
   }
  },
  {
   "type": "Feature",
   "geometry": {
    "type": "Point",
    "coordinates": [
     116.52729,
     -32.55511
    ]
   },
   "properties": {
    "name": "663 NORTH BANNISTER-WANDERING ROAD SPRINGS 6308",
    "locID": "LOC000142465337",
    "tech": "SATELLITE",
    "upgrade": "NULL_NA",
    "gnaf_pid": "GAWA_147249221",
    "ee": false,
    "tech_change_status": "Not Planned"
   }
  },
  {
   "type": "Feature",
   "geometry": {
    "type": "Point",
    "coordinates": [
     116.55967,
     -32.61038
    ]
   },
   "properties": {
    "name": "982 NORTH BANNISTER-WANDERING ROAD SPRINGS 6308",
    "locID": "LOC000013783043",
    "tech": "SATELLITE",
    "upgrade": "NULL_NA",
    "gnaf_pid": "GAWA_147269528",
    "ee": false,
    "tech_change_status": "Not Planned"
   }
  },
  {
   "type": "Feature",
   "geometry": {
    "type": "Point",
    "coordinates": [
     116.58831,
     -32.59102
    ]
   },
   "properties": {
    "name": "1285 NORTH BANNISTER-WANDERING ROAD SPRINGS 6308",
    "locID": "LOC000098702058",
    "tech": "WIRELESS",
    "upgrade": "NULL_NA",
    "gnaf_pid": "GAWA_147269532",
    "ee": false,
    "tech_change_status": "Not Planned",
    "program_type": "Fixed Wireless and Satellite Upgrade Program",
    "target_eligibility_quarter": "NA"
   }
  },
  {
   "type": "Feature",
   "geometry": {
    "type": "Point",
    "coordinates": [
     116.53654,
     -32.59104
    ]
   },
   "properties": {
    "name": "850 NORTH BANNISTER-WANDERING ROAD SPRINGS 6308",
    "locID": "LOC000046732063",
    "tech": "SATELLITE",
    "upgrade": "NULL_NA",
    "gnaf_pid": "GAWA_147372037",
    "ee": false,
    "tech_change_status": "Not Planned"
   }
  }
 ]
}