{
 "type": "FeatureCollection",
 "generated": "2025-06-19T09:55:23.847501",
 "suburb": "ST GEORGE RANGES",
 "features": [
  {
   "type": "Feature",
   "geometry": {
    "type": "Point",
    "coordinates": [
     125.59000588,
     -18.18534461
    ]
   },
   "properties": {
    "name": "LOT 21 YURABI ROAD ST GEORGE RANGES 6728",
    "locID": "LOC000109030427",
    "tech": "SATELLITE",
    "upgrade": "NULL_NA",
    "gnaf_pid": "GAWA_162694538",
    "ee": false,
    "tech_change_status": "Not Planned"
   }
  },
  {
   "type": "Feature",
   "geometry": {
    "type": "Point",
    "coordinates": [
     126.00061347,
     -18.76538244
    ]
   },
   "properties": {
    "name": "LOT 32 CHRISTMAS CREEK-BEEFWOOD PARK ROAD ST GEORGE RANGES 6728",
    "locID": "LOC000116502330",
    "tech": "NULL",
    "upgrade": "NULL_NA",
    "gnaf_pid": "GAWA_162770523",
    "ee": false,
    "tech_change_status": "Not Planned"
   }
  },
  {
   "type": "Feature",
   "geometry": {
    "type": "Point",
    "coordinates": [
     125.91046965,
     -18.88699711
    ]
   },
   "properties": {
    "name": "LOT 74 CHRISTMAS CREEK-BEEFWOOD PARK ROAD ST GEORGE RANGES 6728",
    "locID": "LOC000108960688",
    "tech": "NULL",
    "upgrade": "NULL_NA",
    "gnaf_pid": "GAWA_162778514",
    "ee": false,
    "tech_change_status": "Not Planned"
   }
  },
  {
   "type": "Feature",
   "geometry": {
    "type": "Point",
    "coordinates": [
     125.59041711,
     -18.18741174
    ]
   },
   "properties": {
    "name": "LOT 16 YURABI ROAD ST GEORGE RANGES 6728",
    "locID": "LOC000109660285",
    "tech": "NULL",
    "upgrade": "NULL_NA",
    "gnaf_pid": "GAWA_162822279",
    "ee": false,
    "tech_change_status": "Not Planned"
   }
  },
  {
   "type": "Feature",
   "geometry": {
    "type": "Point",
    "coordinates": [
     125.5913709,
     -18.18652749
    ]
   },
   "properties": {
    "name": "LOT 17 YURABI ROAD ST GEORGE RANGES 6728",
    "locID": "LOC000109675657",
    "tech": "SATELLITE",
    "upgrade": "NULL_NA",
    "gnaf_pid": "GAWA_162822280",
    "ee": false,
    "tech_change_status": "Not Planned"
   }
  },
  {
   "type": "Feature",
   "geometry": {
    "type": "Point",
    "coordinates": [
     125.59232524,
     -18.18553095
    ]
   },
   "properties": {
    "name": "LOT 18 YURABI ROAD ST GEORGE RANGES 6728",
    "locID": "LOC000110125809",
    "tech": "SATELLITE",
    "upgrade": "NULL_NA",
    "gnaf_pid": "GAWA_162822281",
    "ee": false,
    "tech_change_status": "Not Planned"
   }
  },
  {
   "type": "Feature",
   "geometry": {
    "type": "Point",
    "coordinates": [
     125.59332846,
     -18.18458184
    ]
   },
   "properties": {
    "name": "LOT 19 YURABI ROAD ST GEORGE RANGES 6728",
    "locID": "LOC000109030427",
    "tech": "SATELLITE",
    "upgrade": "NULL_NA",
    "gnaf_pid": "GAWA_162822282",
    "ee": false,
    "tech_change_status": "Not Planned"
   }
  },
  {
   "type": "Feature",
   "geometry": {
    "type": "Point",
    "coordinates": [
     125.59437319,
     -18.18366603
    ]
   },
   "properties": {
    "name": "LOT 20 YURABI ROAD ST GEORGE RANGES 6728",
    "locID": "LOC000109415562",
    "tech": "NULL",
    "upgrade": "NULL_NA",
    "gnaf_pid": "GAWA_162822283",
    "ee": false,
    "tech_change_status": "Not Planned"
   }
  },
  {
   "type": "Feature",
   "geometry": {
    "type": "Point",
    "coordinates": [
     125.5831774,
     -18.20905728
    ]
   },
   "properties": {
    "name": "LOT 277 GREAT NORTHERN HIGHWAY ST GEORGE RANGES 6728",
    "locID": "LOC000116502369",
    "tech": "NULL",
    "upgrade": "NULL_NA",
    "gnaf_pid": "GAWA_163379683",
    "ee": false,
    "tech_change_status": "Not Planned"
   }
  },
  {
   "type": "Feature",
   "geometry": {
    "type": "Point",
    "coordinates": [
     125.60359465,
     -18.30180408
    ]
   },
   "properties": {
    "name": "LOT 37 BROWN COURT ST GEORGE RANGES 6728",
    "locID": "LOC000133502984",
    "tech": "SATELLITE",
    "upgrade": "NULL_NA",
    "gnaf_pid": "GAWA_718338356",
    "ee": false,
    "tech_change_status": "Not Planned"
   }
  },
  {
   "type": "Feature",
   "geometry": {
    "type": "Point",
    "coordinates": [
     125.60359465,
     -18.30180408
    ]
   },
   "properties": {
    "name": "LOT 38 BROWN COURT ST GEORGE RANGES 6728",
    "locID": "LOC000133502997",
    "tech": "NULL",
    "upgrade": "NULL_NA",
    "gnaf_pid": "GAWA_718338357",
    "ee": false,
    "tech_change_status": "Not Planned"
   }
  },
  {
   "type": "Feature",
   "geometry": {
    "type": "Point",
    "coordinates": [
     125.60359465,
     -18.30180408
    ]
   },
   "properties": {
    "name": "LOT 39 BROWN COURT ST GEORGE RANGES 6728",
    "locID": "LOC000133503005",
    "tech": "SATELLITE",
    "upgrade": "NULL_NA",
    "gnaf_pid": "GAWA_718338358",
    "ee": false,
    "tech_change_status": "Not Planned"
   }
  },
  {
   "type": "Feature",
   "geometry": {
    "type": "Point",
    "coordinates": [
     125.60359465,
     -18.30180408
    ]
   },
   "properties": {
    "name": "LOT 40 BROWN COURT ST GEORGE RANGES 6728",
    "locID": "LOC000133503014",
    "tech": "SATELLITE",
    "upgrade": "NULL_NA",
    "gnaf_pid": "GAWA_718338359",
    "ee": false,
    "tech_change_status": "Not Planned"
   }
  },
  {
   "type": "Feature",
   "geometry": {
    "type": "Point",
    "coordinates": [
     125.60359465,
     -18.30180408
    ]
   },
   "properties": {
    "name": "LOT 43 BROWN COURT ST GEORGE RANGES 6728",
    "locID": "LOC000133503022",
    "tech": "NULL",
    "upgrade": "NULL_NA",
    "gnaf_pid": "GAWA_718338360",
    "ee": false,
    "tech_change_status": "Not Planned"
   }
  },
  {
   "type": "Feature",
   "geometry": {
    "type": "Point",
    "coordinates": [
     125.60359465,
     -18.30180408
    ]
   },
   "properties": {
    "name": "LOT 44 BROWN COURT ST GEORGE RANGES 6728",
    "locID": "LOC000133503033",
    "tech": "NULL",
    "upgrade": "NULL_NA",
    "gnaf_pid": "GAWA_718338361",
    "ee": false,
    "tech_change_status": "Not Planned"
   }
  },
  {
   "type": "Feature",
   "geometry": {
    "type": "Point",
    "coordinates": [
     125.60359465,
     -18.30180408
    ]
   },
   "properties": {
    "name": "LOT 45 BROWN COURT ST GEORGE RANGES 6728",
    "locID": "LOC000133503046",
    "tech": "SATELLITE",
    "upgrade": "NULL_NA",
    "gnaf_pid": "GAWA_718338362",
    "ee": false,
    "tech_change_status": "Not Planned"
   }
  },
  {
   "type": "Feature",
   "geometry": {
    "type": "Point",
    "coordinates": [
     125.60359465,
     -18.30180408
    ]
   },
   "properties": {
    "name": "LOT 46 BROWN COURT ST GEORGE RANGES 6728",
    "locID": "LOC000133503051",
    "tech": "NULL",
    "upgrade": "NULL_NA",
    "gnaf_pid": "GAWA_718338363",
    "ee": false,
    "tech_change_status": "Not Planned"
   }
  },
  {
   "type": "Feature",
   "geometry": {
    "type": "Point",
    "coordinates": [
     125.60359465,
     -18.30180408
    ]
   },
   "properties": {
    "name": "LOT 47 BROWN COURT ST GEORGE RANGES 6728",
    "locID": "LOC000133503067",
    "tech": "NULL",
    "upgrade": "NULL_NA",
    "gnaf_pid": "GAWA_718338364",
    "ee": false,
    "tech_change_status": "Not Planned"
   }
  },
  {
   "type": "Feature",
   "geometry": {
    "type": "Point",
    "coordinates": [
     125.77061696,
     -18.16122514
    ]
   },
   "properties": {
    "name": "LOT 21 CHEREL STREET ST GEORGE RANGES 6728",
    "locID": "LOC000180239157",
    "tech": "NULL",
    "upgrade": "NULL_NA",
    "gnaf_pid": "GAWA_718338682",
    "ee": false,
    "tech_change_status": "Not Planned"
   }
  },
  {
   "type": "Feature",
   "geometry": {
    "type": "Point",
    "coordinates": [
     125.77061696,
     -18.16122514
    ]
   },
   "properties": {
    "name": "LOT 24 CHEREL STREET ST GEORGE RANGES 6728",
    "locID": "LOC000180239157",
    "tech": "NULL",
    "upgrade": "NULL_NA",
    "gnaf_pid": "GAWA_718338683",
    "ee": false,
    "tech_change_status": "Not Planned"
   }
  },
  {
   "type": "Feature",
   "geometry": {
    "type": "Point",
    "coordinates": [
     125.77061696,
     -18.16122514
    ]
   },
   "properties": {
    "name": "LOT 25 CHEREL STREET ST GEORGE RANGES 6728",
    "locID": "LOC000180239157",
    "tech": "NULL",
    "upgrade": "NULL_NA",
    "gnaf_pid": "GAWA_718338684",
    "ee": false,
    "tech_change_status": "Not Planned"
   }
  },
  {
   "type": "Feature",
   "geometry": {
    "type": "Point",
    "coordinates": [
     125.77061696,
     -18.16122514
    ]
   },
   "properties": {
    "name": "LOT 26 CHEREL STREET ST GEORGE RANGES 6728",
    "locID": "LOC000180239157",
    "tech": "NULL",
    "upgrade": "NULL_NA",
    "gnaf_pid": "GAWA_718338685",
    "ee": false,
    "tech_change_status": "Not Planned"
   }
  },
  {
   "type": "Feature",
   "geometry": {
    "type": "Point",
    "coordinates": [
     125.7079823,
     -18.66024957
    ]
   },
   "properties": {
    "name": "LOT 40 CHERRABUN ROAD ST GEORGE RANGES 6728",
    "locID": "LOC000183476947",
    "tech": "NULL",
    "upgrade": "NULL_NA",
    "gnaf_pid": "GAWA_718338686",
    "ee": false,
    "tech_change_status": "Not Planned"
   }
  },
  {
   "type": "Feature",
   "geometry": {
    "type": "Point",
    "coordinates": [
     125.92758872,
     -18.89181447
    ]
   },
   "properties": {
    "name": "LOT 11 CHRISTMAS CREEK ROAD ST GEORGE RANGES 6728",
    "locID": "LOC000172174837",
    "tech": "SATELLITE",
    "upgrade": "NULL_NA",
    "gnaf_pid": "GAWA_718338724",
    "ee": false,
    "tech_change_status": "Not Planned"
   }
  },
  {
   "type": "Feature",
   "geometry": {
    "type": "Point",
    "coordinates": [
     125.60359465,
     -18.30180408
    ]
   },
   "properties": {
    "name": "LOT 133 GALAR PLACE ST GEORGE RANGES 6728",
    "locID": "LOC000133507828",
    "tech": "SATELLITE",
    "upgrade": "NULL_NA",
    "gnaf_pid": "GAWA_718339495",
    "ee": false,
    "tech_change_status": "Not Planned"
   }
  },
  {
   "type": "Feature",
   "geometry": {
    "type": "Point",
    "coordinates": [
     125.60359465,
     -18.30180408
    ]
   },
   "properties": {
    "name": "LOT 134 GALAR PLACE ST GEORGE RANGES 6728",
    "locID": "LOC000133507837",
    "tech": "NULL",
    "upgrade": "NULL_NA",
    "gnaf_pid": "GAWA_718339496",
    "ee": false,
    "tech_change_status": "Not Planned"
   }
  },
  {
   "type": "Feature",
   "geometry": {
    "type": "Point",
    "coordinates": [
     125.60359465,
     -18.30180408
    ]
   },
   "properties": {
    "name": "LOT 27 GALAR PLACE ST GEORGE RANGES 6728",
    "locID": "LOC000133507844",
    "tech": "NULL",
    "upgrade": "NULL_NA",
    "gnaf_pid": "GAWA_718339497",
    "ee": false,
    "tech_change_status": "Not Planned"
   }
  },
  {
   "type": "Feature",
   "geometry": {
    "type": "Point",
    "coordinates": [
     125.60359465,
     -18.30180408
    ]
   },
   "properties": {
    "name": "LOT 28 GALAR PLACE ST GEORGE RANGES 6728",
    "locID": "LOC000133507859",
    "tech": "SATELLITE",
    "upgrade": "NULL_NA",
    "gnaf_pid": "GAWA_718339498",
    "ee": false,
    "tech_change_status": "Not Planned"
   }
  },
  {
   "type": "Feature",
   "geometry": {
    "type": "Point",
    "coordinates": [
     125.60359465,
     -18.30180408
    ]
   },
   "properties": {
    "name": "LOT 29 GALAR PLACE ST GEORGE RANGES 6728",
    "locID": "LOC000133507863",
    "tech": "NULL",
    "upgrade": "NULL_NA",
    "gnaf_pid": "GAWA_718339499",
    "ee": false,
    "tech_change_status": "Not Planned"
   }
  },
  {
   "type": "Feature",
   "geometry": {
    "type": "Point",
    "coordinates": [
     125.60359465,
     -18.30180408
    ]
   },
   "properties": {
    "name": "LOT 31 GALAR PLACE ST GEORGE RANGES 6728",
    "locID": "LOC000133507871",
    "tech": "NULL",
    "upgrade": "NULL_NA",
    "gnaf_pid": "GAWA_718339500",
    "ee": false,
    "tech_change_status": "Not Planned"
   }
  },
  {
   "type": "Feature",
   "geometry": {
    "type": "Point",
    "coordinates": [
     125.60359465,
     -18.30180408
    ]
   },
   "properties": {
    "name": "LOT 32 GALAR PLACE ST GEORGE RANGES 6728",
    "locID": "LOC000133507844",
    "tech": "NULL",
    "upgrade": "NULL_NA",
    "gnaf_pid": "GAWA_718339501",
    "ee": false,
    "tech_change_status": "Not Planned"
   }
  },
  {
   "type": "Feature",
   "geometry": {
    "type": "Point",
    "coordinates": [
     125.60359465,
     -18.30180408
    ]
   },
   "properties": {
    "name": "LOT 33 GALAR PLACE ST GEORGE RANGES 6728",
    "locID": "LOC000133507844",
    "tech": "NULL",
    "upgrade": "NULL_NA",
    "gnaf_pid": "GAWA_718339502",
    "ee": false,
    "tech_change_status": "Not Planned"
   }
  },
  {
   "type": "Feature",
   "geometry": {
    "type": "Point",
    "coordinates": [
     125.60359465,
     -18.30180408
    ]
   },
   "properties": {
    "name": "LOT 34 GALAR PLACE ST GEORGE RANGES 6728",
    "locID": "LOC000133507844",
    "tech": "NULL",
    "upgrade": "NULL_NA",
    "gnaf_pid": "GAWA_718339503",
    "ee": false,
    "tech_change_status": "Not Planned"
   }
  },
  {
   "type": "Feature",
   "geometry": {
    "type": "Point",
    "coordinates": [
     125.60359465,
     -18.30180408
    ]
   },
   "properties": {
    "name": "LOT 35 GALAR PLACE ST GEORGE RANGES 6728",
    "locID": "LOC000133507844",
    "tech": "NULL",
    "upgrade": "NULL_NA",
    "gnaf_pid": "GAWA_718339504",
    "ee": false,
    "tech_change_status": "Not Planned"
   }
  },
  {
   "type": "Feature",
   "geometry": {
    "type": "Point",
    "coordinates": [
     125.60359465,
     -18.30180408
    ]
   },
   "properties": {
    "name": "LOT 12 GREAT NORTHERN HIGHWAY ST GEORGE RANGES 6728",
    "locID": "LOC000133507956",
    "tech": "NULL",
    "upgrade": "NULL_NA",
    "gnaf_pid": "GAWA_718339789",
    "ee": false,
    "tech_change_status": "Not Planned"
   }
  },
  {
   "type": "Feature",
   "geometry": {
    "type": "Point",
    "coordinates": [
     125.69251826,
     -18.33332217
    ]
   },
   "properties": {
    "name": "LOT 39 GREAT NORTHERN HIGHWAY ST GEORGE RANGES 6728",
    "locID": "LOC000133512151",
    "tech": "SATELLITE",
    "upgrade": "NULL_NA",
    "gnaf_pid": "GAWA_718339790",
    "ee": false,
    "tech_change_status": "Not Planned"
   }
  },
  {
   "type": "Feature",
   "geometry": {
    "type": "Point",
    "coordinates": [
     125.60359465,
     -18.30180408
    ]
   },
   "properties": {
    "name": "LOT 48 GUY STREET ST GEORGE RANGES 6728",
    "locID": "LOC000133512180",
    "tech": "SATELLITE",
    "upgrade": "NULL_NA",
    "gnaf_pid": "GAWA_718339847",
    "ee": false,
    "tech_change_status": "Not Planned"
   }
  },
  {
   "type": "Feature",
   "geometry": {
    "type": "Point",
    "coordinates": [
     125.60359465,
     -18.30180408
    ]
   },
   "properties": {
    "name": "LOT 49 GUY STREET ST GEORGE RANGES 6728",
    "locID": "LOC000133512180",
    "tech": "SATELLITE",
    "upgrade": "NULL_NA",
    "gnaf_pid": "GAWA_718339848",
    "ee": false,
    "tech_change_status": "Not Planned"
   }
  },
  {
   "type": "Feature",
   "geometry": {
    "type": "Point",
    "coordinates": [
     125.60359465,
     -18.30180408
    ]
   },
   "properties": {
    "name": "LOT 52 GUY STREET ST GEORGE RANGES 6728",
    "locID": "LOC000133512180",
    "tech": "SATELLITE",
    "upgrade": "NULL_NA",
    "gnaf_pid": "GAWA_718339849",
    "ee": false,
    "tech_change_status": "Not Planned"
   }
  },
  {
   "type": "Feature",
   "geometry": {
    "type": "Point",
    "coordinates": [
     125.60359465,
     -18.30180408
    ]
   },
   "properties": {
    "name": "LOT 53 GUY STREET ST GEORGE RANGES 6728",
    "locID": "LOC000133512180",
    "tech": "SATELLITE",
    "upgrade": "NULL_NA",
    "gnaf_pid": "GAWA_718339850",
    "ee": false,
    "tech_change_status": "Not Planned"
   }
  },
  {
   "type": "Feature",
   "geometry": {
    "type": "Point",
    "coordinates": [
     125.60359465,
     -18.30180408
    ]
   },
   "properties": {
    "name": "LOT 54 GUY STREET ST GEORGE RANGES 6728",
    "locID": "LOC000133512180",
    "tech": "SATELLITE",
    "upgrade": "NULL_NA",
    "gnaf_pid": "GAWA_718339851",
    "ee": false,
    "tech_change_status": "Not Planned"
   }
  },
  {
   "type": "Feature",
   "geometry": {
    "type": "Point",
    "coordinates": [
     125.60359465,
     -18.30180408
    ]
   },
   "properties": {
    "name": "LOT 55 GUY STREET ST GEORGE RANGES 6728",
    "locID": "LOC000133512180",
    "tech": "SATELLITE",
    "upgrade": "NULL_NA",
    "gnaf_pid": "GAWA_718339852",
    "ee": false,
    "tech_change_status": "Not Planned"
   }
  },
  {
   "type": "Feature",
   "geometry": {
    "type": "Point",
    "coordinates": [
     125.77061696,
     -18.16122514
    ]
   },
   "properties": {
    "name": "LOT 27 HALLOWAY STREET ST GEORGE RANGES 6728",
    "locID": "LOC000142495590",
    "tech": "NULL",
    "upgrade": "NULL_NA",
    "gnaf_pid": "GAWA_718339885",
    "ee": false,
    "tech_change_status": "Not Planned"
   }
  },
  {
   "type": "Feature",
   "geometry": {
    "type": "Point",
    "coordinates": [
     125.77061696,
     -18.16122514
    ]
   },
   "properties": {
    "name": "LOT 28 HALLOWAY STREET ST GEORGE RANGES 6728",
    "locID": "LOC000142495590",
    "tech": "NULL",
    "upgrade": "NULL_NA",
    "gnaf_pid": "GAWA_718339886",
    "ee": false,
    "tech_change_status": "Not Planned"
   }
  },
  {
   "type": "Feature",
   "geometry": {
    "type": "Point",
    "coordinates": [
     125.77061696,
     -18.16122514
    ]
   },
   "properties": {
    "name": "LOT 29 HALLOWAY STREET ST GEORGE RANGES 6728",
    "locID": "LOC000142495590",
    "tech": "NULL",
    "upgrade": "NULL_NA",
    "gnaf_pid": "GAWA_718339887",
    "ee": false,
    "tech_change_status": "Not Planned"
   }
  },
  {
   "type": "Feature",
   "geometry": {
    "type": "Point",
    "coordinates": [
     125.77061696,
     -18.16122514
    ]
   },
   "properties": {
    "name": "LOT 30 HALLOWAY STREET ST GEORGE RANGES 6728",
    "locID": "LOC000142495590",
    "tech": "NULL",
    "upgrade": "NULL_NA",
    "gnaf_pid": "GAWA_718339888",
    "ee": false,
    "tech_change_status": "Not Planned"
   }
  },
  {
   "type": "Feature",
   "geometry": {
    "type": "Point",
    "coordinates": [
     125.77061696,
     -18.16122514
    ]
   },
   "properties": {
    "name": "LOT 31 HALLOWAY STREET ST GEORGE RANGES 6728",
    "locID": "LOC000142495590",
    "tech": "NULL",
    "upgrade": "NULL_NA",
    "gnaf_pid": "GAWA_718339889",
    "ee": false,
    "tech_change_status": "Not Planned"
   }
  },
  {
   "type": "Feature",
   "geometry": {
    "type": "Point",
    "coordinates": [
     125.77061696,
     -18.16122514
    ]
   },
   "properties": {
    "name": "LOT 32 HALLOWAY STREET ST GEORGE RANGES 6728",
    "locID": "LOC000142495590",
    "tech": "NULL",
    "upgrade": "NULL_NA",
    "gnaf_pid": "GAWA_718339890",
    "ee": false,
    "tech_change_status": "Not Planned"
   }
  },
  {
   "type": "Feature",
   "geometry": {
    "type": "Point",
    "coordinates": [
     125.60359465,
     -18.30180408
    ]
   },
   "properties": {
    "name": "LOT 23 JILLIYARDIE STREET ST GEORGE RANGES 6728",
    "locID": "LOC000187755406",
    "tech": "SATELLITE",
    "upgrade": "NULL_NA",
    "gnaf_pid": "GAWA_718340306",
    "ee": false,
    "tech_change_status": "Not Planned"
   }
  },
  {
   "type": "Feature",
   "geometry": {
    "type": "Point",
    "coordinates": [
     125.60359465,
     -18.30180408
    ]
   },
   "properties": {
    "name": "LOT 24 JILLIYARDIE STREET ST GEORGE RANGES 6728",
    "locID": "LOC000187755406",
    "tech": "SATELLITE",
    "upgrade": "NULL_NA",
    "gnaf_pid": "GAWA_718340307",
    "ee": false,
    "tech_change_status": "Not Planned"
   }
  },
  {
   "type": "Feature",
   "geometry": {
    "type": "Point",
    "coordinates": [
     125.60359465,
     -18.30180408
    ]
   },
   "properties": {
    "name": "LOT 25 JILLIYARDIE STREET ST GEORGE RANGES 6728",
    "locID": "LOC000187755406",
    "tech": "SATELLITE",
    "upgrade": "NULL_NA",
    "gnaf_pid": "GAWA_718340308",
    "ee": false,
    "tech_change_status": "Not Planned"
   }
  },
  {
   "type": "Feature",
   "geometry": {
    "type": "Point",
    "coordinates": [
     125.60359465,
     -18.30180408
    ]
   },
   "properties": {
    "name": "LOT 10 KAKATA COURT ST GEORGE RANGES 6728",
    "locID": "LOC000185507789",
    "tech": "NULL",
    "upgrade": "NULL_NA",
    "gnaf_pid": "GAWA_718340491",
    "ee": false,
    "tech_change_status": "Not Planned"
   }
  },
  {
   "type": "Feature",
   "geometry": {
    "type": "Point",
    "coordinates": [
     125.60359465,
     -18.30180408
    ]
   },
   "properties": {
    "name": "LOT 11 KAKATA COURT ST GEORGE RANGES 6728",
    "locID": "LOC000185507789",
    "tech": "NULL",
    "upgrade": "NULL_NA",
    "gnaf_pid": "GAWA_718340492",
    "ee": false,
    "tech_change_status": "Not Planned"
   }
  },
  {
   "type": "Feature",
   "geometry": {
    "type": "Point",
    "coordinates": [
     125.60359465,
     -18.30180408
    ]
   },
   "properties": {
    "name": "LOT 12 KAKATA COURT ST GEORGE RANGES 6728",
    "locID": "LOC000185507789",
    "tech": "NULL",
    "upgrade": "NULL_NA",
    "gnaf_pid": "GAWA_718340493",
    "ee": false,
    "tech_change_status": "Not Planned"
   }
  },
  {
   "type": "Feature",
   "geometry": {
    "type": "Point",
    "coordinates": [
     125.60359465,
     -18.30180408
    ]
   },
   "properties": {
    "name": "LOT 15 KAKATA COURT ST GEORGE RANGES 6728",
    "locID": "LOC000185507789",
    "tech": "NULL",
    "upgrade": "NULL_NA",
    "gnaf_pid": "GAWA_718340494",
    "ee": false,
    "tech_change_status": "Not Planned"
   }
  },
  {
   "type": "Feature",
   "geometry": {
    "type": "Point",
    "coordinates": [
     125.60359465,
     -18.30180408
    ]
   },
   "properties": {
    "name": "LOT 16 KAKATA COURT ST GEORGE RANGES 6728",
    "locID": "LOC000185507789",
    "tech": "NULL",
    "upgrade": "NULL_NA",
    "gnaf_pid": "GAWA_718340495",
    "ee": false,
    "tech_change_status": "Not Planned"
   }
  },
  {
   "type": "Feature",
   "geometry": {
    "type": "Point",
    "coordinates": [
     125.60359465,
     -18.30180408
    ]
   },
   "properties": {
    "name": "LOT 17 KAKATA COURT ST GEORGE RANGES 6728",
    "locID": "LOC000185507789",
    "tech": "NULL",
    "upgrade": "NULL_NA",
    "gnaf_pid": "GAWA_718340496",
    "ee": false,
    "tech_change_status": "Not Planned"
   }
  },
  {
   "type": "Feature",
   "geometry": {
    "type": "Point",
    "coordinates": [
     125.60359465,
     -18.30180408
    ]
   },
   "properties": {
    "name": "LOT 9 KAKATA COURT ST GEORGE RANGES 6728",
    "locID": "LOC000185507789",
    "tech": "NULL",
    "upgrade": "NULL_NA",
    "gnaf_pid": "GAWA_718340497",
    "ee": false,
    "tech_change_status": "Not Planned"
   }
  },
  {
   "type": "Feature",
   "geometry": {
    "type": "Point",
    "coordinates": [
     125.60359465,
     -18.30180408
    ]
   },
   "properties": {
    "name": "LOT 112 LAMEY AVENUE ST GEORGE RANGES 6728",
    "locID": "LOC100078351067",
    "tech": "SATELLITE",
    "upgrade": "NULL_NA",
    "gnaf_pid": "GAWA_718340802",
    "ee": false,
    "tech_change_status": "Not Planned"
   }
  },
  {
   "type": "Feature",
   "geometry": {
    "type": "Point",
    "coordinates": [
     125.60359465,
     -18.30180408
    ]
   },
   "properties": {
    "name": "LOT 63 LAMEY AVENUE ST GEORGE RANGES 6728",
    "locID": "LOC000133516411",
    "tech": "NULL",
    "upgrade": "NULL_NA",
    "gnaf_pid": "GAWA_718340803",
    "ee": false,
    "tech_change_status": "Not Planned"
   }
  },
  {
   "type": "Feature",
   "geometry": {
    "type": "Point",
    "coordinates": [
     125.77061696,
     -18.16122514
    ]
   },
   "properties": {
    "name": "LOT 10 MAIYALANGA STREET ST GEORGE RANGES 6728",
    "locID": "LOC000184047379",
    "tech": "NULL",
    "upgrade": "NULL_NA",
    "gnaf_pid": "GAWA_718341081",
    "ee": false,
    "tech_change_status": "Not Planned"
   }
  },
  {
   "type": "Feature",
   "geometry": {
    "type": "Point",
    "coordinates": [
     125.77061696,
     -18.16122514
    ]
   },
   "properties": {
    "name": "LOT 11 MAIYALANGA STREET ST GEORGE RANGES 6728",
    "locID": "LOC000133453539",
    "tech": "NULL",
    "upgrade": "NULL_NA",
    "gnaf_pid": "GAWA_718341082",
    "ee": false,
    "tech_change_status": "Not Planned"
   }
  },
  {
   "type": "Feature",
   "geometry": {
    "type": "Point",
    "coordinates": [
     125.77061696,
     -18.16122514
    ]
   },
   "properties": {
    "name": "LOT 12 MAIYALANGA STREET ST GEORGE RANGES 6728",
    "locID": "LOC000133453541",
    "tech": "NULL",
    "upgrade": "NULL_NA",
    "gnaf_pid": "GAWA_718341083",
    "ee": false,
    "tech_change_status": "Not Planned"
   }
  },
  {
   "type": "Feature",
   "geometry": {
    "type": "Point",
    "coordinates": [
     125.77061696,
     -18.16122514
    ]
   },
   "properties": {
    "name": "LOT 13 MAIYALANGA STREET ST GEORGE RANGES 6728",
    "locID": "LOC000133453556",
    "tech": "NULL",
    "upgrade": "NULL_NA",
    "gnaf_pid": "GAWA_718341084",
    "ee": false,
    "tech_change_status": "Not Planned"
   }
  },
  {
   "type": "Feature",
   "geometry": {
    "type": "Point",
    "coordinates": [
     125.77061696,
     -18.16122514
    ]
   },
   "properties": {
    "name": "LOT 20 MAIYALANGA STREET ST GEORGE RANGES 6728",
    "locID": "LOC000133453560",
    "tech": "NULL",
    "upgrade": "NULL_NA",
    "gnaf_pid": "GAWA_718341085",
    "ee": false,
    "tech_change_status": "Not Planned"
   }
  },
  {
   "type": "Feature",
   "geometry": {
    "type": "Point",
    "coordinates": [
     125.77061696,
     -18.16122514
    ]
   },
   "properties": {
    "name": "LOT 22 MAIYALANGA STREET ST GEORGE RANGES 6728",
    "locID": "LOC000133453573",
    "tech": "NULL",
    "upgrade": "NULL_NA",
    "gnaf_pid": "GAWA_718341086",
    "ee": false,
    "tech_change_status": "Not Planned"
   }
  },
  {
   "type": "Feature",
   "geometry": {
    "type": "Point",
    "coordinates": [
     125.77061696,
     -18.16122514
    ]
   },
   "properties": {
    "name": "LOT 23 MAIYALANGA STREET ST GEORGE RANGES 6728",
    "locID": "LOC000133453587",
    "tech": "NULL",
    "upgrade": "NULL_NA",
    "gnaf_pid": "GAWA_718341087",
    "ee": false,
    "tech_change_status": "Not Planned"
   }
  },
  {
   "type": "Feature",
   "geometry": {
    "type": "Point",
    "coordinates": [
     125.77061696,
     -18.16122514
    ]
   },
   "properties": {
    "name": "LOT 7 MAIYALANGA STREET ST GEORGE RANGES 6728",
    "locID": "LOC000133453594",
    "tech": "SATELLITE",
    "upgrade": "NULL_NA",
    "gnaf_pid": "GAWA_718341088",
    "ee": false,
    "tech_change_status": "Not Planned"
   }
  },
  {
   "type": "Feature",
   "geometry": {
    "type": "Point",
    "coordinates": [
     125.77061696,
     -18.16122514
    ]
   },
   "properties": {
    "name": "LOT 8 MAIYALANGA STREET ST GEORGE RANGES 6728",
    "locID": "LOC000133453600",
    "tech": "NULL",
    "upgrade": "NULL_NA",
    "gnaf_pid": "GAWA_718341089",
    "ee": false,
    "tech_change_status": "Not Planned"
   }
  },
  {
   "type": "Feature",
   "geometry": {
    "type": "Point",
    "coordinates": [
     125.77061696,
     -18.16122514
    ]
   },
   "properties": {
    "name": "LOT 9 MAIYALANGA STREET ST GEORGE RANGES 6728",
    "locID": "LOC000133453616",
    "tech": "SATELLITE",
    "upgrade": "NULL_NA",
    "gnaf_pid": "GAWA_718341090",
    "ee": false,
    "tech_change_status": "Not Planned"
   }
  },
  {
   "type": "Feature",
   "geometry": {
    "type": "Point",
    "coordinates": [
     125.77061696,
     -18.16122514
    ]
   },
   "properties": {
    "name": "LOT 14 MALO STREET ST GEORGE RANGES 6728",
    "locID": "LOC000133453628",
    "tech": "NULL",
    "upgrade": "NULL_NA",
    "gnaf_pid": "GAWA_718341116",
    "ee": false,
    "tech_change_status": "Not Planned"
   }
  },
  {
   "type": "Feature",
   "geometry": {
    "type": "Point",
    "coordinates": [
     125.77061696,
     -18.16122514
    ]
   },
   "properties": {
    "name": "LOT 15 MALO STREET ST GEORGE RANGES 6728",
    "locID": "LOC000133453637",
    "tech": "NULL",
    "upgrade": "NULL_NA",
    "gnaf_pid": "GAWA_718341117",
    "ee": false,
    "tech_change_status": "Not Planned"
   }
  },
  {
   "type": "Feature",
   "geometry": {
    "type": "Point",
    "coordinates": [
     125.77061696,
     -18.16122514
    ]
   },
   "properties": {
    "name": "LOT 33 MARBIN STREET ST GEORGE RANGES 6728",
    "locID": "LOC100082137969",
    "tech": "NULL",
    "upgrade": "NULL_NA",
    "gnaf_pid": "GAWA_718341162",
    "ee": false,
    "tech_change_status": "Not Planned"
   }
  },
  {
   "type": "Feature",
   "geometry": {
    "type": "Point",
    "coordinates": [
     125.77061696,
     -18.16122514
    ]
   },
   "properties": {
    "name": "LOT 34 MARBIN STREET ST GEORGE RANGES 6728",
    "locID": "LOC100079220837",
    "tech": "SATELLITE",
    "upgrade": "NULL_NA",
    "gnaf_pid": "GAWA_718341163",
    "ee": false,
    "tech_change_status": "Not Planned"
   }
  },
  {
   "type": "Feature",
   "geometry": {
    "type": "Point",
    "coordinates": [
     125.77061696,
     -18.16122514
    ]
   },
   "properties": {
    "name": "LOT 35 MARBIN STREET ST GEORGE RANGES 6728",
    "locID": "LOC100079220837",
    "tech": "SATELLITE",
    "upgrade": "NULL_NA",
    "gnaf_pid": "GAWA_718341164",
    "ee": false,
    "tech_change_status": "Not Planned"
   }
  },
  {
   "type": "Feature",
   "geometry": {
    "type": "Point",
    "coordinates": [
     125.77061696,
     -18.16122514
    ]
   },
   "properties": {
    "name": "LOT 30 MARGARET RIVER ROAD ST GEORGE RANGES 6728",
    "locID": "LOC100075024637",
    "tech": "NULL",
    "upgrade": "NULL_NA",
    "gnaf_pid": "GAWA_718341186",
    "ee": false,
    "tech_change_status": "Not Planned"
   }
  },
  {
   "type": "Feature",
   "geometry": {
    "type": "Point",
    "coordinates": [
     125.77061696,
     -18.16122514
    ]
   },
   "properties": {
    "name": "LOT 36 MARGARET RIVER ROAD ST GEORGE RANGES 6728",
    "locID": "LOC000142977263",
    "tech": "SATELLITE",
    "upgrade": "NULL_NA",
    "gnaf_pid": "GAWA_718341187",
    "ee": false,
    "tech_change_status": "Not Planned"
   }
  },
  {
   "type": "Feature",
   "geometry": {
    "type": "Point",
    "coordinates": [
     125.77622358,
     -18.16692267
    ]
   },
   "properties": {
    "name": "LOT 45 MARGARET RIVER ROAD ST GEORGE RANGES 6728",
    "locID": "LOC000142977263",
    "tech": "SATELLITE",
    "upgrade": "NULL_NA",
    "gnaf_pid": "GAWA_718341188",
    "ee": false,
    "tech_change_status": "Not Planned"
   }
  },
  {
   "type": "Feature",
   "geometry": {
    "type": "Point",
    "coordinates": [
     125.77622358,
     -18.16692267
    ]
   },
   "properties": {
    "name": "LOT 46 MARGARET RIVER ROAD ST GEORGE RANGES 6728",
    "locID": "LOC000142977263",
    "tech": "SATELLITE",
    "upgrade": "NULL_NA",
    "gnaf_pid": "GAWA_718341189",
    "ee": false,
    "tech_change_status": "Not Planned"
   }
  },
  {
   "type": "Feature",
   "geometry": {
    "type": "Point",
    "coordinates": [
     125.77622358,
     -18.16692267
    ]
   },
   "properties": {
    "name": "LOT 47 MARGARET RIVER ROAD ST GEORGE RANGES 6728",
    "locID": "LOC000142977263",
    "tech": "SATELLITE",
    "upgrade": "NULL_NA",
    "gnaf_pid": "GAWA_718341190",
    "ee": false,
    "tech_change_status": "Not Planned"
   }
  },
  {
   "type": "Feature",
   "geometry": {
    "type": "Point",
    "coordinates": [
     125.77622358,
     -18.16692267
    ]
   },
   "properties": {
    "name": "LOT 48 MARGARET RIVER ROAD ST GEORGE RANGES 6728",
    "locID": "LOC000142977263",
    "tech": "SATELLITE",
    "upgrade": "NULL_NA",
    "gnaf_pid": "GAWA_718341191",
    "ee": false,
    "tech_change_status": "Not Planned"
   }
  },
  {
   "type": "Feature",
   "geometry": {
    "type": "Point",
    "coordinates": [
     125.77622358,
     -18.16692267
    ]
   },
   "properties": {
    "name": "LOT 96 MARGARET RIVER ROAD ST GEORGE RANGES 6728",
    "locID": "LOC000142977263",
    "tech": "SATELLITE",
    "upgrade": "NULL_NA",
    "gnaf_pid": "GAWA_718341192",
    "ee": false,
    "tech_change_status": "Not Planned"
   }
  },
  {
   "type": "Feature",
   "geometry": {
    "type": "Point",
    "coordinates": [
     124.7578283,
     -18.58664464
    ]
   },
   "properties": {
    "name": "LOT 4 MUNGALA ROAD ST GEORGE RANGES 6728",
    "locID": "LOC000133453745",
    "tech": "NULL",
    "upgrade": "NULL_NA",
    "gnaf_pid": "GAWA_718341555",
    "ee": false,
    "tech_change_status": "Not Planned"
   }
  },
  {
   "type": "Feature",
   "geometry": {
    "type": "Point",
    "coordinates": [
     124.7578283,
     -18.58664464
    ]
   },
   "properties": {
    "name": "LOT 6 MUNGALA ROAD ST GEORGE RANGES 6728",
    "locID": "LOC000133453750",
    "tech": "NULL",
    "upgrade": "NULL_NA",
    "gnaf_pid": "GAWA_718341556",
    "ee": false,
    "tech_change_status": "Not Planned"
   }
  },
  {
   "type": "Feature",
   "geometry": {
    "type": "Point",
    "coordinates": [
     124.7578283,
     -18.58664464
    ]
   },
   "properties": {
    "name": "LOT 10 NIYIKINA ROAD ST GEORGE RANGES 6728",
    "locID": "LOC000133453778",
    "tech": "NULL",
    "upgrade": "NULL_NA",
    "gnaf_pid": "GAWA_718341750",
    "ee": false,
    "tech_change_status": "Not Planned"
   }
  },
  {
   "type": "Feature",
   "geometry": {
    "type": "Point",
    "coordinates": [
     124.7578283,
     -18.58664464
    ]
   },
   "properties": {
    "name": "LOT 15 NIYIKINA ROAD ST GEORGE RANGES 6728",
    "locID": "LOC000133453784",
    "tech": "NULL",
    "upgrade": "NULL_NA",
    "gnaf_pid": "GAWA_718341751",
    "ee": false,
    "tech_change_status": "Not Planned"
   }
  },
  {
   "type": "Feature",
   "geometry": {
    "type": "Point",
    "coordinates": [
     124.7578283,
     -18.58664464
    ]
   },
   "properties": {
    "name": "LOT 16 NIYIKINA ROAD ST GEORGE RANGES 6728",
    "locID": "LOC000133453797",
    "tech": "NULL",
    "upgrade": "NULL_NA",
    "gnaf_pid": "GAWA_718341752",
    "ee": false,
    "tech_change_status": "Not Planned"
   }
  },
  {
   "type": "Feature",
   "geometry": {
    "type": "Point",
    "coordinates": [
     124.7578283,
     -18.58664464
    ]
   },
   "properties": {
    "name": "LOT 17 NIYIKINA ROAD ST GEORGE RANGES 6728",
    "locID": "LOC000133453807",
    "tech": "NULL",
    "upgrade": "NULL_NA",
    "gnaf_pid": "GAWA_718341753",
    "ee": false,
    "tech_change_status": "Not Planned"
   }
  },
  {
   "type": "Feature",
   "geometry": {
    "type": "Point",
    "coordinates": [
     124.7578283,
     -18.58664464
    ]
   },
   "properties": {
    "name": "LOT 19 NIYIKINA ROAD ST GEORGE RANGES 6728",
    "locID": "LOC000133453778",
    "tech": "NULL",
    "upgrade": "NULL_NA",
    "gnaf_pid": "GAWA_718341754",
    "ee": false,
    "tech_change_status": "Not Planned"
   }
  },
  {
   "type": "Feature",
   "geometry": {
    "type": "Point",
    "coordinates": [
     124.7578283,
     -18.58664464
    ]
   },
   "properties": {
    "name": "LOT 33 NIYIKINA ROAD ST GEORGE RANGES 6728",
    "locID": "LOC000133453778",
    "tech": "NULL",
    "upgrade": "NULL_NA",
    "gnaf_pid": "GAWA_718341755",
    "ee": false,
    "tech_change_status": "Not Planned"
   }
  },
  {
   "type": "Feature",
   "geometry": {
    "type": "Point",
    "coordinates": [
     124.7578283,
     -18.58664464
    ]
   },
   "properties": {
    "name": "LOT 38 NIYIKINA ROAD ST GEORGE RANGES 6728",
    "locID": "LOC000133453778",
    "tech": "NULL",
    "upgrade": "NULL_NA",
    "gnaf_pid": "GAWA_718341756",
    "ee": false,
    "tech_change_status": "Not Planned"
   }
  },
  {
   "type": "Feature",
   "geometry": {
    "type": "Point",
    "coordinates": [
     124.7578283,
     -18.58664464
    ]
   },
   "properties": {
    "name": "LOT 39 NIYIKINA ROAD ST GEORGE RANGES 6728",
    "locID": "LOC000133453778",
    "tech": "NULL",
    "upgrade": "NULL_NA",
    "gnaf_pid": "GAWA_718341757",
    "ee": false,
    "tech_change_status": "Not Planned"
   }
  },
  {
   "type": "Feature",
   "geometry": {
    "type": "Point",
    "coordinates": [
     124.7578283,
     -18.58664464
    ]
   },
   "properties": {
    "name": "LOT 40 NIYIKINA ROAD ST GEORGE RANGES 6728",
    "locID": "LOC000133453778",
    "tech": "NULL",
    "upgrade": "NULL_NA",
    "gnaf_pid": "GAWA_718341758",
    "ee": false,
    "tech_change_status": "Not Planned"
   }
  },
  {
   "type": "Feature",
   "geometry": {
    "type": "Point",
    "coordinates": [
     124.7578283,
     -18.58664464
    ]
   },
   "properties": {
    "name": "LOT 10 WALMAJARRI ROAD ST GEORGE RANGES 6728",
    "locID": "LOC100030890583",
    "tech": "SATELLITE",
    "upgrade": "NULL_NA",
    "gnaf_pid": "GAWA_718343372",
    "ee": false,
    "tech_change_status": "Not Planned"
   }
  },
  {
   "type": "Feature",
   "geometry": {
    "type": "Point",
    "coordinates": [
     124.7578283,
     -18.58664464
    ]
   },
   "properties": {
    "name": "LOT 27 WALMAJARRI ROAD ST GEORGE RANGES 6728",
    "locID": "LOC100030890583",
    "tech": "SATELLITE",
    "upgrade": "NULL_NA",
    "gnaf_pid": "GAWA_718343373",
    "ee": false,
    "tech_change_status": "Not Planned"
   }
  },
  {
   "type": "Feature",
   "geometry": {
    "type": "Point",
    "coordinates": [
     124.7578283,
     -18.58664464
    ]
   },
   "properties": {
    "name": "LOT 28 WALMAJARRI ROAD ST GEORGE RANGES 6728",
    "locID": "LOC100030890583",
    "tech": "SATELLITE",
    "upgrade": "NULL_NA",
    "gnaf_pid": "GAWA_718343374",
    "ee": false,
    "tech_change_status": "Not Planned"
   }
  },
  {
   "type": "Feature",
   "geometry": {
    "type": "Point",
    "coordinates": [
     124.7578283,
     -18.58664464
    ]
   },
   "properties": {
    "name": "LOT 29 WALMAJARRI ROAD ST GEORGE RANGES 6728",
    "locID": "LOC100030890583",
    "tech": "SATELLITE",
    "upgrade": "NULL_NA",
    "gnaf_pid": "GAWA_718343375",
    "ee": false,
    "tech_change_status": "Not Planned"
   }
  },
  {
   "type": "Feature",
   "geometry": {
    "type": "Point",
    "coordinates": [
     124.7578283,
     -18.58664464
    ]
   },
   "properties": {
    "name": "LOT 7 WALMAJARRI ROAD ST GEORGE RANGES 6728",
    "locID": "LOC100030890583",
    "tech": "SATELLITE",
    "upgrade": "NULL_NA",
    "gnaf_pid": "GAWA_718343376",
    "ee": false,
    "tech_change_status": "Not Planned"
   }
  },
  {
   "type": "Feature",
   "geometry": {
    "type": "Point",
    "coordinates": [
     124.7578283,
     -18.58664464
    ]
   },
   "properties": {
    "name": "LOT 8 WALMAJARRI ROAD ST GEORGE RANGES 6728",
    "locID": "LOC100030890583",
    "tech": "SATELLITE",
    "upgrade": "NULL_NA",
    "gnaf_pid": "GAWA_718343377",
    "ee": false,
    "tech_change_status": "Not Planned"
   }
  }
 ]
}