{
 "type": "FeatureCollection",
 "generated": "2025-06-19T10:01:26.330513",
 "suburb": "STURT CREEK",
 "features": [
  {
   "type": "Feature",
   "geometry": {
    "type": "Point",
    "coordinates": [
     127.59455048,
     -20.10227587
    ]
   },
   "properties": {
    "name": "LOT 8 LAKE GREGORY ROAD STURT CREEK 6770",
    "locID": "LOC000133490269",
    "tech": "SATELLITE",
    "upgrade": "NULL_NA",
    "gnaf_pid": "GAWA_718340749",
    "ee": false,
    "tech_change_status": "Not Planned"
   }
  },
  {
   "type": "Feature",
   "geometry": {
    "type": "Point",
    "coordinates": [
     127.66288659,
     -19.55595322
    ]
   },
   "properties": {
    "name": "LOT 7 TANAMI ROAD STURT CREEK 6770",
    "locID": "LOC000190653130",
    "tech": "NULL",
    "upgrade": "NULL_NA",
    "gnaf_pid": "GAWA_718343048",
    "ee": false,
    "tech_change_status": "Not Planned"
   }
  }
 ]
}