{
 "type": "FeatureCollection",
 "generated": "2025-06-19T10:18:11.114664",
 "suburb": "THE LAKES",
 "features": [
  {
   "type": "Feature",
   "geometry": {
    "type": "Point",
    "coordinates": [
     116.34528,
     -31.85403
    ]
   },
   "properties": {
    "name": "1495 CARTER ROAD THE LAKES 6556",
    "locID": "LOC000002924023",
    "tech": "WIRELESS",
    "upgrade": "NULL_NA",
    "gnaf_pid": "GAWA_146920448",
    "ee": true,
    "tech_change_status": "Not Planned",
    "program_type": "Fixed Wireless and Satellite Upgrade Program",
    "target_eligibility_quarter": "NA"
   }
  },
  {
   "type": "Feature",
   "geometry": {
    "type": "Point",
    "coordinates": [
     116.32344346,
     -31.86104689
    ]
   },
   "properties": {
    "name": "LOT 7014 CABLE STREET THE LAKES 6556",
    "locID": "LOC000109414657",
    "tech": "WIRELESS",
    "upgrade": "NULL_NA",
    "gnaf_pid": "GAWA_147245535",
    "ee": true,
    "tech_change_status": "Not Planned",
    "program_type": "Fixed Wireless and Satellite Upgrade Program",
    "target_eligibility_quarter": "NA"
   }
  },
  {
   "type": "Feature",
   "geometry": {
    "type": "Point",
    "coordinates": [
     116.327,
     -31.8574
    ]
   },
   "properties": {
    "name": "200 CARTER ROAD THE LAKES 6556",
    "locID": "LOC000100938781",
    "tech": "WIRELESS",
    "upgrade": "NULL_NA",
    "gnaf_pid": "GAWA_147285858",
    "ee": true,
    "tech_change_status": "Not Planned",
    "program_type": "Fixed Wireless and Satellite Upgrade Program",
    "target_eligibility_quarter": "NA"
   }
  },
  {
   "type": "Feature",
   "geometry": {
    "type": "Point",
    "coordinates": [
     116.38411272,
     -31.91648767
    ]
   },
   "properties": {
    "name": "3185 ABERCORN ROAD THE LAKES 6556",
    "locID": "LOC000106626138",
    "tech": "SATELLITE",
    "upgrade": "NULL_NA",
    "gnaf_pid": "GAWA_162753194",
    "ee": true,
    "tech_change_status": "Not Planned"
   }
  },
  {
   "type": "Feature",
   "geometry": {
    "type": "Point",
    "coordinates": [
     116.32875079,
     -31.86781093
    ]
   },
   "properties": {
    "name": "LOT 1 CABLE STREET THE LAKES 6556",
    "locID": "LOC000110089916",
    "tech": "WIRELESS",
    "upgrade": "NULL_NA",
    "gnaf_pid": "GAWA_162776808",
    "ee": true,
    "tech_change_status": "Not Planned",
    "program_type": "Fixed Wireless and Satellite Upgrade Program",
    "target_eligibility_quarter": "NA"
   }
  },
  {
   "type": "Feature",
   "geometry": {
    "type": "Point",
    "coordinates": [
     116.33091723,
     -31.86475194
    ]
   },
   "properties": {
    "name": "LOT 2 CABLE STREET THE LAKES 6556",
    "locID": "LOC000109703055",
    "tech": "WIRELESS",
    "upgrade": "NULL_NA",
    "gnaf_pid": "GAWA_162776809",
    "ee": true,
    "tech_change_status": "Not Planned",
    "program_type": "Fixed Wireless and Satellite Upgrade Program",
    "target_eligibility_quarter": "NA"
   }
  },
  {
   "type": "Feature",
   "geometry": {
    "type": "Point",
    "coordinates": [
     116.33368256,
     -31.86725578
    ]
   },
   "properties": {
    "name": "LOT 3 CABLE STREET THE LAKES 6556",
    "locID": "LOC000109767897",
    "tech": "WIRELESS",
    "upgrade": "NULL_NA",
    "gnaf_pid": "GAWA_162776810",
    "ee": true,
    "tech_change_status": "Not Planned",
    "program_type": "Fixed Wireless and Satellite Upgrade Program",
    "target_eligibility_quarter": "NA"
   }
  },
  {
   "type": "Feature",
   "geometry": {
    "type": "Point",
    "coordinates": [
     116.32812886,
     -31.86078222
    ]
   },
   "properties": {
    "name": "LOT 6 CABLE STREET THE LAKES 6556",
    "locID": "LOC000109414657",
    "tech": "WIRELESS",
    "upgrade": "NULL_NA",
    "gnaf_pid": "GAWA_162776811",
    "ee": true,
    "tech_change_status": "Not Planned",
    "program_type": "Fixed Wireless and Satellite Upgrade Program",
    "target_eligibility_quarter": "NA"
   }
  },
  {
   "type": "Feature",
   "geometry": {
    "type": "Point",
    "coordinates": [
     116.32581191,
     -31.86141967
    ]
   },
   "properties": {
    "name": "LOT 7 CABLE STREET THE LAKES 6556",
    "locID": "LOC000108413948",
    "tech": "WIRELESS",
    "upgrade": "NULL_NA",
    "gnaf_pid": "GAWA_162776812",
    "ee": true,
    "tech_change_status": "Not Planned",
    "program_type": "Fixed Wireless and Satellite Upgrade Program",
    "target_eligibility_quarter": "NA"
   }
  },
  {
   "type": "Feature",
   "geometry": {
    "type": "Point",
    "coordinates": [
     116.33753195,
     -31.851135
    ]
   },
   "properties": {
    "name": "LOT 3 GREAT EASTERN HIGHWAY THE LAKES 6556",
    "locID": "LOC000108271241",
    "tech": "WIRELESS",
    "upgrade": "NULL_NA",
    "gnaf_pid": "GAWA_162786967",
    "ee": true,
    "tech_change_status": "Not Planned",
    "program_type": "Fixed Wireless and Satellite Upgrade Program",
    "target_eligibility_quarter": "NA"
   }
  },
  {
   "type": "Feature",
   "geometry": {
    "type": "Point",
    "coordinates": [
     116.32335281,
     -31.87157437
    ]
   },
   "properties": {
    "name": "LOT 6 GREAT EASTERN HIGHWAY THE LAKES 6556",
    "locID": "LOC000108271241",
    "tech": "WIRELESS",
    "upgrade": "NULL_NA",
    "gnaf_pid": "GAWA_162786970",
    "ee": true,
    "tech_change_status": "Not Planned",
    "program_type": "Fixed Wireless and Satellite Upgrade Program",
    "target_eligibility_quarter": "NA"
   }
  },
  {
   "type": "Feature",
   "geometry": {
    "type": "Point",
    "coordinates": [
     116.33770712,
     -31.86733001
    ]
   },
   "properties": {
    "name": "LOT 4 HORTON ROAD THE LAKES 6556",
    "locID": "LOC000109608768",
    "tech": "WIRELESS",
    "upgrade": "NULL_NA",
    "gnaf_pid": "GAWA_162790274",
    "ee": true,
    "tech_change_status": "Not Planned",
    "program_type": "Fixed Wireless and Satellite Upgrade Program",
    "target_eligibility_quarter": "NA"
   }
  },
  {
   "type": "Feature",
   "geometry": {
    "type": "Point",
    "coordinates": [
     116.34082442,
     -31.86518055
    ]
   },
   "properties": {
    "name": "LOT 5 HORTON ROAD THE LAKES 6556",
    "locID": "LOC000108797127",
    "tech": "WIRELESS",
    "upgrade": "NULL_NA",
    "gnaf_pid": "GAWA_162790275",
    "ee": true,
    "tech_change_status": "Not Planned",
    "program_type": "Fixed Wireless and Satellite Upgrade Program",
    "target_eligibility_quarter": "NA"
   }
  },
  {
   "type": "Feature",
   "geometry": {
    "type": "Point",
    "coordinates": [
     116.32160774,
     -31.87291731
    ]
   },
   "properties": {
    "name": "LOT 505 GREAT EASTERN HIGHWAY THE LAKES 6556",
    "locID": "LOC000133642115",
    "tech": "WIRELESS",
    "upgrade": "NULL_NA",
    "gnaf_pid": "GAWA_163198722",
    "ee": true,
    "tech_change_status": "Not Planned",
    "program_type": "Fixed Wireless and Satellite Upgrade Program",
    "target_eligibility_quarter": "NA"
   }
  },
  {
   "type": "Feature",
   "geometry": {
    "type": "Point",
    "coordinates": [
     116.31965223,
     -31.87981536
    ]
   },
   "properties": {
    "name": "LOT 507 GREAT EASTERN HIGHWAY THE LAKES 6556",
    "locID": "LOC000183268882",
    "tech": "WIRELESS",
    "upgrade": "NULL_NA",
    "gnaf_pid": "GAWA_163198723",
    "ee": true,
    "tech_change_status": "Not Planned",
    "program_type": "Fixed Wireless and Satellite Upgrade Program",
    "target_eligibility_quarter": "NA"
   }
  },
  {
   "type": "Feature",
   "geometry": {
    "type": "Point",
    "coordinates": [
     116.32678006,
     -31.89850955
    ]
   },
   "properties": {
    "name": "2780 TUDOR PARK ROAD THE LAKES 6556",
    "locID": "LOC000133689501",
    "tech": "NULL",
    "upgrade": "NULL_NA",
    "gnaf_pid": "GAWA_718300551",
    "ee": true,
    "tech_change_status": "Not Planned"
   }
  },
  {
   "type": "Feature",
   "geometry": {
    "type": "Point",
    "coordinates": [
     116.32060977,
     -31.87561037
    ]
   },
   "properties": {
    "name": "13724 GREAT EASTERN HIGHWAY THE LAKES 6556",
    "locID": "LOC000190576143",
    "tech": "WIRELESS",
    "upgrade": "NULL_NA",
    "gnaf_pid": "GAWA_720490202",
    "ee": true,
    "tech_change_status": "Not Planned",
    "program_type": "Fixed Wireless and Satellite Upgrade Program",
    "target_eligibility_quarter": "NA"
   }
  }
 ]
}