{
 "type": "FeatureCollection",
 "generated": "2025-06-19T10:21:06.289636",
 "suburb": "TIBRADDEN",
 "features": [
  {
   "type": "Feature",
   "geometry": {
    "type": "Point",
    "coordinates": [
     114.90272558,
     -28.72480584
    ]
   },
   "properties": {
    "name": "1317 SANDSPRINGS ROAD TIBRADDEN 6532",
    "locID": "LOC000142466068",
    "tech": "SATELLITE",
    "upgrade": "NULL_NA",
    "gnaf_pid": "GAWA_162257347",
    "ee": true,
    "tech_change_status": "Not Planned"
   }
  },
  {
   "type": "Feature",
   "geometry": {
    "type": "Point",
    "coordinates": [
     114.933982,
     -28.755733
    ]
   },
   "properties": {
    "name": "1318 SANDSPRINGS ROAD TIBRADDEN 6532",
    "locID": "LOC000071512583",
    "tech": "SATELLITE",
    "upgrade": "NULL_NA",
    "gnaf_pid": "GAWA_162257348",
    "ee": true,
    "tech_change_status": "Not Planned"
   }
  }
 ]
}