{
 "type": "FeatureCollection",
 "generated": "2025-06-19T10:32:37.453500",
 "suburb": "UCARTY WEST",
 "features": [
  {
   "type": "Feature",
   "geometry": {
    "type": "Point",
    "coordinates": [
     116.86572865,
     -31.35296939
    ]
   },
   "properties": {
    "name": "345 GOOMALLING-MECKERING ROAD UCARTY WEST 6460",
    "locID": "LOC000105990718",
    "tech": "NULL",
    "upgrade": "NULL_NA",
    "gnaf_pid": "GAWA_161923594",
    "ee": false,
    "tech_change_status": "Not Planned"
   }
  },
  {
   "type": "Feature",
   "geometry": {
    "type": "Point",
    "coordinates": [
     116.84892748,
     -31.3220831
    ]
   },
   "properties": {
    "name": "68 ROBERT ROAD UCARTY WEST 6460",
    "locID": "LOC000084176749",
    "tech": "NULL",
    "upgrade": "NULL_NA",
    "gnaf_pid": "GAWA_161925165",
    "ee": false,
    "tech_change_status": "Not Planned"
   }
  },
  {
   "type": "Feature",
   "geometry": {
    "type": "Point",
    "coordinates": [
     116.86933808,
     -31.33522195
    ]
   },
   "properties": {
    "name": "195 BOASE ROAD UCARTY WEST 6460",
    "locID": "LOC000012913928",
    "tech": "SATELLITE",
    "upgrade": "NULL_NA",
    "gnaf_pid": "GAWA_161989550",
    "ee": false,
    "tech_change_status": "Not Planned"
   }
  },
  {
   "type": "Feature",
   "geometry": {
    "type": "Point",
    "coordinates": [
     116.87851,
     -31.34026
    ]
   },
   "properties": {
    "name": "206 BOASE ROAD UCARTY WEST 6460",
    "locID": "LOC000080292050",
    "tech": "SATELLITE",
    "upgrade": "NULL_NA",
    "gnaf_pid": "GAWA_161989551",
    "ee": false,
    "tech_change_status": "Not Planned"
   }
  },
  {
   "type": "Feature",
   "geometry": {
    "type": "Point",
    "coordinates": [
     116.87416976,
     -31.33013159
    ]
   },
   "properties": {
    "name": "213 BOASE ROAD UCARTY WEST 6460",
    "locID": "LOC000092617922",
    "tech": "SATELLITE",
    "upgrade": "NULL_NA",
    "gnaf_pid": "GAWA_161989552",
    "ee": false,
    "tech_change_status": "Not Planned"
   }
  },
  {
   "type": "Feature",
   "geometry": {
    "type": "Point",
    "coordinates": [
     116.82861,
     -31.34827
    ]
   },
   "properties": {
    "name": "3626 NORTHAM-PITHARA ROAD UCARTY WEST 6460",
    "locID": "LOC000143005096",
    "tech": "SATELLITE",
    "upgrade": "NULL_NA",
    "gnaf_pid": "GAWA_161993606",
    "ee": false,
    "tech_change_status": "Not Planned"
   }
  },
  {
   "type": "Feature",
   "geometry": {
    "type": "Point",
    "coordinates": [
     116.907844,
     -31.296228
    ]
   },
   "properties": {
    "name": "616 ROBERT ROAD UCARTY WEST 6460",
    "locID": "LOC000045092639",
    "tech": "NULL",
    "upgrade": "NULL_NA",
    "gnaf_pid": "GAWA_161994373",
    "ee": false,
    "tech_change_status": "Not Planned"
   }
  },
  {
   "type": "Feature",
   "geometry": {
    "type": "Point",
    "coordinates": [
     116.90940551,
     -31.27965325
    ]
   },
   "properties": {
    "name": "792 ROBERT ROAD UCARTY WEST 6460",
    "locID": "LOC000034452139",
    "tech": "SATELLITE",
    "upgrade": "NULL_NA",
    "gnaf_pid": "GAWA_161994374",
    "ee": false,
    "tech_change_status": "Not Planned"
   }
  },
  {
   "type": "Feature",
   "geometry": {
    "type": "Point",
    "coordinates": [
     116.94006,
     -31.3842
    ]
   },
   "properties": {
    "name": "681 SADLER ROAD UCARTY WEST 6460",
    "locID": "LOC000069233119",
    "tech": "NULL",
    "upgrade": "NULL_NA",
    "gnaf_pid": "GAWA_161994467",
    "ee": false,
    "tech_change_status": "Not Planned"
   }
  },
  {
   "type": "Feature",
   "geometry": {
    "type": "Point",
    "coordinates": [
     116.90816917,
     -31.35008414
    ]
   },
   "properties": {
    "name": "1250 UCARTY ROAD UCARTY WEST 6460",
    "locID": "LOC000063116052",
    "tech": "SATELLITE",
    "upgrade": "NULL_NA",
    "gnaf_pid": "GAWA_161995480",
    "ee": false,
    "tech_change_status": "Not Planned"
   }
  },
  {
   "type": "Feature",
   "geometry": {
    "type": "Point",
    "coordinates": [
     116.94442801,
     -31.3584254
    ]
   },
   "properties": {
    "name": "875 UCARTY ROAD UCARTY WEST 6460",
    "locID": "LOC000046237955",
    "tech": "SATELLITE",
    "upgrade": "NULL_NA",
    "gnaf_pid": "GAWA_161995481",
    "ee": false,
    "tech_change_status": "Not Planned"
   }
  },
  {
   "type": "Feature",
   "geometry": {
    "type": "Point",
    "coordinates": [
     116.85148787,
     -31.33859924
    ]
   },
   "properties": {
    "name": "234 GOOMALLING-MECKERING ROAD UCARTY WEST 6460",
    "locID": "LOC000054834724",
    "tech": "NULL",
    "upgrade": "NULL_NA",
    "gnaf_pid": "GAWA_161997312",
    "ee": false,
    "tech_change_status": "Not Planned"
   }
  },
  {
   "type": "Feature",
   "geometry": {
    "type": "Point",
    "coordinates": [
     116.92612898,
     -31.27298257
    ]
   },
   "properties": {
    "name": "146 BERRING EAST ROAD UCARTY WEST 6460",
    "locID": "LOC000028565388",
    "tech": "SATELLITE",
    "upgrade": "NULL_NA",
    "gnaf_pid": "GAWA_161999644",
    "ee": false,
    "tech_change_status": "Not Planned"
   }
  },
  {
   "type": "Feature",
   "geometry": {
    "type": "Point",
    "coordinates": [
     116.93917745,
     -31.39860335
    ]
   },
   "properties": {
    "name": "374 SADLER ROAD UCARTY WEST 6460",
    "locID": "LOC000042281036",
    "tech": "SATELLITE",
    "upgrade": "NULL_NA",
    "gnaf_pid": "GAWA_163053205",
    "ee": false,
    "tech_change_status": "Not Planned"
   }
  }
 ]
}