{
 "type": "FeatureCollection",
 "generated": "2025-06-19T11:01:34.967836",
 "suburb": "WARBURTON",
 "features": [
  {
   "type": "Feature",
   "geometry": {
    "type": "Point",
    "coordinates": [
     126.71532173,
     -26.15523528
    ]
   },
   "properties": {
    "name": "LOT 8 GREAT CENTRAL ROAD WARBURTON 6431",
    "locID": "LOC000179413884",
    "tech": "NULL",
    "upgrade": "NULL_NA",
    "gnaf_pid": "GAWA_720715203",
    "ee": false,
    "tech_change_status": "Not Planned"
   }
  }
 ]
}