{
 "type": "FeatureCollection",
 "generated": "2025-06-19T12:08:01.547511",
 "suburb": "WINDY HARBOUR",
 "features": [
  {
   "type": "Feature",
   "geometry": {
    "type": "Point",
    "coordinates": [
     116.0231415,
     -34.83591115
    ]
   },
   "properties": {
    "name": "LOT 43 BOAT RAMP ROAD WINDY HARBOUR 6262",
    "locID": "LOC000109797514",
    "tech": "NULL",
    "upgrade": "NULL_NA",
    "gnaf_pid": "GAWA_161895115",
    "ee": false,
    "tech_change_status": "Not Planned"
   }
  },
  {
   "type": "Feature",
   "geometry": {
    "type": "Point",
    "coordinates": [
     116.0231415,
     -34.83591115
    ]
   },
   "properties": {
    "name": "LOT 265 EVANS LOOP WINDY HARBOUR 6262",
    "locID": "LOC000107803750",
    "tech": "NULL",
    "upgrade": "NULL_NA",
    "gnaf_pid": "GAWA_162252269",
    "ee": false,
    "tech_change_status": "Not Planned"
   }
  },
  {
   "type": "Feature",
   "geometry": {
    "type": "Point",
    "coordinates": [
     116.0231415,
     -34.83591115
    ]
   },
   "properties": {
    "name": "LOT 400 KELLY PLACE WINDY HARBOUR 6262",
    "locID": "LOC000108587894",
    "tech": "NULL",
    "upgrade": "NULL_NA",
    "gnaf_pid": "GAWA_162252728",
    "ee": false,
    "tech_change_status": "Not Planned"
   }
  },
  {
   "type": "Feature",
   "geometry": {
    "type": "Point",
    "coordinates": [
     116.0231415,
     -34.83591115
    ]
   },
   "properties": {
    "name": "LOT 124 WINDY HARBOUR ROAD WINDY HARBOUR 6262",
    "locID": "LOC000142465290",
    "tech": "SATELLITE",
    "upgrade": "NULL_NA",
    "gnaf_pid": "GAWA_162254201",
    "ee": false,
    "tech_change_status": "Not Planned"
   }
  },
  {
   "type": "Feature",
   "geometry": {
    "type": "Point",
    "coordinates": [
     116.0231415,
     -34.83591115
    ]
   },
   "properties": {
    "name": "LOT 19 MITCHELL WAY WINDY HARBOUR 6262",
    "locID": "LOC000108264805",
    "tech": "NULL",
    "upgrade": "NULL_NA",
    "gnaf_pid": "GAWA_162274238",
    "ee": false,
    "tech_change_status": "Not Planned"
   }
  },
  {
   "type": "Feature",
   "geometry": {
    "type": "Point",
    "coordinates": [
     116.0231415,
     -34.83591115
    ]
   },
   "properties": {
    "name": "LOT 233 GREGORY WAY WINDY HARBOUR 6262",
    "locID": "LOC000108791807",
    "tech": "NULL",
    "upgrade": "NULL_NA",
    "gnaf_pid": "GAWA_162491638",
    "ee": false,
    "tech_change_status": "Not Planned"
   }
  },
  {
   "type": "Feature",
   "geometry": {
    "type": "Point",
    "coordinates": [
     116.0231415,
     -34.83591115
    ]
   },
   "properties": {
    "name": "LOT 205 ISLAND VIEW WINDY HARBOUR 6262",
    "locID": "LOC000108047357",
    "tech": "NULL",
    "upgrade": "NULL_NA",
    "gnaf_pid": "GAWA_162594083",
    "ee": false,
    "tech_change_status": "Not Planned"
   }
  },
  {
   "type": "Feature",
   "geometry": {
    "type": "Point",
    "coordinates": [
     116.0231415,
     -34.83591115
    ]
   },
   "properties": {
    "name": "LOT 266 EVANS LOOP WINDY HARBOUR 6262",
    "locID": "LOC000109403722",
    "tech": "NULL",
    "upgrade": "NULL_NA",
    "gnaf_pid": "GAWA_162818218",
    "ee": false,
    "tech_change_status": "Not Planned"
   }
  },
  {
   "type": "Feature",
   "geometry": {
    "type": "Point",
    "coordinates": [
     116.0231415,
     -34.83591115
    ]
   },
   "properties": {
    "name": "LOT 271 EVANS LOOP WINDY HARBOUR 6262",
    "locID": "LOC000109554571",
    "tech": "NULL",
    "upgrade": "NULL_NA",
    "gnaf_pid": "GAWA_162818219",
    "ee": false,
    "tech_change_status": "Not Planned"
   }
  },
  {
   "type": "Feature",
   "geometry": {
    "type": "Point",
    "coordinates": [
     116.0231415,
     -34.83591115
    ]
   },
   "properties": {
    "name": "LOT 274 EVANS LOOP WINDY HARBOUR 6262",
    "locID": "LOC000109537620",
    "tech": "NULL",
    "upgrade": "NULL_NA",
    "gnaf_pid": "GAWA_162818220",
    "ee": false,
    "tech_change_status": "Not Planned"
   }
  },
  {
   "type": "Feature",
   "geometry": {
    "type": "Point",
    "coordinates": [
     116.0231415,
     -34.83591115
    ]
   },
   "properties": {
    "name": "LOT 277 EVANS LOOP WINDY HARBOUR 6262",
    "locID": "LOC000109590885",
    "tech": "NULL",
    "upgrade": "NULL_NA",
    "gnaf_pid": "GAWA_162818221",
    "ee": false,
    "tech_change_status": "Not Planned"
   }
  },
  {
   "type": "Feature",
   "geometry": {
    "type": "Point",
    "coordinates": [
     116.0231415,
     -34.83591115
    ]
   },
   "properties": {
    "name": "LOT 280 EVANS LOOP WINDY HARBOUR 6262",
    "locID": "LOC000109767233",
    "tech": "NULL",
    "upgrade": "NULL_NA",
    "gnaf_pid": "GAWA_162818222",
    "ee": false,
    "tech_change_status": "Not Planned"
   }
  },
  {
   "type": "Feature",
   "geometry": {
    "type": "Point",
    "coordinates": [
     116.0231415,
     -34.83591115
    ]
   },
   "properties": {
    "name": "LOT 282 EVANS LOOP WINDY HARBOUR 6262",
    "locID": "LOC000108168758",
    "tech": "NULL",
    "upgrade": "NULL_NA",
    "gnaf_pid": "GAWA_162818223",
    "ee": false,
    "tech_change_status": "Not Planned"
   }
  },
  {
   "type": "Feature",
   "geometry": {
    "type": "Point",
    "coordinates": [
     116.0231415,
     -34.83591115
    ]
   },
   "properties": {
    "name": "LOT 291 EVANS LOOP WINDY HARBOUR 6262",
    "locID": "LOC000108014585",
    "tech": "NULL",
    "upgrade": "NULL_NA",
    "gnaf_pid": "GAWA_162818224",
    "ee": false,
    "tech_change_status": "Not Planned"
   }
  },
  {
   "type": "Feature",
   "geometry": {
    "type": "Point",
    "coordinates": [
     116.0231415,
     -34.83591115
    ]
   },
   "properties": {
    "name": "LOT 295 EVANS LOOP WINDY HARBOUR 6262",
    "locID": "LOC000109493630",
    "tech": "SATELLITE",
    "upgrade": "NULL_NA",
    "gnaf_pid": "GAWA_162818225",
    "ee": false,
    "tech_change_status": "Not Planned"
   }
  },
  {
   "type": "Feature",
   "geometry": {
    "type": "Point",
    "coordinates": [
     116.0231415,
     -34.83591115
    ]
   },
   "properties": {
    "name": "LOT 218 GREGORY WAY WINDY HARBOUR 6262",
    "locID": "LOC000108791807",
    "tech": "NULL",
    "upgrade": "NULL_NA",
    "gnaf_pid": "GAWA_162818619",
    "ee": false,
    "tech_change_status": "Not Planned"
   }
  },
  {
   "type": "Feature",
   "geometry": {
    "type": "Point",
    "coordinates": [
     116.0231415,
     -34.83591115
    ]
   },
   "properties": {
    "name": "LOT 241 GREGORY WAY WINDY HARBOUR 6262",
    "locID": "LOC000107421259",
    "tech": "NULL",
    "upgrade": "NULL_NA",
    "gnaf_pid": "GAWA_162818620",
    "ee": false,
    "tech_change_status": "Not Planned"
   }
  },
  {
   "type": "Feature",
   "geometry": {
    "type": "Point",
    "coordinates": [
     116.0231415,
     -34.83591115
    ]
   },
   "properties": {
    "name": "LOT 207 ISLAND VIEW WINDY HARBOUR 6262",
    "locID": "LOC000108304805",
    "tech": "NULL",
    "upgrade": "NULL_NA",
    "gnaf_pid": "GAWA_162819078",
    "ee": false,
    "tech_change_status": "Not Planned"
   }
  },
  {
   "type": "Feature",
   "geometry": {
    "type": "Point",
    "coordinates": [
     116.0231415,
     -34.83591115
    ]
   },
   "properties": {
    "name": "LOT 254 ISLAND VIEW WINDY HARBOUR 6262",
    "locID": "LOC000108047357",
    "tech": "NULL",
    "upgrade": "NULL_NA",
    "gnaf_pid": "GAWA_162819079",
    "ee": false,
    "tech_change_status": "Not Planned"
   }
  },
  {
   "type": "Feature",
   "geometry": {
    "type": "Point",
    "coordinates": [
     116.0231415,
     -34.83591115
    ]
   },
   "properties": {
    "name": "LOT 58 KELLY PLACE WINDY HARBOUR 6262",
    "locID": "LOC000109338491",
    "tech": "NULL",
    "upgrade": "NULL_NA",
    "gnaf_pid": "GAWA_162819261",
    "ee": false,
    "tech_change_status": "Not Planned"
   }
  },
  {
   "type": "Feature",
   "geometry": {
    "type": "Point",
    "coordinates": [
     116.0231415,
     -34.83591115
    ]
   },
   "properties": {
    "name": "LOT 66 KELLY PLACE WINDY HARBOUR 6262",
    "locID": "LOC000109507205",
    "tech": "NULL",
    "upgrade": "NULL_NA",
    "gnaf_pid": "GAWA_162819262",
    "ee": false,
    "tech_change_status": "Not Planned"
   }
  },
  {
   "type": "Feature",
   "geometry": {
    "type": "Point",
    "coordinates": [
     116.0231415,
     -34.83591115
    ]
   },
   "properties": {
    "name": "LOT 67 KELLY PLACE WINDY HARBOUR 6262",
    "locID": "LOC000108820350",
    "tech": "NULL",
    "upgrade": "NULL_NA",
    "gnaf_pid": "GAWA_162819263",
    "ee": false,
    "tech_change_status": "Not Planned"
   }
  },
  {
   "type": "Feature",
   "geometry": {
    "type": "Point",
    "coordinates": [
     116.0231415,
     -34.83591115
    ]
   },
   "properties": {
    "name": "LOT 71 KELLY PLACE WINDY HARBOUR 6262",
    "locID": "LOC000109215766",
    "tech": "NULL",
    "upgrade": "NULL_NA",
    "gnaf_pid": "GAWA_162819264",
    "ee": false,
    "tech_change_status": "Not Planned"
   }
  },
  {
   "type": "Feature",
   "geometry": {
    "type": "Point",
    "coordinates": [
     116.0231415,
     -34.83591115
    ]
   },
   "properties": {
    "name": "LOT 16 MITCHELL WAY WINDY HARBOUR 6262",
    "locID": "LOC000109764014",
    "tech": "SATELLITE",
    "upgrade": "NULL_NA",
    "gnaf_pid": "GAWA_162819982",
    "ee": false,
    "tech_change_status": "Not Planned"
   }
  },
  {
   "type": "Feature",
   "geometry": {
    "type": "Point",
    "coordinates": [
     116.0231415,
     -34.83591115
    ]
   },
   "properties": {
    "name": "LOT 23 MITCHELL WAY WINDY HARBOUR 6262",
    "locID": "LOC000109303884",
    "tech": "NULL",
    "upgrade": "NULL_NA",
    "gnaf_pid": "GAWA_162819983",
    "ee": false,
    "tech_change_status": "Not Planned"
   }
  },
  {
   "type": "Feature",
   "geometry": {
    "type": "Point",
    "coordinates": [
     116.0231415,
     -34.83591115
    ]
   },
   "properties": {
    "name": "LOT 30 MITCHELL WAY WINDY HARBOUR 6262",
    "locID": "LOC000108656366",
    "tech": "SATELLITE",
    "upgrade": "NULL_NA",
    "gnaf_pid": "GAWA_162819984",
    "ee": false,
    "tech_change_status": "Not Planned"
   }
  },
  {
   "type": "Feature",
   "geometry": {
    "type": "Point",
    "coordinates": [
     116.0231415,
     -34.83591115
    ]
   },
   "properties": {
    "name": "LOT 93 WINDY HARBOUR ROAD WINDY HARBOUR 6262",
    "locID": "LOC000107653359",
    "tech": "NULL",
    "upgrade": "NULL_NA",
    "gnaf_pid": "GAWA_162822151",
    "ee": false,
    "tech_change_status": "Not Planned"
   }
  },
  {
   "type": "Feature",
   "geometry": {
    "type": "Point",
    "coordinates": [
     116.0231415,
     -34.83591115
    ]
   },
   "properties": {
    "name": "LOT 100 BOAT RAMP ROAD WINDY HARBOUR 6262",
    "locID": "LOC000133219191",
    "tech": "NULL",
    "upgrade": "NULL_NA",
    "gnaf_pid": "GAWA_162999904",
    "ee": false,
    "tech_change_status": "Not Planned"
   }
  },
  {
   "type": "Feature",
   "geometry": {
    "type": "Point",
    "coordinates": [
     116.0231415,
     -34.83591115
    ]
   },
   "properties": {
    "name": "LOT 131 BOAT RAMP ROAD WINDY HARBOUR 6262",
    "locID": "LOC000133219189",
    "tech": "NULL",
    "upgrade": "NULL_NA",
    "gnaf_pid": "GAWA_162999905",
    "ee": false,
    "tech_change_status": "Not Planned"
   }
  },
  {
   "type": "Feature",
   "geometry": {
    "type": "Point",
    "coordinates": [
     116.0231415,
     -34.83591115
    ]
   },
   "properties": {
    "name": "LOT 35 BOAT RAMP ROAD WINDY HARBOUR 6262",
    "locID": "LOC000133219191",
    "tech": "NULL",
    "upgrade": "NULL_NA",
    "gnaf_pid": "GAWA_162999906",
    "ee": false,
    "tech_change_status": "Not Planned"
   }
  },
  {
   "type": "Feature",
   "geometry": {
    "type": "Point",
    "coordinates": [
     116.0231415,
     -34.83591115
    ]
   },
   "properties": {
    "name": "LOT 36 BOAT RAMP ROAD WINDY HARBOUR 6262",
    "locID": "LOC000133219191",
    "tech": "NULL",
    "upgrade": "NULL_NA",
    "gnaf_pid": "GAWA_162999907",
    "ee": false,
    "tech_change_status": "Not Planned"
   }
  },
  {
   "type": "Feature",
   "geometry": {
    "type": "Point",
    "coordinates": [
     116.0231415,
     -34.83591115
    ]
   },
   "properties": {
    "name": "LOT 37 BOAT RAMP ROAD WINDY HARBOUR 6262",
    "locID": "LOC000133219191",
    "tech": "NULL",
    "upgrade": "NULL_NA",
    "gnaf_pid": "GAWA_162999908",
    "ee": false,
    "tech_change_status": "Not Planned"
   }
  },
  {
   "type": "Feature",
   "geometry": {
    "type": "Point",
    "coordinates": [
     116.0231415,
     -34.83591115
    ]
   },
   "properties": {
    "name": "LOT 38 BOAT RAMP ROAD WINDY HARBOUR 6262",
    "locID": "LOC000133219191",
    "tech": "NULL",
    "upgrade": "NULL_NA",
    "gnaf_pid": "GAWA_162999909",
    "ee": false,
    "tech_change_status": "Not Planned"
   }
  },
  {
   "type": "Feature",
   "geometry": {
    "type": "Point",
    "coordinates": [
     116.0231415,
     -34.83591115
    ]
   },
   "properties": {
    "name": "LOT 39 BOAT RAMP ROAD WINDY HARBOUR 6262",
    "locID": "LOC000133219191",
    "tech": "NULL",
    "upgrade": "NULL_NA",
    "gnaf_pid": "GAWA_162999910",
    "ee": false,
    "tech_change_status": "Not Planned"
   }
  },
  {
   "type": "Feature",
   "geometry": {
    "type": "Point",
    "coordinates": [
     116.0231415,
     -34.83591115
    ]
   },
   "properties": {
    "name": "LOT 403 BOAT RAMP ROAD WINDY HARBOUR 6262",
    "locID": "LOC000133219191",
    "tech": "NULL",
    "upgrade": "NULL_NA",
    "gnaf_pid": "GAWA_162999911",
    "ee": false,
    "tech_change_status": "Not Planned"
   }
  },
  {
   "type": "Feature",
   "geometry": {
    "type": "Point",
    "coordinates": [
     116.0231415,
     -34.83591115
    ]
   },
   "properties": {
    "name": "LOT 40 BOAT RAMP ROAD WINDY HARBOUR 6262",
    "locID": "LOC000133219191",
    "tech": "NULL",
    "upgrade": "NULL_NA",
    "gnaf_pid": "GAWA_162999912",
    "ee": false,
    "tech_change_status": "Not Planned"
   }
  },
  {
   "type": "Feature",
   "geometry": {
    "type": "Point",
    "coordinates": [
     116.0231415,
     -34.83591115
    ]
   },
   "properties": {
    "name": "LOT 41 BOAT RAMP ROAD WINDY HARBOUR 6262",
    "locID": "LOC000133219191",
    "tech": "NULL",
    "upgrade": "NULL_NA",
    "gnaf_pid": "GAWA_162999913",
    "ee": false,
    "tech_change_status": "Not Planned"
   }
  },
  {
   "type": "Feature",
   "geometry": {
    "type": "Point",
    "coordinates": [
     116.0231415,
     -34.83591115
    ]
   },
   "properties": {
    "name": "LOT 42 BOAT RAMP ROAD WINDY HARBOUR 6262",
    "locID": "LOC000133219191",
    "tech": "NULL",
    "upgrade": "NULL_NA",
    "gnaf_pid": "GAWA_162999914",
    "ee": false,
    "tech_change_status": "Not Planned"
   }
  },
  {
   "type": "Feature",
   "geometry": {
    "type": "Point",
    "coordinates": [
     116.0231415,
     -34.83591115
    ]
   },
   "properties": {
    "name": "LOT 94 BOAT RAMP ROAD WINDY HARBOUR 6262",
    "locID": "LOC000133219191",
    "tech": "NULL",
    "upgrade": "NULL_NA",
    "gnaf_pid": "GAWA_162999916",
    "ee": false,
    "tech_change_status": "Not Planned"
   }
  },
  {
   "type": "Feature",
   "geometry": {
    "type": "Point",
    "coordinates": [
     116.0231415,
     -34.83591115
    ]
   },
   "properties": {
    "name": "LOT 97 BOAT RAMP ROAD WINDY HARBOUR 6262",
    "locID": "LOC000133219191",
    "tech": "NULL",
    "upgrade": "NULL_NA",
    "gnaf_pid": "GAWA_162999917",
    "ee": false,
    "tech_change_status": "Not Planned"
   }
  },
  {
   "type": "Feature",
   "geometry": {
    "type": "Point",
    "coordinates": [
     116.0231415,
     -34.83591115
    ]
   },
   "properties": {
    "name": "LOT 98 BOAT RAMP ROAD WINDY HARBOUR 6262",
    "locID": "LOC000133219191",
    "tech": "NULL",
    "upgrade": "NULL_NA",
    "gnaf_pid": "GAWA_162999918",
    "ee": false,
    "tech_change_status": "Not Planned"
   }
  },
  {
   "type": "Feature",
   "geometry": {
    "type": "Point",
    "coordinates": [
     116.0231415,
     -34.83591115
    ]
   },
   "properties": {
    "name": "LOT 99 BOAT RAMP ROAD WINDY HARBOUR 6262",
    "locID": "LOC000133219191",
    "tech": "NULL",
    "upgrade": "NULL_NA",
    "gnaf_pid": "GAWA_162999919",
    "ee": false,
    "tech_change_status": "Not Planned"
   }
  },
  {
   "type": "Feature",
   "geometry": {
    "type": "Point",
    "coordinates": [
     116.0231415,
     -34.83591115
    ]
   },
   "properties": {
    "name": "LOT 260 EVANS LOOP WINDY HARBOUR 6262",
    "locID": "LOC000133223760",
    "tech": "NULL",
    "upgrade": "NULL_NA",
    "gnaf_pid": "GAWA_163001359",
    "ee": false,
    "tech_change_status": "Not Planned"
   }
  },
  {
   "type": "Feature",
   "geometry": {
    "type": "Point",
    "coordinates": [
     116.0231415,
     -34.83591115
    ]
   },
   "properties": {
    "name": "LOT 288 EVANS LOOP WINDY HARBOUR 6262",
    "locID": "LOC000133226463",
    "tech": "NULL",
    "upgrade": "NULL_NA",
    "gnaf_pid": "GAWA_163001380",
    "ee": false,
    "tech_change_status": "Not Planned"
   }
  },
  {
   "type": "Feature",
   "geometry": {
    "type": "Point",
    "coordinates": [
     116.0231415,
     -34.83591115
    ]
   },
   "properties": {
    "name": "LOT 220 GREGORY WAY WINDY HARBOUR 6262",
    "locID": "LOC000108791807",
    "tech": "NULL",
    "upgrade": "NULL_NA",
    "gnaf_pid": "GAWA_163001910",
    "ee": false,
    "tech_change_status": "Not Planned"
   }
  },
  {
   "type": "Feature",
   "geometry": {
    "type": "Point",
    "coordinates": [
     116.0231415,
     -34.83591115
    ]
   },
   "properties": {
    "name": "LOT 221 GREGORY WAY WINDY HARBOUR 6262",
    "locID": "LOC000108791807",
    "tech": "NULL",
    "upgrade": "NULL_NA",
    "gnaf_pid": "GAWA_163001911",
    "ee": false,
    "tech_change_status": "Not Planned"
   }
  },
  {
   "type": "Feature",
   "geometry": {
    "type": "Point",
    "coordinates": [
     116.0231415,
     -34.83591115
    ]
   },
   "properties": {
    "name": "LOT 222 GREGORY WAY WINDY HARBOUR 6262",
    "locID": "LOC000108791807",
    "tech": "NULL",
    "upgrade": "NULL_NA",
    "gnaf_pid": "GAWA_163001912",
    "ee": false,
    "tech_change_status": "Not Planned"
   }
  },
  {
   "type": "Feature",
   "geometry": {
    "type": "Point",
    "coordinates": [
     116.0231415,
     -34.83591115
    ]
   },
   "properties": {
    "name": "LOT 223 GREGORY WAY WINDY HARBOUR 6262",
    "locID": "LOC000108791807",
    "tech": "NULL",
    "upgrade": "NULL_NA",
    "gnaf_pid": "GAWA_163001913",
    "ee": false,
    "tech_change_status": "Not Planned"
   }
  },
  {
   "type": "Feature",
   "geometry": {
    "type": "Point",
    "coordinates": [
     116.0231415,
     -34.83591115
    ]
   },
   "properties": {
    "name": "LOT 224 GREGORY WAY WINDY HARBOUR 6262",
    "locID": "LOC000108791807",
    "tech": "NULL",
    "upgrade": "NULL_NA",
    "gnaf_pid": "GAWA_163001914",
    "ee": false,
    "tech_change_status": "Not Planned"
   }
  },
  {
   "type": "Feature",
   "geometry": {
    "type": "Point",
    "coordinates": [
     116.0231415,
     -34.83591115
    ]
   },
   "properties": {
    "name": "LOT 225 GREGORY WAY WINDY HARBOUR 6262",
    "locID": "LOC000108791807",
    "tech": "NULL",
    "upgrade": "NULL_NA",
    "gnaf_pid": "GAWA_163001915",
    "ee": false,
    "tech_change_status": "Not Planned"
   }
  },
  {
   "type": "Feature",
   "geometry": {
    "type": "Point",
    "coordinates": [
     116.0231415,
     -34.83591115
    ]
   },
   "properties": {
    "name": "LOT 226 GREGORY WAY WINDY HARBOUR 6262",
    "locID": "LOC000108791807",
    "tech": "NULL",
    "upgrade": "NULL_NA",
    "gnaf_pid": "GAWA_163001916",
    "ee": false,
    "tech_change_status": "Not Planned"
   }
  },
  {
   "type": "Feature",
   "geometry": {
    "type": "Point",
    "coordinates": [
     116.0231415,
     -34.83591115
    ]
   },
   "properties": {
    "name": "LOT 227 GREGORY WAY WINDY HARBOUR 6262",
    "locID": "LOC000108791807",
    "tech": "NULL",
    "upgrade": "NULL_NA",
    "gnaf_pid": "GAWA_163001917",
    "ee": false,
    "tech_change_status": "Not Planned"
   }
  },
  {
   "type": "Feature",
   "geometry": {
    "type": "Point",
    "coordinates": [
     116.0231415,
     -34.83591115
    ]
   },
   "properties": {
    "name": "LOT 228 GREGORY WAY WINDY HARBOUR 6262",
    "locID": "LOC000108791807",
    "tech": "NULL",
    "upgrade": "NULL_NA",
    "gnaf_pid": "GAWA_163001918",
    "ee": false,
    "tech_change_status": "Not Planned"
   }
  },
  {
   "type": "Feature",
   "geometry": {
    "type": "Point",
    "coordinates": [
     116.0231415,
     -34.83591115
    ]
   },
   "properties": {
    "name": "LOT 229 GREGORY WAY WINDY HARBOUR 6262",
    "locID": "LOC000108791807",
    "tech": "NULL",
    "upgrade": "NULL_NA",
    "gnaf_pid": "GAWA_163001919",
    "ee": false,
    "tech_change_status": "Not Planned"
   }
  },
  {
   "type": "Feature",
   "geometry": {
    "type": "Point",
    "coordinates": [
     116.0231415,
     -34.83591115
    ]
   },
   "properties": {
    "name": "LOT 230 GREGORY WAY WINDY HARBOUR 6262",
    "locID": "LOC000108791807",
    "tech": "NULL",
    "upgrade": "NULL_NA",
    "gnaf_pid": "GAWA_163001920",
    "ee": false,
    "tech_change_status": "Not Planned"
   }
  },
  {
   "type": "Feature",
   "geometry": {
    "type": "Point",
    "coordinates": [
     116.0231415,
     -34.83591115
    ]
   },
   "properties": {
    "name": "LOT 231 GREGORY WAY WINDY HARBOUR 6262",
    "locID": "LOC000108791807",
    "tech": "NULL",
    "upgrade": "NULL_NA",
    "gnaf_pid": "GAWA_163001921",
    "ee": false,
    "tech_change_status": "Not Planned"
   }
  },
  {
   "type": "Feature",
   "geometry": {
    "type": "Point",
    "coordinates": [
     116.0231415,
     -34.83591115
    ]
   },
   "properties": {
    "name": "LOT 232 GREGORY WAY WINDY HARBOUR 6262",
    "locID": "LOC000108791807",
    "tech": "NULL",
    "upgrade": "NULL_NA",
    "gnaf_pid": "GAWA_163001922",
    "ee": false,
    "tech_change_status": "Not Planned"
   }
  },
  {
   "type": "Feature",
   "geometry": {
    "type": "Point",
    "coordinates": [
     116.0231415,
     -34.83591115
    ]
   },
   "properties": {
    "name": "LOT 234 GREGORY WAY WINDY HARBOUR 6262",
    "locID": "LOC000108791807",
    "tech": "NULL",
    "upgrade": "NULL_NA",
    "gnaf_pid": "GAWA_163001923",
    "ee": false,
    "tech_change_status": "Not Planned"
   }
  },
  {
   "type": "Feature",
   "geometry": {
    "type": "Point",
    "coordinates": [
     116.0231415,
     -34.83591115
    ]
   },
   "properties": {
    "name": "LOT 235 GREGORY WAY WINDY HARBOUR 6262",
    "locID": "LOC000108791807",
    "tech": "NULL",
    "upgrade": "NULL_NA",
    "gnaf_pid": "GAWA_163001924",
    "ee": false,
    "tech_change_status": "Not Planned"
   }
  },
  {
   "type": "Feature",
   "geometry": {
    "type": "Point",
    "coordinates": [
     116.0231415,
     -34.83591115
    ]
   },
   "properties": {
    "name": "LOT 236 GREGORY WAY WINDY HARBOUR 6262",
    "locID": "LOC000108791807",
    "tech": "NULL",
    "upgrade": "NULL_NA",
    "gnaf_pid": "GAWA_163001925",
    "ee": false,
    "tech_change_status": "Not Planned"
   }
  },
  {
   "type": "Feature",
   "geometry": {
    "type": "Point",
    "coordinates": [
     116.0231415,
     -34.83591115
    ]
   },
   "properties": {
    "name": "LOT 237 GREGORY WAY WINDY HARBOUR 6262",
    "locID": "LOC000108791807",
    "tech": "NULL",
    "upgrade": "NULL_NA",
    "gnaf_pid": "GAWA_163001926",
    "ee": false,
    "tech_change_status": "Not Planned"
   }
  },
  {
   "type": "Feature",
   "geometry": {
    "type": "Point",
    "coordinates": [
     116.0231415,
     -34.83591115
    ]
   },
   "properties": {
    "name": "LOT 238 GREGORY WAY WINDY HARBOUR 6262",
    "locID": "LOC000108791807",
    "tech": "NULL",
    "upgrade": "NULL_NA",
    "gnaf_pid": "GAWA_163001927",
    "ee": false,
    "tech_change_status": "Not Planned"
   }
  },
  {
   "type": "Feature",
   "geometry": {
    "type": "Point",
    "coordinates": [
     116.0231415,
     -34.83591115
    ]
   },
   "properties": {
    "name": "LOT 239 GREGORY WAY WINDY HARBOUR 6262",
    "locID": "LOC000108791807",
    "tech": "NULL",
    "upgrade": "NULL_NA",
    "gnaf_pid": "GAWA_163001928",
    "ee": false,
    "tech_change_status": "Not Planned"
   }
  },
  {
   "type": "Feature",
   "geometry": {
    "type": "Point",
    "coordinates": [
     116.0231415,
     -34.83591115
    ]
   },
   "properties": {
    "name": "LOT 240 GREGORY WAY WINDY HARBOUR 6262",
    "locID": "LOC000108791807",
    "tech": "NULL",
    "upgrade": "NULL_NA",
    "gnaf_pid": "GAWA_163001929",
    "ee": false,
    "tech_change_status": "Not Planned"
   }
  },
  {
   "type": "Feature",
   "geometry": {
    "type": "Point",
    "coordinates": [
     116.0231415,
     -34.83591115
    ]
   },
   "properties": {
    "name": "LOT 242 GREGORY WAY WINDY HARBOUR 6262",
    "locID": "LOC000108791807",
    "tech": "NULL",
    "upgrade": "NULL_NA",
    "gnaf_pid": "GAWA_163001930",
    "ee": false,
    "tech_change_status": "Not Planned"
   }
  },
  {
   "type": "Feature",
   "geometry": {
    "type": "Point",
    "coordinates": [
     116.0231415,
     -34.83591115
    ]
   },
   "properties": {
    "name": "LOT 243 GREGORY WAY WINDY HARBOUR 6262",
    "locID": "LOC000108791807",
    "tech": "NULL",
    "upgrade": "NULL_NA",
    "gnaf_pid": "GAWA_163001931",
    "ee": false,
    "tech_change_status": "Not Planned"
   }
  },
  {
   "type": "Feature",
   "geometry": {
    "type": "Point",
    "coordinates": [
     116.0231415,
     -34.83591115
    ]
   },
   "properties": {
    "name": "LOT 117 ISLAND VIEW WINDY HARBOUR 6262",
    "locID": "LOC000108047357",
    "tech": "NULL",
    "upgrade": "NULL_NA",
    "gnaf_pid": "GAWA_163002501",
    "ee": false,
    "tech_change_status": "Not Planned"
   }
  },
  {
   "type": "Feature",
   "geometry": {
    "type": "Point",
    "coordinates": [
     116.0231415,
     -34.83591115
    ]
   },
   "properties": {
    "name": "LOT 118 ISLAND VIEW WINDY HARBOUR 6262",
    "locID": "LOC000108047357",
    "tech": "NULL",
    "upgrade": "NULL_NA",
    "gnaf_pid": "GAWA_163002502",
    "ee": false,
    "tech_change_status": "Not Planned"
   }
  },
  {
   "type": "Feature",
   "geometry": {
    "type": "Point",
    "coordinates": [
     116.0231415,
     -34.83591115
    ]
   },
   "properties": {
    "name": "LOT 119 ISLAND VIEW WINDY HARBOUR 6262",
    "locID": "LOC000108047357",
    "tech": "NULL",
    "upgrade": "NULL_NA",
    "gnaf_pid": "GAWA_163002503",
    "ee": false,
    "tech_change_status": "Not Planned"
   }
  },
  {
   "type": "Feature",
   "geometry": {
    "type": "Point",
    "coordinates": [
     116.0231415,
     -34.83591115
    ]
   },
   "properties": {
    "name": "LOT 204 ISLAND VIEW WINDY HARBOUR 6262",
    "locID": "LOC000108047357",
    "tech": "NULL",
    "upgrade": "NULL_NA",
    "gnaf_pid": "GAWA_163002504",
    "ee": false,
    "tech_change_status": "Not Planned"
   }
  },
  {
   "type": "Feature",
   "geometry": {
    "type": "Point",
    "coordinates": [
     116.0231415,
     -34.83591115
    ]
   },
   "properties": {
    "name": "LOT 244 ISLAND VIEW WINDY HARBOUR 6262",
    "locID": "LOC000108047357",
    "tech": "NULL",
    "upgrade": "NULL_NA",
    "gnaf_pid": "GAWA_163002506",
    "ee": false,
    "tech_change_status": "Not Planned"
   }
  },
  {
   "type": "Feature",
   "geometry": {
    "type": "Point",
    "coordinates": [
     116.0231415,
     -34.83591115
    ]
   },
   "properties": {
    "name": "LOT 245 ISLAND VIEW WINDY HARBOUR 6262",
    "locID": "LOC000108047357",
    "tech": "NULL",
    "upgrade": "NULL_NA",
    "gnaf_pid": "GAWA_163002507",
    "ee": false,
    "tech_change_status": "Not Planned"
   }
  },
  {
   "type": "Feature",
   "geometry": {
    "type": "Point",
    "coordinates": [
     116.0231415,
     -34.83591115
    ]
   },
   "properties": {
    "name": "LOT 246 ISLAND VIEW WINDY HARBOUR 6262",
    "locID": "LOC000108047357",
    "tech": "NULL",
    "upgrade": "NULL_NA",
    "gnaf_pid": "GAWA_163002508",
    "ee": false,
    "tech_change_status": "Not Planned"
   }
  },
  {
   "type": "Feature",
   "geometry": {
    "type": "Point",
    "coordinates": [
     116.0231415,
     -34.83591115
    ]
   },
   "properties": {
    "name": "LOT 247 ISLAND VIEW WINDY HARBOUR 6262",
    "locID": "LOC000108047357",
    "tech": "NULL",
    "upgrade": "NULL_NA",
    "gnaf_pid": "GAWA_163002509",
    "ee": false,
    "tech_change_status": "Not Planned"
   }
  },
  {
   "type": "Feature",
   "geometry": {
    "type": "Point",
    "coordinates": [
     116.0231415,
     -34.83591115
    ]
   },
   "properties": {
    "name": "LOT 248 ISLAND VIEW WINDY HARBOUR 6262",
    "locID": "LOC000108047357",
    "tech": "NULL",
    "upgrade": "NULL_NA",
    "gnaf_pid": "GAWA_163002510",
    "ee": false,
    "tech_change_status": "Not Planned"
   }
  },
  {
   "type": "Feature",
   "geometry": {
    "type": "Point",
    "coordinates": [
     116.0231415,
     -34.83591115
    ]
   },
   "properties": {
    "name": "LOT 249 ISLAND VIEW WINDY HARBOUR 6262",
    "locID": "LOC000108047357",
    "tech": "NULL",
    "upgrade": "NULL_NA",
    "gnaf_pid": "GAWA_163002511",
    "ee": false,
    "tech_change_status": "Not Planned"
   }
  },
  {
   "type": "Feature",
   "geometry": {
    "type": "Point",
    "coordinates": [
     116.0231415,
     -34.83591115
    ]
   },
   "properties": {
    "name": "LOT 250 ISLAND VIEW WINDY HARBOUR 6262",
    "locID": "LOC000108047357",
    "tech": "NULL",
    "upgrade": "NULL_NA",
    "gnaf_pid": "GAWA_163002512",
    "ee": false,
    "tech_change_status": "Not Planned"
   }
  },
  {
   "type": "Feature",
   "geometry": {
    "type": "Point",
    "coordinates": [
     116.0231415,
     -34.83591115
    ]
   },
   "properties": {
    "name": "LOT 251 ISLAND VIEW WINDY HARBOUR 6262",
    "locID": "LOC000108047357",
    "tech": "NULL",
    "upgrade": "NULL_NA",
    "gnaf_pid": "GAWA_163002513",
    "ee": false,
    "tech_change_status": "Not Planned"
   }
  },
  {
   "type": "Feature",
   "geometry": {
    "type": "Point",
    "coordinates": [
     116.0231415,
     -34.83591115
    ]
   },
   "properties": {
    "name": "LOT 252 ISLAND VIEW WINDY HARBOUR 6262",
    "locID": "LOC000108047357",
    "tech": "NULL",
    "upgrade": "NULL_NA",
    "gnaf_pid": "GAWA_163002514",
    "ee": false,
    "tech_change_status": "Not Planned"
   }
  },
  {
   "type": "Feature",
   "geometry": {
    "type": "Point",
    "coordinates": [
     116.0231415,
     -34.83591115
    ]
   },
   "properties": {
    "name": "LOT 253 ISLAND VIEW WINDY HARBOUR 6262",
    "locID": "LOC000108047357",
    "tech": "NULL",
    "upgrade": "NULL_NA",
    "gnaf_pid": "GAWA_163002515",
    "ee": false,
    "tech_change_status": "Not Planned"
   }
  },
  {
   "type": "Feature",
   "geometry": {
    "type": "Point",
    "coordinates": [
     116.0231415,
     -34.83591115
    ]
   },
   "properties": {
    "name": "LOT 74 KELLY PLACE WINDY HARBOUR 6262",
    "locID": "LOC000109338491",
    "tech": "NULL",
    "upgrade": "NULL_NA",
    "gnaf_pid": "GAWA_163002723",
    "ee": false,
    "tech_change_status": "Not Planned"
   }
  },
  {
   "type": "Feature",
   "geometry": {
    "type": "Point",
    "coordinates": [
     116.0231415,
     -34.83591115
    ]
   },
   "properties": {
    "name": "LOT 75 KELLY PLACE WINDY HARBOUR 6262",
    "locID": "LOC000109338491",
    "tech": "NULL",
    "upgrade": "NULL_NA",
    "gnaf_pid": "GAWA_163002724",
    "ee": false,
    "tech_change_status": "Not Planned"
   }
  },
  {
   "type": "Feature",
   "geometry": {
    "type": "Point",
    "coordinates": [
     116.0231415,
     -34.83591115
    ]
   },
   "properties": {
    "name": "LOT 76 KELLY PLACE WINDY HARBOUR 6262",
    "locID": "LOC000109338491",
    "tech": "NULL",
    "upgrade": "NULL_NA",
    "gnaf_pid": "GAWA_163002725",
    "ee": false,
    "tech_change_status": "Not Planned"
   }
  },
  {
   "type": "Feature",
   "geometry": {
    "type": "Point",
    "coordinates": [
     116.0231415,
     -34.83591115
    ]
   },
   "properties": {
    "name": "LOT 84 KELLY PLACE WINDY HARBOUR 6262",
    "locID": "LOC000109338491",
    "tech": "NULL",
    "upgrade": "NULL_NA",
    "gnaf_pid": "GAWA_163002730",
    "ee": false,
    "tech_change_status": "Not Planned"
   }
  },
  {
   "type": "Feature",
   "geometry": {
    "type": "Point",
    "coordinates": [
     116.0231415,
     -34.83591115
    ]
   },
   "properties": {
    "name": "LOT 298 MACALLEN WAY WINDY HARBOUR 6262",
    "locID": "LOC000133233115",
    "tech": "SATELLITE",
    "upgrade": "NULL_NA",
    "gnaf_pid": "GAWA_163003090",
    "ee": false,
    "tech_change_status": "Not Planned"
   }
  },
  {
   "type": "Feature",
   "geometry": {
    "type": "Point",
    "coordinates": [
     116.0231415,
     -34.83591115
    ]
   },
   "properties": {
    "name": "LOT 10 MITCHELL WAY WINDY HARBOUR 6262",
    "locID": "LOC000108656366",
    "tech": "SATELLITE",
    "upgrade": "NULL_NA",
    "gnaf_pid": "GAWA_163003567",
    "ee": false,
    "tech_change_status": "Not Planned"
   }
  },
  {
   "type": "Feature",
   "geometry": {
    "type": "Point",
    "coordinates": [
     116.0231415,
     -34.83591115
    ]
   },
   "properties": {
    "name": "LOT 13 MITCHELL WAY WINDY HARBOUR 6262",
    "locID": "LOC000108656366",
    "tech": "SATELLITE",
    "upgrade": "NULL_NA",
    "gnaf_pid": "GAWA_163003568",
    "ee": false,
    "tech_change_status": "Not Planned"
   }
  },
  {
   "type": "Feature",
   "geometry": {
    "type": "Point",
    "coordinates": [
     116.0231415,
     -34.83591115
    ]
   },
   "properties": {
    "name": "LOT 14 MITCHELL WAY WINDY HARBOUR 6262",
    "locID": "LOC000108656366",
    "tech": "SATELLITE",
    "upgrade": "NULL_NA",
    "gnaf_pid": "GAWA_163003569",
    "ee": false,
    "tech_change_status": "Not Planned"
   }
  },
  {
   "type": "Feature",
   "geometry": {
    "type": "Point",
    "coordinates": [
     116.0231415,
     -34.83591115
    ]
   },
   "properties": {
    "name": "LOT 15 MITCHELL WAY WINDY HARBOUR 6262",
    "locID": "LOC000109764014",
    "tech": "SATELLITE",
    "upgrade": "NULL_NA",
    "gnaf_pid": "GAWA_163003570",
    "ee": false,
    "tech_change_status": "Not Planned"
   }
  },
  {
   "type": "Feature",
   "geometry": {
    "type": "Point",
    "coordinates": [
     116.0231415,
     -34.83591115
    ]
   },
   "properties": {
    "name": "LOT 17 MITCHELL WAY WINDY HARBOUR 6262",
    "locID": "LOC000108656366",
    "tech": "SATELLITE",
    "upgrade": "NULL_NA",
    "gnaf_pid": "GAWA_163003571",
    "ee": false,
    "tech_change_status": "Not Planned"
   }
  },
  {
   "type": "Feature",
   "geometry": {
    "type": "Point",
    "coordinates": [
     116.0231415,
     -34.83591115
    ]
   },
   "properties": {
    "name": "LOT 18 MITCHELL WAY WINDY HARBOUR 6262",
    "locID": "LOC000108656366",
    "tech": "SATELLITE",
    "upgrade": "NULL_NA",
    "gnaf_pid": "GAWA_163003572",
    "ee": false,
    "tech_change_status": "Not Planned"
   }
  },
  {
   "type": "Feature",
   "geometry": {
    "type": "Point",
    "coordinates": [
     116.0231415,
     -34.83591115
    ]
   },
   "properties": {
    "name": "LOT 20 MITCHELL WAY WINDY HARBOUR 6262",
    "locID": "LOC000108656366",
    "tech": "SATELLITE",
    "upgrade": "NULL_NA",
    "gnaf_pid": "GAWA_163003573",
    "ee": false,
    "tech_change_status": "Not Planned"
   }
  },
  {
   "type": "Feature",
   "geometry": {
    "type": "Point",
    "coordinates": [
     116.0231415,
     -34.83591115
    ]
   },
   "properties": {
    "name": "LOT 21 MITCHELL WAY WINDY HARBOUR 6262",
    "locID": "LOC000108656366",
    "tech": "SATELLITE",
    "upgrade": "NULL_NA",
    "gnaf_pid": "GAWA_163003574",
    "ee": false,
    "tech_change_status": "Not Planned"
   }
  },
  {
   "type": "Feature",
   "geometry": {
    "type": "Point",
    "coordinates": [
     116.0231415,
     -34.83591115
    ]
   },
   "properties": {
    "name": "LOT 22 MITCHELL WAY WINDY HARBOUR 6262",
    "locID": "LOC000108656366",
    "tech": "SATELLITE",
    "upgrade": "NULL_NA",
    "gnaf_pid": "GAWA_163003575",
    "ee": false,
    "tech_change_status": "Not Planned"
   }
  },
  {
   "type": "Feature",
   "geometry": {
    "type": "Point",
    "coordinates": [
     116.0231415,
     -34.83591115
    ]
   },
   "properties": {
    "name": "LOT 24 MITCHELL WAY WINDY HARBOUR 6262",
    "locID": "LOC000109764014",
    "tech": "SATELLITE",
    "upgrade": "NULL_NA",
    "gnaf_pid": "GAWA_163003576",
    "ee": false,
    "tech_change_status": "Not Planned"
   }
  },
  {
   "type": "Feature",
   "geometry": {
    "type": "Point",
    "coordinates": [
     116.0231415,
     -34.83591115
    ]
   },
   "properties": {
    "name": "LOT 27 MITCHELL WAY WINDY HARBOUR 6262",
    "locID": "LOC000108656366",
    "tech": "SATELLITE",
    "upgrade": "NULL_NA",
    "gnaf_pid": "GAWA_163003579",
    "ee": false,
    "tech_change_status": "Not Planned"
   }
  },
  {
   "type": "Feature",
   "geometry": {
    "type": "Point",
    "coordinates": [
     116.0231415,
     -34.83591115
    ]
   },
   "properties": {
    "name": "LOT 28 MITCHELL WAY WINDY HARBOUR 6262",
    "locID": "LOC000108656366",
    "tech": "SATELLITE",
    "upgrade": "NULL_NA",
    "gnaf_pid": "GAWA_163003580",
    "ee": false,
    "tech_change_status": "Not Planned"
   }
  },
  {
   "type": "Feature",
   "geometry": {
    "type": "Point",
    "coordinates": [
     116.0231415,
     -34.83591115
    ]
   },
   "properties": {
    "name": "LOT 29 MITCHELL WAY WINDY HARBOUR 6262",
    "locID": "LOC000108656366",
    "tech": "SATELLITE",
    "upgrade": "NULL_NA",
    "gnaf_pid": "GAWA_163003581",
    "ee": false,
    "tech_change_status": "Not Planned"
   }
  },
  {
   "type": "Feature",
   "geometry": {
    "type": "Point",
    "coordinates": [
     116.0231415,
     -34.83591115
    ]
   },
   "properties": {
    "name": "LOT 31 MITCHELL WAY WINDY HARBOUR 6262",
    "locID": "LOC000108656366",
    "tech": "SATELLITE",
    "upgrade": "NULL_NA",
    "gnaf_pid": "GAWA_163003582",
    "ee": false,
    "tech_change_status": "Not Planned"
   }
  },
  {
   "type": "Feature",
   "geometry": {
    "type": "Point",
    "coordinates": [
     116.0231415,
     -34.83591115
    ]
   },
   "properties": {
    "name": "LOT 32 MITCHELL WAY WINDY HARBOUR 6262",
    "locID": "LOC000108656366",
    "tech": "SATELLITE",
    "upgrade": "NULL_NA",
    "gnaf_pid": "GAWA_163003583",
    "ee": false,
    "tech_change_status": "Not Planned"
   }
  },
  {
   "type": "Feature",
   "geometry": {
    "type": "Point",
    "coordinates": [
     116.0231415,
     -34.83591115
    ]
   },
   "properties": {
    "name": "LOT 33 MITCHELL WAY WINDY HARBOUR 6262",
    "locID": "LOC000108656366",
    "tech": "SATELLITE",
    "upgrade": "NULL_NA",
    "gnaf_pid": "GAWA_163003584",
    "ee": false,
    "tech_change_status": "Not Planned"
   }
  },
  {
   "type": "Feature",
   "geometry": {
    "type": "Point",
    "coordinates": [
     116.0231415,
     -34.83591115
    ]
   },
   "properties": {
    "name": "LOT 34 MITCHELL WAY WINDY HARBOUR 6262",
    "locID": "LOC000108656366",
    "tech": "SATELLITE",
    "upgrade": "NULL_NA",
    "gnaf_pid": "GAWA_163003585",
    "ee": false,
    "tech_change_status": "Not Planned"
   }
  },
  {
   "type": "Feature",
   "geometry": {
    "type": "Point",
    "coordinates": [
     116.0231415,
     -34.83591115
    ]
   },
   "properties": {
    "name": "LOT 7 MITCHELL WAY WINDY HARBOUR 6262",
    "locID": "LOC000108656366",
    "tech": "SATELLITE",
    "upgrade": "NULL_NA",
    "gnaf_pid": "GAWA_163003588",
    "ee": false,
    "tech_change_status": "Not Planned"
   }
  },
  {
   "type": "Feature",
   "geometry": {
    "type": "Point",
    "coordinates": [
     116.0231415,
     -34.83591115
    ]
   },
   "properties": {
    "name": "LOT 8 MITCHELL WAY WINDY HARBOUR 6262",
    "locID": "LOC000108656366",
    "tech": "SATELLITE",
    "upgrade": "NULL_NA",
    "gnaf_pid": "GAWA_163003589",
    "ee": false,
    "tech_change_status": "Not Planned"
   }
  },
  {
   "type": "Feature",
   "geometry": {
    "type": "Point",
    "coordinates": [
     116.0231415,
     -34.83591115
    ]
   },
   "properties": {
    "name": "LOT 9 MITCHELL WAY WINDY HARBOUR 6262",
    "locID": "LOC000109764014",
    "tech": "SATELLITE",
    "upgrade": "NULL_NA",
    "gnaf_pid": "GAWA_163003590",
    "ee": false,
    "tech_change_status": "Not Planned"
   }
  },
  {
   "type": "Feature",
   "geometry": {
    "type": "Point",
    "coordinates": [
     116.0231415,
     -34.83591115
    ]
   },
   "properties": {
    "name": "LOT 213 RICHARDS CLOSE WINDY HARBOUR 6262",
    "locID": "LOC000133203520",
    "tech": "NULL",
    "upgrade": "NULL_NA",
    "gnaf_pid": "GAWA_163004428",
    "ee": false,
    "tech_change_status": "Not Planned"
   }
  },
  {
   "type": "Feature",
   "geometry": {
    "type": "Point",
    "coordinates": [
     116.0231415,
     -34.83591115
    ]
   },
   "properties": {
    "name": "LOT 214 RICHARDS CLOSE WINDY HARBOUR 6262",
    "locID": "LOC000133203520",
    "tech": "NULL",
    "upgrade": "NULL_NA",
    "gnaf_pid": "GAWA_163004429",
    "ee": false,
    "tech_change_status": "Not Planned"
   }
  },
  {
   "type": "Feature",
   "geometry": {
    "type": "Point",
    "coordinates": [
     116.0231415,
     -34.83591115
    ]
   },
   "properties": {
    "name": "LOT 215 RICHARDS CLOSE WINDY HARBOUR 6262",
    "locID": "LOC000133203520",
    "tech": "NULL",
    "upgrade": "NULL_NA",
    "gnaf_pid": "GAWA_163004430",
    "ee": false,
    "tech_change_status": "Not Planned"
   }
  },
  {
   "type": "Feature",
   "geometry": {
    "type": "Point",
    "coordinates": [
     116.0231415,
     -34.83591115
    ]
   },
   "properties": {
    "name": "LOT 216 RICHARDS CLOSE WINDY HARBOUR 6262",
    "locID": "LOC000133203520",
    "tech": "NULL",
    "upgrade": "NULL_NA",
    "gnaf_pid": "GAWA_163004431",
    "ee": false,
    "tech_change_status": "Not Planned"
   }
  },
  {
   "type": "Feature",
   "geometry": {
    "type": "Point",
    "coordinates": [
     116.0231415,
     -34.83591115
    ]
   },
   "properties": {
    "name": "LOT 217 RICHARDS CLOSE WINDY HARBOUR 6262",
    "locID": "LOC000133203520",
    "tech": "NULL",
    "upgrade": "NULL_NA",
    "gnaf_pid": "GAWA_163004432",
    "ee": false,
    "tech_change_status": "Not Planned"
   }
  },
  {
   "type": "Feature",
   "geometry": {
    "type": "Point",
    "coordinates": [
     116.0231415,
     -34.83591115
    ]
   },
   "properties": {
    "name": "LOT 256 RICHARDS CLOSE WINDY HARBOUR 6262",
    "locID": "LOC000133203508",
    "tech": "NULL",
    "upgrade": "NULL_NA",
    "gnaf_pid": "GAWA_163004433",
    "ee": false,
    "tech_change_status": "Not Planned"
   }
  },
  {
   "type": "Feature",
   "geometry": {
    "type": "Point",
    "coordinates": [
     116.0231415,
     -34.83591115
    ]
   },
   "properties": {
    "name": "LOT 257 RICHARDS CLOSE WINDY HARBOUR 6262",
    "locID": "LOC000133203512",
    "tech": "NULL",
    "upgrade": "NULL_NA",
    "gnaf_pid": "GAWA_163004434",
    "ee": false,
    "tech_change_status": "Not Planned"
   }
  },
  {
   "type": "Feature",
   "geometry": {
    "type": "Point",
    "coordinates": [
     116.0231415,
     -34.83591115
    ]
   },
   "properties": {
    "name": "LOT 258 RICHARDS CLOSE WINDY HARBOUR 6262",
    "locID": "LOC000133203520",
    "tech": "NULL",
    "upgrade": "NULL_NA",
    "gnaf_pid": "GAWA_163004435",
    "ee": false,
    "tech_change_status": "Not Planned"
   }
  },
  {
   "type": "Feature",
   "geometry": {
    "type": "Point",
    "coordinates": [
     116.0231415,
     -34.83591115
    ]
   },
   "properties": {
    "name": "LOT 12439 WINDY HARBOUR ROAD WINDY HARBOUR 6262",
    "locID": "LOC000142465290",
    "tech": "SATELLITE",
    "upgrade": "NULL_NA",
    "gnaf_pid": "GAWA_163005751",
    "ee": false,
    "tech_change_status": "Not Planned"
   }
  },
  {
   "type": "Feature",
   "geometry": {
    "type": "Point",
    "coordinates": [
     116.0231415,
     -34.83591115
    ]
   },
   "properties": {
    "name": "LOT 306 FISHERMANS PLACE WINDY HARBOUR 6262",
    "locID": "LOC000108951581",
    "tech": "SATELLITE",
    "upgrade": "NULL_NA",
    "gnaf_pid": "GAWA_163047513",
    "ee": false,
    "tech_change_status": "Not Planned"
   }
  },
  {
   "type": "Feature",
   "geometry": {
    "type": "Point",
    "coordinates": [
     116.0231415,
     -34.83591115
    ]
   },
   "properties": {
    "name": "LOT 307 FISHERMANS PLACE WINDY HARBOUR 6262",
    "locID": "LOC000108951581",
    "tech": "SATELLITE",
    "upgrade": "NULL_NA",
    "gnaf_pid": "GAWA_163047514",
    "ee": false,
    "tech_change_status": "Not Planned"
   }
  },
  {
   "type": "Feature",
   "geometry": {
    "type": "Point",
    "coordinates": [
     116.0231415,
     -34.83591115
    ]
   },
   "properties": {
    "name": "LOT 308 FISHERMANS PLACE WINDY HARBOUR 6262",
    "locID": "LOC000108951581",
    "tech": "SATELLITE",
    "upgrade": "NULL_NA",
    "gnaf_pid": "GAWA_163047515",
    "ee": false,
    "tech_change_status": "Not Planned"
   }
  },
  {
   "type": "Feature",
   "geometry": {
    "type": "Point",
    "coordinates": [
     116.0231415,
     -34.83591115
    ]
   },
   "properties": {
    "name": "LOT 309 FISHERMANS PLACE WINDY HARBOUR 6262",
    "locID": "LOC000108951581",
    "tech": "SATELLITE",
    "upgrade": "NULL_NA",
    "gnaf_pid": "GAWA_163047516",
    "ee": false,
    "tech_change_status": "Not Planned"
   }
  },
  {
   "type": "Feature",
   "geometry": {
    "type": "Point",
    "coordinates": [
     116.0231415,
     -34.83591115
    ]
   },
   "properties": {
    "name": "LOT 26 BOAT RAMP ROAD WINDY HARBOUR 6262",
    "locID": "LOC000133219191",
    "tech": "NULL",
    "upgrade": "NULL_NA",
    "gnaf_pid": "GAWA_718785534",
    "ee": false,
    "tech_change_status": "Not Planned"
   }
  },
  {
   "type": "Feature",
   "geometry": {
    "type": "Point",
    "coordinates": [
     116.0231415,
     -34.83591115
    ]
   },
   "properties": {
    "name": "LOT 116 GREGORY WAY WINDY HARBOUR 6262",
    "locID": "LOC000108791807",
    "tech": "NULL",
    "upgrade": "NULL_NA",
    "gnaf_pid": "GAWA_718787481",
    "ee": false,
    "tech_change_status": "Not Planned"
   }
  },
  {
   "type": "Feature",
   "geometry": {
    "type": "Point",
    "coordinates": [
     116.0231415,
     -34.83591115
    ]
   },
   "properties": {
    "name": "LOT 120 ISLAND VIEW WINDY HARBOUR 6262",
    "locID": "LOC000108047357",
    "tech": "NULL",
    "upgrade": "NULL_NA",
    "gnaf_pid": "GAWA_718787937",
    "ee": false,
    "tech_change_status": "Not Planned"
   }
  },
  {
   "type": "Feature",
   "geometry": {
    "type": "Point",
    "coordinates": [
     116.0231415,
     -34.83591115
    ]
   },
   "properties": {
    "name": "LOT 401 KELLY PLACE WINDY HARBOUR 6262",
    "locID": "LOC000109338491",
    "tech": "NULL",
    "upgrade": "NULL_NA",
    "gnaf_pid": "GAWA_718788087",
    "ee": false,
    "tech_change_status": "Not Planned"
   }
  },
  {
   "type": "Feature",
   "geometry": {
    "type": "Point",
    "coordinates": [
     116.0231415,
     -34.83591115
    ]
   },
   "properties": {
    "name": "LOT 402 KELLY PLACE WINDY HARBOUR 6262",
    "locID": "LOC000109338491",
    "tech": "NULL",
    "upgrade": "NULL_NA",
    "gnaf_pid": "GAWA_718788088",
    "ee": false,
    "tech_change_status": "Not Planned"
   }
  },
  {
   "type": "Feature",
   "geometry": {
    "type": "Point",
    "coordinates": [
     116.0231415,
     -34.83591115
    ]
   },
   "properties": {
    "name": "LOT 57 KELLY PLACE WINDY HARBOUR 6262",
    "locID": "LOC000109338491",
    "tech": "NULL",
    "upgrade": "NULL_NA",
    "gnaf_pid": "GAWA_718788089",
    "ee": false,
    "tech_change_status": "Not Planned"
   }
  },
  {
   "type": "Feature",
   "geometry": {
    "type": "Point",
    "coordinates": [
     116.0231415,
     -34.83591115
    ]
   },
   "properties": {
    "name": "LOT 59 KELLY PLACE WINDY HARBOUR 6262",
    "locID": "LOC000109338491",
    "tech": "NULL",
    "upgrade": "NULL_NA",
    "gnaf_pid": "GAWA_718788090",
    "ee": false,
    "tech_change_status": "Not Planned"
   }
  },
  {
   "type": "Feature",
   "geometry": {
    "type": "Point",
    "coordinates": [
     116.0231415,
     -34.83591115
    ]
   },
   "properties": {
    "name": "LOT 65 KELLY PLACE WINDY HARBOUR 6262",
    "locID": "LOC000109338491",
    "tech": "NULL",
    "upgrade": "NULL_NA",
    "gnaf_pid": "GAWA_718788091",
    "ee": false,
    "tech_change_status": "Not Planned"
   }
  },
  {
   "type": "Feature",
   "geometry": {
    "type": "Point",
    "coordinates": [
     116.0231415,
     -34.83591115
    ]
   },
   "properties": {
    "name": "LOT 68 KELLY PLACE WINDY HARBOUR 6262",
    "locID": "LOC000109338491",
    "tech": "NULL",
    "upgrade": "NULL_NA",
    "gnaf_pid": "GAWA_718788092",
    "ee": false,
    "tech_change_status": "Not Planned"
   }
  },
  {
   "type": "Feature",
   "geometry": {
    "type": "Point",
    "coordinates": [
     116.0231415,
     -34.83591115
    ]
   },
   "properties": {
    "name": "LOT 69 KELLY PLACE WINDY HARBOUR 6262",
    "locID": "LOC000109338491",
    "tech": "NULL",
    "upgrade": "NULL_NA",
    "gnaf_pid": "GAWA_718788093",
    "ee": false,
    "tech_change_status": "Not Planned"
   }
  },
  {
   "type": "Feature",
   "geometry": {
    "type": "Point",
    "coordinates": [
     116.0231415,
     -34.83591115
    ]
   },
   "properties": {
    "name": "LOT 72 KELLY PLACE WINDY HARBOUR 6262",
    "locID": "LOC000109338491",
    "tech": "NULL",
    "upgrade": "NULL_NA",
    "gnaf_pid": "GAWA_718788094",
    "ee": false,
    "tech_change_status": "Not Planned"
   }
  },
  {
   "type": "Feature",
   "geometry": {
    "type": "Point",
    "coordinates": [
     116.0231415,
     -34.83591115
    ]
   },
   "properties": {
    "name": "LOT 73 KELLY PLACE WINDY HARBOUR 6262",
    "locID": "LOC000109338491",
    "tech": "NULL",
    "upgrade": "NULL_NA",
    "gnaf_pid": "GAWA_718788095",
    "ee": false,
    "tech_change_status": "Not Planned"
   }
  },
  {
   "type": "Feature",
   "geometry": {
    "type": "Point",
    "coordinates": [
     116.0231415,
     -34.83591115
    ]
   },
   "properties": {
    "name": "LOT 85 KELLY PLACE WINDY HARBOUR 6262",
    "locID": "LOC000109338491",
    "tech": "NULL",
    "upgrade": "NULL_NA",
    "gnaf_pid": "GAWA_718788096",
    "ee": false,
    "tech_change_status": "Not Planned"
   }
  },
  {
   "type": "Feature",
   "geometry": {
    "type": "Point",
    "coordinates": [
     116.0231415,
     -34.83591115
    ]
   },
   "properties": {
    "name": "LOT 12 WINDY HARBOUR ROAD WINDY HARBOUR 6262",
    "locID": "LOC000142465290",
    "tech": "SATELLITE",
    "upgrade": "NULL_NA",
    "gnaf_pid": "GAWA_718791322",
    "ee": false,
    "tech_change_status": "Not Planned"
   }
  },
  {
   "type": "Feature",
   "geometry": {
    "type": "Point",
    "coordinates": [
     116.0231415,
     -34.83591115
    ]
   },
   "properties": {
    "name": "LOT 3 WINDY HARBOUR ROAD WINDY HARBOUR 6262",
    "locID": "LOC000133219191",
    "tech": "NULL",
    "upgrade": "NULL_NA",
    "gnaf_pid": "GAWA_718791326",
    "ee": false,
    "tech_change_status": "Not Planned"
   }
  },
  {
   "type": "Feature",
   "geometry": {
    "type": "Point",
    "coordinates": [
     116.0231415,
     -34.83591115
    ]
   },
   "properties": {
    "name": "LOT 49 WINDY HARBOUR ROAD WINDY HARBOUR 6262",
    "locID": "LOC100082308597",
    "tech": "NULL",
    "upgrade": "NULL_NA",
    "gnaf_pid": "GAWA_718791333",
    "ee": true,
    "tech_change_status": "Not Planned"
   }
  },
  {
   "type": "Feature",
   "geometry": {
    "type": "Point",
    "coordinates": [
     116.0231415,
     -34.83591115
    ]
   },
   "properties": {
    "name": "LOT 4 WINDY HARBOUR ROAD WINDY HARBOUR 6262",
    "locID": "LOC000109797514",
    "tech": "NULL",
    "upgrade": "NULL_NA",
    "gnaf_pid": "GAWA_718791334",
    "ee": false,
    "tech_change_status": "Not Planned"
   }
  },
  {
   "type": "Feature",
   "geometry": {
    "type": "Point",
    "coordinates": [
     116.0231415,
     -34.83591115
    ]
   },
   "properties": {
    "name": "LOT 50 WINDY HARBOUR ROAD WINDY HARBOUR 6262",
    "locID": "LOC100087324139",
    "tech": "SATELLITE",
    "upgrade": "NULL_NA",
    "gnaf_pid": "GAWA_718791335",
    "ee": false,
    "tech_change_status": "Not Planned"
   }
  },
  {
   "type": "Feature",
   "geometry": {
    "type": "Point",
    "coordinates": [
     116.0231415,
     -34.83591115
    ]
   },
   "properties": {
    "name": "LOT 53 WINDY HARBOUR ROAD WINDY HARBOUR 6262",
    "locID": "LOC000142466918",
    "tech": "SATELLITE",
    "upgrade": "NULL_NA",
    "gnaf_pid": "GAWA_718791338",
    "ee": false,
    "tech_change_status": "Not Planned"
   }
  },
  {
   "type": "Feature",
   "geometry": {
    "type": "Point",
    "coordinates": [
     116.0231415,
     -34.83591115
    ]
   },
   "properties": {
    "name": "LOT 5 WINDY HARBOUR ROAD WINDY HARBOUR 6262",
    "locID": "LOC000142466918",
    "tech": "SATELLITE",
    "upgrade": "NULL_NA",
    "gnaf_pid": "GAWA_718791341",
    "ee": false,
    "tech_change_status": "Not Planned"
   }
  },
  {
   "type": "Feature",
   "geometry": {
    "type": "Point",
    "coordinates": [
     116.0231415,
     -34.83591115
    ]
   },
   "properties": {
    "name": "LOT 60 WINDY HARBOUR ROAD WINDY HARBOUR 6262",
    "locID": "LOC000150803226",
    "tech": "NULL",
    "upgrade": "NULL_NA",
    "gnaf_pid": "GAWA_718791342",
    "ee": false,
    "tech_change_status": "Not Planned"
   }
  },
  {
   "type": "Feature",
   "geometry": {
    "type": "Point",
    "coordinates": [
     116.0231415,
     -34.83591115
    ]
   },
   "properties": {
    "name": "LOT 62 WINDY HARBOUR ROAD WINDY HARBOUR 6262",
    "locID": "LOC000150803226",
    "tech": "NULL",
    "upgrade": "NULL_NA",
    "gnaf_pid": "GAWA_718791344",
    "ee": false,
    "tech_change_status": "Not Planned"
   }
  },
  {
   "type": "Feature",
   "geometry": {
    "type": "Point",
    "coordinates": [
     116.0231415,
     -34.83591115
    ]
   },
   "properties": {
    "name": "LOT 6 WINDY HARBOUR ROAD WINDY HARBOUR 6262",
    "locID": "LOC000150803226",
    "tech": "NULL",
    "upgrade": "NULL_NA",
    "gnaf_pid": "GAWA_718791347",
    "ee": false,
    "tech_change_status": "Not Planned"
   }
  },
  {
   "type": "Feature",
   "geometry": {
    "type": "Point",
    "coordinates": [
     116.00206549,
     -34.79188552
    ]
   },
   "properties": {
    "name": "1888 WINDY HARBOUR ROAD WINDY HARBOUR 6262",
    "locID": "LOC100072005762",
    "tech": "NULL",
    "upgrade": "NULL_NA",
    "gnaf_pid": "GAWA_719498691",
    "ee": false,
    "tech_change_status": "Not Planned"
   }
  },
  {
   "type": "Feature",
   "geometry": {
    "type": "Point",
    "coordinates": [
     116.0231415,
     -34.83591115
    ]
   },
   "properties": {
    "name": "LOT 525 GREGORY WAY WINDY HARBOUR 6262",
    "locID": "LOC000108791807",
    "tech": "NULL",
    "upgrade": "NULL_NA",
    "gnaf_pid": "GAWA_720717485",
    "ee": false,
    "tech_change_status": "Not Planned"
   }
  },
  {
   "type": "Feature",
   "geometry": {
    "type": "Point",
    "coordinates": [
     116.0231415,
     -34.83591115
    ]
   },
   "properties": {
    "name": "LOT 526 GREGORY WAY WINDY HARBOUR 6262",
    "locID": "LOC000108791807",
    "tech": "NULL",
    "upgrade": "NULL_NA",
    "gnaf_pid": "GAWA_720718515",
    "ee": false,
    "tech_change_status": "Not Planned"
   }
  },
  {
   "type": "Feature",
   "geometry": {
    "type": "Point",
    "coordinates": [
     116.0231415,
     -34.83591115
    ]
   },
   "properties": {
    "name": "LOT 524 GREGORY WAY WINDY HARBOUR 6262",
    "locID": "LOC000108791807",
    "tech": "NULL",
    "upgrade": "NULL_NA",
    "gnaf_pid": "GAWA_720719342",
    "ee": false,
    "tech_change_status": "Not Planned"
   }
  },
  {
   "type": "Feature",
   "geometry": {
    "type": "Point",
    "coordinates": [
     116.02192551,
     -34.8360587
    ]
   },
   "properties": {
    "name": "298 MACALLEN WAY WINDY HARBOUR 6262",
    "locID": "LOC000133233115",
    "tech": "SATELLITE",
    "upgrade": "NULL_NA",
    "gnaf_pid": "GAWA_721105593",
    "ee": false,
    "tech_change_status": "Not Planned"
   }
  }
 ]
}