{
 "type": "FeatureCollection",
 "generated": "2025-06-19T12:24:49.290524",
 "suburb": "WOODLEIGH",
 "features": [
  {
   "type": "Feature",
   "geometry": {
    "type": "Point",
    "coordinates": [
     114.65528502,
     -26.12564702
    ]
   },
   "properties": {
    "name": "211 WOODLEIGH ROAD WOODLEIGH 6701",
    "locID": "LOC000115118076",
    "tech": "SATELLITE",
    "upgrade": "NULL_NA",
    "gnaf_pid": "GAWA_163393511",
    "ee": false,
    "tech_change_status": "Not Planned"
   }
  }
 ]
}