{
 "type": "FeatureCollection",
 "generated": "2025-06-19T12:27:08.659500",
 "suburb": "WOORAMEL",
 "features": [
  {
   "type": "Feature",
   "geometry": {
    "type": "Point",
    "coordinates": [
     114.29396994,
     -25.77065091
    ]
   },
   "properties": {
    "name": "LOT 1 NORTH WEST COASTAL HIGHWAY WOORAMEL 6701",
    "locID": "LOC000142447496",
    "tech": "SATELLITE",
    "upgrade": "NULL_NA",
    "gnaf_pid": "GAWA_162800214",
    "ee": false,
    "tech_change_status": "Not Planned"
   }
  }
 ]
}