{
 "type": "FeatureCollection",
 "generated": "2025-06-19T12:42:25.964646",
 "suburb": "YANNARIE",
 "features": [
  {
   "type": "Feature",
   "geometry": {
    "type": "Point",
    "coordinates": [
     115.02078635,
     -22.94545776
    ]
   },
   "properties": {
    "name": "LOT 165 NYANG ROAD YANNARIE 6710",
    "locID": "LOC000142998122",
    "tech": "NULL",
    "upgrade": "NULL_NA",
    "gnaf_pid": "GAWA_148297873",
    "ee": false,
    "tech_change_status": "Not Planned"
   }
  },
  {
   "type": "Feature",
   "geometry": {
    "type": "Point",
    "coordinates": [
     114.95452465,
     -22.86338796
    ]
   },
   "properties": {
    "name": "LOT 107 NORTH WEST COASTAL HIGHWAY YANNARIE 6710",
    "locID": "LOC000103809914",
    "tech": "FTTP",
    "upgrade": "NULL_NA",
    "gnaf_pid": "GAWA_161568812",
    "ee": true
   }
  },
  {
   "type": "Feature",
   "geometry": {
    "type": "Point",
    "coordinates": [
     115.1153988,
     -22.96324474
    ]
   },
   "properties": {
    "name": "LOT 165 NORTH WEST COASTAL HIGHWAY YANNARIE 6710",
    "locID": "LOC000142478917",
    "tech": "SATELLITE",
    "upgrade": "NULL_NA",
    "gnaf_pid": "GAWA_163153712",
    "ee": false,
    "tech_change_status": "Not Planned"
   }
  }
 ]
}