{
 "type": "FeatureCollection",
 "generated": "2025-06-19T12:46:22.391807",
 "suburb": "YELLOWDINE",
 "features": [
  {
   "type": "Feature",
   "geometry": {
    "type": "Point",
    "coordinates": [
     119.65492783,
     -31.29619078
    ]
   },
   "properties": {
    "name": "LOT 22 GREAT EASTERN HIGHWAY YELLOWDINE 6426",
    "locID": "LOC000181665589",
    "tech": "SATELLITE",
    "upgrade": "NULL_NA",
    "gnaf_pid": "GAWA_162786978",
    "ee": true,
    "tech_change_status": "Not Planned"
   }
  },
  {
   "type": "Feature",
   "geometry": {
    "type": "Point",
    "coordinates": [
     119.83253129,
     -31.26007304
    ]
   },
   "properties": {
    "name": "39257 GREAT EASTERN HIGHWAY YELLOWDINE 6426",
    "locID": "LOC000181665589",
    "tech": "SATELLITE",
    "upgrade": "NULL_NA",
    "gnaf_pid": "GAWA_720413602",
    "ee": true,
    "tech_change_status": "Not Planned"
   }
  }
 ]
}