{
 "type": "FeatureCollection",
 "generated": "2025-06-15T07:54:49.966768",
 "suburb": "ADELAIDE AIRPORT",
 "features": [
  {
   "type": "Feature",
   "geometry": {
    "type": "Point",
    "coordinates": [
     138.53473283,
     -34.93411394
    ]
   },
   "properties": {
    "name": "1 FRANK COLLOPY COURT ADELAIDE AIRPORT 5950",
    "locID": "LOC000084624159",
    "tech": "FTTN",
    "upgrade": "NULL_NA",
    "gnaf_pid": "GASA_417099948",
    "ee": true,
    "tech_change_status": "Not Planned"
   }
  },
  {
   "type": "Feature",
   "geometry": {
    "type": "Point",
    "coordinates": [
     138.53473283,
     -34.93411394
    ]
   },
   "properties": {
    "name": "3 FRANK COLLOPY COURT ADELAIDE AIRPORT 5950",
    "locID": "LOC000097738928",
    "tech": "FTTN",
    "upgrade": "NULL_NA",
    "gnaf_pid": "GASA_417099949",
    "ee": true,
    "tech_change_status": "Not Planned"
   }
  },
  {
   "type": "Feature",
   "geometry": {
    "type": "Point",
    "coordinates": [
     138.53613982,
     -34.93579248
    ]
   },
   "properties": {
    "name": "4 KEL BARCLAY AVENUE ADELAIDE AIRPORT 5950",
    "locID": "LOC000172290950",
    "tech": "FTTN",
    "upgrade": "NULL_NA",
    "gnaf_pid": "GASA_417099950",
    "ee": true,
    "tech_change_status": "Not Planned"
   }
  },
  {
   "type": "Feature",
   "geometry": {
    "type": "Point",
    "coordinates": [
     138.542681,
     -34.93508887
    ]
   },
   "properties": {
    "name": "14 LUM STREET ADELAIDE AIRPORT 5950",
    "locID": "LOC000027582727",
    "tech": "FTTN",
    "upgrade": "NULL_NA",
    "gnaf_pid": "GASA_417099951",
    "ee": true,
    "tech_change_status": "Not Planned"
   }
  },
  {
   "type": "Feature",
   "geometry": {
    "type": "Point",
    "coordinates": [
     138.53520267,
     -34.93528381
    ]
   },
   "properties": {
    "name": "28 JAMES SCHOFIELD DRIVE ADELAIDE AIRPORT 5950",
    "locID": "LOC000027582736",
    "tech": "FTTN",
    "upgrade": "NULL_NA",
    "gnaf_pid": "GASA_417099953",
    "ee": true,
    "tech_change_status": "Not Planned"
   }
  },
  {
   "type": "Feature",
   "geometry": {
    "type": "Point",
    "coordinates": [
     138.53520267,
     -34.93528381
    ]
   },
   "properties": {
    "name": "20 JAMES SCHOFIELD DRIVE ADELAIDE AIRPORT 5950",
    "locID": "LOC000001870415",
    "tech": "FTTN",
    "upgrade": "NULL_NA",
    "gnaf_pid": "GASA_417099954",
    "ee": true,
    "tech_change_status": "Not Planned"
   }
  },
  {
   "type": "Feature",
   "geometry": {
    "type": "Point",
    "coordinates": [
     138.54257082,
     -34.93577526
    ]
   },
   "properties": {
    "name": "2 COMLEY STREET ADELAIDE AIRPORT 5950",
    "locID": "LOC000103580838",
    "tech": "FTTN",
    "upgrade": "NULL_NA",
    "gnaf_pid": "GASA_417099955",
    "ee": true,
    "tech_change_status": "Not Planned"
   }
  },
  {
   "type": "Feature",
   "geometry": {
    "type": "Point",
    "coordinates": [
     138.54253528,
     -34.93408964
    ]
   },
   "properties": {
    "name": "2A CORBETT COURT ADELAIDE AIRPORT 5950",
    "locID": "LOC000021684675",
    "tech": "FTTN",
    "upgrade": "NULL_NA",
    "gnaf_pid": "GASA_417099957",
    "ee": true,
    "tech_change_status": "Not Planned"
   }
  },
  {
   "type": "Feature",
   "geometry": {
    "type": "Point",
    "coordinates": [
     138.54253528,
     -34.93408964
    ]
   },
   "properties": {
    "name": "5A CORBETT COURT ADELAIDE AIRPORT 5950",
    "locID": "LOC000011214624",
    "tech": "FTTN",
    "upgrade": "NULL_NA",
    "gnaf_pid": "GASA_417099959",
    "ee": true,
    "tech_change_status": "Not Planned"
   }
  },
  {
   "type": "Feature",
   "geometry": {
    "type": "Point",
    "coordinates": [
     138.51792131,
     -34.94842851
    ]
   },
   "properties": {
    "name": "767 TAPLEYS HILL ROAD ADELAIDE AIRPORT 5950",
    "locID": "LOC000152937095",
    "tech": "FTTC",
    "upgrade": "FTTP_SA",
    "gnaf_pid": "GASA_417099960",
    "ee": true,
    "tech_change_status": "Eligible to Order"
   }
  },
  {
   "type": "Feature",
   "geometry": {
    "type": "Point",
    "coordinates": [
     138.51792131,
     -34.94842851
    ]
   },
   "properties": {
    "name": "SHOP 54, 727 TAPLEYS HILL ROAD ADELAIDE AIRPORT 5950",
    "locID": "LOC000183428159",
    "tech": "FTTB",
    "upgrade": "NULL_NA",
    "gnaf_pid": "GASA_422038943",
    "ee": true
   }
  },
  {
   "type": "Feature",
   "geometry": {
    "type": "Point",
    "coordinates": [
     138.51792131,
     -34.94842851
    ]
   },
   "properties": {
    "name": "SHOP 55, 727 TAPLEYS HILL ROAD ADELAIDE AIRPORT 5950",
    "locID": "LOC000183428159",
    "tech": "FTTB",
    "upgrade": "NULL_NA",
    "gnaf_pid": "GASA_422038944",
    "ee": true
   }
  },
  {
   "type": "Feature",
   "geometry": {
    "type": "Point",
    "coordinates": [
     138.51792131,
     -34.94842851
    ]
   },
   "properties": {
    "name": "SHOP 56, 727 TAPLEYS HILL ROAD ADELAIDE AIRPORT 5950",
    "locID": "LOC000183428159",
    "tech": "FTTB",
    "upgrade": "NULL_NA",
    "gnaf_pid": "GASA_422038945",
    "ee": true
   }
  },
  {
   "type": "Feature",
   "geometry": {
    "type": "Point",
    "coordinates": [
     138.51792131,
     -34.94842851
    ]
   },
   "properties": {
    "name": "SHOP 57, 727 TAPLEYS HILL ROAD ADELAIDE AIRPORT 5950",
    "locID": "LOC000183428159",
    "tech": "FTTB",
    "upgrade": "NULL_NA",
    "gnaf_pid": "GASA_422038946",
    "ee": true
   }
  },
  {
   "type": "Feature",
   "geometry": {
    "type": "Point",
    "coordinates": [
     138.51792131,
     -34.94842851
    ]
   },
   "properties": {
    "name": "SHOP 58, 727 TAPLEYS HILL ROAD ADELAIDE AIRPORT 5950",
    "locID": "LOC000183428159",
    "tech": "FTTB",
    "upgrade": "NULL_NA",
    "gnaf_pid": "GASA_422038947",
    "ee": true
   }
  },
  {
   "type": "Feature",
   "geometry": {
    "type": "Point",
    "coordinates": [
     138.51792131,
     -34.94842851
    ]
   },
   "properties": {
    "name": "SHOP 59, 727 TAPLEYS HILL ROAD ADELAIDE AIRPORT 5950",
    "locID": "LOC000190591187",
    "tech": "FTTB",
    "upgrade": "NULL_NA",
    "gnaf_pid": "GASA_422038948",
    "ee": true
   }
  },
  {
   "type": "Feature",
   "geometry": {
    "type": "Point",
    "coordinates": [
     138.51792131,
     -34.94842851
    ]
   },
   "properties": {
    "name": "SHOP 60, 727 TAPLEYS HILL ROAD ADELAIDE AIRPORT 5950",
    "locID": "LOC000183428159",
    "tech": "FTTB",
    "upgrade": "NULL_NA",
    "gnaf_pid": "GASA_422038949",
    "ee": true
   }
  },
  {
   "type": "Feature",
   "geometry": {
    "type": "Point",
    "coordinates": [
     138.51792131,
     -34.94842851
    ]
   },
   "properties": {
    "name": "SHOP 61, 727 TAPLEYS HILL ROAD ADELAIDE AIRPORT 5950",
    "locID": "LOC000183428159",
    "tech": "FTTB",
    "upgrade": "NULL_NA",
    "gnaf_pid": "GASA_422038950",
    "ee": true
   }
  },
  {
   "type": "Feature",
   "geometry": {
    "type": "Point",
    "coordinates": [
     138.51792131,
     -34.94842851
    ]
   },
   "properties": {
    "name": "SHOP 62, 727 TAPLEYS HILL ROAD ADELAIDE AIRPORT 5950",
    "locID": "LOC000183428159",
    "tech": "FTTB",
    "upgrade": "NULL_NA",
    "gnaf_pid": "GASA_422038951",
    "ee": true
   }
  },
  {
   "type": "Feature",
   "geometry": {
    "type": "Point",
    "coordinates": [
     138.51792131,
     -34.94842851
    ]
   },
   "properties": {
    "name": "SHOP 63, 727 TAPLEYS HILL ROAD ADELAIDE AIRPORT 5950",
    "locID": "LOC000183428159",
    "tech": "FTTB",
    "upgrade": "NULL_NA",
    "gnaf_pid": "GASA_422038952",
    "ee": true
   }
  },
  {
   "type": "Feature",
   "geometry": {
    "type": "Point",
    "coordinates": [
     138.51792131,
     -34.94842851
    ]
   },
   "properties": {
    "name": "SHOP 64, 727 TAPLEYS HILL ROAD ADELAIDE AIRPORT 5950",
    "locID": "LOC000183428159",
    "tech": "FTTB",
    "upgrade": "NULL_NA",
    "gnaf_pid": "GASA_422038953",
    "ee": true
   }
  },
  {
   "type": "Feature",
   "geometry": {
    "type": "Point",
    "coordinates": [
     138.51792131,
     -34.94842851
    ]
   },
   "properties": {
    "name": "SHOP 65, 727 TAPLEYS HILL ROAD ADELAIDE AIRPORT 5950",
    "locID": "LOC000183428159",
    "tech": "FTTB",
    "upgrade": "NULL_NA",
    "gnaf_pid": "GASA_422038954",
    "ee": true
   }
  },
  {
   "type": "Feature",
   "geometry": {
    "type": "Point",
    "coordinates": [
     138.51792131,
     -34.94842851
    ]
   },
   "properties": {
    "name": "SHOP 66, 727 TAPLEYS HILL ROAD ADELAIDE AIRPORT 5950",
    "locID": "LOC000183428159",
    "tech": "FTTB",
    "upgrade": "NULL_NA",
    "gnaf_pid": "GASA_422038955",
    "ee": true
   }
  },
  {
   "type": "Feature",
   "geometry": {
    "type": "Point",
    "coordinates": [
     138.51792131,
     -34.94842851
    ]
   },
   "properties": {
    "name": "SHOP 34, 727 TAPLEYS HILL ROAD ADELAIDE AIRPORT 5950",
    "locID": "LOC000184083861",
    "tech": "FTTB",
    "upgrade": "NULL_NA",
    "gnaf_pid": "GASA_422039870",
    "ee": true
   }
  },
  {
   "type": "Feature",
   "geometry": {
    "type": "Point",
    "coordinates": [
     138.51792131,
     -34.94842851
    ]
   },
   "properties": {
    "name": "SHOP 52, 727 TAPLEYS HILL ROAD ADELAIDE AIRPORT 5950",
    "locID": "LOC000178267348",
    "tech": "FTTB",
    "upgrade": "NULL_NA",
    "gnaf_pid": "GASA_422039871",
    "ee": true
   }
  },
  {
   "type": "Feature",
   "geometry": {
    "type": "Point",
    "coordinates": [
     138.51792131,
     -34.94842851
    ]
   },
   "properties": {
    "name": "KIOSK 3, 727 TAPLEYS HILL ROAD ADELAIDE AIRPORT 5950",
    "locID": "LOC000183428159",
    "tech": "FTTB",
    "upgrade": "NULL_NA",
    "gnaf_pid": "GASA_422039872",
    "ee": true
   }
  },
  {
   "type": "Feature",
   "geometry": {
    "type": "Point",
    "coordinates": [
     138.51792131,
     -34.94842851
    ]
   },
   "properties": {
    "name": "SHOP 30, 727 TAPLEYS HILL ROAD ADELAIDE AIRPORT 5950",
    "locID": "LOC000183428159",
    "tech": "FTTB",
    "upgrade": "NULL_NA",
    "gnaf_pid": "GASA_422039873",
    "ee": true
   }
  },
  {
   "type": "Feature",
   "geometry": {
    "type": "Point",
    "coordinates": [
     138.51792131,
     -34.94842851
    ]
   },
   "properties": {
    "name": "SHOP 35, 727 TAPLEYS HILL ROAD ADELAIDE AIRPORT 5950",
    "locID": "LOC000183428159",
    "tech": "FTTB",
    "upgrade": "NULL_NA",
    "gnaf_pid": "GASA_422039874",
    "ee": true
   }
  },
  {
   "type": "Feature",
   "geometry": {
    "type": "Point",
    "coordinates": [
     138.51792131,
     -34.94842851
    ]
   },
   "properties": {
    "name": "SHOP 32, 727 TAPLEYS HILL ROAD ADELAIDE AIRPORT 5950",
    "locID": "LOC000183428159",
    "tech": "FTTB",
    "upgrade": "NULL_NA",
    "gnaf_pid": "GASA_422039875",
    "ee": true
   }
  },
  {
   "type": "Feature",
   "geometry": {
    "type": "Point",
    "coordinates": [
     138.51792131,
     -34.94842851
    ]
   },
   "properties": {
    "name": "SHOP 33, 727 TAPLEYS HILL ROAD ADELAIDE AIRPORT 5950",
    "locID": "LOC000183428159",
    "tech": "FTTB",
    "upgrade": "NULL_NA",
    "gnaf_pid": "GASA_422039876",
    "ee": true
   }
  },
  {
   "type": "Feature",
   "geometry": {
    "type": "Point",
    "coordinates": [
     138.51792131,
     -34.94842851
    ]
   },
   "properties": {
    "name": "SHOP 37, 727 TAPLEYS HILL ROAD ADELAIDE AIRPORT 5950",
    "locID": "LOC000183428159",
    "tech": "FTTB",
    "upgrade": "NULL_NA",
    "gnaf_pid": "GASA_422040282",
    "ee": true
   }
  },
  {
   "type": "Feature",
   "geometry": {
    "type": "Point",
    "coordinates": [
     138.51792131,
     -34.94842851
    ]
   },
   "properties": {
    "name": "SHOP 38, 727 TAPLEYS HILL ROAD ADELAIDE AIRPORT 5950",
    "locID": "LOC000183428159",
    "tech": "FTTB",
    "upgrade": "NULL_NA",
    "gnaf_pid": "GASA_422040283",
    "ee": true
   }
  },
  {
   "type": "Feature",
   "geometry": {
    "type": "Point",
    "coordinates": [
     138.51792131,
     -34.94842851
    ]
   },
   "properties": {
    "name": "SHOP 39, 727 TAPLEYS HILL ROAD ADELAIDE AIRPORT 5950",
    "locID": "LOC000183428159",
    "tech": "FTTB",
    "upgrade": "NULL_NA",
    "gnaf_pid": "GASA_422040284",
    "ee": true
   }
  },
  {
   "type": "Feature",
   "geometry": {
    "type": "Point",
    "coordinates": [
     138.51792131,
     -34.94842851
    ]
   },
   "properties": {
    "name": "SHOP 41, 727 TAPLEYS HILL ROAD ADELAIDE AIRPORT 5950",
    "locID": "LOC000183428159",
    "tech": "FTTB",
    "upgrade": "NULL_NA",
    "gnaf_pid": "GASA_422040286",
    "ee": true
   }
  },
  {
   "type": "Feature",
   "geometry": {
    "type": "Point",
    "coordinates": [
     138.51792131,
     -34.94842851
    ]
   },
   "properties": {
    "name": "SHOP 42, 727 TAPLEYS HILL ROAD ADELAIDE AIRPORT 5950",
    "locID": "LOC000183428159",
    "tech": "FTTB",
    "upgrade": "NULL_NA",
    "gnaf_pid": "GASA_422040287",
    "ee": true
   }
  },
  {
   "type": "Feature",
   "geometry": {
    "type": "Point",
    "coordinates": [
     138.51792131,
     -34.94842851
    ]
   },
   "properties": {
    "name": "SHOP 44, 727 TAPLEYS HILL ROAD ADELAIDE AIRPORT 5950",
    "locID": "LOC000183428159",
    "tech": "FTTB",
    "upgrade": "NULL_NA",
    "gnaf_pid": "GASA_422040289",
    "ee": true
   }
  },
  {
   "type": "Feature",
   "geometry": {
    "type": "Point",
    "coordinates": [
     138.51792131,
     -34.94842851
    ]
   },
   "properties": {
    "name": "SHOP 45, 727 TAPLEYS HILL ROAD ADELAIDE AIRPORT 5950",
    "locID": "LOC000183428159",
    "tech": "FTTB",
    "upgrade": "NULL_NA",
    "gnaf_pid": "GASA_422040290",
    "ee": true
   }
  },
  {
   "type": "Feature",
   "geometry": {
    "type": "Point",
    "coordinates": [
     138.51792131,
     -34.94842851
    ]
   },
   "properties": {
    "name": "SHOP 46, 727 TAPLEYS HILL ROAD ADELAIDE AIRPORT 5950",
    "locID": "LOC000183428159",
    "tech": "FTTB",
    "upgrade": "NULL_NA",
    "gnaf_pid": "GASA_422040291",
    "ee": true
   }
  },
  {
   "type": "Feature",
   "geometry": {
    "type": "Point",
    "coordinates": [
     138.51792131,
     -34.94842851
    ]
   },
   "properties": {
    "name": "SHOP 47, 727 TAPLEYS HILL ROAD ADELAIDE AIRPORT 5950",
    "locID": "LOC000183428159",
    "tech": "FTTB",
    "upgrade": "NULL_NA",
    "gnaf_pid": "GASA_422040292",
    "ee": true
   }
  },
  {
   "type": "Feature",
   "geometry": {
    "type": "Point",
    "coordinates": [
     138.51792131,
     -34.94842851
    ]
   },
   "properties": {
    "name": "SHOP 48, 727 TAPLEYS HILL ROAD ADELAIDE AIRPORT 5950",
    "locID": "LOC000183428159",
    "tech": "FTTB",
    "upgrade": "NULL_NA",
    "gnaf_pid": "GASA_422040293",
    "ee": true
   }
  },
  {
   "type": "Feature",
   "geometry": {
    "type": "Point",
    "coordinates": [
     138.51792131,
     -34.94842851
    ]
   },
   "properties": {
    "name": "SHOP 49, 727 TAPLEYS HILL ROAD ADELAIDE AIRPORT 5950",
    "locID": "LOC000183428159",
    "tech": "FTTB",
    "upgrade": "NULL_NA",
    "gnaf_pid": "GASA_422040294",
    "ee": true
   }
  },
  {
   "type": "Feature",
   "geometry": {
    "type": "Point",
    "coordinates": [
     138.51792131,
     -34.94842851
    ]
   },
   "properties": {
    "name": "SHOP 50, 727 TAPLEYS HILL ROAD ADELAIDE AIRPORT 5950",
    "locID": "LOC000173565523",
    "tech": "FTTB",
    "upgrade": "NULL_NA",
    "gnaf_pid": "GASA_422040295",
    "ee": true
   }
  },
  {
   "type": "Feature",
   "geometry": {
    "type": "Point",
    "coordinates": [
     138.51792131,
     -34.94842851
    ]
   },
   "properties": {
    "name": "SHOP 67, 727 TAPLEYS HILL ROAD ADELAIDE AIRPORT 5950",
    "locID": "LOC000178267444",
    "tech": "FTTB",
    "upgrade": "NULL_NA",
    "gnaf_pid": "GASA_422040443",
    "ee": true
   }
  },
  {
   "type": "Feature",
   "geometry": {
    "type": "Point",
    "coordinates": [
     138.51792131,
     -34.94842851
    ]
   },
   "properties": {
    "name": "SHOP 68, 727 TAPLEYS HILL ROAD ADELAIDE AIRPORT 5950",
    "locID": "LOC000183428159",
    "tech": "FTTB",
    "upgrade": "NULL_NA",
    "gnaf_pid": "GASA_422040444",
    "ee": true
   }
  },
  {
   "type": "Feature",
   "geometry": {
    "type": "Point",
    "coordinates": [
     138.51792131,
     -34.94842851
    ]
   },
   "properties": {
    "name": "SHOP 69, 727 TAPLEYS HILL ROAD ADELAIDE AIRPORT 5950",
    "locID": "LOC000183428159",
    "tech": "FTTB",
    "upgrade": "NULL_NA",
    "gnaf_pid": "GASA_422040445",
    "ee": true
   }
  },
  {
   "type": "Feature",
   "geometry": {
    "type": "Point",
    "coordinates": [
     138.51792131,
     -34.94842851
    ]
   },
   "properties": {
    "name": "SHOP 28, 727 TAPLEYS HILL ROAD ADELAIDE AIRPORT 5950",
    "locID": "LOC000183428159",
    "tech": "FTTB",
    "upgrade": "NULL_NA",
    "gnaf_pid": "GASA_422042159",
    "ee": true
   }
  },
  {
   "type": "Feature",
   "geometry": {
    "type": "Point",
    "coordinates": [
     138.51792131,
     -34.94842851
    ]
   },
   "properties": {
    "name": "SHOP 31, 727 TAPLEYS HILL ROAD ADELAIDE AIRPORT 5950",
    "locID": "LOC000183428159",
    "tech": "FTTB",
    "upgrade": "NULL_NA",
    "gnaf_pid": "GASA_422042161",
    "ee": true
   }
  },
  {
   "type": "Feature",
   "geometry": {
    "type": "Point",
    "coordinates": [
     138.51792131,
     -34.94842851
    ]
   },
   "properties": {
    "name": "SHOP 51, 727 TAPLEYS HILL ROAD ADELAIDE AIRPORT 5950",
    "locID": "LOC000183428159",
    "tech": "FTTB",
    "upgrade": "NULL_NA",
    "gnaf_pid": "GASA_422042209",
    "ee": true
   }
  },
  {
   "type": "Feature",
   "geometry": {
    "type": "Point",
    "coordinates": [
     138.51792131,
     -34.94842851
    ]
   },
   "properties": {
    "name": "SHOP 53, 727 TAPLEYS HILL ROAD ADELAIDE AIRPORT 5950",
    "locID": "LOC000183428159",
    "tech": "FTTB",
    "upgrade": "NULL_NA",
    "gnaf_pid": "GASA_422042210",
    "ee": true
   }
  },
  {
   "type": "Feature",
   "geometry": {
    "type": "Point",
    "coordinates": [
     138.51792131,
     -34.94842851
    ]
   },
   "properties": {
    "name": "SHOP 18, 727 TAPLEYS HILL ROAD ADELAIDE AIRPORT 5950",
    "locID": "LOC000178266682",
    "tech": "FTTB",
    "upgrade": "NULL_NA",
    "gnaf_pid": "GASA_422043587",
    "ee": true
   }
  },
  {
   "type": "Feature",
   "geometry": {
    "type": "Point",
    "coordinates": [
     138.51792131,
     -34.94842851
    ]
   },
   "properties": {
    "name": "SHOP 19, 727 TAPLEYS HILL ROAD ADELAIDE AIRPORT 5950",
    "locID": "LOC000183428159",
    "tech": "FTTB",
    "upgrade": "NULL_NA",
    "gnaf_pid": "GASA_422043588",
    "ee": true
   }
  },
  {
   "type": "Feature",
   "geometry": {
    "type": "Point",
    "coordinates": [
     138.51792131,
     -34.94842851
    ]
   },
   "properties": {
    "name": "SHOP 20, 727 TAPLEYS HILL ROAD ADELAIDE AIRPORT 5950",
    "locID": "LOC000183428159",
    "tech": "FTTB",
    "upgrade": "NULL_NA",
    "gnaf_pid": "GASA_422043589",
    "ee": true
   }
  },
  {
   "type": "Feature",
   "geometry": {
    "type": "Point",
    "coordinates": [
     138.51792131,
     -34.94842851
    ]
   },
   "properties": {
    "name": "SHOP 22, 727 TAPLEYS HILL ROAD ADELAIDE AIRPORT 5950",
    "locID": "LOC000183428159",
    "tech": "FTTB",
    "upgrade": "NULL_NA",
    "gnaf_pid": "GASA_422043591",
    "ee": true
   }
  },
  {
   "type": "Feature",
   "geometry": {
    "type": "Point",
    "coordinates": [
     138.51792131,
     -34.94842851
    ]
   },
   "properties": {
    "name": "SHOP 23, 727 TAPLEYS HILL ROAD ADELAIDE AIRPORT 5950",
    "locID": "LOC000183428159",
    "tech": "FTTB",
    "upgrade": "NULL_NA",
    "gnaf_pid": "GASA_422043592",
    "ee": true
   }
  },
  {
   "type": "Feature",
   "geometry": {
    "type": "Point",
    "coordinates": [
     138.51792131,
     -34.94842851
    ]
   },
   "properties": {
    "name": "SHOP 24, 727 TAPLEYS HILL ROAD ADELAIDE AIRPORT 5950",
    "locID": "LOC000183428159",
    "tech": "FTTB",
    "upgrade": "NULL_NA",
    "gnaf_pid": "GASA_422043593",
    "ee": true
   }
  },
  {
   "type": "Feature",
   "geometry": {
    "type": "Point",
    "coordinates": [
     138.51792131,
     -34.94842851
    ]
   },
   "properties": {
    "name": "SHOP 25, 727 TAPLEYS HILL ROAD ADELAIDE AIRPORT 5950",
    "locID": "LOC000183428159",
    "tech": "FTTB",
    "upgrade": "NULL_NA",
    "gnaf_pid": "GASA_422043594",
    "ee": true
   }
  },
  {
   "type": "Feature",
   "geometry": {
    "type": "Point",
    "coordinates": [
     138.51792131,
     -34.94842851
    ]
   },
   "properties": {
    "name": "SHOP 26, 727 TAPLEYS HILL ROAD ADELAIDE AIRPORT 5950",
    "locID": "LOC000173564648",
    "tech": "FTTB",
    "upgrade": "NULL_NA",
    "gnaf_pid": "GASA_422043595",
    "ee": true
   }
  },
  {
   "type": "Feature",
   "geometry": {
    "type": "Point",
    "coordinates": [
     138.51792131,
     -34.94842851
    ]
   },
   "properties": {
    "name": "SHOP 27, 727 TAPLEYS HILL ROAD ADELAIDE AIRPORT 5950",
    "locID": "LOC000183428159",
    "tech": "FTTB",
    "upgrade": "NULL_NA",
    "gnaf_pid": "GASA_422043596",
    "ee": true
   }
  },
  {
   "type": "Feature",
   "geometry": {
    "type": "Point",
    "coordinates": [
     138.51792131,
     -34.94842851
    ]
   },
   "properties": {
    "name": "SHOP 8, 727 TAPLEYS HILL ROAD ADELAIDE AIRPORT 5950",
    "locID": "LOC000072651218",
    "tech": "FTTB",
    "upgrade": "NULL_NA",
    "gnaf_pid": "GASA_422046105",
    "ee": true
   }
  },
  {
   "type": "Feature",
   "geometry": {
    "type": "Point",
    "coordinates": [
     138.54253528,
     -34.93408964
    ]
   },
   "properties": {
    "name": "1 CORBETT COURT ADELAIDE AIRPORT 5950",
    "locID": "LOC000056787577",
    "tech": "FTTN",
    "upgrade": "NULL_NA",
    "gnaf_pid": "GASA_422047022",
    "ee": true,
    "tech_change_status": "Not Planned"
   }
  },
  {
   "type": "Feature",
   "geometry": {
    "type": "Point",
    "coordinates": [
     138.54253528,
     -34.93408964
    ]
   },
   "properties": {
    "name": "1A CORBETT COURT ADELAIDE AIRPORT 5950",
    "locID": "LOC000056787577",
    "tech": "FTTN",
    "upgrade": "NULL_NA",
    "gnaf_pid": "GASA_422047023",
    "ee": true,
    "tech_change_status": "Not Planned"
   }
  },
  {
   "type": "Feature",
   "geometry": {
    "type": "Point",
    "coordinates": [
     138.51792131,
     -34.94842851
    ]
   },
   "properties": {
    "name": "SHOP 9, 727 TAPLEYS HILL ROAD ADELAIDE AIRPORT 5950",
    "locID": "LOC000072858322",
    "tech": "FTTB",
    "upgrade": "NULL_NA",
    "gnaf_pid": "GASA_422047025",
    "ee": true
   }
  },
  {
   "type": "Feature",
   "geometry": {
    "type": "Point",
    "coordinates": [
     138.51792131,
     -34.94842851
    ]
   },
   "properties": {
    "name": "SHOP 10, 727 TAPLEYS HILL ROAD ADELAIDE AIRPORT 5950",
    "locID": "LOC000072858333",
    "tech": "FTTB",
    "upgrade": "NULL_NA",
    "gnaf_pid": "GASA_422047026",
    "ee": true
   }
  },
  {
   "type": "Feature",
   "geometry": {
    "type": "Point",
    "coordinates": [
     138.51792131,
     -34.94842851
    ]
   },
   "properties": {
    "name": "SHOP 11, 727 TAPLEYS HILL ROAD ADELAIDE AIRPORT 5950",
    "locID": "LOC000183428159",
    "tech": "FTTB",
    "upgrade": "NULL_NA",
    "gnaf_pid": "GASA_422047027",
    "ee": true
   }
  },
  {
   "type": "Feature",
   "geometry": {
    "type": "Point",
    "coordinates": [
     138.51792131,
     -34.94842851
    ]
   },
   "properties": {
    "name": "SHOP 12, 727 TAPLEYS HILL ROAD ADELAIDE AIRPORT 5950",
    "locID": "LOC000178027374",
    "tech": "FTTB",
    "upgrade": "NULL_NA",
    "gnaf_pid": "GASA_422047028",
    "ee": true
   }
  },
  {
   "type": "Feature",
   "geometry": {
    "type": "Point",
    "coordinates": [
     138.51792131,
     -34.94842851
    ]
   },
   "properties": {
    "name": "SHOP 13, 727 TAPLEYS HILL ROAD ADELAIDE AIRPORT 5950",
    "locID": "LOC000183428159",
    "tech": "FTTB",
    "upgrade": "NULL_NA",
    "gnaf_pid": "GASA_422047029",
    "ee": true
   }
  },
  {
   "type": "Feature",
   "geometry": {
    "type": "Point",
    "coordinates": [
     138.51792131,
     -34.94842851
    ]
   },
   "properties": {
    "name": "SHOP 14, 727 TAPLEYS HILL ROAD ADELAIDE AIRPORT 5950",
    "locID": "LOC000178266630",
    "tech": "FTTB",
    "upgrade": "NULL_NA",
    "gnaf_pid": "GASA_422047030",
    "ee": true
   }
  },
  {
   "type": "Feature",
   "geometry": {
    "type": "Point",
    "coordinates": [
     138.51792131,
     -34.94842851
    ]
   },
   "properties": {
    "name": "SHOP 15, 727 TAPLEYS HILL ROAD ADELAIDE AIRPORT 5950",
    "locID": "LOC000183428159",
    "tech": "FTTB",
    "upgrade": "NULL_NA",
    "gnaf_pid": "GASA_422047031",
    "ee": true
   }
  },
  {
   "type": "Feature",
   "geometry": {
    "type": "Point",
    "coordinates": [
     138.51792131,
     -34.94842851
    ]
   },
   "properties": {
    "name": "SHOP 16, 727 TAPLEYS HILL ROAD ADELAIDE AIRPORT 5950",
    "locID": "LOC000183428159",
    "tech": "FTTB",
    "upgrade": "NULL_NA",
    "gnaf_pid": "GASA_422047032",
    "ee": true
   }
  },
  {
   "type": "Feature",
   "geometry": {
    "type": "Point",
    "coordinates": [
     138.51792131,
     -34.94842851
    ]
   },
   "properties": {
    "name": "SHOP 17, 727 TAPLEYS HILL ROAD ADELAIDE AIRPORT 5950",
    "locID": "LOC000183428159",
    "tech": "FTTB",
    "upgrade": "NULL_NA",
    "gnaf_pid": "GASA_422047033",
    "ee": true
   }
  },
  {
   "type": "Feature",
   "geometry": {
    "type": "Point",
    "coordinates": [
     138.51792131,
     -34.94842851
    ]
   },
   "properties": {
    "name": "727 TAPLEYS HILL ROAD ADELAIDE AIRPORT 5950",
    "locID": "LOC000183428159",
    "tech": "FTTB",
    "upgrade": "NULL_NA",
    "gnaf_pid": "GASA_422047087",
    "ee": true
   }
  },
  {
   "type": "Feature",
   "geometry": {
    "type": "Point",
    "coordinates": [
     138.51792131,
     -34.94842851
    ]
   },
   "properties": {
    "name": "SHOP 1, 727 TAPLEYS HILL ROAD ADELAIDE AIRPORT 5950",
    "locID": "LOC000072858333",
    "tech": "FTTB",
    "upgrade": "NULL_NA",
    "gnaf_pid": "GASA_422047088",
    "ee": true
   }
  },
  {
   "type": "Feature",
   "geometry": {
    "type": "Point",
    "coordinates": [
     138.51792131,
     -34.94842851
    ]
   },
   "properties": {
    "name": "KIOSK 2, 727 TAPLEYS HILL ROAD ADELAIDE AIRPORT 5950",
    "locID": "LOC000183428159",
    "tech": "FTTB",
    "upgrade": "NULL_NA",
    "gnaf_pid": "GASA_422047089",
    "ee": true
   }
  },
  {
   "type": "Feature",
   "geometry": {
    "type": "Point",
    "coordinates": [
     138.51792131,
     -34.94842851
    ]
   },
   "properties": {
    "name": "SHOP 4, 727 TAPLEYS HILL ROAD ADELAIDE AIRPORT 5950",
    "locID": "LOC000183428159",
    "tech": "FTTB",
    "upgrade": "NULL_NA",
    "gnaf_pid": "GASA_422047090",
    "ee": true
   }
  },
  {
   "type": "Feature",
   "geometry": {
    "type": "Point",
    "coordinates": [
     138.51792131,
     -34.94842851
    ]
   },
   "properties": {
    "name": "KIOSK 5, 727 TAPLEYS HILL ROAD ADELAIDE AIRPORT 5950",
    "locID": "LOC000183428159",
    "tech": "FTTB",
    "upgrade": "NULL_NA",
    "gnaf_pid": "GASA_422047091",
    "ee": true
   }
  },
  {
   "type": "Feature",
   "geometry": {
    "type": "Point",
    "coordinates": [
     138.51792131,
     -34.94842851
    ]
   },
   "properties": {
    "name": "KIOSK 6, 727 TAPLEYS HILL ROAD ADELAIDE AIRPORT 5950",
    "locID": "LOC000183428159",
    "tech": "FTTB",
    "upgrade": "NULL_NA",
    "gnaf_pid": "GASA_422047092",
    "ee": true
   }
  },
  {
   "type": "Feature",
   "geometry": {
    "type": "Point",
    "coordinates": [
     138.51792131,
     -34.94842851
    ]
   },
   "properties": {
    "name": "SHOP 7, 727 TAPLEYS HILL ROAD ADELAIDE AIRPORT 5950",
    "locID": "LOC000072522102",
    "tech": "FTTB",
    "upgrade": "NULL_NA",
    "gnaf_pid": "GASA_422047093",
    "ee": true
   }
  },
  {
   "type": "Feature",
   "geometry": {
    "type": "Point",
    "coordinates": [
     138.53520267,
     -34.93528381
    ]
   },
   "properties": {
    "name": "16 JAMES SCHOFIELD DRIVE ADELAIDE AIRPORT 5950",
    "locID": "LOC000066037676",
    "tech": "FTTN",
    "upgrade": "NULL_NA",
    "gnaf_pid": "GASA_422047439",
    "ee": true,
    "tech_change_status": "Not Planned"
   }
  },
  {
   "type": "Feature",
   "geometry": {
    "type": "Point",
    "coordinates": [
     138.54253528,
     -34.93408964
    ]
   },
   "properties": {
    "name": "3A CORBETT COURT ADELAIDE AIRPORT 5950",
    "locID": "LOC000025399871",
    "tech": "FTTN",
    "upgrade": "NULL_NA",
    "gnaf_pid": "GASA_422047846",
    "ee": true,
    "tech_change_status": "Not Planned"
   }
  },
  {
   "type": "Feature",
   "geometry": {
    "type": "Point",
    "coordinates": [
     138.54217492,
     -34.93442791
    ]
   },
   "properties": {
    "name": "2 HAMRA DRIVE ADELAIDE AIRPORT 5950",
    "locID": "LOC000072858314",
    "tech": "FTTN",
    "upgrade": "NULL_NA",
    "gnaf_pid": "GASA_422051638",
    "ee": true,
    "tech_change_status": "Not Planned"
   }
  },
  {
   "type": "Feature",
   "geometry": {
    "type": "Point",
    "coordinates": [
     138.54217492,
     -34.93442791
    ]
   },
   "properties": {
    "name": "6 HAMRA DRIVE ADELAIDE AIRPORT 5950",
    "locID": "LOC000013396000",
    "tech": "FTTN",
    "upgrade": "NULL_NA",
    "gnaf_pid": "GASA_422051639",
    "ee": true,
    "tech_change_status": "Not Planned"
   }
  },
  {
   "type": "Feature",
   "geometry": {
    "type": "Point",
    "coordinates": [
     138.54217492,
     -34.93442791
    ]
   },
   "properties": {
    "name": "8 HAMRA DRIVE ADELAIDE AIRPORT 5950",
    "locID": "LOC000048756903",
    "tech": "FTTN",
    "upgrade": "NULL_NA",
    "gnaf_pid": "GASA_422051640",
    "ee": true,
    "tech_change_status": "Not Planned"
   }
  },
  {
   "type": "Feature",
   "geometry": {
    "type": "Point",
    "coordinates": [
     138.54153756,
     -34.93523107
    ]
   },
   "properties": {
    "name": "2 GRAHAM STREET ADELAIDE AIRPORT 5950",
    "locID": "LOC000180278369",
    "tech": "FTTN",
    "upgrade": "NULL_NA",
    "gnaf_pid": "GASA_423119955",
    "ee": true,
    "tech_change_status": "Not Planned"
   }
  },
  {
   "type": "Feature",
   "geometry": {
    "type": "Point",
    "coordinates": [
     138.53520267,
     -34.93528381
    ]
   },
   "properties": {
    "name": "1 JAMES SCHOFIELD DRIVE ADELAIDE AIRPORT 5950",
    "locID": "LOC000053965252",
    "tech": "FTTB",
    "upgrade": "NULL_NA",
    "gnaf_pid": "GASA_423618425",
    "ee": true
   }
  },
  {
   "type": "Feature",
   "geometry": {
    "type": "Point",
    "coordinates": [
     138.51792131,
     -34.94842851
    ]
   },
   "properties": {
    "name": "SHOP 31A, 727 TAPLEYS HILL ROAD ADELAIDE AIRPORT 5950",
    "locID": "LOC000183428159",
    "tech": "FTTB",
    "upgrade": "NULL_NA",
    "gnaf_pid": "GASA_423697815",
    "ee": true
   }
  },
  {
   "type": "Feature",
   "geometry": {
    "type": "Point",
    "coordinates": [
     138.51792131,
     -34.94842851
    ]
   },
   "properties": {
    "name": "SHOP 47A, 727 TAPLEYS HILL ROAD ADELAIDE AIRPORT 5950",
    "locID": "LOC000183428159",
    "tech": "FTTB",
    "upgrade": "NULL_NA",
    "gnaf_pid": "GASA_423697816",
    "ee": true
   }
  },
  {
   "type": "Feature",
   "geometry": {
    "type": "Point",
    "coordinates": [
     138.51792131,
     -34.94842851
    ]
   },
   "properties": {
    "name": "SHOP 56A, 727 TAPLEYS HILL ROAD ADELAIDE AIRPORT 5950",
    "locID": "LOC000183428159",
    "tech": "FTTB",
    "upgrade": "NULL_NA",
    "gnaf_pid": "GASA_423697817",
    "ee": true
   }
  },
  {
   "type": "Feature",
   "geometry": {
    "type": "Point",
    "coordinates": [
     138.51792131,
     -34.94842851
    ]
   },
   "properties": {
    "name": "SHOP 5A, 727 TAPLEYS HILL ROAD ADELAIDE AIRPORT 5950",
    "locID": "LOC000183428159",
    "tech": "FTTB",
    "upgrade": "NULL_NA",
    "gnaf_pid": "GASA_423697818",
    "ee": true
   }
  },
  {
   "type": "Feature",
   "geometry": {
    "type": "Point",
    "coordinates": [
     138.51792131,
     -34.94842851
    ]
   },
   "properties": {
    "name": "SHOP 70, 727 TAPLEYS HILL ROAD ADELAIDE AIRPORT 5950",
    "locID": "LOC000183428159",
    "tech": "FTTB",
    "upgrade": "NULL_NA",
    "gnaf_pid": "GASA_423697819",
    "ee": true
   }
  },
  {
   "type": "Feature",
   "geometry": {
    "type": "Point",
    "coordinates": [
     138.51792131,
     -34.94842851
    ]
   },
   "properties": {
    "name": "SHOP 71, 727 TAPLEYS HILL ROAD ADELAIDE AIRPORT 5950",
    "locID": "LOC000183428159",
    "tech": "FTTB",
    "upgrade": "NULL_NA",
    "gnaf_pid": "GASA_423697820",
    "ee": true
   }
  },
  {
   "type": "Feature",
   "geometry": {
    "type": "Point",
    "coordinates": [
     138.51792131,
     -34.94842851
    ]
   },
   "properties": {
    "name": "SHOP 72, 727 TAPLEYS HILL ROAD ADELAIDE AIRPORT 5950",
    "locID": "LOC000190591187",
    "tech": "FTTB",
    "upgrade": "NULL_NA",
    "gnaf_pid": "GASA_423697821",
    "ee": true
   }
  },
  {
   "type": "Feature",
   "geometry": {
    "type": "Point",
    "coordinates": [
     138.51792131,
     -34.94842851
    ]
   },
   "properties": {
    "name": "SHOP 73, 727 TAPLEYS HILL ROAD ADELAIDE AIRPORT 5950",
    "locID": "LOC000183428159",
    "tech": "FTTB",
    "upgrade": "NULL_NA",
    "gnaf_pid": "GASA_423697822",
    "ee": true
   }
  },
  {
   "type": "Feature",
   "geometry": {
    "type": "Point",
    "coordinates": [
     138.51792131,
     -34.94842851
    ]
   },
   "properties": {
    "name": "SHOP 74, 727 TAPLEYS HILL ROAD ADELAIDE AIRPORT 5950",
    "locID": "LOC000183428159",
    "tech": "FTTB",
    "upgrade": "NULL_NA",
    "gnaf_pid": "GASA_423697823",
    "ee": true
   }
  },
  {
   "type": "Feature",
   "geometry": {
    "type": "Point",
    "coordinates": [
     138.51792131,
     -34.94842851
    ]
   },
   "properties": {
    "name": "SHOP 75, 727 TAPLEYS HILL ROAD ADELAIDE AIRPORT 5950",
    "locID": "LOC000183428159",
    "tech": "FTTB",
    "upgrade": "NULL_NA",
    "gnaf_pid": "GASA_423697824",
    "ee": true
   }
  },
  {
   "type": "Feature",
   "geometry": {
    "type": "Point",
    "coordinates": [
     138.51792131,
     -34.94842851
    ]
   },
   "properties": {
    "name": "SHOP 76, 727 TAPLEYS HILL ROAD ADELAIDE AIRPORT 5950",
    "locID": "LOC000183428159",
    "tech": "FTTB",
    "upgrade": "NULL_NA",
    "gnaf_pid": "GASA_423697825",
    "ee": true
   }
  },
  {
   "type": "Feature",
   "geometry": {
    "type": "Point",
    "coordinates": [
     138.51792131,
     -34.94842851
    ]
   },
   "properties": {
    "name": "SHOP 77, 727 TAPLEYS HILL ROAD ADELAIDE AIRPORT 5950",
    "locID": "LOC000183428159",
    "tech": "FTTB",
    "upgrade": "NULL_NA",
    "gnaf_pid": "GASA_423697826",
    "ee": true
   }
  },
  {
   "type": "Feature",
   "geometry": {
    "type": "Point",
    "coordinates": [
     138.51792131,
     -34.94842851
    ]
   },
   "properties": {
    "name": "SHOP 78, 727 TAPLEYS HILL ROAD ADELAIDE AIRPORT 5950",
    "locID": "LOC000183428159",
    "tech": "FTTB",
    "upgrade": "NULL_NA",
    "gnaf_pid": "GASA_423697827",
    "ee": true
   }
  },
  {
   "type": "Feature",
   "geometry": {
    "type": "Point",
    "coordinates": [
     138.51792131,
     -34.94842851
    ]
   },
   "properties": {
    "name": "SHOP 79, 727 TAPLEYS HILL ROAD ADELAIDE AIRPORT 5950",
    "locID": "LOC000183428159",
    "tech": "FTTB",
    "upgrade": "NULL_NA",
    "gnaf_pid": "GASA_423697828",
    "ee": true
   }
  },
  {
   "type": "Feature",
   "geometry": {
    "type": "Point",
    "coordinates": [
     138.51792131,
     -34.94842851
    ]
   },
   "properties": {
    "name": "SHOP 80, 727 TAPLEYS HILL ROAD ADELAIDE AIRPORT 5950",
    "locID": "LOC000183428159",
    "tech": "FTTB",
    "upgrade": "NULL_NA",
    "gnaf_pid": "GASA_423697829",
    "ee": true
   }
  },
  {
   "type": "Feature",
   "geometry": {
    "type": "Point",
    "coordinates": [
     138.51792131,
     -34.94842851
    ]
   },
   "properties": {
    "name": "SHOP 80A, 727 TAPLEYS HILL ROAD ADELAIDE AIRPORT 5950",
    "locID": "LOC000183428159",
    "tech": "FTTB",
    "upgrade": "NULL_NA",
    "gnaf_pid": "GASA_423697830",
    "ee": true
   }
  },
  {
   "type": "Feature",
   "geometry": {
    "type": "Point",
    "coordinates": [
     138.51792131,
     -34.94842851
    ]
   },
   "properties": {
    "name": "SHOP 81, 727 TAPLEYS HILL ROAD ADELAIDE AIRPORT 5950",
    "locID": "LOC000183428159",
    "tech": "FTTB",
    "upgrade": "NULL_NA",
    "gnaf_pid": "GASA_423697831",
    "ee": true
   }
  },
  {
   "type": "Feature",
   "geometry": {
    "type": "Point",
    "coordinates": [
     138.51792131,
     -34.94842851
    ]
   },
   "properties": {
    "name": "SHOP 82, 727 TAPLEYS HILL ROAD ADELAIDE AIRPORT 5950",
    "locID": "LOC000183428159",
    "tech": "FTTB",
    "upgrade": "NULL_NA",
    "gnaf_pid": "GASA_423697832",
    "ee": true
   }
  },
  {
   "type": "Feature",
   "geometry": {
    "type": "Point",
    "coordinates": [
     138.51792131,
     -34.94842851
    ]
   },
   "properties": {
    "name": "SHOP 83, 727 TAPLEYS HILL ROAD ADELAIDE AIRPORT 5950",
    "locID": "LOC000183428159",
    "tech": "FTTB",
    "upgrade": "NULL_NA",
    "gnaf_pid": "GASA_423697833",
    "ee": true
   }
  },
  {
   "type": "Feature",
   "geometry": {
    "type": "Point",
    "coordinates": [
     138.51792131,
     -34.94842851
    ]
   },
   "properties": {
    "name": "SHOP 84, 727 TAPLEYS HILL ROAD ADELAIDE AIRPORT 5950",
    "locID": "LOC000183428159",
    "tech": "FTTB",
    "upgrade": "NULL_NA",
    "gnaf_pid": "GASA_423697834",
    "ee": true
   }
  },
  {
   "type": "Feature",
   "geometry": {
    "type": "Point",
    "coordinates": [
     138.51792131,
     -34.94842851
    ]
   },
   "properties": {
    "name": "SHOP 85, 727 TAPLEYS HILL ROAD ADELAIDE AIRPORT 5950",
    "locID": "LOC000183428159",
    "tech": "FTTB",
    "upgrade": "NULL_NA",
    "gnaf_pid": "GASA_423697835",
    "ee": true
   }
  },
  {
   "type": "Feature",
   "geometry": {
    "type": "Point",
    "coordinates": [
     138.51792131,
     -34.94842851
    ]
   },
   "properties": {
    "name": "SHOP 86, 727 TAPLEYS HILL ROAD ADELAIDE AIRPORT 5950",
    "locID": "LOC000183428159",
    "tech": "FTTB",
    "upgrade": "NULL_NA",
    "gnaf_pid": "GASA_423697836",
    "ee": true
   }
  },
  {
   "type": "Feature",
   "geometry": {
    "type": "Point",
    "coordinates": [
     138.51792131,
     -34.94842851
    ]
   },
   "properties": {
    "name": "SHOP 87, 727 TAPLEYS HILL ROAD ADELAIDE AIRPORT 5950",
    "locID": "LOC000183428159",
    "tech": "FTTB",
    "upgrade": "NULL_NA",
    "gnaf_pid": "GASA_423697837",
    "ee": true
   }
  },
  {
   "type": "Feature",
   "geometry": {
    "type": "Point",
    "coordinates": [
     138.51792131,
     -34.94842851
    ]
   },
   "properties": {
    "name": "SHOP 88, 727 TAPLEYS HILL ROAD ADELAIDE AIRPORT 5950",
    "locID": "LOC000183428159",
    "tech": "FTTB",
    "upgrade": "NULL_NA",
    "gnaf_pid": "GASA_423697838",
    "ee": true
   }
  },
  {
   "type": "Feature",
   "geometry": {
    "type": "Point",
    "coordinates": [
     138.51792131,
     -34.94842851
    ]
   },
   "properties": {
    "name": "SHOP 89, 727 TAPLEYS HILL ROAD ADELAIDE AIRPORT 5950",
    "locID": "LOC000183428159",
    "tech": "FTTB",
    "upgrade": "NULL_NA",
    "gnaf_pid": "GASA_423697839",
    "ee": true
   }
  },
  {
   "type": "Feature",
   "geometry": {
    "type": "Point",
    "coordinates": [
     138.51792131,
     -34.94842851
    ]
   },
   "properties": {
    "name": "SHOP 90, 727 TAPLEYS HILL ROAD ADELAIDE AIRPORT 5950",
    "locID": "LOC000183428159",
    "tech": "FTTB",
    "upgrade": "NULL_NA",
    "gnaf_pid": "GASA_423697840",
    "ee": true
   }
  },
  {
   "type": "Feature",
   "geometry": {
    "type": "Point",
    "coordinates": [
     138.51792131,
     -34.94842851
    ]
   },
   "properties": {
    "name": "SHOP 91, 727 TAPLEYS HILL ROAD ADELAIDE AIRPORT 5950",
    "locID": "LOC000183428159",
    "tech": "FTTB",
    "upgrade": "NULL_NA",
    "gnaf_pid": "GASA_423697841",
    "ee": true
   }
  },
  {
   "type": "Feature",
   "geometry": {
    "type": "Point",
    "coordinates": [
     138.51792131,
     -34.94842851
    ]
   },
   "properties": {
    "name": "SHOP 92, 727 TAPLEYS HILL ROAD ADELAIDE AIRPORT 5950",
    "locID": "LOC000183428159",
    "tech": "FTTB",
    "upgrade": "NULL_NA",
    "gnaf_pid": "GASA_423697842",
    "ee": true
   }
  },
  {
   "type": "Feature",
   "geometry": {
    "type": "Point",
    "coordinates": [
     138.51792131,
     -34.94842851
    ]
   },
   "properties": {
    "name": "SHOP 93, 727 TAPLEYS HILL ROAD ADELAIDE AIRPORT 5950",
    "locID": "LOC000183428159",
    "tech": "FTTB",
    "upgrade": "NULL_NA",
    "gnaf_pid": "GASA_423697843",
    "ee": true
   }
  },
  {
   "type": "Feature",
   "geometry": {
    "type": "Point",
    "coordinates": [
     138.51792131,
     -34.94842851
    ]
   },
   "properties": {
    "name": "SHOP 94, 727 TAPLEYS HILL ROAD ADELAIDE AIRPORT 5950",
    "locID": "LOC000183428159",
    "tech": "FTTB",
    "upgrade": "NULL_NA",
    "gnaf_pid": "GASA_423697844",
    "ee": true
   }
  },
  {
   "type": "Feature",
   "geometry": {
    "type": "Point",
    "coordinates": [
     138.51792131,
     -34.94842851
    ]
   },
   "properties": {
    "name": "SHOP 95, 727 TAPLEYS HILL ROAD ADELAIDE AIRPORT 5950",
    "locID": "LOC000183428159",
    "tech": "FTTB",
    "upgrade": "NULL_NA",
    "gnaf_pid": "GASA_423697845",
    "ee": true
   }
  },
  {
   "type": "Feature",
   "geometry": {
    "type": "Point",
    "coordinates": [
     138.51792131,
     -34.94842851
    ]
   },
   "properties": {
    "name": "SHOP 96, 727 TAPLEYS HILL ROAD ADELAIDE AIRPORT 5950",
    "locID": "LOC000183428159",
    "tech": "FTTB",
    "upgrade": "NULL_NA",
    "gnaf_pid": "GASA_423697846",
    "ee": true
   }
  },
  {
   "type": "Feature",
   "geometry": {
    "type": "Point",
    "coordinates": [
     138.51792131,
     -34.94842851
    ]
   },
   "properties": {
    "name": "SHOP 36A, 727 TAPLEYS HILL ROAD ADELAIDE AIRPORT 5950",
    "locID": "LOC000183428159",
    "tech": "FTTB",
    "upgrade": "NULL_NA",
    "gnaf_pid": "GASA_423785586",
    "ee": true
   }
  },
  {
   "type": "Feature",
   "geometry": {
    "type": "Point",
    "coordinates": [
     138.51792131,
     -34.94842851
    ]
   },
   "properties": {
    "name": "SHOP 36B, 727 TAPLEYS HILL ROAD ADELAIDE AIRPORT 5950",
    "locID": "LOC000183428159",
    "tech": "FTTB",
    "upgrade": "NULL_NA",
    "gnaf_pid": "GASA_423785587",
    "ee": true
   }
  },
  {
   "type": "Feature",
   "geometry": {
    "type": "Point",
    "coordinates": [
     138.51792131,
     -34.94842851
    ]
   },
   "properties": {
    "name": "SHOP 36C, 727 TAPLEYS HILL ROAD ADELAIDE AIRPORT 5950",
    "locID": "LOC000183428159",
    "tech": "FTTB",
    "upgrade": "NULL_NA",
    "gnaf_pid": "GASA_423785588",
    "ee": true
   }
  },
  {
   "type": "Feature",
   "geometry": {
    "type": "Point",
    "coordinates": [
     138.51792131,
     -34.94842851
    ]
   },
   "properties": {
    "name": "SHOP 101, 727 TAPLEYS HILL ROAD ADELAIDE AIRPORT 5950",
    "locID": "LOC000183428159",
    "tech": "FTTB",
    "upgrade": "NULL_NA",
    "gnaf_pid": "GASA_423870834",
    "ee": true
   }
  },
  {
   "type": "Feature",
   "geometry": {
    "type": "Point",
    "coordinates": [
     138.51792131,
     -34.94842851
    ]
   },
   "properties": {
    "name": "SHOP 102, 727 TAPLEYS HILL ROAD ADELAIDE AIRPORT 5950",
    "locID": "LOC000183428159",
    "tech": "FTTB",
    "upgrade": "NULL_NA",
    "gnaf_pid": "GASA_423870835",
    "ee": true
   }
  },
  {
   "type": "Feature",
   "geometry": {
    "type": "Point",
    "coordinates": [
     138.542681,
     -34.93508887
    ]
   },
   "properties": {
    "name": "15 LUM STREET ADELAIDE AIRPORT 5950",
    "locID": "LOC000104647057",
    "tech": "FTTN",
    "upgrade": "NULL_NA",
    "gnaf_pid": "GASA_424019032",
    "ee": true,
    "tech_change_status": "Not Planned"
   }
  },
  {
   "type": "Feature",
   "geometry": {
    "type": "Point",
    "coordinates": [
     138.53129462,
     -34.93415507
    ]
   },
   "properties": {
    "name": "5 SIR HUBERT WILKINS ROAD ADELAIDE AIRPORT 5950",
    "locID": "LOC000001871640",
    "tech": "FTTN",
    "upgrade": "NULL_NA",
    "gnaf_pid": "GASA_424019524",
    "ee": true,
    "tech_change_status": "Not Planned"
   }
  },
  {
   "type": "Feature",
   "geometry": {
    "type": "Point",
    "coordinates": [
     138.54153756,
     -34.93523107
    ]
   },
   "properties": {
    "name": "3 GRAHAM STREET ADELAIDE AIRPORT 5950",
    "locID": "LOC000039448982",
    "tech": "FTTN",
    "upgrade": "NULL_NA",
    "gnaf_pid": "GASA_424346307",
    "ee": true,
    "tech_change_status": "Not Planned"
   }
  },
  {
   "type": "Feature",
   "geometry": {
    "type": "Point",
    "coordinates": [
     138.54459257,
     -34.94814475
    ]
   },
   "properties": {
    "name": "LOT 50 JAMES MELROSE ROAD ADELAIDE AIRPORT 5950",
    "locID": "LOC000064927398",
    "tech": "HFC",
    "upgrade": "NULL_NA",
    "gnaf_pid": "GASA_424391811",
    "ee": true
   }
  },
  {
   "type": "Feature",
   "geometry": {
    "type": "Point",
    "coordinates": [
     138.51956558,
     -34.94675151
    ]
   },
   "properties": {
    "name": "LOT 50 SIR DONALD BRADMAN DRIVE ADELAIDE AIRPORT 5950",
    "locID": "LOC000161941961",
    "tech": "HFC",
    "upgrade": "NULL_NA",
    "gnaf_pid": "GASA_424403996",
    "ee": true
   }
  },
  {
   "type": "Feature",
   "geometry": {
    "type": "Point",
    "coordinates": [
     138.51792131,
     -34.94842851
    ]
   },
   "properties": {
    "name": "SHOP 100, 727 TAPLEYS HILL ROAD ADELAIDE AIRPORT 5950",
    "locID": "LOC000183428159",
    "tech": "FTTB",
    "upgrade": "NULL_NA",
    "gnaf_pid": "GASA_424440402",
    "ee": true
   }
  },
  {
   "type": "Feature",
   "geometry": {
    "type": "Point",
    "coordinates": [
     138.51792131,
     -34.94842851
    ]
   },
   "properties": {
    "name": "SHOP 103, 727 TAPLEYS HILL ROAD ADELAIDE AIRPORT 5950",
    "locID": "LOC000183428159",
    "tech": "FTTB",
    "upgrade": "NULL_NA",
    "gnaf_pid": "GASA_424440403",
    "ee": true
   }
  },
  {
   "type": "Feature",
   "geometry": {
    "type": "Point",
    "coordinates": [
     138.51792131,
     -34.94842851
    ]
   },
   "properties": {
    "name": "SHOP 104, 727 TAPLEYS HILL ROAD ADELAIDE AIRPORT 5950",
    "locID": "LOC000183428159",
    "tech": "FTTB",
    "upgrade": "NULL_NA",
    "gnaf_pid": "GASA_424440404",
    "ee": true
   }
  },
  {
   "type": "Feature",
   "geometry": {
    "type": "Point",
    "coordinates": [
     138.51792131,
     -34.94842851
    ]
   },
   "properties": {
    "name": "SHOP 105, 727 TAPLEYS HILL ROAD ADELAIDE AIRPORT 5950",
    "locID": "LOC000183428159",
    "tech": "FTTB",
    "upgrade": "NULL_NA",
    "gnaf_pid": "GASA_424440405",
    "ee": true
   }
  },
  {
   "type": "Feature",
   "geometry": {
    "type": "Point",
    "coordinates": [
     138.51792131,
     -34.94842851
    ]
   },
   "properties": {
    "name": "SHOP 106, 727 TAPLEYS HILL ROAD ADELAIDE AIRPORT 5950",
    "locID": "LOC000183428159",
    "tech": "FTTB",
    "upgrade": "NULL_NA",
    "gnaf_pid": "GASA_424440406",
    "ee": true
   }
  },
  {
   "type": "Feature",
   "geometry": {
    "type": "Point",
    "coordinates": [
     138.51792131,
     -34.94842851
    ]
   },
   "properties": {
    "name": "SHOP 106A, 727 TAPLEYS HILL ROAD ADELAIDE AIRPORT 5950",
    "locID": "LOC000183428159",
    "tech": "FTTB",
    "upgrade": "NULL_NA",
    "gnaf_pid": "GASA_424440407",
    "ee": true
   }
  },
  {
   "type": "Feature",
   "geometry": {
    "type": "Point",
    "coordinates": [
     138.51792131,
     -34.94842851
    ]
   },
   "properties": {
    "name": "SHOP 107, 727 TAPLEYS HILL ROAD ADELAIDE AIRPORT 5950",
    "locID": "LOC000183428159",
    "tech": "FTTB",
    "upgrade": "NULL_NA",
    "gnaf_pid": "GASA_424440408",
    "ee": true
   }
  },
  {
   "type": "Feature",
   "geometry": {
    "type": "Point",
    "coordinates": [
     138.51792131,
     -34.94842851
    ]
   },
   "properties": {
    "name": "SHOP 108, 727 TAPLEYS HILL ROAD ADELAIDE AIRPORT 5950",
    "locID": "LOC000183428159",
    "tech": "FTTB",
    "upgrade": "NULL_NA",
    "gnaf_pid": "GASA_424440409",
    "ee": true
   }
  },
  {
   "type": "Feature",
   "geometry": {
    "type": "Point",
    "coordinates": [
     138.51792131,
     -34.94842851
    ]
   },
   "properties": {
    "name": "SHOP 109, 727 TAPLEYS HILL ROAD ADELAIDE AIRPORT 5950",
    "locID": "LOC000183428159",
    "tech": "FTTB",
    "upgrade": "NULL_NA",
    "gnaf_pid": "GASA_424440410",
    "ee": true
   }
  },
  {
   "type": "Feature",
   "geometry": {
    "type": "Point",
    "coordinates": [
     138.51792131,
     -34.94842851
    ]
   },
   "properties": {
    "name": "SHOP 110, 727 TAPLEYS HILL ROAD ADELAIDE AIRPORT 5950",
    "locID": "LOC000183428159",
    "tech": "FTTB",
    "upgrade": "NULL_NA",
    "gnaf_pid": "GASA_424440411",
    "ee": true
   }
  },
  {
   "type": "Feature",
   "geometry": {
    "type": "Point",
    "coordinates": [
     138.51792131,
     -34.94842851
    ]
   },
   "properties": {
    "name": "SHOP 111, 727 TAPLEYS HILL ROAD ADELAIDE AIRPORT 5950",
    "locID": "LOC000183428159",
    "tech": "FTTB",
    "upgrade": "NULL_NA",
    "gnaf_pid": "GASA_424440412",
    "ee": true
   }
  },
  {
   "type": "Feature",
   "geometry": {
    "type": "Point",
    "coordinates": [
     138.51792131,
     -34.94842851
    ]
   },
   "properties": {
    "name": "SHOP 112, 727 TAPLEYS HILL ROAD ADELAIDE AIRPORT 5950",
    "locID": "LOC000183428159",
    "tech": "FTTB",
    "upgrade": "NULL_NA",
    "gnaf_pid": "GASA_424440413",
    "ee": true
   }
  },
  {
   "type": "Feature",
   "geometry": {
    "type": "Point",
    "coordinates": [
     138.51792131,
     -34.94842851
    ]
   },
   "properties": {
    "name": "SHOP 113, 727 TAPLEYS HILL ROAD ADELAIDE AIRPORT 5950",
    "locID": "LOC000183428159",
    "tech": "FTTB",
    "upgrade": "NULL_NA",
    "gnaf_pid": "GASA_424440414",
    "ee": true
   }
  },
  {
   "type": "Feature",
   "geometry": {
    "type": "Point",
    "coordinates": [
     138.51792131,
     -34.94842851
    ]
   },
   "properties": {
    "name": "SHOP 114, 727 TAPLEYS HILL ROAD ADELAIDE AIRPORT 5950",
    "locID": "LOC000183428159",
    "tech": "FTTB",
    "upgrade": "NULL_NA",
    "gnaf_pid": "GASA_424440415",
    "ee": true
   }
  },
  {
   "type": "Feature",
   "geometry": {
    "type": "Point",
    "coordinates": [
     138.51792131,
     -34.94842851
    ]
   },
   "properties": {
    "name": "SHOP 115, 727 TAPLEYS HILL ROAD ADELAIDE AIRPORT 5950",
    "locID": "LOC000183428159",
    "tech": "FTTB",
    "upgrade": "NULL_NA",
    "gnaf_pid": "GASA_424440416",
    "ee": true
   }
  },
  {
   "type": "Feature",
   "geometry": {
    "type": "Point",
    "coordinates": [
     138.51792131,
     -34.94842851
    ]
   },
   "properties": {
    "name": "SHOP 116, 727 TAPLEYS HILL ROAD ADELAIDE AIRPORT 5950",
    "locID": "LOC000183428159",
    "tech": "FTTB",
    "upgrade": "NULL_NA",
    "gnaf_pid": "GASA_424440417",
    "ee": true
   }
  },
  {
   "type": "Feature",
   "geometry": {
    "type": "Point",
    "coordinates": [
     138.51792131,
     -34.94842851
    ]
   },
   "properties": {
    "name": "SHOP 117, 727 TAPLEYS HILL ROAD ADELAIDE AIRPORT 5950",
    "locID": "LOC000183428159",
    "tech": "FTTB",
    "upgrade": "NULL_NA",
    "gnaf_pid": "GASA_424440418",
    "ee": true
   }
  },
  {
   "type": "Feature",
   "geometry": {
    "type": "Point",
    "coordinates": [
     138.51792131,
     -34.94842851
    ]
   },
   "properties": {
    "name": "SHOP 118, 727 TAPLEYS HILL ROAD ADELAIDE AIRPORT 5950",
    "locID": "LOC000183428159",
    "tech": "FTTB",
    "upgrade": "NULL_NA",
    "gnaf_pid": "GASA_424440419",
    "ee": true
   }
  },
  {
   "type": "Feature",
   "geometry": {
    "type": "Point",
    "coordinates": [
     138.51792131,
     -34.94842851
    ]
   },
   "properties": {
    "name": "SHOP 119, 727 TAPLEYS HILL ROAD ADELAIDE AIRPORT 5950",
    "locID": "LOC000183428159",
    "tech": "FTTB",
    "upgrade": "NULL_NA",
    "gnaf_pid": "GASA_424440420",
    "ee": true
   }
  },
  {
   "type": "Feature",
   "geometry": {
    "type": "Point",
    "coordinates": [
     138.51792131,
     -34.94842851
    ]
   },
   "properties": {
    "name": "SHOP 120, 727 TAPLEYS HILL ROAD ADELAIDE AIRPORT 5950",
    "locID": "LOC000183428159",
    "tech": "FTTB",
    "upgrade": "NULL_NA",
    "gnaf_pid": "GASA_424440421",
    "ee": true
   }
  },
  {
   "type": "Feature",
   "geometry": {
    "type": "Point",
    "coordinates": [
     138.51792131,
     -34.94842851
    ]
   },
   "properties": {
    "name": "SHOP 121, 727 TAPLEYS HILL ROAD ADELAIDE AIRPORT 5950",
    "locID": "LOC000183428159",
    "tech": "FTTB",
    "upgrade": "NULL_NA",
    "gnaf_pid": "GASA_424440422",
    "ee": true
   }
  },
  {
   "type": "Feature",
   "geometry": {
    "type": "Point",
    "coordinates": [
     138.51792131,
     -34.94842851
    ]
   },
   "properties": {
    "name": "SHOP 122, 727 TAPLEYS HILL ROAD ADELAIDE AIRPORT 5950",
    "locID": "LOC000183428159",
    "tech": "FTTB",
    "upgrade": "NULL_NA",
    "gnaf_pid": "GASA_424440423",
    "ee": true
   }
  },
  {
   "type": "Feature",
   "geometry": {
    "type": "Point",
    "coordinates": [
     138.51792131,
     -34.94842851
    ]
   },
   "properties": {
    "name": "SHOP 123, 727 TAPLEYS HILL ROAD ADELAIDE AIRPORT 5950",
    "locID": "LOC000183428159",
    "tech": "FTTB",
    "upgrade": "NULL_NA",
    "gnaf_pid": "GASA_424440424",
    "ee": true
   }
  },
  {
   "type": "Feature",
   "geometry": {
    "type": "Point",
    "coordinates": [
     138.51792131,
     -34.94842851
    ]
   },
   "properties": {
    "name": "SHOP 124, 727 TAPLEYS HILL ROAD ADELAIDE AIRPORT 5950",
    "locID": "LOC000183428159",
    "tech": "FTTB",
    "upgrade": "NULL_NA",
    "gnaf_pid": "GASA_424440425",
    "ee": true
   }
  },
  {
   "type": "Feature",
   "geometry": {
    "type": "Point",
    "coordinates": [
     138.51792131,
     -34.94842851
    ]
   },
   "properties": {
    "name": "SHOP 125, 727 TAPLEYS HILL ROAD ADELAIDE AIRPORT 5950",
    "locID": "LOC000183428159",
    "tech": "FTTB",
    "upgrade": "NULL_NA",
    "gnaf_pid": "GASA_424440426",
    "ee": true
   }
  },
  {
   "type": "Feature",
   "geometry": {
    "type": "Point",
    "coordinates": [
     138.51792131,
     -34.94842851
    ]
   },
   "properties": {
    "name": "SHOP 21B, 727 TAPLEYS HILL ROAD ADELAIDE AIRPORT 5950",
    "locID": "LOC000183428159",
    "tech": "FTTB",
    "upgrade": "NULL_NA",
    "gnaf_pid": "GASA_424440428",
    "ee": true
   }
  },
  {
   "type": "Feature",
   "geometry": {
    "type": "Point",
    "coordinates": [
     138.51792131,
     -34.94842851
    ]
   },
   "properties": {
    "name": "SHOP 97, 727 TAPLEYS HILL ROAD ADELAIDE AIRPORT 5950",
    "locID": "LOC000183428159",
    "tech": "FTTB",
    "upgrade": "NULL_NA",
    "gnaf_pid": "GASA_424440429",
    "ee": true
   }
  },
  {
   "type": "Feature",
   "geometry": {
    "type": "Point",
    "coordinates": [
     138.51792131,
     -34.94842851
    ]
   },
   "properties": {
    "name": "SHOP 98, 727 TAPLEYS HILL ROAD ADELAIDE AIRPORT 5950",
    "locID": "LOC000183428159",
    "tech": "FTTB",
    "upgrade": "NULL_NA",
    "gnaf_pid": "GASA_424440430",
    "ee": true
   }
  },
  {
   "type": "Feature",
   "geometry": {
    "type": "Point",
    "coordinates": [
     138.51792131,
     -34.94842851
    ]
   },
   "properties": {
    "name": "SHOP 98A, 727 TAPLEYS HILL ROAD ADELAIDE AIRPORT 5950",
    "locID": "LOC000183428159",
    "tech": "FTTB",
    "upgrade": "NULL_NA",
    "gnaf_pid": "GASA_424440431",
    "ee": true
   }
  },
  {
   "type": "Feature",
   "geometry": {
    "type": "Point",
    "coordinates": [
     138.51792131,
     -34.94842851
    ]
   },
   "properties": {
    "name": "SHOP 99, 727 TAPLEYS HILL ROAD ADELAIDE AIRPORT 5950",
    "locID": "LOC000183428159",
    "tech": "FTTB",
    "upgrade": "NULL_NA",
    "gnaf_pid": "GASA_424440432",
    "ee": true
   }
  },
  {
   "type": "Feature",
   "geometry": {
    "type": "Point",
    "coordinates": [
     138.53520267,
     -34.93528381
    ]
   },
   "properties": {
    "name": "17 JAMES SCHOFIELD DRIVE ADELAIDE AIRPORT 5950",
    "locID": "LOC000073822712",
    "tech": "FTTN",
    "upgrade": "NULL_NA",
    "gnaf_pid": "GASA_424529523",
    "ee": true,
    "tech_change_status": "Not Planned"
   }
  },
  {
   "type": "Feature",
   "geometry": {
    "type": "Point",
    "coordinates": [
     138.52289994,
     -34.93537942
    ]
   },
   "properties": {
    "name": "10 BUTLER BOULEVARD ADELAIDE AIRPORT 5950",
    "locID": "LOC000044732279",
    "tech": "FTTN",
    "upgrade": "NULL_NA",
    "gnaf_pid": "GASA_424646469",
    "ee": true,
    "tech_change_status": "Not Planned"
   }
  },
  {
   "type": "Feature",
   "geometry": {
    "type": "Point",
    "coordinates": [
     138.52289994,
     -34.93537942
    ]
   },
   "properties": {
    "name": "22 BUTLER BOULEVARD ADELAIDE AIRPORT 5950",
    "locID": "LOC000062428002",
    "tech": "FTTN",
    "upgrade": "NULL_NA",
    "gnaf_pid": "GASA_424646471",
    "ee": true,
    "tech_change_status": "Not Planned"
   }
  },
  {
   "type": "Feature",
   "geometry": {
    "type": "Point",
    "coordinates": [
     138.52289994,
     -34.93537942
    ]
   },
   "properties": {
    "name": "5A BUTLER BOULEVARD ADELAIDE AIRPORT 5950",
    "locID": "LOC000003540989",
    "tech": "FTTN",
    "upgrade": "NULL_NA",
    "gnaf_pid": "GASA_424646473",
    "ee": true,
    "tech_change_status": "Not Planned"
   }
  },
  {
   "type": "Feature",
   "geometry": {
    "type": "Point",
    "coordinates": [
     138.54257082,
     -34.93577526
    ]
   },
   "properties": {
    "name": "1 COMLEY STREET ADELAIDE AIRPORT 5950",
    "locID": "LOC000075236853",
    "tech": "FTTN",
    "upgrade": "NULL_NA",
    "gnaf_pid": "GASA_424646508",
    "ee": true,
    "tech_change_status": "Not Planned"
   }
  },
  {
   "type": "Feature",
   "geometry": {
    "type": "Point",
    "coordinates": [
     138.54257082,
     -34.93577526
    ]
   },
   "properties": {
    "name": "3 COMLEY STREET ADELAIDE AIRPORT 5950",
    "locID": "LOC000026123500",
    "tech": "FTTN",
    "upgrade": "NULL_NA",
    "gnaf_pid": "GASA_424646509",
    "ee": true,
    "tech_change_status": "Not Planned"
   }
  },
  {
   "type": "Feature",
   "geometry": {
    "type": "Point",
    "coordinates": [
     138.54257082,
     -34.93577526
    ]
   },
   "properties": {
    "name": "5 COMLEY STREET ADELAIDE AIRPORT 5950",
    "locID": "LOC000022444112",
    "tech": "FTTN",
    "upgrade": "NULL_NA",
    "gnaf_pid": "GASA_424646510",
    "ee": true,
    "tech_change_status": "Not Planned"
   }
  },
  {
   "type": "Feature",
   "geometry": {
    "type": "Point",
    "coordinates": [
     138.54257082,
     -34.93577526
    ]
   },
   "properties": {
    "name": "7 COMLEY STREET ADELAIDE AIRPORT 5950",
    "locID": "LOC000052111113",
    "tech": "FTTN",
    "upgrade": "NULL_NA",
    "gnaf_pid": "GASA_424646511",
    "ee": true,
    "tech_change_status": "Not Planned"
   }
  },
  {
   "type": "Feature",
   "geometry": {
    "type": "Point",
    "coordinates": [
     138.54253528,
     -34.93408964
    ]
   },
   "properties": {
    "name": "10 CORBETT COURT ADELAIDE AIRPORT 5950",
    "locID": "LOC000088704194",
    "tech": "FTTN",
    "upgrade": "NULL_NA",
    "gnaf_pid": "GASA_424646520",
    "ee": true,
    "tech_change_status": "Not Planned"
   }
  },
  {
   "type": "Feature",
   "geometry": {
    "type": "Point",
    "coordinates": [
     138.542681,
     -34.93508887
    ]
   },
   "properties": {
    "name": "12 LUM STREET ADELAIDE AIRPORT 5950",
    "locID": "LOC000172290984",
    "tech": "FTTN",
    "upgrade": "NULL_NA",
    "gnaf_pid": "GASA_424646975",
    "ee": true,
    "tech_change_status": "Not Planned"
   }
  },
  {
   "type": "Feature",
   "geometry": {
    "type": "Point",
    "coordinates": [
     138.542681,
     -34.93508887
    ]
   },
   "properties": {
    "name": "13 LUM STREET ADELAIDE AIRPORT 5950",
    "locID": "LOC000094514403",
    "tech": "FTTN",
    "upgrade": "NULL_NA",
    "gnaf_pid": "GASA_424646976",
    "ee": true,
    "tech_change_status": "Not Planned"
   }
  },
  {
   "type": "Feature",
   "geometry": {
    "type": "Point",
    "coordinates": [
     138.51792131,
     -34.94842851
    ]
   },
   "properties": {
    "name": "SHOP 21A, 727 TAPLEYS HILL ROAD ADELAIDE AIRPORT 5950",
    "locID": "LOC000183428159",
    "tech": "FTTB",
    "upgrade": "NULL_NA",
    "gnaf_pid": "GASA_424814986",
    "ee": true
   }
  },
  {
   "type": "Feature",
   "geometry": {
    "type": "Point",
    "coordinates": [
     138.52289994,
     -34.93537942
    ]
   },
   "properties": {
    "name": "26 BUTLER BOULEVARD ADELAIDE AIRPORT 5950",
    "locID": "LOC000132021169",
    "tech": "FTTN",
    "upgrade": "NULL_NA",
    "gnaf_pid": "GASA_424923287",
    "ee": true,
    "tech_change_status": "Not Planned"
   }
  },
  {
   "type": "Feature",
   "geometry": {
    "type": "Point",
    "coordinates": [
     138.51736096,
     -34.96096488
    ]
   },
   "properties": {
    "name": "LOT 3 TAPLEYS HILL ROAD ADELAIDE AIRPORT 5950",
    "locID": "LOC000152937095",
    "tech": "FTTC",
    "upgrade": "FTTP_SA",
    "gnaf_pid": "GASA_425395145",
    "ee": true,
    "tech_change_status": "Eligible to Order"
   }
  },
  {
   "type": "Feature",
   "geometry": {
    "type": "Point",
    "coordinates": [
     138.51698181,
     -34.96153257
    ]
   },
   "properties": {
    "name": "LOT 19 TAPLEYS HILL ROAD ADELAIDE AIRPORT 5950",
    "locID": "LOC000152937095",
    "tech": "FTTC",
    "upgrade": "FTTP_SA",
    "gnaf_pid": "GASA_425725121",
    "ee": true,
    "tech_change_status": "Eligible to Order"
   }
  },
  {
   "type": "Feature",
   "geometry": {
    "type": "Point",
    "coordinates": [
     138.53052624,
     -34.93362131
    ]
   },
   "properties": {
    "name": "397 SIR DONALD BRADMAN DRIVE ADELAIDE AIRPORT 5950",
    "locID": "LOC000185089162",
    "tech": "FTTN",
    "upgrade": "NULL_NA",
    "gnaf_pid": "GASA_719783205",
    "ee": true,
    "tech_change_status": "Not Planned"
   }
  },
  {
   "type": "Feature",
   "geometry": {
    "type": "Point",
    "coordinates": [
     138.53520267,
     -34.93528381
    ]
   },
   "properties": {
    "name": "15 JAMES SCHOFIELD DRIVE ADELAIDE AIRPORT 5950",
    "locID": "LOC000188230399",
    "tech": "FTTN",
    "upgrade": "NULL_NA",
    "gnaf_pid": "GASA_719783206",
    "ee": true,
    "tech_change_status": "Not Planned"
   }
  },
  {
   "type": "Feature",
   "geometry": {
    "type": "Point",
    "coordinates": [
     138.529817,
     -34.93529012
    ]
   },
   "properties": {
    "name": "5 NATIONAL DRIVE ADELAIDE AIRPORT 5950",
    "locID": "LOC000172291017",
    "tech": "FTTN",
    "upgrade": "NULL_NA",
    "gnaf_pid": "GASA_719783208",
    "ee": true,
    "tech_change_status": "Not Planned"
   }
  },
  {
   "type": "Feature",
   "geometry": {
    "type": "Point",
    "coordinates": [
     138.51898952,
     -34.96268101
    ]
   },
   "properties": {
    "name": "10 WARREN AVENUE ADELAIDE AIRPORT 5950",
    "locID": "LOC000097158437",
    "tech": "HFC",
    "upgrade": "NULL_NA",
    "gnaf_pid": "GASA_719783209",
    "ee": true
   }
  },
  {
   "type": "Feature",
   "geometry": {
    "type": "Point",
    "coordinates": [
     138.54153756,
     -34.93523107
    ]
   },
   "properties": {
    "name": "UNIT 5, 2 GRAHAM STREET ADELAIDE AIRPORT 5950",
    "locID": "LOC000189262892",
    "tech": "FTTN",
    "upgrade": "NULL_NA",
    "gnaf_pid": "GASA_719783210",
    "ee": true,
    "tech_change_status": "Not Planned"
   }
  },
  {
   "type": "Feature",
   "geometry": {
    "type": "Point",
    "coordinates": [
     138.53520267,
     -34.93528381
    ]
   },
   "properties": {
    "name": "21 JAMES SCHOFIELD DRIVE ADELAIDE AIRPORT 5950",
    "locID": "LOC000172290875",
    "tech": "FTTN",
    "upgrade": "NULL_NA",
    "gnaf_pid": "GASA_719783211",
    "ee": true,
    "tech_change_status": "Not Planned"
   }
  },
  {
   "type": "Feature",
   "geometry": {
    "type": "Point",
    "coordinates": [
     138.53683038,
     -34.93760116
    ]
   },
   "properties": {
    "name": "7 SIR RICHARD WILLIAMS AVENUE ADELAIDE AIRPORT 5950",
    "locID": "LOC000178961199",
    "tech": "FTTB",
    "upgrade": "NULL_NA",
    "gnaf_pid": "GASA_719783212",
    "ee": true
   }
  },
  {
   "type": "Feature",
   "geometry": {
    "type": "Point",
    "coordinates": [
     138.542681,
     -34.93508887
    ]
   },
   "properties": {
    "name": "9-11 LUM STREET ADELAIDE AIRPORT 5950",
    "locID": "LOC000049816576",
    "tech": "FTTN",
    "upgrade": "NULL_NA",
    "gnaf_pid": "GASA_719783213",
    "ee": true,
    "tech_change_status": "Not Planned"
   }
  },
  {
   "type": "Feature",
   "geometry": {
    "type": "Point",
    "coordinates": [
     138.54153756,
     -34.93523107
    ]
   },
   "properties": {
    "name": "UNIT 6, 2 GRAHAM STREET ADELAIDE AIRPORT 5950",
    "locID": "LOC000172290139",
    "tech": "FTTN",
    "upgrade": "NULL_NA",
    "gnaf_pid": "GASA_719783214",
    "ee": true,
    "tech_change_status": "Not Planned"
   }
  },
  {
   "type": "Feature",
   "geometry": {
    "type": "Point",
    "coordinates": [
     138.53129462,
     -34.93415507
    ]
   },
   "properties": {
    "name": "2 SIR HUBERT WILKINS ROAD ADELAIDE AIRPORT 5950",
    "locID": "LOC000172291142",
    "tech": "FTTN",
    "upgrade": "NULL_NA",
    "gnaf_pid": "GASA_719783338",
    "ee": true,
    "tech_change_status": "Not Planned"
   }
  },
  {
   "type": "Feature",
   "geometry": {
    "type": "Point",
    "coordinates": [
     138.53683038,
     -34.93760116
    ]
   },
   "properties": {
    "name": "5 SIR RICHARD WILLIAMS AVENUE ADELAIDE AIRPORT 5950",
    "locID": "LOC000190046637",
    "tech": "FTTN",
    "upgrade": "NULL_NA",
    "gnaf_pid": "GASA_719783339",
    "ee": true,
    "tech_change_status": "Not Planned"
   }
  },
  {
   "type": "Feature",
   "geometry": {
    "type": "Point",
    "coordinates": [
     138.53683038,
     -34.93760116
    ]
   },
   "properties": {
    "name": "1 SIR RICHARD WILLIAMS AVENUE ADELAIDE AIRPORT 5950",
    "locID": "LOC000189002439",
    "tech": "FTTB",
    "upgrade": "NULL_NA",
    "gnaf_pid": "GASA_719783340",
    "ee": true
   }
  },
  {
   "type": "Feature",
   "geometry": {
    "type": "Point",
    "coordinates": [
     138.5466376,
     -34.94331748
    ]
   },
   "properties": {
    "name": "382 RICHMOND ROAD ADELAIDE AIRPORT 5950",
    "locID": "LOC000132024784",
    "tech": "HFC",
    "upgrade": "NULL_NA",
    "gnaf_pid": "GASA_719783341",
    "ee": true
   }
  },
  {
   "type": "Feature",
   "geometry": {
    "type": "Point",
    "coordinates": [
     138.53473283,
     -34.93411394
    ]
   },
   "properties": {
    "name": "7 FRANK COLLOPY COURT ADELAIDE AIRPORT 5950",
    "locID": "LOC000172290085",
    "tech": "FTTN",
    "upgrade": "NULL_NA",
    "gnaf_pid": "GASA_719783342",
    "ee": true,
    "tech_change_status": "Not Planned"
   }
  },
  {
   "type": "Feature",
   "geometry": {
    "type": "Point",
    "coordinates": [
     138.53520267,
     -34.93528381
    ]
   },
   "properties": {
    "name": "25 JAMES SCHOFIELD DRIVE ADELAIDE AIRPORT 5950",
    "locID": "LOC000185089542",
    "tech": "FTTN",
    "upgrade": "NULL_NA",
    "gnaf_pid": "GASA_719783343",
    "ee": true,
    "tech_change_status": "Not Planned"
   }
  },
  {
   "type": "Feature",
   "geometry": {
    "type": "Point",
    "coordinates": [
     138.54153756,
     -34.93523107
    ]
   },
   "properties": {
    "name": "1 GRAHAM STREET ADELAIDE AIRPORT 5950",
    "locID": "LOC000172290092",
    "tech": "FTTN",
    "upgrade": "NULL_NA",
    "gnaf_pid": "GASA_719783344",
    "ee": true,
    "tech_change_status": "Not Planned"
   }
  },
  {
   "type": "Feature",
   "geometry": {
    "type": "Point",
    "coordinates": [
     138.54153756,
     -34.93523107
    ]
   },
   "properties": {
    "name": "UNIT 3, 2 GRAHAM STREET ADELAIDE AIRPORT 5950",
    "locID": "LOC000172290125",
    "tech": "FTTN",
    "upgrade": "NULL_NA",
    "gnaf_pid": "GASA_719783346",
    "ee": true,
    "tech_change_status": "Not Planned"
   }
  },
  {
   "type": "Feature",
   "geometry": {
    "type": "Point",
    "coordinates": [
     138.53683038,
     -34.93760116
    ]
   },
   "properties": {
    "name": "3 SIR RICHARD WILLIAMS AVENUE ADELAIDE AIRPORT 5950",
    "locID": "LOC000185113891",
    "tech": "FTTN",
    "upgrade": "NULL_NA",
    "gnaf_pid": "GASA_719783482",
    "ee": true,
    "tech_change_status": "Not Planned"
   }
  },
  {
   "type": "Feature",
   "geometry": {
    "type": "Point",
    "coordinates": [
     138.53520267,
     -34.93528381
    ]
   },
   "properties": {
    "name": "9-13 JAMES SCHOFIELD DRIVE ADELAIDE AIRPORT 5950",
    "locID": "LOC000178961217",
    "tech": "FTTB",
    "upgrade": "NULL_NA",
    "gnaf_pid": "GASA_719783483",
    "ee": true
   }
  },
  {
   "type": "Feature",
   "geometry": {
    "type": "Point",
    "coordinates": [
     138.53473283,
     -34.93411394
    ]
   },
   "properties": {
    "name": "5 FRANK COLLOPY COURT ADELAIDE AIRPORT 5950",
    "locID": "LOC000172290063",
    "tech": "FTTN",
    "upgrade": "NULL_NA",
    "gnaf_pid": "GASA_719783485",
    "ee": true,
    "tech_change_status": "Not Planned"
   }
  },
  {
   "type": "Feature",
   "geometry": {
    "type": "Point",
    "coordinates": [
     138.529817,
     -34.93529012
    ]
   },
   "properties": {
    "name": "1 NATIONAL DRIVE ADELAIDE AIRPORT 5950",
    "locID": "LOC000172291017",
    "tech": "FTTN",
    "upgrade": "NULL_NA",
    "gnaf_pid": "GASA_719783600",
    "ee": true,
    "tech_change_status": "Not Planned"
   }
  },
  {
   "type": "Feature",
   "geometry": {
    "type": "Point",
    "coordinates": [
     138.53683038,
     -34.93760116
    ]
   },
   "properties": {
    "name": "2 SIR RICHARD WILLIAMS AVENUE ADELAIDE AIRPORT 5950",
    "locID": "LOC000185128337",
    "tech": "FTTN",
    "upgrade": "NULL_NA",
    "gnaf_pid": "GASA_719783726",
    "ee": true,
    "tech_change_status": "Not Planned"
   }
  },
  {
   "type": "Feature",
   "geometry": {
    "type": "Point",
    "coordinates": [
     138.54253528,
     -34.93408964
    ]
   },
   "properties": {
    "name": "4A CORBETT COURT ADELAIDE AIRPORT 5950",
    "locID": "LOC000172290044",
    "tech": "FTTN",
    "upgrade": "NULL_NA",
    "gnaf_pid": "GASA_719783727",
    "ee": true,
    "tech_change_status": "Not Planned"
   }
  },
  {
   "type": "Feature",
   "geometry": {
    "type": "Point",
    "coordinates": [
     138.53520267,
     -34.93528381
    ]
   },
   "properties": {
    "name": "19 JAMES SCHOFIELD DRIVE ADELAIDE AIRPORT 5950",
    "locID": "LOC000189316807",
    "tech": "FTTN",
    "upgrade": "NULL_NA",
    "gnaf_pid": "GASA_719783729",
    "ee": true,
    "tech_change_status": "Not Planned"
   }
  },
  {
   "type": "Feature",
   "geometry": {
    "type": "Point",
    "coordinates": [
     138.54153756,
     -34.93523107
    ]
   },
   "properties": {
    "name": "SHOP 1, 2 GRAHAM STREET ADELAIDE AIRPORT 5950",
    "locID": "LOC000189262892",
    "tech": "FTTN",
    "upgrade": "NULL_NA",
    "gnaf_pid": "GASA_719783851",
    "ee": true,
    "tech_change_status": "Not Planned"
   }
  },
  {
   "type": "Feature",
   "geometry": {
    "type": "Point",
    "coordinates": [
     138.52289994,
     -34.93537942
    ]
   },
   "properties": {
    "name": "18 BUTLER BOULEVARD ADELAIDE AIRPORT 5950",
    "locID": "LOC000185089087",
    "tech": "FTTN",
    "upgrade": "NULL_NA",
    "gnaf_pid": "GASA_719783852",
    "ee": true,
    "tech_change_status": "Not Planned"
   }
  },
  {
   "type": "Feature",
   "geometry": {
    "type": "Point",
    "coordinates": [
     138.52289994,
     -34.93537942
    ]
   },
   "properties": {
    "name": "5D BUTLER BOULEVARD ADELAIDE AIRPORT 5950",
    "locID": "LOC000172289944",
    "tech": "FTTN",
    "upgrade": "NULL_NA",
    "gnaf_pid": "GASA_719783853",
    "ee": true,
    "tech_change_status": "Not Planned"
   }
  },
  {
   "type": "Feature",
   "geometry": {
    "type": "Point",
    "coordinates": [
     138.54153756,
     -34.93523107
    ]
   },
   "properties": {
    "name": "UNIT 4, 2 GRAHAM STREET ADELAIDE AIRPORT 5950",
    "locID": "LOC000189262892",
    "tech": "FTTN",
    "upgrade": "NULL_NA",
    "gnaf_pid": "GASA_719783854",
    "ee": true,
    "tech_change_status": "Not Planned"
   }
  },
  {
   "type": "Feature",
   "geometry": {
    "type": "Point",
    "coordinates": [
     138.53644369,
     -34.95761645
    ]
   },
   "properties": {
    "name": "240-280 MORPHETT ROAD ADELAIDE AIRPORT 5950",
    "locID": "LOC000113153416",
    "tech": "HFC",
    "upgrade": "NULL_NA",
    "gnaf_pid": "GASA_719783983",
    "ee": true
   }
  },
  {
   "type": "Feature",
   "geometry": {
    "type": "Point",
    "coordinates": [
     138.52289994,
     -34.93537942
    ]
   },
   "properties": {
    "name": "20 BUTLER BOULEVARD ADELAIDE AIRPORT 5950",
    "locID": "LOC000192113910",
    "tech": "FTTN",
    "upgrade": "NULL_NA",
    "gnaf_pid": "GASA_719783984",
    "ee": true,
    "tech_change_status": "Not Planned"
   }
  },
  {
   "type": "Feature",
   "geometry": {
    "type": "Point",
    "coordinates": [
     138.54153756,
     -34.93523107
    ]
   },
   "properties": {
    "name": "UNIT 7, 2 GRAHAM STREET ADELAIDE AIRPORT 5950",
    "locID": "LOC000189262892",
    "tech": "FTTN",
    "upgrade": "NULL_NA",
    "gnaf_pid": "GASA_719783986",
    "ee": true,
    "tech_change_status": "Not Planned"
   }
  },
  {
   "type": "Feature",
   "geometry": {
    "type": "Point",
    "coordinates": [
     138.54866413,
     -34.94171333
    ]
   },
   "properties": {
    "name": "14 MORLEY STREET ADELAIDE AIRPORT 5950",
    "locID": "LOC000161936070",
    "tech": "HFC",
    "upgrade": "NULL_NA",
    "gnaf_pid": "GASA_719783987",
    "ee": true
   }
  },
  {
   "type": "Feature",
   "geometry": {
    "type": "Point",
    "coordinates": [
     138.53683038,
     -34.93760116
    ]
   },
   "properties": {
    "name": "8 SIR RICHARD WILLIAMS AVENUE ADELAIDE AIRPORT 5950",
    "locID": "LOC000178961201",
    "tech": "FTTB",
    "upgrade": "NULL_NA",
    "gnaf_pid": "GASA_719783988",
    "ee": true
   }
  },
  {
   "type": "Feature",
   "geometry": {
    "type": "Point",
    "coordinates": [
     138.51847427,
     -34.9473008
    ]
   },
   "properties": {
    "name": "1 SIR REGINALD ANSETT DRIVE ADELAIDE AIRPORT 5950",
    "locID": "LOC000161599798",
    "tech": "FTTC",
    "upgrade": "FTTP_SA",
    "gnaf_pid": "GASA_719784122",
    "ee": true,
    "tech_change_status": "Eligible to Order"
   }
  },
  {
   "type": "Feature",
   "geometry": {
    "type": "Point",
    "coordinates": [
     138.53520267,
     -34.93528381
    ]
   },
   "properties": {
    "name": "26 JAMES SCHOFIELD DRIVE ADELAIDE AIRPORT 5950",
    "locID": "LOC000186867760",
    "tech": "FTTN",
    "upgrade": "NULL_NA",
    "gnaf_pid": "GASA_719784123",
    "ee": true,
    "tech_change_status": "Not Planned"
   }
  },
  {
   "type": "Feature",
   "geometry": {
    "type": "Point",
    "coordinates": [
     138.51847427,
     -34.9473008
    ]
   },
   "properties": {
    "name": "5 SIR REGINALD ANSETT DRIVE ADELAIDE AIRPORT 5950",
    "locID": "LOC000178031324",
    "tech": "FTTC",
    "upgrade": "FTTP_SA",
    "gnaf_pid": "GASA_719784124",
    "ee": true,
    "tech_change_status": "Eligible to Order"
   }
  },
  {
   "type": "Feature",
   "geometry": {
    "type": "Point",
    "coordinates": [
     138.54153756,
     -34.93523107
    ]
   },
   "properties": {
    "name": "SHOP 2, 2 GRAHAM STREET ADELAIDE AIRPORT 5950",
    "locID": "LOC000180278369",
    "tech": "FTTN",
    "upgrade": "NULL_NA",
    "gnaf_pid": "GASA_719784125",
    "ee": true,
    "tech_change_status": "Not Planned"
   }
  },
  {
   "type": "Feature",
   "geometry": {
    "type": "Point",
    "coordinates": [
     138.52289994,
     -34.93537942
    ]
   },
   "properties": {
    "name": "1 BUTLER BOULEVARD ADELAIDE AIRPORT 5950",
    "locID": "LOC000187856910",
    "tech": "FTTP",
    "upgrade": "NULL_NA",
    "gnaf_pid": "GASA_720090116",
    "ee": true
   }
  },
  {
   "type": "Feature",
   "geometry": {
    "type": "Point",
    "coordinates": [
     138.52289994,
     -34.93537942
    ]
   },
   "properties": {
    "name": "12 BUTLER BOULEVARD ADELAIDE AIRPORT 5950",
    "locID": "LOC000022609085",
    "tech": "FTTN",
    "upgrade": "NULL_NA",
    "gnaf_pid": "GASA_720893446",
    "ee": true,
    "tech_change_status": "Not Planned"
   }
  }
 ]
}