{
 "type": "FeatureCollection",
 "generated": "2025-06-15T08:04:31.555316",
 "suburb": "ALLANDALE STATION",
 "features": [
  {
   "type": "Feature",
   "geometry": {
    "type": "Point",
    "coordinates": [
     135.60582402,
     -27.67631458
    ]
   },
   "properties": {
    "name": "937 ALLANDALE ROAD ALLANDALE STATION 5723",
    "locID": "LOC000148255340",
    "tech": "NULL",
    "upgrade": "NULL_NA",
    "gnaf_pid": "GASA_425628288",
    "ee": false,
    "tech_change_status": "Not Planned"
   }
  }
 ]
}