{
 "type": "FeatureCollection",
 "generated": "2025-06-15T08:13:24.404336",
 "suburb": "ANANGU PITJANTJATJARA YANKUNYTJATJARA",
 "features": [
  {
   "type": "Feature",
   "geometry": {
    "type": "Point",
    "coordinates": [
     133.41225216,
     -27.04028258
    ]
   },
   "properties": {
    "name": "LOT 202 STUART HIGHWAY ANANGU PITJANTJATJARA YANKUNYTJATJARA 872",
    "locID": "LOC000022324026",
    "tech": "FTTN",
    "upgrade": "FTTP_SA",
    "gnaf_pid": "GASA_718980431",
    "ee": true,
    "tech_change_status": "Eligible to Order",
    "program_type": "On-Demand N2P SDU/MDU Simple",
    "target_eligibility_quarter": "NA"
   }
  }
 ]
}