{
 "type": "FeatureCollection",
 "generated": "2025-06-15T08:14:30.484564",
 "suburb": "ANDAMOOKA STATION",
 "features": [
  {
   "type": "Feature",
   "geometry": {
    "type": "Point",
    "coordinates": [
     137.21500158,
     -30.49612511
    ]
   },
   "properties": {
    "name": "LOT 1500 ANDAMOOKA ROAD ANDAMOOKA STATION 5722",
    "locID": "LOC000150214330",
    "tech": "SATELLITE",
    "upgrade": "NULL_NA",
    "gnaf_pid": "GASA_425718490",
    "ee": false,
    "tech_change_status": "Not Planned"
   }
  }
 ]
}