{
 "type": "FeatureCollection",
 "generated": "2025-06-15T08:18:25.356553",
 "suburb": "APOINGA",
 "features": [
  {
   "type": "Feature",
   "geometry": {
    "type": "Point",
    "coordinates": [
     138.91678083,
     -33.90373569
    ]
   },
   "properties": {
    "name": "LOT 1 APOINGA ROAD APOINGA 5413",
    "locID": "LOC100078657753",
    "tech": "NULL",
    "upgrade": "NULL_NA",
    "gnaf_pid": "GASA_424098960",
    "ee": true,
    "tech_change_status": "Not Planned"
   }
  },
  {
   "type": "Feature",
   "geometry": {
    "type": "Point",
    "coordinates": [
     138.91800603,
     -33.89252172
    ]
   },
   "properties": {
    "name": "LOT 2 APOINGA ROAD APOINGA 5413",
    "locID": "LOC000108628861",
    "tech": "NULL",
    "upgrade": "NULL_NA",
    "gnaf_pid": "GASA_424153010",
    "ee": true,
    "tech_change_status": "Not Planned"
   }
  },
  {
   "type": "Feature",
   "geometry": {
    "type": "Point",
    "coordinates": [
     138.94900706,
     -33.90060618
    ]
   },
   "properties": {
    "name": "LOT 247 BLACK SPRINGS ROAD APOINGA 5413",
    "locID": "LOC000148407679",
    "tech": "NULL",
    "upgrade": "NULL_NA",
    "gnaf_pid": "GASA_424157060",
    "ee": true,
    "tech_change_status": "Not Planned"
   }
  },
  {
   "type": "Feature",
   "geometry": {
    "type": "Point",
    "coordinates": [
     138.94946115,
     -33.92247401
    ]
   },
   "properties": {
    "name": "LOT 238 LAGOON ROAD APOINGA 5413",
    "locID": "LOC000148248468",
    "tech": "NULL",
    "upgrade": "NULL_NA",
    "gnaf_pid": "GASA_424185153",
    "ee": true,
    "tech_change_status": "Not Planned"
   }
  },
  {
   "type": "Feature",
   "geometry": {
    "type": "Point",
    "coordinates": [
     138.9497829,
     -33.91829673
    ]
   },
   "properties": {
    "name": "LOT 239 LAGOON ROAD APOINGA 5413",
    "locID": "LOC000148248468",
    "tech": "NULL",
    "upgrade": "NULL_NA",
    "gnaf_pid": "GASA_424185154",
    "ee": true,
    "tech_change_status": "Not Planned"
   }
  },
  {
   "type": "Feature",
   "geometry": {
    "type": "Point",
    "coordinates": [
     138.95555296,
     -33.93801604
    ]
   },
   "properties": {
    "name": "LOT 100 NIBLET GAP ROAD APOINGA 5413",
    "locID": "LOC000148248764",
    "tech": "NULL",
    "upgrade": "NULL_NA",
    "gnaf_pid": "GASA_424195502",
    "ee": true,
    "tech_change_status": "Not Planned"
   }
  },
  {
   "type": "Feature",
   "geometry": {
    "type": "Point",
    "coordinates": [
     138.93926785,
     -33.89841306
    ]
   },
   "properties": {
    "name": "LOT 112 BLACK SPRINGS ROAD APOINGA 5413",
    "locID": "LOC000148407679",
    "tech": "NULL",
    "upgrade": "NULL_NA",
    "gnaf_pid": "GASA_424289965",
    "ee": true,
    "tech_change_status": "Not Planned"
   }
  },
  {
   "type": "Feature",
   "geometry": {
    "type": "Point",
    "coordinates": [
     138.93869629,
     -33.9142579
    ]
   },
   "properties": {
    "name": "LOT 73 TOTHILL BELT ROAD APOINGA 5413",
    "locID": "LOC000148405778",
    "tech": "NULL",
    "upgrade": "NULL_NA",
    "gnaf_pid": "GASA_424337384",
    "ee": true,
    "tech_change_status": "Not Planned"
   }
  },
  {
   "type": "Feature",
   "geometry": {
    "type": "Point",
    "coordinates": [
     138.92217976,
     -33.94570359
    ]
   },
   "properties": {
    "name": "142 APOINGA ROAD APOINGA 5413",
    "locID": "LOC100078657753",
    "tech": "NULL",
    "upgrade": "NULL_NA",
    "gnaf_pid": "GASA_425302097",
    "ee": true,
    "tech_change_status": "Not Planned"
   }
  },
  {
   "type": "Feature",
   "geometry": {
    "type": "Point",
    "coordinates": [
     138.9195833,
     -33.9359212
    ]
   },
   "properties": {
    "name": "255 APOINGA ROAD APOINGA 5413",
    "locID": "LOC100024894745",
    "tech": "NULL",
    "upgrade": "NULL_NA",
    "gnaf_pid": "GASA_425302098",
    "ee": true,
    "tech_change_status": "Not Planned"
   }
  },
  {
   "type": "Feature",
   "geometry": {
    "type": "Point",
    "coordinates": [
     138.92975939,
     -33.95131491
    ]
   },
   "properties": {
    "name": "43 APOINGA ROAD APOINGA 5413",
    "locID": "LOC000150767365",
    "tech": "SATELLITE",
    "upgrade": "NULL_NA",
    "gnaf_pid": "GASA_425302100",
    "ee": true,
    "tech_change_status": "Not Planned"
   }
  },
  {
   "type": "Feature",
   "geometry": {
    "type": "Point",
    "coordinates": [
     138.91361149,
     -33.86003534
    ]
   },
   "properties": {
    "name": "2011 KOONOONA ROAD APOINGA 5413",
    "locID": "LOC000148404284",
    "tech": "NULL",
    "upgrade": "NULL_NA",
    "gnaf_pid": "GASA_425304043",
    "ee": true,
    "tech_change_status": "Not Planned"
   }
  },
  {
   "type": "Feature",
   "geometry": {
    "type": "Point",
    "coordinates": [
     138.94676881,
     -33.93085764
    ]
   },
   "properties": {
    "name": "34 LAGOON ROAD APOINGA 5413",
    "locID": "LOC000148248468",
    "tech": "NULL",
    "upgrade": "NULL_NA",
    "gnaf_pid": "GASA_425304066",
    "ee": true,
    "tech_change_status": "Not Planned"
   }
  },
  {
   "type": "Feature",
   "geometry": {
    "type": "Point",
    "coordinates": [
     138.94665984,
     -33.93054895
    ]
   },
   "properties": {
    "name": "38 LAGOON ROAD APOINGA 5413",
    "locID": "LOC000148404307",
    "tech": "NULL",
    "upgrade": "NULL_NA",
    "gnaf_pid": "GASA_425304067",
    "ee": true,
    "tech_change_status": "Not Planned"
   }
  },
  {
   "type": "Feature",
   "geometry": {
    "type": "Point",
    "coordinates": [
     138.94081527,
     -33.93563207
    ]
   },
   "properties": {
    "name": "343 NIBLET GAP ROAD APOINGA 5413",
    "locID": "LOC000148248764",
    "tech": "NULL",
    "upgrade": "NULL_NA",
    "gnaf_pid": "GASA_425304569",
    "ee": true,
    "tech_change_status": "Not Planned"
   }
  },
  {
   "type": "Feature",
   "geometry": {
    "type": "Point",
    "coordinates": [
     138.93379067,
     -33.96004943
    ]
   },
   "properties": {
    "name": "1589 TOTHILL BELT ROAD APOINGA 5413",
    "locID": "LOC000148405778",
    "tech": "NULL",
    "upgrade": "NULL_NA",
    "gnaf_pid": "GASA_425305899",
    "ee": true,
    "tech_change_status": "Not Planned"
   }
  },
  {
   "type": "Feature",
   "geometry": {
    "type": "Point",
    "coordinates": [
     138.93792567,
     -33.92757533
    ]
   },
   "properties": {
    "name": "1956 TOTHILL BELT ROAD APOINGA 5413",
    "locID": "LOC100078089758",
    "tech": "NULL",
    "upgrade": "NULL_NA",
    "gnaf_pid": "GASA_425305900",
    "ee": true,
    "tech_change_status": "Not Planned"
   }
  },
  {
   "type": "Feature",
   "geometry": {
    "type": "Point",
    "coordinates": [
     138.94532714,
     -33.91004913
    ]
   },
   "properties": {
    "name": "2162 TOTHILL BELT ROAD APOINGA 5413",
    "locID": "LOC000148246168",
    "tech": "SATELLITE",
    "upgrade": "NULL_NA",
    "gnaf_pid": "GASA_425305901",
    "ee": true,
    "tech_change_status": "Not Planned"
   }
  },
  {
   "type": "Feature",
   "geometry": {
    "type": "Point",
    "coordinates": [
     138.91791676,
     -33.86656548
    ]
   },
   "properties": {
    "name": "LOT 176 KOONOONA ROAD APOINGA 5413",
    "locID": "LOC000148404284",
    "tech": "NULL",
    "upgrade": "NULL_NA",
    "gnaf_pid": "GASA_425355033",
    "ee": true,
    "tech_change_status": "Not Planned"
   }
  },
  {
   "type": "Feature",
   "geometry": {
    "type": "Point",
    "coordinates": [
     138.93814877,
     -33.88141466
    ]
   },
   "properties": {
    "name": "LOT 403 KOONOONA ROAD APOINGA 5413",
    "locID": "LOC000148404284",
    "tech": "NULL",
    "upgrade": "NULL_NA",
    "gnaf_pid": "GASA_425355035",
    "ee": true,
    "tech_change_status": "Not Planned"
   }
  },
  {
   "type": "Feature",
   "geometry": {
    "type": "Point",
    "coordinates": [
     138.93171276,
     -33.88765714
    ]
   },
   "properties": {
    "name": "LOT 31 BLACK SPRINGS ROAD APOINGA 5413",
    "locID": "LOC000148407679",
    "tech": "NULL",
    "upgrade": "NULL_NA",
    "gnaf_pid": "GASA_425500354",
    "ee": true,
    "tech_change_status": "Not Planned"
   }
  },
  {
   "type": "Feature",
   "geometry": {
    "type": "Point",
    "coordinates": [
     138.9285636,
     -33.9017704
    ]
   },
   "properties": {
    "name": "LOT 3 BLACK SPRINGS ROAD APOINGA 5413",
    "locID": "LOC000148402752",
    "tech": "WIRELESS",
    "upgrade": "NULL_NA",
    "gnaf_pid": "GASA_425500355",
    "ee": false,
    "tech_change_status": "Not Planned",
    "program_type": "Fixed Wireless and Satellite Upgrade Program",
    "target_eligibility_quarter": "NA"
   }
  },
  {
   "type": "Feature",
   "geometry": {
    "type": "Point",
    "coordinates": [
     138.92532675,
     -33.89642114
    ]
   },
   "properties": {
    "name": "LOT 90 BLACK SPRINGS ROAD APOINGA 5413",
    "locID": "LOC000148407679",
    "tech": "NULL",
    "upgrade": "NULL_NA",
    "gnaf_pid": "GASA_425500358",
    "ee": true,
    "tech_change_status": "Not Planned"
   }
  },
  {
   "type": "Feature",
   "geometry": {
    "type": "Point",
    "coordinates": [
     138.93708109,
     -33.92191376
    ]
   },
   "properties": {
    "name": "LOT 436 TOTHILL BELT ROAD APOINGA 5413",
    "locID": "LOC000148405778",
    "tech": "NULL",
    "upgrade": "NULL_NA",
    "gnaf_pid": "GASA_425504477",
    "ee": true,
    "tech_change_status": "Not Planned"
   }
  },
  {
   "type": "Feature",
   "geometry": {
    "type": "Point",
    "coordinates": [
     138.954487,
     -33.94909287
    ]
   },
   "properties": {
    "name": "LOT 459 TOTHILL BELT ROAD APOINGA 5413",
    "locID": "LOC000148405778",
    "tech": "NULL",
    "upgrade": "NULL_NA",
    "gnaf_pid": "GASA_425504478",
    "ee": true,
    "tech_change_status": "Not Planned"
   }
  },
  {
   "type": "Feature",
   "geometry": {
    "type": "Point",
    "coordinates": [
     138.94078165,
     -33.96060288
    ]
   },
   "properties": {
    "name": "LOT 460 TOTHILL BELT ROAD APOINGA 5413",
    "locID": "LOC000148405778",
    "tech": "NULL",
    "upgrade": "NULL_NA",
    "gnaf_pid": "GASA_425504479",
    "ee": true,
    "tech_change_status": "Not Planned"
   }
  },
  {
   "type": "Feature",
   "geometry": {
    "type": "Point",
    "coordinates": [
     138.93727937,
     -33.90549401
    ]
   },
   "properties": {
    "name": "810 BLACK SPRINGS ROAD APOINGA 5413",
    "locID": "LOC000148407679",
    "tech": "NULL",
    "upgrade": "NULL_NA",
    "gnaf_pid": "GASA_425506247",
    "ee": true,
    "tech_change_status": "Not Planned"
   }
  },
  {
   "type": "Feature",
   "geometry": {
    "type": "Point",
    "coordinates": [
     138.93683162,
     -33.9281767
    ]
   },
   "properties": {
    "name": "85 HEINRICH EAST ROAD APOINGA 5413",
    "locID": "LOC000148408439",
    "tech": "SATELLITE",
    "upgrade": "NULL_NA",
    "gnaf_pid": "GASA_425533795",
    "ee": true,
    "tech_change_status": "Not Planned"
   }
  },
  {
   "type": "Feature",
   "geometry": {
    "type": "Point",
    "coordinates": [
     138.92918452,
     -33.87214166
    ]
   },
   "properties": {
    "name": "LOT 10 KOONOONA ROAD APOINGA 5413",
    "locID": "LOC000148404284",
    "tech": "NULL",
    "upgrade": "NULL_NA",
    "gnaf_pid": "GASA_719776210",
    "ee": true,
    "tech_change_status": "Not Planned"
   }
  },
  {
   "type": "Feature",
   "geometry": {
    "type": "Point",
    "coordinates": [
     138.93471363,
     -33.90417112
    ]
   },
   "properties": {
    "name": "LOT 113 BLACK SPRINGS ROAD APOINGA 5413",
    "locID": "LOC000148407679",
    "tech": "NULL",
    "upgrade": "NULL_NA",
    "gnaf_pid": "GASA_720892775",
    "ee": true,
    "tech_change_status": "Not Planned"
   }
  },
  {
   "type": "Feature",
   "geometry": {
    "type": "Point",
    "coordinates": [
     138.90969101,
     -33.90975685
    ]
   },
   "properties": {
    "name": "LOT P1 BLACK SPRINGS ROAD APOINGA 5413",
    "locID": "LOC000148402752",
    "tech": "WIRELESS",
    "upgrade": "NULL_NA",
    "gnaf_pid": "GASA_721275250",
    "ee": false,
    "tech_change_status": "Not Planned",
    "program_type": "Fixed Wireless and Satellite Upgrade Program",
    "target_eligibility_quarter": "NA"
   }
  }
 ]
}