{
 "type": "FeatureCollection",
 "generated": "2025-06-15T08:19:46.421045",
 "suburb": "ARKAROOLA",
 "features": [
  {
   "type": "Feature",
   "geometry": {
    "type": "Point",
    "coordinates": [
     139.371454,
     -30.331398
    ]
   },
   "properties": {
    "name": "2511 ARKAROOLA ROAD ARKAROOLA 5732",
    "locID": "LOC000148247138",
    "tech": "SATELLITE",
    "upgrade": "NULL_NA",
    "gnaf_pid": "GASA_425628320",
    "ee": false,
    "tech_change_status": "Not Planned"
   }
  }
 ]
}