{
 "type": "FeatureCollection",
 "generated": "2025-06-15T08:42:49.039194",
 "suburb": "BARATTA",
 "features": [
  {
   "type": "Feature",
   "geometry": {
    "type": "Point",
    "coordinates": [
     139.217698,
     -31.967298
    ]
   },
   "properties": {
    "name": "1181 BARATTA STATION ROAD BARATTA 5432",
    "locID": "LOC000181583640",
    "tech": "SATELLITE",
    "upgrade": "NULL_NA",
    "gnaf_pid": "GASA_720072530",
    "ee": false,
    "tech_change_status": "Not Planned"
   }
  }
 ]
}