{
 "type": "FeatureCollection",
 "generated": "2025-06-15T08:45:20.864545",
 "suburb": "BARNDIOOTA",
 "features": [
  {
   "type": "Feature",
   "geometry": {
    "type": "Point",
    "coordinates": [
     138.12430587,
     -31.9096921
    ]
   },
   "properties": {
    "name": "LOT 1000 BOBBYS CREEK ROAD BARNDIOOTA 5434",
    "locID": "LOC100077700635",
    "tech": "NULL",
    "upgrade": "NULL_NA",
    "gnaf_pid": "GASA_424899985",
    "ee": false,
    "tech_change_status": "Not Planned"
   }
  },
  {
   "type": "Feature",
   "geometry": {
    "type": "Point",
    "coordinates": [
     138.23445494,
     -31.89027921
    ]
   },
   "properties": {
    "name": "10 BOBBY CREEK ROAD BARNDIOOTA 5434",
    "locID": "LOC100077700635",
    "tech": "NULL",
    "upgrade": "NULL_NA",
    "gnaf_pid": "GASA_719186608",
    "ee": false,
    "tech_change_status": "Not Planned"
   }
  },
  {
   "type": "Feature",
   "geometry": {
    "type": "Point",
    "coordinates": [
     138.11015069,
     -31.83807028
    ]
   },
   "properties": {
    "name": "LOT 501 WARRAKIMBO ROAD BARNDIOOTA 5434",
    "locID": "LOC000150252029",
    "tech": "SATELLITE",
    "upgrade": "NULL_NA",
    "gnaf_pid": "GASA_720235958",
    "ee": true,
    "tech_change_status": "Not Planned"
   }
  },
  {
   "type": "Feature",
   "geometry": {
    "type": "Point",
    "coordinates": [
     138.19332331,
     -31.86300429
    ]
   },
   "properties": {
    "name": "LOT 122 BOBBY CREEK ROAD BARNDIOOTA 5434",
    "locID": "LOC100077700635",
    "tech": "NULL",
    "upgrade": "NULL_NA",
    "gnaf_pid": "GASA_720236743",
    "ee": false,
    "tech_change_status": "Not Planned"
   }
  }
 ]
}