{
 "type": "FeatureCollection",
 "generated": "2025-06-15T08:51:19.977088",
 "suburb": "BEATTY",
 "features": [
  {
   "type": "Feature",
   "geometry": {
    "type": "Point",
    "coordinates": [
     139.44249138,
     -33.98852994
    ]
   },
   "properties": {
    "name": "LOT 144 DIRTY CORNER ROAD BEATTY 5320",
    "locID": "LOC100079109156",
    "tech": "NULL",
    "upgrade": "NULL_NA",
    "gnaf_pid": "GASA_424298052",
    "ee": false,
    "tech_change_status": "Not Planned"
   }
  },
  {
   "type": "Feature",
   "geometry": {
    "type": "Point",
    "coordinates": [
     139.45718173,
     -33.97563543
    ]
   },
   "properties": {
    "name": "LOT 161 DIRTY CORNER ROAD BEATTY 5320",
    "locID": "LOC100079109156",
    "tech": "NULL",
    "upgrade": "NULL_NA",
    "gnaf_pid": "GASA_424385009",
    "ee": false,
    "tech_change_status": "Not Planned"
   }
  },
  {
   "type": "Feature",
   "geometry": {
    "type": "Point",
    "coordinates": [
     139.38252353,
     -33.98173519
    ]
   },
   "properties": {
    "name": "LOT 153 PIPELINE ROAD BEATTY 5320",
    "locID": "LOC000112941394",
    "tech": "NULL",
    "upgrade": "NULL_NA",
    "gnaf_pid": "GASA_424564513",
    "ee": false,
    "tech_change_status": "Not Planned"
   }
  },
  {
   "type": "Feature",
   "geometry": {
    "type": "Point",
    "coordinates": [
     139.40006731,
     -33.98261539
    ]
   },
   "properties": {
    "name": "LOT 158 PIPELINE ROAD BEATTY 5320",
    "locID": "LOC000112941394",
    "tech": "NULL",
    "upgrade": "NULL_NA",
    "gnaf_pid": "GASA_424564514",
    "ee": false,
    "tech_change_status": "Not Planned"
   }
  },
  {
   "type": "Feature",
   "geometry": {
    "type": "Point",
    "coordinates": [
     139.48897647,
     -34.01629019
    ]
   },
   "properties": {
    "name": "LOT 117 WONGA ROAD BEATTY 5320",
    "locID": "LOC000075849809",
    "tech": "FTTC",
    "upgrade": "FTTP_SA",
    "gnaf_pid": "GASA_424567483",
    "ee": true,
    "tech_change_status": "Eligible to Order"
   }
  },
  {
   "type": "Feature",
   "geometry": {
    "type": "Point",
    "coordinates": [
     139.35664889,
     -33.99306059
    ]
   },
   "properties": {
    "name": "4426 BOWER BOUNDARY ROAD BEATTY 5320",
    "locID": "LOC000114017703",
    "tech": "SATELLITE",
    "upgrade": "NULL_NA",
    "gnaf_pid": "GASA_424696855",
    "ee": false,
    "tech_change_status": "Not Planned"
   }
  },
  {
   "type": "Feature",
   "geometry": {
    "type": "Point",
    "coordinates": [
     139.43653967,
     -34.00419034
    ]
   },
   "properties": {
    "name": "493 DIRTY CORNER ROAD BEATTY 5320",
    "locID": "LOC100079109156",
    "tech": "NULL",
    "upgrade": "NULL_NA",
    "gnaf_pid": "GASA_424698778",
    "ee": false,
    "tech_change_status": "Not Planned"
   }
  },
  {
   "type": "Feature",
   "geometry": {
    "type": "Point",
    "coordinates": [
     139.42627452,
     -33.97119699
    ]
   },
   "properties": {
    "name": "1238 FLORIETON ROAD BEATTY 5320",
    "locID": "LOC100079109139",
    "tech": "NULL",
    "upgrade": "NULL_NA",
    "gnaf_pid": "GASA_424699691",
    "ee": false,
    "tech_change_status": "Not Planned"
   }
  },
  {
   "type": "Feature",
   "geometry": {
    "type": "Point",
    "coordinates": [
     139.41244048,
     -33.97147876
    ]
   },
   "properties": {
    "name": "1541 PIPELINE ROAD BEATTY 5320",
    "locID": "LOC000112941394",
    "tech": "NULL",
    "upgrade": "NULL_NA",
    "gnaf_pid": "GASA_424706465",
    "ee": false,
    "tech_change_status": "Not Planned"
   }
  },
  {
   "type": "Feature",
   "geometry": {
    "type": "Point",
    "coordinates": [
     139.50064507,
     -33.98993997
    ]
   },
   "properties": {
    "name": "LOT 115 PIPELINE ROAD BEATTY 5320",
    "locID": "LOC000112941394",
    "tech": "NULL",
    "upgrade": "NULL_NA",
    "gnaf_pid": "GASA_424826047",
    "ee": false,
    "tech_change_status": "Not Planned"
   }
  }
 ]
}