{
 "type": "FeatureCollection",
 "generated": "2025-06-15T09:07:21.611353",
 "suburb": "BIBLIANDO",
 "features": [
  {
   "type": "Feature",
   "geometry": {
    "type": "Point",
    "coordinates": [
     139.10338453,
     -31.86514138
    ]
   },
   "properties": {
    "name": "1707 BIBLIANDO ROAD BIBLIANDO 5432",
    "locID": "LOC100071949195",
    "tech": "NULL",
    "upgrade": "NULL_NA",
    "gnaf_pid": "GASA_425628463",
    "ee": false,
    "tech_change_status": "Not Planned"
   }
  }
 ]
}