{
 "type": "FeatureCollection",
 "generated": "2025-06-15T09:08:02.317533",
 "suburb": "BILLA KALINA",
 "features": [
  {
   "type": "Feature",
   "geometry": {
    "type": "Point",
    "coordinates": [
     136.186817,
     -29.915819
    ]
   },
   "properties": {
    "name": "14056 BILLA KALINA ROAD BILLA KALINA 5720",
    "locID": "LOC000156016402",
    "tech": "SATELLITE",
    "upgrade": "NULL_NA",
    "gnaf_pid": "GASA_425628469",
    "ee": false,
    "tech_change_status": "Not Planned"
   }
  },
  {
   "type": "Feature",
   "geometry": {
    "type": "Point",
    "coordinates": [
     136.189567,
     -29.920174
    ]
   },
   "properties": {
    "name": "14056B BILLA KALINA ROAD BILLA KALINA 5720",
    "locID": "LOC000186888848",
    "tech": "NULL",
    "upgrade": "NULL_NA",
    "gnaf_pid": "GASA_719649788",
    "ee": false,
    "tech_change_status": "Not Planned"
   }
  },
  {
   "type": "Feature",
   "geometry": {
    "type": "Point",
    "coordinates": [
     136.189436,
     -29.920276
    ]
   },
   "properties": {
    "name": "14056C BILLA KALINA ROAD BILLA KALINA 5720",
    "locID": "LOC000186888853",
    "tech": "NULL",
    "upgrade": "NULL_NA",
    "gnaf_pid": "GASA_719650513",
    "ee": false,
    "tech_change_status": "Not Planned"
   }
  }
 ]
}