{
 "type": "FeatureCollection",
 "generated": "2025-06-15T09:13:06.049921",
 "suburb": "BLACK POINT",
 "features": [
  {
   "type": "Feature",
   "geometry": {
    "type": "Point",
    "coordinates": [
     137.89047342,
     -34.61175664
    ]
   },
   "properties": {
    "name": "54 BLACK POINT DRIVE BLACK POINT 5571",
    "locID": "LOC100055504068",
    "tech": "WIRELESS",
    "upgrade": "NULL_NA",
    "gnaf_pid": "GASA_422336893",
    "ee": true,
    "tech_change_status": "Not Planned",
    "program_type": "Fixed Wireless and Satellite Upgrade Program",
    "target_eligibility_quarter": "NA"
   }
  },
  {
   "type": "Feature",
   "geometry": {
    "type": "Point",
    "coordinates": [
     137.88328712,
     -34.60772513
    ]
   },
   "properties": {
    "name": "LOT 1 HARVEY CRESCENT BLACK POINT 5571",
    "locID": "LOC000177949284",
    "tech": "WIRELESS",
    "upgrade": "NULL_NA",
    "gnaf_pid": "GASA_423684264",
    "ee": true,
    "tech_change_status": "Not Planned",
    "program_type": "Fixed Wireless and Satellite Upgrade Program",
    "target_eligibility_quarter": "NA"
   }
  },
  {
   "type": "Feature",
   "geometry": {
    "type": "Point",
    "coordinates": [
     137.87507508,
     -34.58514917
    ]
   },
   "properties": {
    "name": "11 VICTORY CRESCENT BLACK POINT 5571",
    "locID": "LOC000131426483",
    "tech": "WIRELESS",
    "upgrade": "NULL_NA",
    "gnaf_pid": "GASA_423738011",
    "ee": true,
    "tech_change_status": "Not Planned",
    "program_type": "Fixed Wireless and Satellite Upgrade Program",
    "target_eligibility_quarter": "NA"
   }
  },
  {
   "type": "Feature",
   "geometry": {
    "type": "Point",
    "coordinates": [
     137.87397159,
     -34.58739897
    ]
   },
   "properties": {
    "name": "19 VICTORY CRESCENT BLACK POINT 5571",
    "locID": "LOC000131443701",
    "tech": "WIRELESS",
    "upgrade": "NULL_NA",
    "gnaf_pid": "GASA_423738013",
    "ee": true,
    "tech_change_status": "Not Planned",
    "program_type": "Fixed Wireless and Satellite Upgrade Program",
    "target_eligibility_quarter": "NA"
   }
  },
  {
   "type": "Feature",
   "geometry": {
    "type": "Point",
    "coordinates": [
     137.87528955,
     -34.58437873
    ]
   },
   "properties": {
    "name": "1 VICTORY CRESCENT BLACK POINT 5571",
    "locID": "LOC000131421784",
    "tech": "WIRELESS",
    "upgrade": "NULL_NA",
    "gnaf_pid": "GASA_423738014",
    "ee": true,
    "tech_change_status": "Not Planned",
    "program_type": "Fixed Wireless and Satellite Upgrade Program",
    "target_eligibility_quarter": "NA"
   }
  },
  {
   "type": "Feature",
   "geometry": {
    "type": "Point",
    "coordinates": [
     137.87522381,
     -34.58455681
    ]
   },
   "properties": {
    "name": "3 VICTORY CRESCENT BLACK POINT 5571",
    "locID": "LOC000023403724",
    "tech": "WIRELESS",
    "upgrade": "NULL_NA",
    "gnaf_pid": "GASA_423738015",
    "ee": true,
    "tech_change_status": "Not Planned",
    "program_type": "Fixed Wireless and Satellite Upgrade Program",
    "target_eligibility_quarter": "NA"
   }
  },
  {
   "type": "Feature",
   "geometry": {
    "type": "Point",
    "coordinates": [
     137.87518072,
     -34.58471881
    ]
   },
   "properties": {
    "name": "5 VICTORY CRESCENT BLACK POINT 5571",
    "locID": "LOC000131426483",
    "tech": "WIRELESS",
    "upgrade": "NULL_NA",
    "gnaf_pid": "GASA_423738016",
    "ee": true,
    "tech_change_status": "Not Planned",
    "program_type": "Fixed Wireless and Satellite Upgrade Program",
    "target_eligibility_quarter": "NA"
   }
  },
  {
   "type": "Feature",
   "geometry": {
    "type": "Point",
    "coordinates": [
     137.87510424,
     -34.58501337
    ]
   },
   "properties": {
    "name": "9 VICTORY CRESCENT BLACK POINT 5571",
    "locID": "LOC000131426844",
    "tech": "WIRELESS",
    "upgrade": "NULL_NA",
    "gnaf_pid": "GASA_423738018",
    "ee": true,
    "tech_change_status": "Not Planned",
    "program_type": "Fixed Wireless and Satellite Upgrade Program",
    "target_eligibility_quarter": "NA"
   }
  },
  {
   "type": "Feature",
   "geometry": {
    "type": "Point",
    "coordinates": [
     137.88488911,
     -34.60871144
    ]
   },
   "properties": {
    "name": "14 BLACK POINT DRIVE BLACK POINT 5571",
    "locID": "LOC100072002509",
    "tech": "WIRELESS",
    "upgrade": "NULL_NA",
    "gnaf_pid": "GASA_423773777",
    "ee": true,
    "tech_change_status": "Not Planned",
    "program_type": "Fixed Wireless and Satellite Upgrade Program",
    "target_eligibility_quarter": "NA"
   }
  },
  {
   "type": "Feature",
   "geometry": {
    "type": "Point",
    "coordinates": [
     137.89166095,
     -34.6120807
    ]
   },
   "properties": {
    "name": "60 BLACK POINT DRIVE BLACK POINT 5571",
    "locID": "LOC000108462298",
    "tech": "WIRELESS",
    "upgrade": "NULL_NA",
    "gnaf_pid": "GASA_423773778",
    "ee": true,
    "tech_change_status": "Not Planned",
    "program_type": "Fixed Wireless and Satellite Upgrade Program",
    "target_eligibility_quarter": "NA"
   }
  },
  {
   "type": "Feature",
   "geometry": {
    "type": "Point",
    "coordinates": [
     137.8846459,
     -34.60879252
    ]
   },
   "properties": {
    "name": "13 BLACK POINT DRIVE BLACK POINT 5571",
    "locID": "LOC000109419481",
    "tech": "WIRELESS",
    "upgrade": "NULL_NA",
    "gnaf_pid": "GASA_423994269",
    "ee": true,
    "tech_change_status": "Not Planned",
    "program_type": "Fixed Wireless and Satellite Upgrade Program",
    "target_eligibility_quarter": "NA"
   }
  },
  {
   "type": "Feature",
   "geometry": {
    "type": "Point",
    "coordinates": [
     137.89775499,
     -34.61412115
    ]
   },
   "properties": {
    "name": "LOT 101 BLACK POINT DRIVE BLACK POINT 5571",
    "locID": "LOC100078109790",
    "tech": "WIRELESS",
    "upgrade": "NULL_NA",
    "gnaf_pid": "GASA_424156872",
    "ee": true,
    "tech_change_status": "Not Planned",
    "program_type": "Fixed Wireless and Satellite Upgrade Program",
    "target_eligibility_quarter": "NA"
   }
  },
  {
   "type": "Feature",
   "geometry": {
    "type": "Point",
    "coordinates": [
     137.89889565,
     -34.61426507
    ]
   },
   "properties": {
    "name": "LOT 108 BLACK POINT DRIVE BLACK POINT 5571",
    "locID": "LOC100078109800",
    "tech": "WIRELESS",
    "upgrade": "NULL_NA",
    "gnaf_pid": "GASA_424156880",
    "ee": true,
    "tech_change_status": "Not Planned",
    "program_type": "Fixed Wireless and Satellite Upgrade Program",
    "target_eligibility_quarter": "NA"
   }
  },
  {
   "type": "Feature",
   "geometry": {
    "type": "Point",
    "coordinates": [
     137.88649981,
     -34.61077571
    ]
   },
   "properties": {
    "name": "LOT 10 BLACK POINT DRIVE BLACK POINT 5571",
    "locID": "LOC000131443842",
    "tech": "WIRELESS",
    "upgrade": "NULL_NA",
    "gnaf_pid": "GASA_424156882",
    "ee": true,
    "tech_change_status": "Not Planned",
    "program_type": "Fixed Wireless and Satellite Upgrade Program",
    "target_eligibility_quarter": "NA"
   }
  },
  {
   "type": "Feature",
   "geometry": {
    "type": "Point",
    "coordinates": [
     137.89971681,
     -34.61438017
    ]
   },
   "properties": {
    "name": "LOT 113 BLACK POINT DRIVE BLACK POINT 5571",
    "locID": "LOC000131443963",
    "tech": "WIRELESS",
    "upgrade": "NULL_NA",
    "gnaf_pid": "GASA_424156886",
    "ee": true,
    "tech_change_status": "Not Planned",
    "program_type": "Fixed Wireless and Satellite Upgrade Program",
    "target_eligibility_quarter": "NA"
   }
  },
  {
   "type": "Feature",
   "geometry": {
    "type": "Point",
    "coordinates": [
     137.89987728,
     -34.61440665
    ]
   },
   "properties": {
    "name": "LOT 114 BLACK POINT DRIVE BLACK POINT 5571",
    "locID": "LOC100082206150",
    "tech": "WIRELESS",
    "upgrade": "NULL_NA",
    "gnaf_pid": "GASA_424156887",
    "ee": true,
    "tech_change_status": "Not Planned",
    "program_type": "Fixed Wireless and Satellite Upgrade Program",
    "target_eligibility_quarter": "NA"
   }
  },
  {
   "type": "Feature",
   "geometry": {
    "type": "Point",
    "coordinates": [
     137.88438764,
     -34.60862012
    ]
   },
   "properties": {
    "name": "LOT 11 BLACK POINT DRIVE BLACK POINT 5571",
    "locID": "LOC100082206150",
    "tech": "WIRELESS",
    "upgrade": "NULL_NA",
    "gnaf_pid": "GASA_424156893",
    "ee": true,
    "tech_change_status": "Not Planned",
    "program_type": "Fixed Wireless and Satellite Upgrade Program",
    "target_eligibility_quarter": "NA"
   }
  },
  {
   "type": "Feature",
   "geometry": {
    "type": "Point",
    "coordinates": [
     137.90177702,
     -34.61477648
    ]
   },
   "properties": {
    "name": "LOT 126 BLACK POINT DRIVE BLACK POINT 5571",
    "locID": "LOC000131430985",
    "tech": "WIRELESS",
    "upgrade": "NULL_NA",
    "gnaf_pid": "GASA_424156900",
    "ee": true,
    "tech_change_status": "Not Planned",
    "program_type": "Fixed Wireless and Satellite Upgrade Program",
    "target_eligibility_quarter": "NA"
   }
  },
  {
   "type": "Feature",
   "geometry": {
    "type": "Point",
    "coordinates": [
     137.88451175,
     -34.60870439
    ]
   },
   "properties": {
    "name": "LOT 12 BLACK POINT DRIVE BLACK POINT 5571",
    "locID": "LOC000131444035",
    "tech": "WIRELESS",
    "upgrade": "NULL_NA",
    "gnaf_pid": "GASA_424156904",
    "ee": true,
    "tech_change_status": "Not Planned",
    "program_type": "Fixed Wireless and Satellite Upgrade Program",
    "target_eligibility_quarter": "NA"
   }
  },
  {
   "type": "Feature",
   "geometry": {
    "type": "Point",
    "coordinates": [
     137.90272176,
     -34.61495656
    ]
   },
   "properties": {
    "name": "LOT 132 BLACK POINT DRIVE BLACK POINT 5571",
    "locID": "LOC000108104533",
    "tech": "WIRELESS",
    "upgrade": "NULL_NA",
    "gnaf_pid": "GASA_424156907",
    "ee": true,
    "tech_change_status": "Not Planned",
    "program_type": "Fixed Wireless and Satellite Upgrade Program",
    "target_eligibility_quarter": "NA"
   }
  },
  {
   "type": "Feature",
   "geometry": {
    "type": "Point",
    "coordinates": [
     137.90318428,
     -34.61509512
    ]
   },
   "properties": {
    "name": "LOT 135 BLACK POINT DRIVE BLACK POINT 5571",
    "locID": "LOC000131448071",
    "tech": "SATELLITE",
    "upgrade": "NULL_NA",
    "gnaf_pid": "GASA_424156910",
    "ee": true,
    "tech_change_status": "Not Planned"
   }
  },
  {
   "type": "Feature",
   "geometry": {
    "type": "Point",
    "coordinates": [
     137.90364288,
     -34.61523634
    ]
   },
   "properties": {
    "name": "LOT 138 BLACK POINT DRIVE BLACK POINT 5571",
    "locID": "LOC000109419481",
    "tech": "WIRELESS",
    "upgrade": "NULL_NA",
    "gnaf_pid": "GASA_424156913",
    "ee": true,
    "tech_change_status": "Not Planned",
    "program_type": "Fixed Wireless and Satellite Upgrade Program",
    "target_eligibility_quarter": "NA"
   }
  },
  {
   "type": "Feature",
   "geometry": {
    "type": "Point",
    "coordinates": [
     137.90473813,
     -34.61542128
    ]
   },
   "properties": {
    "name": "LOT 145 BLACK POINT DRIVE BLACK POINT 5571",
    "locID": "LOC000131448156",
    "tech": "SATELLITE",
    "upgrade": "NULL_NA",
    "gnaf_pid": "GASA_424156919",
    "ee": true,
    "tech_change_status": "Not Planned"
   }
  },
  {
   "type": "Feature",
   "geometry": {
    "type": "Point",
    "coordinates": [
     137.90535354,
     -34.61566229
    ]
   },
   "properties": {
    "name": "LOT 149 BLACK POINT DRIVE BLACK POINT 5571",
    "locID": "LOC100072002509",
    "tech": "WIRELESS",
    "upgrade": "NULL_NA",
    "gnaf_pid": "GASA_424156923",
    "ee": true,
    "tech_change_status": "Not Planned",
    "program_type": "Fixed Wireless and Satellite Upgrade Program",
    "target_eligibility_quarter": "NA"
   }
  },
  {
   "type": "Feature",
   "geometry": {
    "type": "Point",
    "coordinates": [
     137.8850694,
     -34.60906006
    ]
   },
   "properties": {
    "name": "LOT 16 BLACK POINT DRIVE BLACK POINT 5571",
    "locID": "LOC100078110001",
    "tech": "WIRELESS",
    "upgrade": "NULL_NA",
    "gnaf_pid": "GASA_424156924",
    "ee": true,
    "tech_change_status": "Not Planned",
    "program_type": "Fixed Wireless and Satellite Upgrade Program",
    "target_eligibility_quarter": "NA"
   }
  },
  {
   "type": "Feature",
   "geometry": {
    "type": "Point",
    "coordinates": [
     137.88521161,
     -34.60913797
    ]
   },
   "properties": {
    "name": "LOT 17 BLACK POINT DRIVE BLACK POINT 5571",
    "locID": "LOC000109662730",
    "tech": "WIRELESS",
    "upgrade": "NULL_NA",
    "gnaf_pid": "GASA_424156925",
    "ee": true,
    "tech_change_status": "Not Planned",
    "program_type": "Fixed Wireless and Satellite Upgrade Program",
    "target_eligibility_quarter": "NA"
   }
  },
  {
   "type": "Feature",
   "geometry": {
    "type": "Point",
    "coordinates": [
     137.8853561,
     -34.60921841
    ]
   },
   "properties": {
    "name": "LOT 18 BLACK POINT DRIVE BLACK POINT 5571",
    "locID": "LOC100078109579",
    "tech": "WIRELESS",
    "upgrade": "NULL_NA",
    "gnaf_pid": "GASA_424156926",
    "ee": true,
    "tech_change_status": "Not Planned",
    "program_type": "Fixed Wireless and Satellite Upgrade Program",
    "target_eligibility_quarter": "NA"
   }
  },
  {
   "type": "Feature",
   "geometry": {
    "type": "Point",
    "coordinates": [
     137.88598808,
     -34.60956544
    ]
   },
   "properties": {
    "name": "LOT 22 BLACK POINT DRIVE BLACK POINT 5571",
    "locID": "LOC000108256929",
    "tech": "WIRELESS",
    "upgrade": "NULL_NA",
    "gnaf_pid": "GASA_424156933",
    "ee": true,
    "tech_change_status": "Not Planned",
    "program_type": "Fixed Wireless and Satellite Upgrade Program",
    "target_eligibility_quarter": "NA"
   }
  },
  {
   "type": "Feature",
   "geometry": {
    "type": "Point",
    "coordinates": [
     137.88612269,
     -34.60964035
    ]
   },
   "properties": {
    "name": "LOT 23 BLACK POINT DRIVE BLACK POINT 5571",
    "locID": "LOC000116346166",
    "tech": "WIRELESS",
    "upgrade": "NULL_NA",
    "gnaf_pid": "GASA_424156934",
    "ee": true,
    "tech_change_status": "Not Planned",
    "program_type": "Fixed Wireless and Satellite Upgrade Program",
    "target_eligibility_quarter": "NA"
   }
  },
  {
   "type": "Feature",
   "geometry": {
    "type": "Point",
    "coordinates": [
     137.88625362,
     -34.60971324
    ]
   },
   "properties": {
    "name": "LOT 24 BLACK POINT DRIVE BLACK POINT 5571",
    "locID": "LOC000109722532",
    "tech": "WIRELESS",
    "upgrade": "NULL_NA",
    "gnaf_pid": "GASA_424156935",
    "ee": true,
    "tech_change_status": "Not Planned",
    "program_type": "Fixed Wireless and Satellite Upgrade Program",
    "target_eligibility_quarter": "NA"
   }
  },
  {
   "type": "Feature",
   "geometry": {
    "type": "Point",
    "coordinates": [
     137.89729961,
     -34.61548947
    ]
   },
   "properties": {
    "name": "LOT 3008 BLACK POINT DRIVE BLACK POINT 5571",
    "locID": "LOC000131422168",
    "tech": "WIRELESS",
    "upgrade": "NULL_NA",
    "gnaf_pid": "GASA_424156942",
    "ee": true,
    "tech_change_status": "Not Planned",
    "program_type": "Fixed Wireless and Satellite Upgrade Program",
    "target_eligibility_quarter": "NA"
   }
  },
  {
   "type": "Feature",
   "geometry": {
    "type": "Point",
    "coordinates": [
     137.891371,
     -34.61436125
    ]
   },
   "properties": {
    "name": "LOT 3013 BLACK POINT DRIVE BLACK POINT 5571",
    "locID": "LOC000131422168",
    "tech": "WIRELESS",
    "upgrade": "NULL_NA",
    "gnaf_pid": "GASA_424156943",
    "ee": true,
    "tech_change_status": "Not Planned",
    "program_type": "Fixed Wireless and Satellite Upgrade Program",
    "target_eligibility_quarter": "NA"
   }
  },
  {
   "type": "Feature",
   "geometry": {
    "type": "Point",
    "coordinates": [
     137.90174593,
     -34.6166823
    ]
   },
   "properties": {
    "name": "LOT 3014 BLACK POINT DRIVE BLACK POINT 5571",
    "locID": "LOC000131422168",
    "tech": "WIRELESS",
    "upgrade": "NULL_NA",
    "gnaf_pid": "GASA_424156944",
    "ee": true,
    "tech_change_status": "Not Planned",
    "program_type": "Fixed Wireless and Satellite Upgrade Program",
    "target_eligibility_quarter": "NA"
   }
  },
  {
   "type": "Feature",
   "geometry": {
    "type": "Point",
    "coordinates": [
     137.88710788,
     -34.61016774
    ]
   },
   "properties": {
    "name": "LOT 30 BLACK POINT DRIVE BLACK POINT 5571",
    "locID": "LOC000108088152",
    "tech": "WIRELESS",
    "upgrade": "NULL_NA",
    "gnaf_pid": "GASA_424156945",
    "ee": true,
    "tech_change_status": "Not Planned",
    "program_type": "Fixed Wireless and Satellite Upgrade Program",
    "target_eligibility_quarter": "NA"
   }
  },
  {
   "type": "Feature",
   "geometry": {
    "type": "Point",
    "coordinates": [
     137.88751099,
     -34.61037864
    ]
   },
   "properties": {
    "name": "LOT 33 BLACK POINT DRIVE BLACK POINT 5571",
    "locID": "LOC100078109630",
    "tech": "WIRELESS",
    "upgrade": "NULL_NA",
    "gnaf_pid": "GASA_424156948",
    "ee": true,
    "tech_change_status": "Not Planned",
    "program_type": "Fixed Wireless and Satellite Upgrade Program",
    "target_eligibility_quarter": "NA"
   }
  },
  {
   "type": "Feature",
   "geometry": {
    "type": "Point",
    "coordinates": [
     137.88764125,
     -34.61044457
    ]
   },
   "properties": {
    "name": "LOT 34 BLACK POINT DRIVE BLACK POINT 5571",
    "locID": "LOC000109551105",
    "tech": "WIRELESS",
    "upgrade": "NULL_NA",
    "gnaf_pid": "GASA_424156949",
    "ee": true,
    "tech_change_status": "Not Planned",
    "program_type": "Fixed Wireless and Satellite Upgrade Program",
    "target_eligibility_quarter": "NA"
   }
  },
  {
   "type": "Feature",
   "geometry": {
    "type": "Point",
    "coordinates": [
     137.8877719,
     -34.61050969
    ]
   },
   "properties": {
    "name": "LOT 35 BLACK POINT DRIVE BLACK POINT 5571",
    "locID": "LOC000131465009",
    "tech": "WIRELESS",
    "upgrade": "NULL_NA",
    "gnaf_pid": "GASA_424156950",
    "ee": true,
    "tech_change_status": "Not Planned",
    "program_type": "Fixed Wireless and Satellite Upgrade Program",
    "target_eligibility_quarter": "NA"
   }
  },
  {
   "type": "Feature",
   "geometry": {
    "type": "Point",
    "coordinates": [
     137.8879025,
     -34.61057488
    ]
   },
   "properties": {
    "name": "LOT 36 BLACK POINT DRIVE BLACK POINT 5571",
    "locID": "LOC100081085906",
    "tech": "WIRELESS",
    "upgrade": "NULL_NA",
    "gnaf_pid": "GASA_424156951",
    "ee": true,
    "tech_change_status": "Not Planned",
    "program_type": "Fixed Wireless and Satellite Upgrade Program",
    "target_eligibility_quarter": "NA"
   }
  },
  {
   "type": "Feature",
   "geometry": {
    "type": "Point",
    "coordinates": [
     137.88803313,
     -34.61064001
    ]
   },
   "properties": {
    "name": "LOT 37 BLACK POINT DRIVE BLACK POINT 5571",
    "locID": "LOC000180234075",
    "tech": "WIRELESS",
    "upgrade": "NULL_NA",
    "gnaf_pid": "GASA_424156952",
    "ee": true,
    "tech_change_status": "Not Planned",
    "program_type": "Fixed Wireless and Satellite Upgrade Program",
    "target_eligibility_quarter": "NA"
   }
  },
  {
   "type": "Feature",
   "geometry": {
    "type": "Point",
    "coordinates": [
     137.88816839,
     -34.61070751
    ]
   },
   "properties": {
    "name": "LOT 38 BLACK POINT DRIVE BLACK POINT 5571",
    "locID": "LOC100078109648",
    "tech": "WIRELESS",
    "upgrade": "NULL_NA",
    "gnaf_pid": "GASA_424156953",
    "ee": true,
    "tech_change_status": "Not Planned",
    "program_type": "Fixed Wireless and Satellite Upgrade Program",
    "target_eligibility_quarter": "NA"
   }
  },
  {
   "type": "Feature",
   "geometry": {
    "type": "Point",
    "coordinates": [
     137.89133385,
     -34.61307345
    ]
   },
   "properties": {
    "name": "LOT 401 BLACK POINT DRIVE BLACK POINT 5571",
    "locID": "LOC000131465202",
    "tech": "WIRELESS",
    "upgrade": "NULL_NA",
    "gnaf_pid": "GASA_424156955",
    "ee": true,
    "tech_change_status": "Not Planned",
    "program_type": "Fixed Wireless and Satellite Upgrade Program",
    "target_eligibility_quarter": "NA"
   }
  },
  {
   "type": "Feature",
   "geometry": {
    "type": "Point",
    "coordinates": [
     137.89815541,
     -34.61375263
    ]
   },
   "properties": {
    "name": "LOT 403 BLACK POINT DRIVE BLACK POINT 5571",
    "locID": "LOC100078860406",
    "tech": "WIRELESS",
    "upgrade": "NULL_NA",
    "gnaf_pid": "GASA_424156957",
    "ee": true,
    "tech_change_status": "Not Planned",
    "program_type": "Fixed Wireless and Satellite Upgrade Program",
    "target_eligibility_quarter": "NA"
   }
  },
  {
   "type": "Feature",
   "geometry": {
    "type": "Point",
    "coordinates": [
     137.89198932,
     -34.61349268
    ]
   },
   "properties": {
    "name": "LOT 405 BLACK POINT DRIVE BLACK POINT 5571",
    "locID": "LOC000131465202",
    "tech": "WIRELESS",
    "upgrade": "NULL_NA",
    "gnaf_pid": "GASA_424156959",
    "ee": true,
    "tech_change_status": "Not Planned",
    "program_type": "Fixed Wireless and Satellite Upgrade Program",
    "target_eligibility_quarter": "NA"
   }
  },
  {
   "type": "Feature",
   "geometry": {
    "type": "Point",
    "coordinates": [
     137.89237463,
     -34.61369264
    ]
   },
   "properties": {
    "name": "LOT 407 BLACK POINT DRIVE BLACK POINT 5571",
    "locID": "LOC000131439843",
    "tech": "WIRELESS",
    "upgrade": "NULL_NA",
    "gnaf_pid": "GASA_424156961",
    "ee": true,
    "tech_change_status": "Not Planned",
    "program_type": "Fixed Wireless and Satellite Upgrade Program",
    "target_eligibility_quarter": "NA"
   }
  },
  {
   "type": "Feature",
   "geometry": {
    "type": "Point",
    "coordinates": [
     137.89291356,
     -34.61392057
    ]
   },
   "properties": {
    "name": "LOT 409 BLACK POINT DRIVE BLACK POINT 5571",
    "locID": "LOC100078860406",
    "tech": "WIRELESS",
    "upgrade": "NULL_NA",
    "gnaf_pid": "GASA_424156963",
    "ee": true,
    "tech_change_status": "Not Planned",
    "program_type": "Fixed Wireless and Satellite Upgrade Program",
    "target_eligibility_quarter": "NA"
   }
  },
  {
   "type": "Feature",
   "geometry": {
    "type": "Point",
    "coordinates": [
     137.8933201,
     -34.61410703
    ]
   },
   "properties": {
    "name": "LOT 411 BLACK POINT DRIVE BLACK POINT 5571",
    "locID": "LOC000131439843",
    "tech": "WIRELESS",
    "upgrade": "NULL_NA",
    "gnaf_pid": "GASA_424156966",
    "ee": true,
    "tech_change_status": "Not Planned",
    "program_type": "Fixed Wireless and Satellite Upgrade Program",
    "target_eligibility_quarter": "NA"
   }
  },
  {
   "type": "Feature",
   "geometry": {
    "type": "Point",
    "coordinates": [
     137.89374249,
     -34.61412897
    ]
   },
   "properties": {
    "name": "LOT 413 BLACK POINT DRIVE BLACK POINT 5571",
    "locID": "LOC000131465202",
    "tech": "WIRELESS",
    "upgrade": "NULL_NA",
    "gnaf_pid": "GASA_424156968",
    "ee": true,
    "tech_change_status": "Not Planned",
    "program_type": "Fixed Wireless and Satellite Upgrade Program",
    "target_eligibility_quarter": "NA"
   }
  },
  {
   "type": "Feature",
   "geometry": {
    "type": "Point",
    "coordinates": [
     137.88858839,
     -34.61091192
    ]
   },
   "properties": {
    "name": "LOT 41 BLACK POINT DRIVE BLACK POINT 5571",
    "locID": "LOC100078669237",
    "tech": "WIRELESS",
    "upgrade": "NULL_NA",
    "gnaf_pid": "GASA_424156970",
    "ee": true,
    "tech_change_status": "Not Planned",
    "program_type": "Fixed Wireless and Satellite Upgrade Program",
    "target_eligibility_quarter": "NA"
   }
  },
  {
   "type": "Feature",
   "geometry": {
    "type": "Point",
    "coordinates": [
     137.88900844,
     -34.61112368
    ]
   },
   "properties": {
    "name": "LOT 44 BLACK POINT DRIVE BLACK POINT 5571",
    "locID": "LOC000131452322",
    "tech": "WIRELESS",
    "upgrade": "NULL_NA",
    "gnaf_pid": "GASA_424156973",
    "ee": true,
    "tech_change_status": "Not Planned",
    "program_type": "Fixed Wireless and Satellite Upgrade Program",
    "target_eligibility_quarter": "NA"
   }
  },
  {
   "type": "Feature",
   "geometry": {
    "type": "Point",
    "coordinates": [
     137.8950482,
     -34.61435512
    ]
   },
   "properties": {
    "name": "LOT 501 BLACK POINT DRIVE BLACK POINT 5571",
    "locID": "LOC000131422168",
    "tech": "WIRELESS",
    "upgrade": "NULL_NA",
    "gnaf_pid": "GASA_424156979",
    "ee": true,
    "tech_change_status": "Not Planned",
    "program_type": "Fixed Wireless and Satellite Upgrade Program",
    "target_eligibility_quarter": "NA"
   }
  },
  {
   "type": "Feature",
   "geometry": {
    "type": "Point",
    "coordinates": [
     137.89518355,
     -34.61445629
    ]
   },
   "properties": {
    "name": "LOT 502 BLACK POINT DRIVE BLACK POINT 5571",
    "locID": "LOC000131448187",
    "tech": "WIRELESS",
    "upgrade": "NULL_NA",
    "gnaf_pid": "GASA_424156980",
    "ee": true,
    "tech_change_status": "Not Planned",
    "program_type": "Fixed Wireless and Satellite Upgrade Program",
    "target_eligibility_quarter": "NA"
   }
  },
  {
   "type": "Feature",
   "geometry": {
    "type": "Point",
    "coordinates": [
     137.895319,
     -34.61455755
    ]
   },
   "properties": {
    "name": "LOT 503 BLACK POINT DRIVE BLACK POINT 5571",
    "locID": "LOC000131422168",
    "tech": "WIRELESS",
    "upgrade": "NULL_NA",
    "gnaf_pid": "GASA_424156981",
    "ee": true,
    "tech_change_status": "Not Planned",
    "program_type": "Fixed Wireless and Satellite Upgrade Program",
    "target_eligibility_quarter": "NA"
   }
  },
  {
   "type": "Feature",
   "geometry": {
    "type": "Point",
    "coordinates": [
     137.89625022,
     -34.6148555
    ]
   },
   "properties": {
    "name": "LOT 505 BLACK POINT DRIVE BLACK POINT 5571",
    "locID": "LOC000131422168",
    "tech": "WIRELESS",
    "upgrade": "NULL_NA",
    "gnaf_pid": "GASA_424156983",
    "ee": true,
    "tech_change_status": "Not Planned",
    "program_type": "Fixed Wireless and Satellite Upgrade Program",
    "target_eligibility_quarter": "NA"
   }
  },
  {
   "type": "Feature",
   "geometry": {
    "type": "Point",
    "coordinates": [
     137.89642972,
     -34.61482045
    ]
   },
   "properties": {
    "name": "LOT 506 BLACK POINT DRIVE BLACK POINT 5571",
    "locID": "LOC000131422168",
    "tech": "WIRELESS",
    "upgrade": "NULL_NA",
    "gnaf_pid": "GASA_424156984",
    "ee": true,
    "tech_change_status": "Not Planned",
    "program_type": "Fixed Wireless and Satellite Upgrade Program",
    "target_eligibility_quarter": "NA"
   }
  },
  {
   "type": "Feature",
   "geometry": {
    "type": "Point",
    "coordinates": [
     137.8966078,
     -34.61478707
    ]
   },
   "properties": {
    "name": "LOT 507 BLACK POINT DRIVE BLACK POINT 5571",
    "locID": "LOC000131422168",
    "tech": "WIRELESS",
    "upgrade": "NULL_NA",
    "gnaf_pid": "GASA_424156985",
    "ee": true,
    "tech_change_status": "Not Planned",
    "program_type": "Fixed Wireless and Satellite Upgrade Program",
    "target_eligibility_quarter": "NA"
   }
  },
  {
   "type": "Feature",
   "geometry": {
    "type": "Point",
    "coordinates": [
     137.8967861,
     -34.61475363
    ]
   },
   "properties": {
    "name": "LOT 508 BLACK POINT DRIVE BLACK POINT 5571",
    "locID": "LOC000131448187",
    "tech": "WIRELESS",
    "upgrade": "NULL_NA",
    "gnaf_pid": "GASA_424156986",
    "ee": true,
    "tech_change_status": "Not Planned",
    "program_type": "Fixed Wireless and Satellite Upgrade Program",
    "target_eligibility_quarter": "NA"
   }
  },
  {
   "type": "Feature",
   "geometry": {
    "type": "Point",
    "coordinates": [
     137.89018425,
     -34.61163046
    ]
   },
   "properties": {
    "name": "LOT 52 BLACK POINT DRIVE BLACK POINT 5571",
    "locID": "LOC000131478130",
    "tech": "WIRELESS",
    "upgrade": "NULL_NA",
    "gnaf_pid": "GASA_424156989",
    "ee": true,
    "tech_change_status": "Not Planned",
    "program_type": "Fixed Wireless and Satellite Upgrade Program",
    "target_eligibility_quarter": "NA"
   }
  },
  {
   "type": "Feature",
   "geometry": {
    "type": "Point",
    "coordinates": [
     137.89062034,
     -34.61181626
    ]
   },
   "properties": {
    "name": "LOT 55 BLACK POINT DRIVE BLACK POINT 5571",
    "locID": "LOC000131456353",
    "tech": "WIRELESS",
    "upgrade": "NULL_NA",
    "gnaf_pid": "GASA_424156991",
    "ee": true,
    "tech_change_status": "Not Planned",
    "program_type": "Fixed Wireless and Satellite Upgrade Program",
    "target_eligibility_quarter": "NA"
   }
  },
  {
   "type": "Feature",
   "geometry": {
    "type": "Point",
    "coordinates": [
     137.89953825,
     -34.61527419
    ]
   },
   "properties": {
    "name": "LOT 601 BLACK POINT DRIVE BLACK POINT 5571",
    "locID": "LOC000131448187",
    "tech": "WIRELESS",
    "upgrade": "NULL_NA",
    "gnaf_pid": "GASA_424156997",
    "ee": true,
    "tech_change_status": "Not Planned",
    "program_type": "Fixed Wireless and Satellite Upgrade Program",
    "target_eligibility_quarter": "NA"
   }
  },
  {
   "type": "Feature",
   "geometry": {
    "type": "Point",
    "coordinates": [
     137.8996866,
     -34.61536609
    ]
   },
   "properties": {
    "name": "LOT 602 BLACK POINT DRIVE BLACK POINT 5571",
    "locID": "LOC000131422168",
    "tech": "WIRELESS",
    "upgrade": "NULL_NA",
    "gnaf_pid": "GASA_424156998",
    "ee": true,
    "tech_change_status": "Not Planned",
    "program_type": "Fixed Wireless and Satellite Upgrade Program",
    "target_eligibility_quarter": "NA"
   }
  },
  {
   "type": "Feature",
   "geometry": {
    "type": "Point",
    "coordinates": [
     137.89983988,
     -34.6154803
    ]
   },
   "properties": {
    "name": "LOT 603 BLACK POINT DRIVE BLACK POINT 5571",
    "locID": "LOC000108498052",
    "tech": "WIRELESS",
    "upgrade": "NULL_NA",
    "gnaf_pid": "GASA_424156999",
    "ee": true,
    "tech_change_status": "Not Planned",
    "program_type": "Fixed Wireless and Satellite Upgrade Program",
    "target_eligibility_quarter": "NA"
   }
  },
  {
   "type": "Feature",
   "geometry": {
    "type": "Point",
    "coordinates": [
     137.90002651,
     -34.61559492
    ]
   },
   "properties": {
    "name": "LOT 604 BLACK POINT DRIVE BLACK POINT 5571",
    "locID": "LOC000131456416",
    "tech": "WIRELESS",
    "upgrade": "NULL_NA",
    "gnaf_pid": "GASA_424157000",
    "ee": true,
    "tech_change_status": "Not Planned",
    "program_type": "Fixed Wireless and Satellite Upgrade Program",
    "target_eligibility_quarter": "NA"
   }
  },
  {
   "type": "Feature",
   "geometry": {
    "type": "Point",
    "coordinates": [
     137.9010742,
     -34.61559729
    ]
   },
   "properties": {
    "name": "LOT 606 BLACK POINT DRIVE BLACK POINT 5571",
    "locID": "LOC000131422168",
    "tech": "WIRELESS",
    "upgrade": "NULL_NA",
    "gnaf_pid": "GASA_424157002",
    "ee": true,
    "tech_change_status": "Not Planned",
    "program_type": "Fixed Wireless and Satellite Upgrade Program",
    "target_eligibility_quarter": "NA"
   }
  },
  {
   "type": "Feature",
   "geometry": {
    "type": "Point",
    "coordinates": [
     137.9012687,
     -34.61554419
    ]
   },
   "properties": {
    "name": "LOT 607 BLACK POINT DRIVE BLACK POINT 5571",
    "locID": "LOC000108462298",
    "tech": "WIRELESS",
    "upgrade": "NULL_NA",
    "gnaf_pid": "GASA_424157003",
    "ee": true,
    "tech_change_status": "Not Planned",
    "program_type": "Fixed Wireless and Satellite Upgrade Program",
    "target_eligibility_quarter": "NA"
   }
  },
  {
   "type": "Feature",
   "geometry": {
    "type": "Point",
    "coordinates": [
     137.9014544,
     -34.6155081
    ]
   },
   "properties": {
    "name": "LOT 608 BLACK POINT DRIVE BLACK POINT 5571",
    "locID": "LOC000131448187",
    "tech": "WIRELESS",
    "upgrade": "NULL_NA",
    "gnaf_pid": "GASA_424157004",
    "ee": true,
    "tech_change_status": "Not Planned",
    "program_type": "Fixed Wireless and Satellite Upgrade Program",
    "target_eligibility_quarter": "NA"
   }
  },
  {
   "type": "Feature",
   "geometry": {
    "type": "Point",
    "coordinates": [
     137.89241167,
     -34.61255201
    ]
   },
   "properties": {
    "name": "LOT 67 BLACK POINT DRIVE BLACK POINT 5571",
    "locID": "LOC000131456492",
    "tech": "WIRELESS",
    "upgrade": "NULL_NA",
    "gnaf_pid": "GASA_424157010",
    "ee": true,
    "tech_change_status": "Not Planned",
    "program_type": "Fixed Wireless and Satellite Upgrade Program",
    "target_eligibility_quarter": "NA"
   }
  },
  {
   "type": "Feature",
   "geometry": {
    "type": "Point",
    "coordinates": [
     137.9039009,
     -34.61568244
    ]
   },
   "properties": {
    "name": "LOT 701 BLACK POINT DRIVE BLACK POINT 5571",
    "locID": "LOC000131422168",
    "tech": "WIRELESS",
    "upgrade": "NULL_NA",
    "gnaf_pid": "GASA_424157013",
    "ee": true,
    "tech_change_status": "Not Planned",
    "program_type": "Fixed Wireless and Satellite Upgrade Program",
    "target_eligibility_quarter": "NA"
   }
  },
  {
   "type": "Feature",
   "geometry": {
    "type": "Point",
    "coordinates": [
     137.90369986,
     -34.61569416
    ]
   },
   "properties": {
    "name": "LOT 702 BLACK POINT DRIVE BLACK POINT 5571",
    "locID": "LOC000131422168",
    "tech": "WIRELESS",
    "upgrade": "NULL_NA",
    "gnaf_pid": "GASA_424157014",
    "ee": true,
    "tech_change_status": "Not Planned",
    "program_type": "Fixed Wireless and Satellite Upgrade Program",
    "target_eligibility_quarter": "NA"
   }
  },
  {
   "type": "Feature",
   "geometry": {
    "type": "Point",
    "coordinates": [
     137.90351702,
     -34.61575978
    ]
   },
   "properties": {
    "name": "LOT 703 BLACK POINT DRIVE BLACK POINT 5571",
    "locID": "LOC000131448187",
    "tech": "WIRELESS",
    "upgrade": "NULL_NA",
    "gnaf_pid": "GASA_424157015",
    "ee": true,
    "tech_change_status": "Not Planned",
    "program_type": "Fixed Wireless and Satellite Upgrade Program",
    "target_eligibility_quarter": "NA"
   }
  },
  {
   "type": "Feature",
   "geometry": {
    "type": "Point",
    "coordinates": [
     137.89356649,
     -34.61306949
    ]
   },
   "properties": {
    "name": "LOT 75 BLACK POINT DRIVE BLACK POINT 5571",
    "locID": "LOC000131421922",
    "tech": "WIRELESS",
    "upgrade": "NULL_NA",
    "gnaf_pid": "GASA_424157021",
    "ee": true,
    "tech_change_status": "Not Planned",
    "program_type": "Fixed Wireless and Satellite Upgrade Program",
    "target_eligibility_quarter": "NA"
   }
  },
  {
   "type": "Feature",
   "geometry": {
    "type": "Point",
    "coordinates": [
     137.89371705,
     -34.61313585
    ]
   },
   "properties": {
    "name": "LOT 76 BLACK POINT DRIVE BLACK POINT 5571",
    "locID": "LOC000131456601",
    "tech": "WIRELESS",
    "upgrade": "NULL_NA",
    "gnaf_pid": "GASA_424157022",
    "ee": true,
    "tech_change_status": "Not Planned",
    "program_type": "Fixed Wireless and Satellite Upgrade Program",
    "target_eligibility_quarter": "NA"
   }
  },
  {
   "type": "Feature",
   "geometry": {
    "type": "Point",
    "coordinates": [
     137.89419736,
     -34.61332287
    ]
   },
   "properties": {
    "name": "LOT 79 BLACK POINT DRIVE BLACK POINT 5571",
    "locID": "LOC000131422020",
    "tech": "WIRELESS",
    "upgrade": "NULL_NA",
    "gnaf_pid": "GASA_424157025",
    "ee": true,
    "tech_change_status": "Not Planned",
    "program_type": "Fixed Wireless and Satellite Upgrade Program",
    "target_eligibility_quarter": "NA"
   }
  },
  {
   "type": "Feature",
   "geometry": {
    "type": "Point",
    "coordinates": [
     137.89453906,
     -34.61339536
    ]
   },
   "properties": {
    "name": "LOT 81 BLACK POINT DRIVE BLACK POINT 5571",
    "locID": "LOC000131422168",
    "tech": "WIRELESS",
    "upgrade": "NULL_NA",
    "gnaf_pid": "GASA_424157027",
    "ee": true,
    "tech_change_status": "Not Planned",
    "program_type": "Fixed Wireless and Satellite Upgrade Program",
    "target_eligibility_quarter": "NA"
   }
  },
  {
   "type": "Feature",
   "geometry": {
    "type": "Point",
    "coordinates": [
     137.89500815,
     -34.61351354
    ]
   },
   "properties": {
    "name": "LOT 84 BLACK POINT DRIVE BLACK POINT 5571",
    "locID": "LOC000108348195",
    "tech": "WIRELESS",
    "upgrade": "NULL_NA",
    "gnaf_pid": "GASA_424157030",
    "ee": true,
    "tech_change_status": "Not Planned",
    "program_type": "Fixed Wireless and Satellite Upgrade Program",
    "target_eligibility_quarter": "NA"
   }
  },
  {
   "type": "Feature",
   "geometry": {
    "type": "Point",
    "coordinates": [
     137.89516421,
     -34.61355386
    ]
   },
   "properties": {
    "name": "LOT 85 BLACK POINT DRIVE BLACK POINT 5571",
    "locID": "LOC000109016682",
    "tech": "WIRELESS",
    "upgrade": "NULL_NA",
    "gnaf_pid": "GASA_424157031",
    "ee": true,
    "tech_change_status": "Not Planned",
    "program_type": "Fixed Wireless and Satellite Upgrade Program",
    "target_eligibility_quarter": "NA"
   }
  },
  {
   "type": "Feature",
   "geometry": {
    "type": "Point",
    "coordinates": [
     137.89532011,
     -34.61359464
    ]
   },
   "properties": {
    "name": "LOT 86 BLACK POINT DRIVE BLACK POINT 5571",
    "locID": "LOC000131460592",
    "tech": "WIRELESS",
    "upgrade": "NULL_NA",
    "gnaf_pid": "GASA_424157032",
    "ee": true,
    "tech_change_status": "Not Planned",
    "program_type": "Fixed Wireless and Satellite Upgrade Program",
    "target_eligibility_quarter": "NA"
   }
  },
  {
   "type": "Feature",
   "geometry": {
    "type": "Point",
    "coordinates": [
     137.88696075,
     -34.61101639
    ]
   },
   "properties": {
    "name": "LOT 8 BLACK POINT DRIVE BLACK POINT 5571",
    "locID": "LOC000108348195",
    "tech": "WIRELESS",
    "upgrade": "NULL_NA",
    "gnaf_pid": "GASA_424157036",
    "ee": true,
    "tech_change_status": "Not Planned",
    "program_type": "Fixed Wireless and Satellite Upgrade Program",
    "target_eligibility_quarter": "NA"
   }
  },
  {
   "type": "Feature",
   "geometry": {
    "type": "Point",
    "coordinates": [
     137.89561982,
     -34.61476474
    ]
   },
   "properties": {
    "name": "LOT 90 BLACK POINT DRIVE BLACK POINT 5571",
    "locID": "LOC000131426859",
    "tech": "WIRELESS",
    "upgrade": "NULL_NA",
    "gnaf_pid": "GASA_424157037",
    "ee": true,
    "tech_change_status": "Not Planned",
    "program_type": "Fixed Wireless and Satellite Upgrade Program",
    "target_eligibility_quarter": "NA"
   }
  },
  {
   "type": "Feature",
   "geometry": {
    "type": "Point",
    "coordinates": [
     137.8958352,
     -34.61481364
    ]
   },
   "properties": {
    "name": "LOT 91 BLACK POINT DRIVE BLACK POINT 5571",
    "locID": "LOC000131426871",
    "tech": "WIRELESS",
    "upgrade": "NULL_NA",
    "gnaf_pid": "GASA_424157038",
    "ee": true,
    "tech_change_status": "Not Planned",
    "program_type": "Fixed Wireless and Satellite Upgrade Program",
    "target_eligibility_quarter": "NA"
   }
  },
  {
   "type": "Feature",
   "geometry": {
    "type": "Point",
    "coordinates": [
     137.88416815,
     -34.60845569
    ]
   },
   "properties": {
    "name": "LOT 9 BLACK POINT DRIVE BLACK POINT 5571",
    "locID": "LOC000108672974",
    "tech": "WIRELESS",
    "upgrade": "NULL_NA",
    "gnaf_pid": "GASA_424157047",
    "ee": true,
    "tech_change_status": "Not Planned",
    "program_type": "Fixed Wireless and Satellite Upgrade Program",
    "target_eligibility_quarter": "NA"
   }
  },
  {
   "type": "Feature",
   "geometry": {
    "type": "Point",
    "coordinates": [
     137.88296694,
     -34.6074973
    ]
   },
   "properties": {
    "name": "LOT 155 HARVEY CRESCENT BLACK POINT 5571",
    "locID": "LOC000131474215",
    "tech": "WIRELESS",
    "upgrade": "NULL_NA",
    "gnaf_pid": "GASA_424177485",
    "ee": true,
    "tech_change_status": "Not Planned",
    "program_type": "Fixed Wireless and Satellite Upgrade Program",
    "target_eligibility_quarter": "NA"
   }
  },
  {
   "type": "Feature",
   "geometry": {
    "type": "Point",
    "coordinates": [
     137.88308674,
     -34.60758259
    ]
   },
   "properties": {
    "name": "LOT 156 HARVEY CRESCENT BLACK POINT 5571",
    "locID": "LOC100078109483",
    "tech": "WIRELESS",
    "upgrade": "NULL_NA",
    "gnaf_pid": "GASA_424177486",
    "ee": true,
    "tech_change_status": "Not Planned",
    "program_type": "Fixed Wireless and Satellite Upgrade Program",
    "target_eligibility_quarter": "NA"
   }
  },
  {
   "type": "Feature",
   "geometry": {
    "type": "Point",
    "coordinates": [
     137.8825239,
     -34.60718212
    ]
   },
   "properties": {
    "name": "LOT 2 HARVEY CRESCENT BLACK POINT 5571",
    "locID": "LOC100087411103",
    "tech": "WIRELESS",
    "upgrade": "NULL_NA",
    "gnaf_pid": "GASA_424177488",
    "ee": true,
    "tech_change_status": "Not Planned",
    "program_type": "Fixed Wireless and Satellite Upgrade Program",
    "target_eligibility_quarter": "NA"
   }
  },
  {
   "type": "Feature",
   "geometry": {
    "type": "Point",
    "coordinates": [
     137.88258243,
     -34.60722372
    ]
   },
   "properties": {
    "name": "LOT 3 HARVEY CRESCENT BLACK POINT 5571",
    "locID": "LOC000131460223",
    "tech": "WIRELESS",
    "upgrade": "NULL_NA",
    "gnaf_pid": "GASA_424177489",
    "ee": true,
    "tech_change_status": "Not Planned",
    "program_type": "Fixed Wireless and Satellite Upgrade Program",
    "target_eligibility_quarter": "NA"
   }
  },
  {
   "type": "Feature",
   "geometry": {
    "type": "Point",
    "coordinates": [
     137.88269943,
     -34.60730697
    ]
   },
   "properties": {
    "name": "LOT 5 HARVEY CRESCENT BLACK POINT 5571",
    "locID": "LOC100078109483",
    "tech": "WIRELESS",
    "upgrade": "NULL_NA",
    "gnaf_pid": "GASA_424177491",
    "ee": true,
    "tech_change_status": "Not Planned",
    "program_type": "Fixed Wireless and Satellite Upgrade Program",
    "target_eligibility_quarter": "NA"
   }
  },
  {
   "type": "Feature",
   "geometry": {
    "type": "Point",
    "coordinates": [
     137.88491721,
     -34.60899519
    ]
   },
   "properties": {
    "name": "LOT 150 BLACK POINT DRIVE BLACK POINT 5571",
    "locID": "LOC000108091147",
    "tech": "WIRELESS",
    "upgrade": "NULL_NA",
    "gnaf_pid": "GASA_424223278",
    "ee": true,
    "tech_change_status": "Not Planned",
    "program_type": "Fixed Wireless and Satellite Upgrade Program",
    "target_eligibility_quarter": "NA"
   }
  },
  {
   "type": "Feature",
   "geometry": {
    "type": "Point",
    "coordinates": [
     137.89047342,
     -34.61175664
    ]
   },
   "properties": {
    "name": "LOT 54 BLACK POINT DRIVE BLACK POINT 5571",
    "locID": "LOC100055504068",
    "tech": "WIRELESS",
    "upgrade": "NULL_NA",
    "gnaf_pid": "GASA_424223280",
    "ee": true,
    "tech_change_status": "Not Planned",
    "program_type": "Fixed Wireless and Satellite Upgrade Program",
    "target_eligibility_quarter": "NA"
   }
  },
  {
   "type": "Feature",
   "geometry": {
    "type": "Point",
    "coordinates": [
     137.89757025,
     -34.61395724
    ]
   },
   "properties": {
    "name": "101 BLACK POINT DRIVE BLACK POINT 5571",
    "locID": "LOC100078109790",
    "tech": "WIRELESS",
    "upgrade": "NULL_NA",
    "gnaf_pid": "GASA_424289866",
    "ee": true,
    "tech_change_status": "Not Planned",
    "program_type": "Fixed Wireless and Satellite Upgrade Program",
    "target_eligibility_quarter": "NA"
   }
  },
  {
   "type": "Feature",
   "geometry": {
    "type": "Point",
    "coordinates": [
     137.90019029,
     -34.61430903
    ]
   },
   "properties": {
    "name": "114 BLACK POINT DRIVE BLACK POINT 5571",
    "locID": "LOC100082206150",
    "tech": "WIRELESS",
    "upgrade": "NULL_NA",
    "gnaf_pid": "GASA_424289874",
    "ee": true,
    "tech_change_status": "Not Planned",
    "program_type": "Fixed Wireless and Satellite Upgrade Program",
    "target_eligibility_quarter": "NA"
   }
  },
  {
   "type": "Feature",
   "geometry": {
    "type": "Point",
    "coordinates": [
     137.90060485,
     -34.61477744
    ]
   },
   "properties": {
    "name": "121 BLACK POINT DRIVE BLACK POINT 5571",
    "locID": "LOC000131430928",
    "tech": "WIRELESS",
    "upgrade": "NULL_NA",
    "gnaf_pid": "GASA_424289880",
    "ee": true,
    "tech_change_status": "Not Planned",
    "program_type": "Fixed Wireless and Satellite Upgrade Program",
    "target_eligibility_quarter": "NA"
   }
  },
  {
   "type": "Feature",
   "geometry": {
    "type": "Point",
    "coordinates": [
     137.90341935,
     -34.61508467
    ]
   },
   "properties": {
    "name": "135 BLACK POINT DRIVE BLACK POINT 5571",
    "locID": "LOC000131448071",
    "tech": "SATELLITE",
    "upgrade": "NULL_NA",
    "gnaf_pid": "GASA_424289893",
    "ee": true,
    "tech_change_status": "Not Planned"
   }
  },
  {
   "type": "Feature",
   "geometry": {
    "type": "Point",
    "coordinates": [
     137.90500214,
     -34.6152279
    ]
   },
   "properties": {
    "name": "146 BLACK POINT DRIVE BLACK POINT 5571",
    "locID": "LOC000131435494",
    "tech": "WIRELESS",
    "upgrade": "NULL_NA",
    "gnaf_pid": "GASA_424289901",
    "ee": true,
    "tech_change_status": "Not Planned",
    "program_type": "Fixed Wireless and Satellite Upgrade Program",
    "target_eligibility_quarter": "NA"
   }
  },
  {
   "type": "Feature",
   "geometry": {
    "type": "Point",
    "coordinates": [
     137.88539107,
     -34.60885878
    ]
   },
   "properties": {
    "name": "17 BLACK POINT DRIVE BLACK POINT 5571",
    "locID": "LOC000109662730",
    "tech": "WIRELESS",
    "upgrade": "NULL_NA",
    "gnaf_pid": "GASA_424289904",
    "ee": true,
    "tech_change_status": "Not Planned",
    "program_type": "Fixed Wireless and Satellite Upgrade Program",
    "target_eligibility_quarter": "NA"
   }
  },
  {
   "type": "Feature",
   "geometry": {
    "type": "Point",
    "coordinates": [
     137.88547065,
     -34.60917886
    ]
   },
   "properties": {
    "name": "18 BLACK POINT DRIVE BLACK POINT 5571",
    "locID": "LOC000131439986",
    "tech": "WIRELESS",
    "upgrade": "NULL_NA",
    "gnaf_pid": "GASA_424289905",
    "ee": true,
    "tech_change_status": "Not Planned",
    "program_type": "Fixed Wireless and Satellite Upgrade Program",
    "target_eligibility_quarter": "NA"
   }
  },
  {
   "type": "Feature",
   "geometry": {
    "type": "Point",
    "coordinates": [
     137.88716979,
     -34.6098834
    ]
   },
   "properties": {
    "name": "30 BLACK POINT DRIVE BLACK POINT 5571",
    "locID": "LOC000108088152",
    "tech": "WIRELESS",
    "upgrade": "NULL_NA",
    "gnaf_pid": "GASA_424289910",
    "ee": true,
    "tech_change_status": "Not Planned",
    "program_type": "Fixed Wireless and Satellite Upgrade Program",
    "target_eligibility_quarter": "NA"
   }
  },
  {
   "type": "Feature",
   "geometry": {
    "type": "Point",
    "coordinates": [
     137.88801094,
     -34.61026137
    ]
   },
   "properties": {
    "name": "35 BLACK POINT DRIVE BLACK POINT 5571",
    "locID": "LOC000131465009",
    "tech": "WIRELESS",
    "upgrade": "NULL_NA",
    "gnaf_pid": "GASA_424289912",
    "ee": true,
    "tech_change_status": "Not Planned",
    "program_type": "Fixed Wireless and Satellite Upgrade Program",
    "target_eligibility_quarter": "NA"
   }
  },
  {
   "type": "Feature",
   "geometry": {
    "type": "Point",
    "coordinates": [
     137.89046888,
     -34.61147397
    ]
   },
   "properties": {
    "name": "52 BLACK POINT DRIVE BLACK POINT 5571",
    "locID": "LOC000131478130",
    "tech": "WIRELESS",
    "upgrade": "NULL_NA",
    "gnaf_pid": "GASA_424289924",
    "ee": true,
    "tech_change_status": "Not Planned",
    "program_type": "Fixed Wireless and Satellite Upgrade Program",
    "target_eligibility_quarter": "NA"
   }
  },
  {
   "type": "Feature",
   "geometry": {
    "type": "Point",
    "coordinates": [
     137.89437746,
     -34.61292376
    ]
   },
   "properties": {
    "name": "79 BLACK POINT DRIVE BLACK POINT 5571",
    "locID": "LOC000131422020",
    "tech": "WIRELESS",
    "upgrade": "NULL_NA",
    "gnaf_pid": "GASA_424289938",
    "ee": true,
    "tech_change_status": "Not Planned",
    "program_type": "Fixed Wireless and Satellite Upgrade Program",
    "target_eligibility_quarter": "NA"
   }
  },
  {
   "type": "Feature",
   "geometry": {
    "type": "Point",
    "coordinates": [
     137.89544773,
     -34.61321144
    ]
   },
   "properties": {
    "name": "84 BLACK POINT DRIVE BLACK POINT 5571",
    "locID": "LOC000108348195",
    "tech": "WIRELESS",
    "upgrade": "NULL_NA",
    "gnaf_pid": "GASA_424289942",
    "ee": true,
    "tech_change_status": "Not Planned",
    "program_type": "Fixed Wireless and Satellite Upgrade Program",
    "target_eligibility_quarter": "NA"
   }
  },
  {
   "type": "Feature",
   "geometry": {
    "type": "Point",
    "coordinates": [
     137.89545715,
     -34.61318691
    ]
   },
   "properties": {
    "name": "86 BLACK POINT DRIVE BLACK POINT 5571",
    "locID": "LOC000131460592",
    "tech": "WIRELESS",
    "upgrade": "NULL_NA",
    "gnaf_pid": "GASA_424289943",
    "ee": true,
    "tech_change_status": "Not Planned",
    "program_type": "Fixed Wireless and Satellite Upgrade Program",
    "target_eligibility_quarter": "NA"
   }
  },
  {
   "type": "Feature",
   "geometry": {
    "type": "Point",
    "coordinates": [
     137.89635758,
     -34.61336469
    ]
   },
   "properties": {
    "name": "90 BLACK POINT DRIVE BLACK POINT 5571",
    "locID": "LOC000131426859",
    "tech": "WIRELESS",
    "upgrade": "NULL_NA",
    "gnaf_pid": "GASA_424289947",
    "ee": true,
    "tech_change_status": "Not Planned",
    "program_type": "Fixed Wireless and Satellite Upgrade Program",
    "target_eligibility_quarter": "NA"
   }
  },
  {
   "type": "Feature",
   "geometry": {
    "type": "Point",
    "coordinates": [
     137.88272057,
     -34.60700002
    ]
   },
   "properties": {
    "name": "151 HARVEY CRESCENT BLACK POINT 5571",
    "locID": "LOC000131439739",
    "tech": "WIRELESS",
    "upgrade": "NULL_NA",
    "gnaf_pid": "GASA_424306591",
    "ee": true,
    "tech_change_status": "Not Planned",
    "program_type": "Fixed Wireless and Satellite Upgrade Program",
    "target_eligibility_quarter": "NA"
   }
  },
  {
   "type": "Feature",
   "geometry": {
    "type": "Point",
    "coordinates": [
     137.88206076,
     -34.60700405
    ]
   },
   "properties": {
    "name": "LOT 3001 HARVEY CRESCENT BLACK POINT 5571",
    "locID": "LOC000131439739",
    "tech": "WIRELESS",
    "upgrade": "NULL_NA",
    "gnaf_pid": "GASA_424306592",
    "ee": true,
    "tech_change_status": "Not Planned",
    "program_type": "Fixed Wireless and Satellite Upgrade Program",
    "target_eligibility_quarter": "NA"
   }
  },
  {
   "type": "Feature",
   "geometry": {
    "type": "Point",
    "coordinates": [
     137.88367917,
     -34.6076437
    ]
   },
   "properties": {
    "name": "3 HARVEY CRESCENT BLACK POINT 5571",
    "locID": "LOC000131460223",
    "tech": "WIRELESS",
    "upgrade": "NULL_NA",
    "gnaf_pid": "GASA_424306593",
    "ee": true,
    "tech_change_status": "Not Planned",
    "program_type": "Fixed Wireless and Satellite Upgrade Program",
    "target_eligibility_quarter": "NA"
   }
  },
  {
   "type": "Feature",
   "geometry": {
    "type": "Point",
    "coordinates": [
     137.9041645,
     -34.61635452
    ]
   },
   "properties": {
    "name": "LOT 1500 OUTLOOK ROAD BLACK POINT 5571",
    "locID": "LOC000131422293",
    "tech": "WIRELESS",
    "upgrade": "NULL_NA",
    "gnaf_pid": "GASA_424323418",
    "ee": true,
    "tech_change_status": "Not Planned",
    "program_type": "Fixed Wireless and Satellite Upgrade Program",
    "target_eligibility_quarter": "NA"
   }
  },
  {
   "type": "Feature",
   "geometry": {
    "type": "Point",
    "coordinates": [
     137.9028926,
     -34.6175104
    ]
   },
   "properties": {
    "name": "LOT 1502 OUTLOOK ROAD BLACK POINT 5571",
    "locID": "LOC000131422293",
    "tech": "WIRELESS",
    "upgrade": "NULL_NA",
    "gnaf_pid": "GASA_424323419",
    "ee": true,
    "tech_change_status": "Not Planned",
    "program_type": "Fixed Wireless and Satellite Upgrade Program",
    "target_eligibility_quarter": "NA"
   }
  },
  {
   "type": "Feature",
   "geometry": {
    "type": "Point",
    "coordinates": [
     137.90420379,
     -34.61700184
    ]
   },
   "properties": {
    "name": "LOT 709 OUTLOOK ROAD BLACK POINT 5571",
    "locID": "LOC000131422293",
    "tech": "WIRELESS",
    "upgrade": "NULL_NA",
    "gnaf_pid": "GASA_424323425",
    "ee": true,
    "tech_change_status": "Not Planned",
    "program_type": "Fixed Wireless and Satellite Upgrade Program",
    "target_eligibility_quarter": "NA"
   }
  },
  {
   "type": "Feature",
   "geometry": {
    "type": "Point",
    "coordinates": [
     137.9027463,
     -34.61756318
    ]
   },
   "properties": {
    "name": "LOT 729 OUTLOOK ROAD BLACK POINT 5571",
    "locID": "LOC000131422293",
    "tech": "WIRELESS",
    "upgrade": "NULL_NA",
    "gnaf_pid": "GASA_424323433",
    "ee": true,
    "tech_change_status": "Not Planned",
    "program_type": "Fixed Wireless and Satellite Upgrade Program",
    "target_eligibility_quarter": "NA"
   }
  },
  {
   "type": "Feature",
   "geometry": {
    "type": "Point",
    "coordinates": [
     137.87670505,
     -34.60265158
    ]
   },
   "properties": {
    "name": "165 BLACK POINT ROAD BLACK POINT 5571",
    "locID": "LOC000131439843",
    "tech": "WIRELESS",
    "upgrade": "NULL_NA",
    "gnaf_pid": "GASA_424947292",
    "ee": true,
    "tech_change_status": "Not Planned",
    "program_type": "Fixed Wireless and Satellite Upgrade Program",
    "target_eligibility_quarter": "NA"
   }
  },
  {
   "type": "Feature",
   "geometry": {
    "type": "Point",
    "coordinates": [
     137.87363361,
     -34.58999639
    ]
   },
   "properties": {
    "name": "19 BLACK POINT ROAD BLACK POINT 5571",
    "locID": "LOC100078860406",
    "tech": "WIRELESS",
    "upgrade": "NULL_NA",
    "gnaf_pid": "GASA_424947293",
    "ee": true,
    "tech_change_status": "Not Planned",
    "program_type": "Fixed Wireless and Satellite Upgrade Program",
    "target_eligibility_quarter": "NA"
   }
  },
  {
   "type": "Feature",
   "geometry": {
    "type": "Point",
    "coordinates": [
     137.87375137,
     -34.59015453
    ]
   },
   "properties": {
    "name": "21 BLACK POINT ROAD BLACK POINT 5571",
    "locID": "LOC000131422240",
    "tech": "WIRELESS",
    "upgrade": "NULL_NA",
    "gnaf_pid": "GASA_424947294",
    "ee": true,
    "tech_change_status": "Not Planned",
    "program_type": "Fixed Wireless and Satellite Upgrade Program",
    "target_eligibility_quarter": "NA"
   }
  },
  {
   "type": "Feature",
   "geometry": {
    "type": "Point",
    "coordinates": [
     137.87453229,
     -34.58972703
    ]
   },
   "properties": {
    "name": "25 BLACK POINT ROAD BLACK POINT 5571",
    "locID": "LOC000131451942",
    "tech": "WIRELESS",
    "upgrade": "NULL_NA",
    "gnaf_pid": "GASA_424947297",
    "ee": true,
    "tech_change_status": "Not Planned",
    "program_type": "Fixed Wireless and Satellite Upgrade Program",
    "target_eligibility_quarter": "NA"
   }
  },
  {
   "type": "Feature",
   "geometry": {
    "type": "Point",
    "coordinates": [
     137.87447601,
     -34.5916089
    ]
   },
   "properties": {
    "name": "39 BLACK POINT ROAD BLACK POINT 5571",
    "locID": "LOC000131465202",
    "tech": "WIRELESS",
    "upgrade": "NULL_NA",
    "gnaf_pid": "GASA_424947298",
    "ee": true,
    "tech_change_status": "Not Planned",
    "program_type": "Fixed Wireless and Satellite Upgrade Program",
    "target_eligibility_quarter": "NA"
   }
  },
  {
   "type": "Feature",
   "geometry": {
    "type": "Point",
    "coordinates": [
     137.87234557,
     -34.58934806
    ]
   },
   "properties": {
    "name": "5 BLACK POINT ROAD BLACK POINT 5571",
    "locID": "LOC000131465202",
    "tech": "WIRELESS",
    "upgrade": "NULL_NA",
    "gnaf_pid": "GASA_424947300",
    "ee": true,
    "tech_change_status": "Not Planned",
    "program_type": "Fixed Wireless and Satellite Upgrade Program",
    "target_eligibility_quarter": "NA"
   }
  },
  {
   "type": "Feature",
   "geometry": {
    "type": "Point",
    "coordinates": [
     137.88068444,
     -34.60632337
    ]
   },
   "properties": {
    "name": "220 BLACK POINT ROAD BLACK POINT 5571",
    "locID": "LOC000131451743",
    "tech": "WIRELESS",
    "upgrade": "NULL_NA",
    "gnaf_pid": "GASA_425061165",
    "ee": true,
    "tech_change_status": "Not Planned",
    "program_type": "Fixed Wireless and Satellite Upgrade Program",
    "target_eligibility_quarter": "NA"
   }
  },
  {
   "type": "Feature",
   "geometry": {
    "type": "Point",
    "coordinates": [
     137.88581173,
     -34.6093376
    ]
   },
   "properties": {
    "name": "22 BLACK POINT DRIVE BLACK POINT 5571",
    "locID": "LOC000108256929",
    "tech": "WIRELESS",
    "upgrade": "NULL_NA",
    "gnaf_pid": "GASA_425258983",
    "ee": true,
    "tech_change_status": "Not Planned",
    "program_type": "Fixed Wireless and Satellite Upgrade Program",
    "target_eligibility_quarter": "NA"
   }
  },
  {
   "type": "Feature",
   "geometry": {
    "type": "Point",
    "coordinates": [
     137.8939333,
     -34.61280569
    ]
   },
   "properties": {
    "name": "76 BLACK POINT DRIVE BLACK POINT 5571",
    "locID": "LOC000131456601",
    "tech": "WIRELESS",
    "upgrade": "NULL_NA",
    "gnaf_pid": "GASA_425258984",
    "ee": true,
    "tech_change_status": "Not Planned",
    "program_type": "Fixed Wireless and Satellite Upgrade Program",
    "target_eligibility_quarter": "NA"
   }
  },
  {
   "type": "Feature",
   "geometry": {
    "type": "Point",
    "coordinates": [
     137.8838719,
     -34.60775751
    ]
   },
   "properties": {
    "name": "5 HARVEY CRESCENT BLACK POINT 5571",
    "locID": "LOC000131439739",
    "tech": "WIRELESS",
    "upgrade": "NULL_NA",
    "gnaf_pid": "GASA_425297918",
    "ee": true,
    "tech_change_status": "Not Planned",
    "program_type": "Fixed Wireless and Satellite Upgrade Program",
    "target_eligibility_quarter": "NA"
   }
  },
  {
   "type": "Feature",
   "geometry": {
    "type": "Point",
    "coordinates": [
     137.87482315,
     -34.58805084
    ]
   },
   "properties": {
    "name": "LOT 2 VICTORY CRESCENT BLACK POINT 5571",
    "locID": "LOC000171606902",
    "tech": "FTTP",
    "upgrade": "NULL_NA",
    "gnaf_pid": "GASA_425395489",
    "ee": true
   }
  },
  {
   "type": "Feature",
   "geometry": {
    "type": "Point",
    "coordinates": [
     137.87495823,
     -34.58567452
    ]
   },
   "properties": {
    "name": "13-17 VICTORY CRESCENT BLACK POINT 5571",
    "locID": "LOC000131431096",
    "tech": "WIRELESS",
    "upgrade": "NULL_NA",
    "gnaf_pid": "GASA_425454283",
    "ee": true,
    "tech_change_status": "Not Planned",
    "program_type": "Fixed Wireless and Satellite Upgrade Program",
    "target_eligibility_quarter": "NA"
   }
  },
  {
   "type": "Feature",
   "geometry": {
    "type": "Point",
    "coordinates": [
     137.88412235,
     -34.60919213
    ]
   },
   "properties": {
    "name": "LOT 15 BLACK POINT DRIVE BLACK POINT 5571",
    "locID": "LOC000108091147",
    "tech": "WIRELESS",
    "upgrade": "NULL_NA",
    "gnaf_pid": "GASA_719245382",
    "ee": true,
    "tech_change_status": "Not Planned",
    "program_type": "Fixed Wireless and Satellite Upgrade Program",
    "target_eligibility_quarter": "NA"
   }
  },
  {
   "type": "Feature",
   "geometry": {
    "type": "Point",
    "coordinates": [
     137.88568858,
     -34.61032135
    ]
   },
   "properties": {
    "name": "LOT 13 BLACK POINT DRIVE BLACK POINT 5571",
    "locID": "LOC000109419481",
    "tech": "WIRELESS",
    "upgrade": "NULL_NA",
    "gnaf_pid": "GASA_719246792",
    "ee": true,
    "tech_change_status": "Not Planned",
    "program_type": "Fixed Wireless and Satellite Upgrade Program",
    "target_eligibility_quarter": "NA"
   }
  },
  {
   "type": "Feature",
   "geometry": {
    "type": "Point",
    "coordinates": [
     137.88856441,
     -34.61187031
    ]
   },
   "properties": {
    "name": "LOT 1 BLACK POINT DRIVE BLACK POINT 5571",
    "locID": "LOC100082206150",
    "tech": "WIRELESS",
    "upgrade": "NULL_NA",
    "gnaf_pid": "GASA_719247018",
    "ee": true,
    "tech_change_status": "Not Planned",
    "program_type": "Fixed Wireless and Satellite Upgrade Program",
    "target_eligibility_quarter": "NA"
   }
  },
  {
   "type": "Feature",
   "geometry": {
    "type": "Point",
    "coordinates": [
     137.88765222,
     -34.61137734
    ]
   },
   "properties": {
    "name": "LOT 5 BLACK POINT DRIVE BLACK POINT 5571",
    "locID": "LOC100078109630",
    "tech": "WIRELESS",
    "upgrade": "NULL_NA",
    "gnaf_pid": "GASA_719247456",
    "ee": true,
    "tech_change_status": "Not Planned",
    "program_type": "Fixed Wireless and Satellite Upgrade Program",
    "target_eligibility_quarter": "NA"
   }
  },
  {
   "type": "Feature",
   "geometry": {
    "type": "Point",
    "coordinates": [
     137.88464431,
     -34.60879434
    ]
   },
   "properties": {
    "name": "LOT 14 BLACK POINT DRIVE BLACK POINT 5571",
    "locID": "LOC000131448156",
    "tech": "SATELLITE",
    "upgrade": "NULL_NA",
    "gnaf_pid": "GASA_719247758",
    "ee": true,
    "tech_change_status": "Not Planned"
   }
  },
  {
   "type": "Feature",
   "geometry": {
    "type": "Point",
    "coordinates": [
     137.88742173,
     -34.61125702
    ]
   },
   "properties": {
    "name": "LOT 6 BLACK POINT DRIVE BLACK POINT 5571",
    "locID": "LOC000108462298",
    "tech": "WIRELESS",
    "upgrade": "NULL_NA",
    "gnaf_pid": "GASA_719248340",
    "ee": true,
    "tech_change_status": "Not Planned",
    "program_type": "Fixed Wireless and Satellite Upgrade Program",
    "target_eligibility_quarter": "NA"
   }
  },
  {
   "type": "Feature",
   "geometry": {
    "type": "Point",
    "coordinates": [
     137.88719124,
     -34.6111367
    ]
   },
   "properties": {
    "name": "LOT 7 BLACK POINT DRIVE BLACK POINT 5571",
    "locID": "LOC000131456601",
    "tech": "WIRELESS",
    "upgrade": "NULL_NA",
    "gnaf_pid": "GASA_719248454",
    "ee": true,
    "tech_change_status": "Not Planned",
    "program_type": "Fixed Wireless and Satellite Upgrade Program",
    "target_eligibility_quarter": "NA"
   }
  },
  {
   "type": "Feature",
   "geometry": {
    "type": "Point",
    "coordinates": [
     137.88757511,
     -34.61211193
    ]
   },
   "properties": {
    "name": "LOT 4000 BLACK POINT DRIVE BLACK POINT 5571",
    "locID": "LOC000131422168",
    "tech": "WIRELESS",
    "upgrade": "NULL_NA",
    "gnaf_pid": "GASA_719249050",
    "ee": true,
    "tech_change_status": "Not Planned",
    "program_type": "Fixed Wireless and Satellite Upgrade Program",
    "target_eligibility_quarter": "NA"
   }
  },
  {
   "type": "Feature",
   "geometry": {
    "type": "Point",
    "coordinates": [
     137.88788271,
     -34.61149766
    ]
   },
   "properties": {
    "name": "LOT 4 BLACK POINT DRIVE BLACK POINT 5571",
    "locID": "LOC000131452322",
    "tech": "WIRELESS",
    "upgrade": "NULL_NA",
    "gnaf_pid": "GASA_719249200",
    "ee": true,
    "tech_change_status": "Not Planned",
    "program_type": "Fixed Wireless and Satellite Upgrade Program",
    "target_eligibility_quarter": "NA"
   }
  },
  {
   "type": "Feature",
   "geometry": {
    "type": "Point",
    "coordinates": [
     137.88834369,
     -34.6117383
    ]
   },
   "properties": {
    "name": "LOT 2 BLACK POINT DRIVE BLACK POINT 5571",
    "locID": "LOC000109722532",
    "tech": "WIRELESS",
    "upgrade": "NULL_NA",
    "gnaf_pid": "GASA_719249875",
    "ee": true,
    "tech_change_status": "Not Planned",
    "program_type": "Fixed Wireless and Satellite Upgrade Program",
    "target_eligibility_quarter": "NA"
   }
  },
  {
   "type": "Feature",
   "geometry": {
    "type": "Point",
    "coordinates": [
     137.8881132,
     -34.61161798
    ]
   },
   "properties": {
    "name": "LOT 3 BLACK POINT DRIVE BLACK POINT 5571",
    "locID": "LOC100078109630",
    "tech": "WIRELESS",
    "upgrade": "NULL_NA",
    "gnaf_pid": "GASA_719250595",
    "ee": true,
    "tech_change_status": "Not Planned",
    "program_type": "Fixed Wireless and Satellite Upgrade Program",
    "target_eligibility_quarter": "NA"
   }
  },
  {
   "type": "Feature",
   "geometry": {
    "type": "Point",
    "coordinates": [
     137.88827622,
     -34.610385
    ]
   },
   "properties": {
    "name": "37 BLACK POINT DRIVE BLACK POINT 5571",
    "locID": "LOC000180234075",
    "tech": "WIRELESS",
    "upgrade": "NULL_NA",
    "gnaf_pid": "GASA_719652478",
    "ee": true,
    "tech_change_status": "Not Planned",
    "program_type": "Fixed Wireless and Satellite Upgrade Program",
    "target_eligibility_quarter": "NA"
   }
  },
  {
   "type": "Feature",
   "geometry": {
    "type": "Point",
    "coordinates": [
     137.90265041,
     -34.61457367
    ]
   },
   "properties": {
    "name": "LOT 431 BLACK POINT DRIVE BLACK POINT 5571",
    "locID": "LOC000131465202",
    "tech": "WIRELESS",
    "upgrade": "NULL_NA",
    "gnaf_pid": "GASA_720185271",
    "ee": true,
    "tech_change_status": "Not Planned",
    "program_type": "Fixed Wireless and Satellite Upgrade Program",
    "target_eligibility_quarter": "NA"
   }
  },
  {
   "type": "Feature",
   "geometry": {
    "type": "Point",
    "coordinates": [
     137.89112881,
     -34.61165323
    ]
   },
   "properties": {
    "name": "LOT 357 BLACK POINT DRIVE BLACK POINT 5571",
    "locID": "LOC000131465202",
    "tech": "WIRELESS",
    "upgrade": "NULL_NA",
    "gnaf_pid": "GASA_720185280",
    "ee": true,
    "tech_change_status": "Not Planned",
    "program_type": "Fixed Wireless and Satellite Upgrade Program",
    "target_eligibility_quarter": "NA"
   }
  },
  {
   "type": "Feature",
   "geometry": {
    "type": "Point",
    "coordinates": [
     137.8836769,
     -34.6076436
    ]
   },
   "properties": {
    "name": "LOT 303 HARVEY CRESCENT BLACK POINT 5571",
    "locID": "LOC000131439739",
    "tech": "WIRELESS",
    "upgrade": "NULL_NA",
    "gnaf_pid": "GASA_720185413",
    "ee": true,
    "tech_change_status": "Not Planned",
    "program_type": "Fixed Wireless and Satellite Upgrade Program",
    "target_eligibility_quarter": "NA"
   }
  },
  {
   "type": "Feature",
   "geometry": {
    "type": "Point",
    "coordinates": [
     137.89499059,
     -34.61306463
    ]
   },
   "properties": {
    "name": "LOT 383 BLACK POINT DRIVE BLACK POINT 5571",
    "locID": "LOC000131439843",
    "tech": "WIRELESS",
    "upgrade": "NULL_NA",
    "gnaf_pid": "GASA_720185986",
    "ee": true,
    "tech_change_status": "Not Planned",
    "program_type": "Fixed Wireless and Satellite Upgrade Program",
    "target_eligibility_quarter": "NA"
   }
  },
  {
   "type": "Feature",
   "geometry": {
    "type": "Point",
    "coordinates": [
     137.90404554,
     -34.61497
    ]
   },
   "properties": {
    "name": "LOT 440 BLACK POINT DRIVE BLACK POINT 5571",
    "locID": "LOC000131422168",
    "tech": "WIRELESS",
    "upgrade": "NULL_NA",
    "gnaf_pid": "GASA_720186103",
    "ee": true,
    "tech_change_status": "Not Planned",
    "program_type": "Fixed Wireless and Satellite Upgrade Program",
    "target_eligibility_quarter": "NA"
   }
  },
  {
   "type": "Feature",
   "geometry": {
    "type": "Point",
    "coordinates": [
     137.8956073,
     -34.61322457
    ]
   },
   "properties": {
    "name": "LOT 387 BLACK POINT DRIVE BLACK POINT 5571",
    "locID": "LOC000131465202",
    "tech": "WIRELESS",
    "upgrade": "NULL_NA",
    "gnaf_pid": "GASA_720186209",
    "ee": true,
    "tech_change_status": "Not Planned",
    "program_type": "Fixed Wireless and Satellite Upgrade Program",
    "target_eligibility_quarter": "NA"
   }
  },
  {
   "type": "Feature",
   "geometry": {
    "type": "Point",
    "coordinates": [
     137.88387174,
     -34.60775703
    ]
   },
   "properties": {
    "name": "LOT 305 HARVEY CRESCENT BLACK POINT 5571",
    "locID": "LOC000131439739",
    "tech": "WIRELESS",
    "upgrade": "NULL_NA",
    "gnaf_pid": "GASA_720186443",
    "ee": true,
    "tech_change_status": "Not Planned",
    "program_type": "Fixed Wireless and Satellite Upgrade Program",
    "target_eligibility_quarter": "NA"
   }
  },
  {
   "type": "Feature",
   "geometry": {
    "type": "Point",
    "coordinates": [
     137.8962901,
     -34.61341606
    ]
   },
   "properties": {
    "name": "LOT 391 BLACK POINT DRIVE BLACK POINT 5571",
    "locID": "LOC000131465202",
    "tech": "WIRELESS",
    "upgrade": "NULL_NA",
    "gnaf_pid": "GASA_720186475",
    "ee": true,
    "tech_change_status": "Not Planned",
    "program_type": "Fixed Wireless and Satellite Upgrade Program",
    "target_eligibility_quarter": "NA"
   }
  },
  {
   "type": "Feature",
   "geometry": {
    "type": "Point",
    "coordinates": [
     137.90102944,
     -34.6142397
    ]
   },
   "properties": {
    "name": "LOT 421 BLACK POINT DRIVE BLACK POINT 5571",
    "locID": "LOC000131439843",
    "tech": "WIRELESS",
    "upgrade": "NULL_NA",
    "gnaf_pid": "GASA_720186485",
    "ee": true,
    "tech_change_status": "Not Planned",
    "program_type": "Fixed Wireless and Satellite Upgrade Program",
    "target_eligibility_quarter": "NA"
   }
  },
  {
   "type": "Feature",
   "geometry": {
    "type": "Point",
    "coordinates": [
     137.89437966,
     -34.6129296
    ]
   },
   "properties": {
    "name": "LOT 379 BLACK POINT DRIVE BLACK POINT 5571",
    "locID": "LOC000131439843",
    "tech": "WIRELESS",
    "upgrade": "NULL_NA",
    "gnaf_pid": "GASA_720186557",
    "ee": true,
    "tech_change_status": "Not Planned",
    "program_type": "Fixed Wireless and Satellite Upgrade Program",
    "target_eligibility_quarter": "NA"
   }
  },
  {
   "type": "Feature",
   "geometry": {
    "type": "Point",
    "coordinates": [
     137.88910684,
     -34.61076189
    ]
   },
   "properties": {
    "name": "LOT 343 BLACK POINT DRIVE BLACK POINT 5571",
    "locID": "LOC100078860406",
    "tech": "WIRELESS",
    "upgrade": "NULL_NA",
    "gnaf_pid": "GASA_720186684",
    "ee": true,
    "tech_change_status": "Not Planned",
    "program_type": "Fixed Wireless and Satellite Upgrade Program",
    "target_eligibility_quarter": "NA"
   }
  },
  {
   "type": "Feature",
   "geometry": {
    "type": "Point",
    "coordinates": [
     137.8946727,
     -34.61297889
    ]
   },
   "properties": {
    "name": "LOT 381 BLACK POINT DRIVE BLACK POINT 5571",
    "locID": "LOC000131465202",
    "tech": "WIRELESS",
    "upgrade": "NULL_NA",
    "gnaf_pid": "GASA_720187268",
    "ee": true,
    "tech_change_status": "Not Planned",
    "program_type": "Fixed Wireless and Satellite Upgrade Program",
    "target_eligibility_quarter": "NA"
   }
  },
  {
   "type": "Feature",
   "geometry": {
    "type": "Point",
    "coordinates": [
     137.88854298,
     -34.61051081
    ]
   },
   "properties": {
    "name": "LOT 339 BLACK POINT DRIVE BLACK POINT 5571",
    "locID": "LOC100078860406",
    "tech": "WIRELESS",
    "upgrade": "NULL_NA",
    "gnaf_pid": "GASA_720187335",
    "ee": true,
    "tech_change_status": "Not Planned",
    "program_type": "Fixed Wireless and Satellite Upgrade Program",
    "target_eligibility_quarter": "NA"
   }
  },
  {
   "type": "Feature",
   "geometry": {
    "type": "Point",
    "coordinates": [
     137.8902438,
     -34.61128763
    ]
   },
   "properties": {
    "name": "LOT 351 BLACK POINT DRIVE BLACK POINT 5571",
    "locID": "LOC100078860406",
    "tech": "WIRELESS",
    "upgrade": "NULL_NA",
    "gnaf_pid": "GASA_720187423",
    "ee": true,
    "tech_change_status": "Not Planned",
    "program_type": "Fixed Wireless and Satellite Upgrade Program",
    "target_eligibility_quarter": "NA"
   }
  },
  {
   "type": "Feature",
   "geometry": {
    "type": "Point",
    "coordinates": [
     137.8913728,
     -34.61212223
    ]
   },
   "properties": {
    "name": "LOT 60 BLACK POINT DRIVE BLACK POINT 5571",
    "locID": "LOC000108462298",
    "tech": "WIRELESS",
    "upgrade": "NULL_NA",
    "gnaf_pid": "GASA_720187846",
    "ee": true,
    "tech_change_status": "Not Planned",
    "program_type": "Fixed Wireless and Satellite Upgrade Program",
    "target_eligibility_quarter": "NA"
   }
  },
  {
   "type": "Feature",
   "geometry": {
    "type": "Point",
    "coordinates": [
     137.90389045,
     -34.6149262
    ]
   },
   "properties": {
    "name": "LOT 439 BLACK POINT DRIVE BLACK POINT 5571",
    "locID": "LOC100078860406",
    "tech": "WIRELESS",
    "upgrade": "NULL_NA",
    "gnaf_pid": "GASA_720187949",
    "ee": true,
    "tech_change_status": "Not Planned",
    "program_type": "Fixed Wireless and Satellite Upgrade Program",
    "target_eligibility_quarter": "NA"
   }
  },
  {
   "type": "Feature",
   "geometry": {
    "type": "Point",
    "coordinates": [
     137.89386594,
     -34.61269737
    ]
   },
   "properties": {
    "name": "LOT 375 BLACK POINT DRIVE BLACK POINT 5571",
    "locID": "LOC000131439843",
    "tech": "WIRELESS",
    "upgrade": "NULL_NA",
    "gnaf_pid": "GASA_720188163",
    "ee": true,
    "tech_change_status": "Not Planned",
    "program_type": "Fixed Wireless and Satellite Upgrade Program",
    "target_eligibility_quarter": "NA"
   }
  },
  {
   "type": "Feature",
   "geometry": {
    "type": "Point",
    "coordinates": [
     137.89719971,
     -34.6135954
    ]
   },
   "properties": {
    "name": "LOT 397 BLACK POINT DRIVE BLACK POINT 5571",
    "locID": "LOC000131465202",
    "tech": "WIRELESS",
    "upgrade": "NULL_NA",
    "gnaf_pid": "GASA_720188173",
    "ee": true,
    "tech_change_status": "Not Planned",
    "program_type": "Fixed Wireless and Satellite Upgrade Program",
    "target_eligibility_quarter": "NA"
   }
  },
  {
   "type": "Feature",
   "geometry": {
    "type": "Point",
    "coordinates": [
     137.90200473,
     -34.61443757
    ]
   },
   "properties": {
    "name": "LOT 427 BLACK POINT DRIVE BLACK POINT 5571",
    "locID": "LOC100078860406",
    "tech": "WIRELESS",
    "upgrade": "NULL_NA",
    "gnaf_pid": "GASA_720188225",
    "ee": true,
    "tech_change_status": "Not Planned",
    "program_type": "Fixed Wireless and Satellite Upgrade Program",
    "target_eligibility_quarter": "NA"
   }
  },
  {
   "type": "Feature",
   "geometry": {
    "type": "Point",
    "coordinates": [
     137.90534689,
     -34.61533482
    ]
   },
   "properties": {
    "name": "LOT 448 BLACK POINT DRIVE BLACK POINT 5571",
    "locID": "LOC000131422168",
    "tech": "WIRELESS",
    "upgrade": "NULL_NA",
    "gnaf_pid": "GASA_720188255",
    "ee": true,
    "tech_change_status": "Not Planned",
    "program_type": "Fixed Wireless and Satellite Upgrade Program",
    "target_eligibility_quarter": "NA"
   }
  },
  {
   "type": "Feature",
   "geometry": {
    "type": "Point",
    "coordinates": [
     137.90465179,
     -34.61511734
    ]
   },
   "properties": {
    "name": "LOT 444 BLACK POINT DRIVE BLACK POINT 5571",
    "locID": "LOC000131422168",
    "tech": "WIRELESS",
    "upgrade": "NULL_NA",
    "gnaf_pid": "GASA_720188589",
    "ee": true,
    "tech_change_status": "Not Planned",
    "program_type": "Fixed Wireless and Satellite Upgrade Program",
    "target_eligibility_quarter": "NA"
   }
  },
  {
   "type": "Feature",
   "geometry": {
    "type": "Point",
    "coordinates": [
     137.90517836,
     -34.61528237
    ]
   },
   "properties": {
    "name": "LOT 447 BLACK POINT DRIVE BLACK POINT 5571",
    "locID": "LOC000131422168",
    "tech": "WIRELESS",
    "upgrade": "NULL_NA",
    "gnaf_pid": "GASA_720188654",
    "ee": true,
    "tech_change_status": "Not Planned",
    "program_type": "Fixed Wireless and Satellite Upgrade Program",
    "target_eligibility_quarter": "NA"
   }
  },
  {
   "type": "Feature",
   "geometry": {
    "type": "Point",
    "coordinates": [
     137.89408827,
     -34.61282683
    ]
   },
   "properties": {
    "name": "LOT 377 BLACK POINT DRIVE BLACK POINT 5571",
    "locID": "LOC100078860406",
    "tech": "WIRELESS",
    "upgrade": "NULL_NA",
    "gnaf_pid": "GASA_720188773",
    "ee": true,
    "tech_change_status": "Not Planned",
    "program_type": "Fixed Wireless and Satellite Upgrade Program",
    "target_eligibility_quarter": "NA"
   }
  },
  {
   "type": "Feature",
   "geometry": {
    "type": "Point",
    "coordinates": [
     137.90421135,
     -34.61500811
    ]
   },
   "properties": {
    "name": "LOT 441 BLACK POINT DRIVE BLACK POINT 5571",
    "locID": "LOC000131448187",
    "tech": "WIRELESS",
    "upgrade": "NULL_NA",
    "gnaf_pid": "GASA_720188907",
    "ee": true,
    "tech_change_status": "Not Planned",
    "program_type": "Fixed Wireless and Satellite Upgrade Program",
    "target_eligibility_quarter": "NA"
   }
  },
  {
   "type": "Feature",
   "geometry": {
    "type": "Point",
    "coordinates": [
     137.90232606,
     -34.61449045
    ]
   },
   "properties": {
    "name": "LOT 429 BLACK POINT DRIVE BLACK POINT 5571",
    "locID": "LOC100078860406",
    "tech": "WIRELESS",
    "upgrade": "NULL_NA",
    "gnaf_pid": "GASA_720189126",
    "ee": true,
    "tech_change_status": "Not Planned",
    "program_type": "Fixed Wireless and Satellite Upgrade Program",
    "target_eligibility_quarter": "NA"
   }
  },
  {
   "type": "Feature",
   "geometry": {
    "type": "Point",
    "coordinates": [
     137.88924549,
     -34.61078223
    ]
   },
   "properties": {
    "name": "LOT 345 BLACK POINT DRIVE BLACK POINT 5571",
    "locID": "LOC000131465202",
    "tech": "WIRELESS",
    "upgrade": "NULL_NA",
    "gnaf_pid": "GASA_720189251",
    "ee": true,
    "tech_change_status": "Not Planned",
    "program_type": "Fixed Wireless and Satellite Upgrade Program",
    "target_eligibility_quarter": "NA"
   }
  },
  {
   "type": "Feature",
   "geometry": {
    "type": "Point",
    "coordinates": [
     137.89326676,
     -34.61246773
    ]
   },
   "properties": {
    "name": "LOT 371 BLACK POINT DRIVE BLACK POINT 5571",
    "locID": "LOC000131439843",
    "tech": "WIRELESS",
    "upgrade": "NULL_NA",
    "gnaf_pid": "GASA_720189404",
    "ee": true,
    "tech_change_status": "Not Planned",
    "program_type": "Fixed Wireless and Satellite Upgrade Program",
    "target_eligibility_quarter": "NA"
   }
  },
  {
   "type": "Feature",
   "geometry": {
    "type": "Point",
    "coordinates": [
     137.90137384,
     -34.61433185
    ]
   },
   "properties": {
    "name": "LOT 423 BLACK POINT DRIVE BLACK POINT 5571",
    "locID": "LOC000131465202",
    "tech": "WIRELESS",
    "upgrade": "NULL_NA",
    "gnaf_pid": "GASA_720189486",
    "ee": true,
    "tech_change_status": "Not Planned",
    "program_type": "Fixed Wireless and Satellite Upgrade Program",
    "target_eligibility_quarter": "NA"
   }
  },
  {
   "type": "Feature",
   "geometry": {
    "type": "Point",
    "coordinates": [
     137.90169008,
     -34.61439458
    ]
   },
   "properties": {
    "name": "LOT 425 BLACK POINT DRIVE BLACK POINT 5571",
    "locID": "LOC000131465202",
    "tech": "WIRELESS",
    "upgrade": "NULL_NA",
    "gnaf_pid": "GASA_720189766",
    "ee": true,
    "tech_change_status": "Not Planned",
    "program_type": "Fixed Wireless and Satellite Upgrade Program",
    "target_eligibility_quarter": "NA"
   }
  },
  {
   "type": "Feature",
   "geometry": {
    "type": "Point",
    "coordinates": [
     137.90071819,
     -34.61416098
    ]
   },
   "properties": {
    "name": "LOT 419 BLACK POINT DRIVE BLACK POINT 5571",
    "locID": "LOC100078860406",
    "tech": "WIRELESS",
    "upgrade": "NULL_NA",
    "gnaf_pid": "GASA_720189907",
    "ee": true,
    "tech_change_status": "Not Planned",
    "program_type": "Fixed Wireless and Satellite Upgrade Program",
    "target_eligibility_quarter": "NA"
   }
  },
  {
   "type": "Feature",
   "geometry": {
    "type": "Point",
    "coordinates": [
     137.89660381,
     -34.61350057
    ]
   },
   "properties": {
    "name": "LOT 393 BLACK POINT DRIVE BLACK POINT 5571",
    "locID": "LOC000131465202",
    "tech": "WIRELESS",
    "upgrade": "NULL_NA",
    "gnaf_pid": "GASA_720190023",
    "ee": true,
    "tech_change_status": "Not Planned",
    "program_type": "Fixed Wireless and Satellite Upgrade Program",
    "target_eligibility_quarter": "NA"
   }
  },
  {
   "type": "Feature",
   "geometry": {
    "type": "Point",
    "coordinates": [
     137.90437437,
     -34.61504931
    ]
   },
   "properties": {
    "name": "LOT 442 BLACK POINT DRIVE BLACK POINT 5571",
    "locID": "LOC000131448187",
    "tech": "WIRELESS",
    "upgrade": "NULL_NA",
    "gnaf_pid": "GASA_720190250",
    "ee": true,
    "tech_change_status": "Not Planned",
    "program_type": "Fixed Wireless and Satellite Upgrade Program",
    "target_eligibility_quarter": "NA"
   }
  },
  {
   "type": "Feature",
   "geometry": {
    "type": "Point",
    "coordinates": [
     137.89592374,
     -34.61333479
    ]
   },
   "properties": {
    "name": "LOT 389 BLACK POINT DRIVE BLACK POINT 5571",
    "locID": "LOC000131465202",
    "tech": "WIRELESS",
    "upgrade": "NULL_NA",
    "gnaf_pid": "GASA_720190315",
    "ee": true,
    "tech_change_status": "Not Planned",
    "program_type": "Fixed Wireless and Satellite Upgrade Program",
    "target_eligibility_quarter": "NA"
   }
  },
  {
   "type": "Feature",
   "geometry": {
    "type": "Point",
    "coordinates": [
     137.90500473,
     -34.61523054
    ]
   },
   "properties": {
    "name": "LOT 446 BLACK POINT DRIVE BLACK POINT 5571",
    "locID": "LOC000131422168",
    "tech": "WIRELESS",
    "upgrade": "NULL_NA",
    "gnaf_pid": "GASA_720190441",
    "ee": true,
    "tech_change_status": "Not Planned",
    "program_type": "Fixed Wireless and Satellite Upgrade Program",
    "target_eligibility_quarter": "NA"
   }
  },
  {
   "type": "Feature",
   "geometry": {
    "type": "Point",
    "coordinates": [
     137.88967809,
     -34.61101859
    ]
   },
   "properties": {
    "name": "LOT 347 BLACK POINT DRIVE BLACK POINT 5571",
    "locID": "LOC000131465202",
    "tech": "WIRELESS",
    "upgrade": "NULL_NA",
    "gnaf_pid": "GASA_720190514",
    "ee": true,
    "tech_change_status": "Not Planned",
    "program_type": "Fixed Wireless and Satellite Upgrade Program",
    "target_eligibility_quarter": "NA"
   }
  },
  {
   "type": "Feature",
   "geometry": {
    "type": "Point",
    "coordinates": [
     137.9032833,
     -34.61475649
    ]
   },
   "properties": {
    "name": "LOT 435 BLACK POINT DRIVE BLACK POINT 5571",
    "locID": "LOC000131439843",
    "tech": "WIRELESS",
    "upgrade": "NULL_NA",
    "gnaf_pid": "GASA_720190624",
    "ee": true,
    "tech_change_status": "Not Planned",
    "program_type": "Fixed Wireless and Satellite Upgrade Program",
    "target_eligibility_quarter": "NA"
   }
  },
  {
   "type": "Feature",
   "geometry": {
    "type": "Point",
    "coordinates": [
     137.90357727,
     -34.61485215
    ]
   },
   "properties": {
    "name": "LOT 437 BLACK POINT DRIVE BLACK POINT 5571",
    "locID": "LOC000131439843",
    "tech": "WIRELESS",
    "upgrade": "NULL_NA",
    "gnaf_pid": "GASA_720190699",
    "ee": true,
    "tech_change_status": "Not Planned",
    "program_type": "Fixed Wireless and Satellite Upgrade Program",
    "target_eligibility_quarter": "NA"
   }
  },
  {
   "type": "Feature",
   "geometry": {
    "type": "Point",
    "coordinates": [
     137.90041209,
     -34.61410276
    ]
   },
   "properties": {
    "name": "LOT 417 BLACK POINT DRIVE BLACK POINT 5571",
    "locID": "LOC000131439843",
    "tech": "WIRELESS",
    "upgrade": "NULL_NA",
    "gnaf_pid": "GASA_720190770",
    "ee": true,
    "tech_change_status": "Not Planned",
    "program_type": "Fixed Wireless and Satellite Upgrade Program",
    "target_eligibility_quarter": "NA"
   }
  },
  {
   "type": "Feature",
   "geometry": {
    "type": "Point",
    "coordinates": [
     137.90296248,
     -34.61467254
    ]
   },
   "properties": {
    "name": "LOT 433 BLACK POINT DRIVE BLACK POINT 5571",
    "locID": "LOC000131465202",
    "tech": "WIRELESS",
    "upgrade": "NULL_NA",
    "gnaf_pid": "GASA_720190887",
    "ee": true,
    "tech_change_status": "Not Planned",
    "program_type": "Fixed Wireless and Satellite Upgrade Program",
    "target_eligibility_quarter": "NA"
   }
  },
  {
   "type": "Feature",
   "geometry": {
    "type": "Point",
    "coordinates": [
     137.88801147,
     -34.61026242
    ]
   },
   "properties": {
    "name": "LOT 335 BLACK POINT DRIVE BLACK POINT 5571",
    "locID": "LOC000131465202",
    "tech": "WIRELESS",
    "upgrade": "NULL_NA",
    "gnaf_pid": "GASA_720190917",
    "ee": true,
    "tech_change_status": "Not Planned",
    "program_type": "Fixed Wireless and Satellite Upgrade Program",
    "target_eligibility_quarter": "NA"
   }
  },
  {
   "type": "Feature",
   "geometry": {
    "type": "Point",
    "coordinates": [
     137.89356182,
     -34.61258394
    ]
   },
   "properties": {
    "name": "LOT 373 BLACK POINT DRIVE BLACK POINT 5571",
    "locID": "LOC000131439843",
    "tech": "WIRELESS",
    "upgrade": "NULL_NA",
    "gnaf_pid": "GASA_720190992",
    "ee": true,
    "tech_change_status": "Not Planned",
    "program_type": "Fixed Wireless and Satellite Upgrade Program",
    "target_eligibility_quarter": "NA"
   }
  },
  {
   "type": "Feature",
   "geometry": {
    "type": "Point",
    "coordinates": [
     137.88996554,
     -34.61115577
    ]
   },
   "properties": {
    "name": "LOT 349 BLACK POINT DRIVE BLACK POINT 5571",
    "locID": "LOC000131439843",
    "tech": "WIRELESS",
    "upgrade": "NULL_NA",
    "gnaf_pid": "GASA_720191201",
    "ee": true,
    "tech_change_status": "Not Planned",
    "program_type": "Fixed Wireless and Satellite Upgrade Program",
    "target_eligibility_quarter": "NA"
   }
  },
  {
   "type": "Feature",
   "geometry": {
    "type": "Point",
    "coordinates": [
     137.87671013,
     -34.60045998
    ]
   },
   "properties": {
    "name": "LOT 446 BLACK POINT ROAD BLACK POINT 5571",
    "locID": "LOC100078860406",
    "tech": "WIRELESS",
    "upgrade": "NULL_NA",
    "gnaf_pid": "GASA_720299974",
    "ee": true,
    "tech_change_status": "Not Planned",
    "program_type": "Fixed Wireless and Satellite Upgrade Program",
    "target_eligibility_quarter": "NA"
   }
  },
  {
   "type": "Feature",
   "geometry": {
    "type": "Point",
    "coordinates": [
     137.90130168,
     -34.62372235
    ]
   },
   "properties": {
    "name": "LOT 201 OUTLOOK ROAD BLACK POINT 5571",
    "locID": "LOC000131422293",
    "tech": "WIRELESS",
    "upgrade": "NULL_NA",
    "gnaf_pid": "GASA_720303102",
    "ee": true,
    "tech_change_status": "Not Planned",
    "program_type": "Fixed Wireless and Satellite Upgrade Program",
    "target_eligibility_quarter": "NA"
   }
  },
  {
   "type": "Feature",
   "geometry": {
    "type": "Point",
    "coordinates": [
     137.90327016,
     -34.61715936
    ]
   },
   "properties": {
    "name": "16 OUTLOOK ROAD BLACK POINT 5571",
    "locID": "LOC100078110001",
    "tech": "WIRELESS",
    "upgrade": "NULL_NA",
    "gnaf_pid": "GASA_720491686",
    "ee": true,
    "tech_change_status": "Not Planned",
    "program_type": "Fixed Wireless and Satellite Upgrade Program",
    "target_eligibility_quarter": "NA"
   }
  },
  {
   "type": "Feature",
   "geometry": {
    "type": "Point",
    "coordinates": [
     137.90404782,
     -34.61740561
    ]
   },
   "properties": {
    "name": "21 OUTLOOK ROAD BLACK POINT 5571",
    "locID": "LOC000131422240",
    "tech": "WIRELESS",
    "upgrade": "NULL_NA",
    "gnaf_pid": "GASA_720491768",
    "ee": true,
    "tech_change_status": "Not Planned",
    "program_type": "Fixed Wireless and Satellite Upgrade Program",
    "target_eligibility_quarter": "NA"
   }
  },
  {
   "type": "Feature",
   "geometry": {
    "type": "Point",
    "coordinates": [
     137.90325462,
     -34.6166209
    ]
   },
   "properties": {
    "name": "8 OUTLOOK ROAD BLACK POINT 5571",
    "locID": "LOC000189651655",
    "tech": "WIRELESS",
    "upgrade": "NULL_NA",
    "gnaf_pid": "GASA_720491786",
    "ee": true,
    "tech_change_status": "Not Planned",
    "program_type": "Fixed Wireless and Satellite Upgrade Program",
    "target_eligibility_quarter": "NA"
   }
  },
  {
   "type": "Feature",
   "geometry": {
    "type": "Point",
    "coordinates": [
     137.90358167,
     -34.6160069
    ]
   },
   "properties": {
    "name": "3 OUTLOOK ROAD BLACK POINT 5571",
    "locID": "LOC100023663508",
    "tech": "WIRELESS",
    "upgrade": "NULL_NA",
    "gnaf_pid": "GASA_720491980",
    "ee": true,
    "tech_change_status": "Not Planned",
    "program_type": "Fixed Wireless and Satellite Upgrade Program",
    "target_eligibility_quarter": "NA"
   }
  },
  {
   "type": "Feature",
   "geometry": {
    "type": "Point",
    "coordinates": [
     137.90410285,
     -34.61728178
    ]
   },
   "properties": {
    "name": "19 OUTLOOK ROAD BLACK POINT 5571",
    "locID": "LOC100081557567",
    "tech": "WIRELESS",
    "upgrade": "NULL_NA",
    "gnaf_pid": "GASA_720492081",
    "ee": true,
    "tech_change_status": "Not Planned",
    "program_type": "Fixed Wireless and Satellite Upgrade Program",
    "target_eligibility_quarter": "NA"
   }
  },
  {
   "type": "Feature",
   "geometry": {
    "type": "Point",
    "coordinates": [
     137.903046,
     -34.61744976
    ]
   },
   "properties": {
    "name": "20 OUTLOOK ROAD BLACK POINT 5571",
    "locID": "LOC000131422303",
    "tech": "WIRELESS",
    "upgrade": "NULL_NA",
    "gnaf_pid": "GASA_720492597",
    "ee": true,
    "tech_change_status": "Not Planned",
    "program_type": "Fixed Wireless and Satellite Upgrade Program",
    "target_eligibility_quarter": "NA"
   }
  },
  {
   "type": "Feature",
   "geometry": {
    "type": "Point",
    "coordinates": [
     137.90250436,
     -34.61765058
    ]
   },
   "properties": {
    "name": "24 OUTLOOK ROAD BLACK POINT 5571",
    "locID": "LOC000131422286",
    "tech": "WIRELESS",
    "upgrade": "NULL_NA",
    "gnaf_pid": "GASA_720492789",
    "ee": true,
    "tech_change_status": "Not Planned",
    "program_type": "Fixed Wireless and Satellite Upgrade Program",
    "target_eligibility_quarter": "NA"
   }
  },
  {
   "type": "Feature",
   "geometry": {
    "type": "Point",
    "coordinates": [
     137.90329651,
     -34.61794774
    ]
   },
   "properties": {
    "name": "33 OUTLOOK ROAD BLACK POINT 5571",
    "locID": "LOC100023663508",
    "tech": "WIRELESS",
    "upgrade": "NULL_NA",
    "gnaf_pid": "GASA_720493190",
    "ee": true,
    "tech_change_status": "Not Planned",
    "program_type": "Fixed Wireless and Satellite Upgrade Program",
    "target_eligibility_quarter": "NA"
   }
  },
  {
   "type": "Feature",
   "geometry": {
    "type": "Point",
    "coordinates": [
     137.90360174,
     -34.61613509
    ]
   },
   "properties": {
    "name": "5 OUTLOOK ROAD BLACK POINT 5571",
    "locID": "LOC000131422293",
    "tech": "WIRELESS",
    "upgrade": "NULL_NA",
    "gnaf_pid": "GASA_720494166",
    "ee": true,
    "tech_change_status": "Not Planned",
    "program_type": "Fixed Wireless and Satellite Upgrade Program",
    "target_eligibility_quarter": "NA"
   }
  },
  {
   "type": "Feature",
   "geometry": {
    "type": "Point",
    "coordinates": [
     137.90314057,
     -34.61650233
    ]
   },
   "properties": {
    "name": "6 OUTLOOK ROAD BLACK POINT 5571",
    "locID": "LOC000131422374",
    "tech": "WIRELESS",
    "upgrade": "NULL_NA",
    "gnaf_pid": "GASA_720494341",
    "ee": true,
    "tech_change_status": "Not Planned",
    "program_type": "Fixed Wireless and Satellite Upgrade Program",
    "target_eligibility_quarter": "NA"
   }
  },
  {
   "type": "Feature",
   "geometry": {
    "type": "Point",
    "coordinates": [
     137.90265235,
     -34.61819704
    ]
   },
   "properties": {
    "name": "41 OUTLOOK ROAD BLACK POINT 5571",
    "locID": "LOC100078669237",
    "tech": "WIRELESS",
    "upgrade": "NULL_NA",
    "gnaf_pid": "GASA_720494504",
    "ee": true,
    "tech_change_status": "Not Planned",
    "program_type": "Fixed Wireless and Satellite Upgrade Program",
    "target_eligibility_quarter": "NA"
   }
  },
  {
   "type": "Feature",
   "geometry": {
    "type": "Point",
    "coordinates": [
     137.9020033,
     -34.61782461
    ]
   },
   "properties": {
    "name": "28 OUTLOOK ROAD BLACK POINT 5571",
    "locID": "LOC000187272308",
    "tech": "WIRELESS",
    "upgrade": "NULL_NA",
    "gnaf_pid": "GASA_720495278",
    "ee": true,
    "tech_change_status": "Not Planned",
    "program_type": "Fixed Wireless and Satellite Upgrade Program",
    "target_eligibility_quarter": "NA"
   }
  },
  {
   "type": "Feature",
   "geometry": {
    "type": "Point",
    "coordinates": [
     137.90415435,
     -34.61715024
    ]
   },
   "properties": {
    "name": "17 OUTLOOK ROAD BLACK POINT 5571",
    "locID": "LOC100081928869",
    "tech": "WIRELESS",
    "upgrade": "NULL_NA",
    "gnaf_pid": "GASA_720495401",
    "ee": true,
    "tech_change_status": "Not Planned",
    "program_type": "Fixed Wireless and Satellite Upgrade Program",
    "target_eligibility_quarter": "NA"
   }
  },
  {
   "type": "Feature",
   "geometry": {
    "type": "Point",
    "coordinates": [
     137.903669,
     -34.61630089
    ]
   },
   "properties": {
    "name": "7 OUTLOOK ROAD BLACK POINT 5571",
    "locID": "LOC000131422303",
    "tech": "WIRELESS",
    "upgrade": "NULL_NA",
    "gnaf_pid": "GASA_720495807",
    "ee": true,
    "tech_change_status": "Not Planned",
    "program_type": "Fixed Wireless and Satellite Upgrade Program",
    "target_eligibility_quarter": "NA"
   }
  },
  {
   "type": "Feature",
   "geometry": {
    "type": "Point",
    "coordinates": [
     137.90383526,
     -34.61772818
    ]
   },
   "properties": {
    "name": "27 OUTLOOK ROAD BLACK POINT 5571",
    "locID": "LOC100087266330",
    "tech": "WIRELESS",
    "upgrade": "NULL_NA",
    "gnaf_pid": "GASA_720586347",
    "ee": true,
    "tech_change_status": "Not Planned",
    "program_type": "Fixed Wireless and Satellite Upgrade Program",
    "target_eligibility_quarter": "NA"
   }
  },
  {
   "type": "Feature",
   "geometry": {
    "type": "Point",
    "coordinates": [
     137.90394271,
     -34.61763869
    ]
   },
   "properties": {
    "name": "25 OUTLOOK ROAD BLACK POINT 5571",
    "locID": "LOC100080321598",
    "tech": "WIRELESS",
    "upgrade": "NULL_NA",
    "gnaf_pid": "GASA_720586601",
    "ee": true,
    "tech_change_status": "Not Planned",
    "program_type": "Fixed Wireless and Satellite Upgrade Program",
    "target_eligibility_quarter": "NA"
   }
  },
  {
   "type": "Feature",
   "geometry": {
    "type": "Point",
    "coordinates": [
     137.9023207,
     -34.61837299
    ]
   },
   "properties": {
    "name": "LOT 801 OUTLOOK ROAD BLACK POINT 5571",
    "locID": "LOC000131422293",
    "tech": "WIRELESS",
    "upgrade": "NULL_NA",
    "gnaf_pid": "GASA_720587311",
    "ee": true,
    "tech_change_status": "Not Planned",
    "program_type": "Fixed Wireless and Satellite Upgrade Program",
    "target_eligibility_quarter": "NA"
   }
  },
  {
   "type": "Feature",
   "geometry": {
    "type": "Point",
    "coordinates": [
     137.90162796,
     -34.61810317
    ]
   },
   "properties": {
    "name": "LOT 800 OUTLOOK ROAD BLACK POINT 5571",
    "locID": "LOC000131422293",
    "tech": "WIRELESS",
    "upgrade": "NULL_NA",
    "gnaf_pid": "GASA_720587881",
    "ee": true,
    "tech_change_status": "Not Planned",
    "program_type": "Fixed Wireless and Satellite Upgrade Program",
    "target_eligibility_quarter": "NA"
   }
  },
  {
   "type": "Feature",
   "geometry": {
    "type": "Point",
    "coordinates": [
     137.90277518,
     -34.61755017
    ]
   },
   "properties": {
    "name": "22 OUTLOOK ROAD BLACK POINT 5571",
    "locID": "LOC000131422293",
    "tech": "WIRELESS",
    "upgrade": "NULL_NA",
    "gnaf_pid": "GASA_720851413",
    "ee": true,
    "tech_change_status": "Not Planned",
    "program_type": "Fixed Wireless and Satellite Upgrade Program",
    "target_eligibility_quarter": "NA"
   }
  }
 ]
}