{
 "type": "FeatureCollection",
 "generated": "2025-06-15T09:17:01.068162",
 "suburb": "BLAKISTON",
 "features": [
  {
   "type": "Feature",
   "geometry": {
    "type": "Point",
    "coordinates": [
     138.88091455,
     -35.03850993
    ]
   },
   "properties": {
    "name": "12 HOWARD COURT BLAKISTON 5250",
    "locID": "LOC000038632003",
    "tech": "FTTN",
    "upgrade": "NULL_NA",
    "gnaf_pid": "GASA_423601506",
    "ee": true,
    "tech_change_status": "Not Planned"
   }
  },
  {
   "type": "Feature",
   "geometry": {
    "type": "Point",
    "coordinates": [
     138.88054909,
     -35.0383548
    ]
   },
   "properties": {
    "name": "9 HOWARD COURT BLAKISTON 5250",
    "locID": "LOC000051230672",
    "tech": "FTTN",
    "upgrade": "NULL_NA",
    "gnaf_pid": "GASA_423601510",
    "ee": true,
    "tech_change_status": "Not Planned"
   }
  },
  {
   "type": "Feature",
   "geometry": {
    "type": "Point",
    "coordinates": [
     138.88143311,
     -35.04723307
    ]
   },
   "properties": {
    "name": "49 ALSTON ROAD BLAKISTON 5250",
    "locID": "LOC000014314045",
    "tech": "FTTN",
    "upgrade": "NULL_NA",
    "gnaf_pid": "GASA_424654883",
    "ee": true,
    "tech_change_status": "Not Planned"
   }
  },
  {
   "type": "Feature",
   "geometry": {
    "type": "Point",
    "coordinates": [
     138.88301218,
     -35.04753472
    ]
   },
   "properties": {
    "name": "65 ALSTON ROAD BLAKISTON 5250",
    "locID": "LOC000038812368",
    "tech": "FTTN",
    "upgrade": "NULL_NA",
    "gnaf_pid": "GASA_424654884",
    "ee": true,
    "tech_change_status": "Not Planned"
   }
  },
  {
   "type": "Feature",
   "geometry": {
    "type": "Point",
    "coordinates": [
     138.88446985,
     -35.04778286
    ]
   },
   "properties": {
    "name": "77 ALSTON ROAD BLAKISTON 5250",
    "locID": "LOC000047096920",
    "tech": "FTTN",
    "upgrade": "NULL_NA",
    "gnaf_pid": "GASA_424654885",
    "ee": true,
    "tech_change_status": "Not Planned"
   }
  },
  {
   "type": "Feature",
   "geometry": {
    "type": "Point",
    "coordinates": [
     138.88452011,
     -35.04784443
    ]
   },
   "properties": {
    "name": "78 ALSTON ROAD BLAKISTON 5250",
    "locID": "LOC000082557598",
    "tech": "FTTN",
    "upgrade": "NULL_NA",
    "gnaf_pid": "GASA_424654886",
    "ee": true,
    "tech_change_status": "Not Planned"
   }
  },
  {
   "type": "Feature",
   "geometry": {
    "type": "Point",
    "coordinates": [
     138.88474032,
     -35.04776836
    ]
   },
   "properties": {
    "name": "81 ALSTON ROAD BLAKISTON 5250",
    "locID": "LOC000021803004",
    "tech": "FTTN",
    "upgrade": "NULL_NA",
    "gnaf_pid": "GASA_424654887",
    "ee": true,
    "tech_change_status": "Not Planned"
   }
  },
  {
   "type": "Feature",
   "geometry": {
    "type": "Point",
    "coordinates": [
     138.88574602,
     -35.04729516
    ]
   },
   "properties": {
    "name": "91 ALSTON ROAD BLAKISTON 5250",
    "locID": "LOC000081441788",
    "tech": "FTTN",
    "upgrade": "NULL_NA",
    "gnaf_pid": "GASA_424654888",
    "ee": true,
    "tech_change_status": "Not Planned"
   }
  },
  {
   "type": "Feature",
   "geometry": {
    "type": "Point",
    "coordinates": [
     138.88609828,
     -35.04743767
    ]
   },
   "properties": {
    "name": "94 ALSTON ROAD BLAKISTON 5250",
    "locID": "LOC000047678608",
    "tech": "FTTN",
    "upgrade": "NULL_NA",
    "gnaf_pid": "GASA_424654889",
    "ee": true,
    "tech_change_status": "Not Planned"
   }
  },
  {
   "type": "Feature",
   "geometry": {
    "type": "Point",
    "coordinates": [
     138.88595006,
     -35.04708558
    ]
   },
   "properties": {
    "name": "95 ALSTON ROAD BLAKISTON 5250",
    "locID": "LOC000039663944",
    "tech": "FTTN",
    "upgrade": "NULL_NA",
    "gnaf_pid": "GASA_424654890",
    "ee": true,
    "tech_change_status": "Not Planned"
   }
  },
  {
   "type": "Feature",
   "geometry": {
    "type": "Point",
    "coordinates": [
     138.88605548,
     -35.04718538
    ]
   },
   "properties": {
    "name": "96 ALSTON ROAD BLAKISTON 5250",
    "locID": "LOC000047852627",
    "tech": "FTTN",
    "upgrade": "NULL_NA",
    "gnaf_pid": "GASA_424654891",
    "ee": true,
    "tech_change_status": "Not Planned"
   }
  },
  {
   "type": "Feature",
   "geometry": {
    "type": "Point",
    "coordinates": [
     138.88595972,
     -35.04708281
    ]
   },
   "properties": {
    "name": "97 ALSTON ROAD BLAKISTON 5250",
    "locID": "LOC000035965548",
    "tech": "FTTN",
    "upgrade": "NULL_NA",
    "gnaf_pid": "GASA_424654892",
    "ee": true,
    "tech_change_status": "Not Planned"
   }
  },
  {
   "type": "Feature",
   "geometry": {
    "type": "Point",
    "coordinates": [
     138.89377718,
     -35.04910431
    ]
   },
   "properties": {
    "name": "102 BALD HILLS ROAD BLAKISTON 5250",
    "locID": "LOC000013487657",
    "tech": "FTTN",
    "upgrade": "NULL_NA",
    "gnaf_pid": "GASA_424655202",
    "ee": true,
    "tech_change_status": "Not Planned"
   }
  },
  {
   "type": "Feature",
   "geometry": {
    "type": "Point",
    "coordinates": [
     138.89379179,
     -35.04965213
    ]
   },
   "properties": {
    "name": "108 BALD HILLS ROAD BLAKISTON 5250",
    "locID": "LOC000048620806",
    "tech": "FTTN",
    "upgrade": "NULL_NA",
    "gnaf_pid": "GASA_424655203",
    "ee": true,
    "tech_change_status": "Not Planned"
   }
  },
  {
   "type": "Feature",
   "geometry": {
    "type": "Point",
    "coordinates": [
     138.89341954,
     -35.05119284
    ]
   },
   "properties": {
    "name": "126 BALD HILLS ROAD BLAKISTON 5250",
    "locID": "LOC000018719010",
    "tech": "FTTN",
    "upgrade": "NULL_NA",
    "gnaf_pid": "GASA_424655204",
    "ee": true,
    "tech_change_status": "Not Planned"
   }
  },
  {
   "type": "Feature",
   "geometry": {
    "type": "Point",
    "coordinates": [
     138.89303809,
     -35.05188312
    ]
   },
   "properties": {
    "name": "134 BALD HILLS ROAD BLAKISTON 5250",
    "locID": "LOC000080254511",
    "tech": "FTTN",
    "upgrade": "NULL_NA",
    "gnaf_pid": "GASA_424655205",
    "ee": true,
    "tech_change_status": "Not Planned"
   }
  },
  {
   "type": "Feature",
   "geometry": {
    "type": "Point",
    "coordinates": [
     138.89372505,
     -35.04130044
    ]
   },
   "properties": {
    "name": "16 BALD HILLS ROAD BLAKISTON 5250",
    "locID": "LOC000014266280",
    "tech": "FTTN",
    "upgrade": "NULL_NA",
    "gnaf_pid": "GASA_424655206",
    "ee": true,
    "tech_change_status": "Not Planned"
   }
  },
  {
   "type": "Feature",
   "geometry": {
    "type": "Point",
    "coordinates": [
     138.89373419,
     -35.04161212
    ]
   },
   "properties": {
    "name": "18 BALD HILLS ROAD BLAKISTON 5250",
    "locID": "LOC000100716031",
    "tech": "FTTN",
    "upgrade": "NULL_NA",
    "gnaf_pid": "GASA_424655207",
    "ee": true,
    "tech_change_status": "Not Planned"
   }
  },
  {
   "type": "Feature",
   "geometry": {
    "type": "Point",
    "coordinates": [
     138.89372918,
     -35.04292433
    ]
   },
   "properties": {
    "name": "34 BALD HILLS ROAD BLAKISTON 5250",
    "locID": "LOC000103874608",
    "tech": "FTTN",
    "upgrade": "NULL_NA",
    "gnaf_pid": "GASA_424655208",
    "ee": true,
    "tech_change_status": "Not Planned"
   }
  },
  {
   "type": "Feature",
   "geometry": {
    "type": "Point",
    "coordinates": [
     138.89371472,
     -35.04304211
    ]
   },
   "properties": {
    "name": "36 BALD HILLS ROAD BLAKISTON 5250",
    "locID": "LOC000100325950",
    "tech": "FTTN",
    "upgrade": "NULL_NA",
    "gnaf_pid": "GASA_424655209",
    "ee": true,
    "tech_change_status": "Not Planned"
   }
  },
  {
   "type": "Feature",
   "geometry": {
    "type": "Point",
    "coordinates": [
     138.89374617,
     -35.04472314
    ]
   },
   "properties": {
    "name": "54 BALD HILLS ROAD BLAKISTON 5250",
    "locID": "LOC000032063786",
    "tech": "FTTN",
    "upgrade": "NULL_NA",
    "gnaf_pid": "GASA_424655211",
    "ee": true,
    "tech_change_status": "Not Planned"
   }
  },
  {
   "type": "Feature",
   "geometry": {
    "type": "Point",
    "coordinates": [
     138.89374247,
     -35.04576163
    ]
   },
   "properties": {
    "name": "64 BALD HILLS ROAD BLAKISTON 5250",
    "locID": "LOC000011703762",
    "tech": "FTTN",
    "upgrade": "NULL_NA",
    "gnaf_pid": "GASA_424655212",
    "ee": true,
    "tech_change_status": "Not Planned"
   }
  },
  {
   "type": "Feature",
   "geometry": {
    "type": "Point",
    "coordinates": [
     138.89377006,
     -35.04804212
    ]
   },
   "properties": {
    "name": "90 BALD HILLS ROAD BLAKISTON 5250",
    "locID": "LOC000052578442",
    "tech": "FTTN",
    "upgrade": "NULL_NA",
    "gnaf_pid": "GASA_424655213",
    "ee": true,
    "tech_change_status": "Not Planned"
   }
  },
  {
   "type": "Feature",
   "geometry": {
    "type": "Point",
    "coordinates": [
     138.89377421,
     -35.04832542
    ]
   },
   "properties": {
    "name": "94 BALD HILLS ROAD BLAKISTON 5250",
    "locID": "LOC000026123544",
    "tech": "FTTN",
    "upgrade": "NULL_NA",
    "gnaf_pid": "GASA_424655214",
    "ee": true,
    "tech_change_status": "Not Planned"
   }
  },
  {
   "type": "Feature",
   "geometry": {
    "type": "Point",
    "coordinates": [
     138.87969642,
     -35.03364809
    ]
   },
   "properties": {
    "name": "104 BLAKISTON ROAD BLAKISTON 5250",
    "locID": "LOC000021717058",
    "tech": "FTTN",
    "upgrade": "NULL_NA",
    "gnaf_pid": "GASA_424655945",
    "ee": true,
    "tech_change_status": "Not Planned"
   }
  },
  {
   "type": "Feature",
   "geometry": {
    "type": "Point",
    "coordinates": [
     138.87964,
     -35.04073
    ]
   },
   "properties": {
    "name": "24 BLAKISTON ROAD BLAKISTON 5250",
    "locID": "LOC000104213005",
    "tech": "FTTN",
    "upgrade": "NULL_NA",
    "gnaf_pid": "GASA_424655946",
    "ee": true,
    "tech_change_status": "Not Planned"
   }
  },
  {
   "type": "Feature",
   "geometry": {
    "type": "Point",
    "coordinates": [
     138.8796429,
     -35.03997965
    ]
   },
   "properties": {
    "name": "34 BLAKISTON ROAD BLAKISTON 5250",
    "locID": "LOC000019167615",
    "tech": "FTTN",
    "upgrade": "NULL_NA",
    "gnaf_pid": "GASA_424655947",
    "ee": true,
    "tech_change_status": "Not Planned"
   }
  },
  {
   "type": "Feature",
   "geometry": {
    "type": "Point",
    "coordinates": [
     138.87963696,
     -35.0423147
    ]
   },
   "properties": {
    "name": "6 BLAKISTON ROAD BLAKISTON 5250",
    "locID": "LOC000042737446",
    "tech": "FTTN",
    "upgrade": "NULL_NA",
    "gnaf_pid": "GASA_424655948",
    "ee": true,
    "tech_change_status": "Not Planned"
   }
  },
  {
   "type": "Feature",
   "geometry": {
    "type": "Point",
    "coordinates": [
     138.87968001,
     -35.03650291
    ]
   },
   "properties": {
    "name": "72 BLAKISTON ROAD BLAKISTON 5250",
    "locID": "LOC000047365778",
    "tech": "FTTN",
    "upgrade": "NULL_NA",
    "gnaf_pid": "GASA_424655949",
    "ee": true,
    "tech_change_status": "Not Planned"
   }
  },
  {
   "type": "Feature",
   "geometry": {
    "type": "Point",
    "coordinates": [
     138.87967932,
     -35.03558941
    ]
   },
   "properties": {
    "name": "82 BLAKISTON ROAD BLAKISTON 5250",
    "locID": "LOC000093016443",
    "tech": "FTTN",
    "upgrade": "NULL_NA",
    "gnaf_pid": "GASA_424655950",
    "ee": true,
    "tech_change_status": "Not Planned"
   }
  },
  {
   "type": "Feature",
   "geometry": {
    "type": "Point",
    "coordinates": [
     138.879613,
     -35.042175
    ]
   },
   "properties": {
    "name": "8 BLAKISTON ROAD BLAKISTON 5250",
    "locID": "LOC000076256151",
    "tech": "FTTN",
    "upgrade": "NULL_NA",
    "gnaf_pid": "GASA_424655951",
    "ee": true,
    "tech_change_status": "Not Planned"
   }
  },
  {
   "type": "Feature",
   "geometry": {
    "type": "Point",
    "coordinates": [
     138.87968523,
     -35.03493425
    ]
   },
   "properties": {
    "name": "90 BLAKISTON ROAD BLAKISTON 5250",
    "locID": "LOC000077257938",
    "tech": "FTTN",
    "upgrade": "NULL_NA",
    "gnaf_pid": "GASA_424655952",
    "ee": true,
    "tech_change_status": "Not Planned"
   }
  },
  {
   "type": "Feature",
   "geometry": {
    "type": "Point",
    "coordinates": [
     138.87967684,
     -35.03440568
    ]
   },
   "properties": {
    "name": "94 BLAKISTON ROAD BLAKISTON 5250",
    "locID": "LOC000105729757",
    "tech": "FTTN",
    "upgrade": "NULL_NA",
    "gnaf_pid": "GASA_424655953",
    "ee": true,
    "tech_change_status": "Not Planned"
   }
  },
  {
   "type": "Feature",
   "geometry": {
    "type": "Point",
    "coordinates": [
     138.88619872,
     -35.04828142
    ]
   },
   "properties": {
    "name": "11 CHESTER COURT BLAKISTON 5250",
    "locID": "LOC000038615459",
    "tech": "FTTN",
    "upgrade": "NULL_NA",
    "gnaf_pid": "GASA_424656667",
    "ee": true,
    "tech_change_status": "Not Planned"
   }
  },
  {
   "type": "Feature",
   "geometry": {
    "type": "Point",
    "coordinates": [
     138.8866935,
     -35.04861742
    ]
   },
   "properties": {
    "name": "17 CHESTER COURT BLAKISTON 5250",
    "locID": "LOC000051237753",
    "tech": "FTTN",
    "upgrade": "NULL_NA",
    "gnaf_pid": "GASA_424656668",
    "ee": true,
    "tech_change_status": "Not Planned"
   }
  },
  {
   "type": "Feature",
   "geometry": {
    "type": "Point",
    "coordinates": [
     138.88677484,
     -35.04901002
    ]
   },
   "properties": {
    "name": "22 CHESTER COURT BLAKISTON 5250",
    "locID": "LOC000085673921",
    "tech": "FTTN",
    "upgrade": "NULL_NA",
    "gnaf_pid": "GASA_424656669",
    "ee": true,
    "tech_change_status": "Not Planned"
   }
  },
  {
   "type": "Feature",
   "geometry": {
    "type": "Point",
    "coordinates": [
     138.88682325,
     -35.04926286
    ]
   },
   "properties": {
    "name": "24 CHESTER COURT BLAKISTON 5250",
    "locID": "LOC000096584422",
    "tech": "FTTN",
    "upgrade": "NULL_NA",
    "gnaf_pid": "GASA_424656670",
    "ee": true,
    "tech_change_status": "Not Planned"
   }
  },
  {
   "type": "Feature",
   "geometry": {
    "type": "Point",
    "coordinates": [
     138.886905,
     -35.04928318
    ]
   },
   "properties": {
    "name": "25 CHESTER COURT BLAKISTON 5250",
    "locID": "LOC000034175910",
    "tech": "FTTN",
    "upgrade": "NULL_NA",
    "gnaf_pid": "GASA_424656671",
    "ee": true,
    "tech_change_status": "Not Planned"
   }
  },
  {
   "type": "Feature",
   "geometry": {
    "type": "Point",
    "coordinates": [
     138.88689971,
     -35.04931406
    ]
   },
   "properties": {
    "name": "27 CHESTER COURT BLAKISTON 5250",
    "locID": "LOC000094966638",
    "tech": "FTTN",
    "upgrade": "NULL_NA",
    "gnaf_pid": "GASA_424656672",
    "ee": true,
    "tech_change_status": "Not Planned"
   }
  },
  {
   "type": "Feature",
   "geometry": {
    "type": "Point",
    "coordinates": [
     138.88679568,
     -35.04961982
    ]
   },
   "properties": {
    "name": "28 CHESTER COURT BLAKISTON 5250",
    "locID": "LOC000043915712",
    "tech": "FTTN",
    "upgrade": "NULL_NA",
    "gnaf_pid": "GASA_424656673",
    "ee": true,
    "tech_change_status": "Not Planned"
   }
  },
  {
   "type": "Feature",
   "geometry": {
    "type": "Point",
    "coordinates": [
     138.88743604,
     -35.05015756
    ]
   },
   "properties": {
    "name": "37 CHESTER COURT BLAKISTON 5250",
    "locID": "LOC000040488332",
    "tech": "FTTN",
    "upgrade": "NULL_NA",
    "gnaf_pid": "GASA_424656674",
    "ee": true,
    "tech_change_status": "Not Planned"
   }
  },
  {
   "type": "Feature",
   "geometry": {
    "type": "Point",
    "coordinates": [
     138.88563666,
     -35.04791435
    ]
   },
   "properties": {
    "name": "6 CHESTER COURT BLAKISTON 5250",
    "locID": "LOC000094160180",
    "tech": "FTTN",
    "upgrade": "NULL_NA",
    "gnaf_pid": "GASA_424656676",
    "ee": true,
    "tech_change_status": "Not Planned"
   }
  },
  {
   "type": "Feature",
   "geometry": {
    "type": "Point",
    "coordinates": [
     138.87983027,
     -35.04427767
    ]
   },
   "properties": {
    "name": "15 COMPSON ROAD BLAKISTON 5250",
    "locID": "LOC000100506767",
    "tech": "FTTN",
    "upgrade": "NULL_NA",
    "gnaf_pid": "GASA_424656894",
    "ee": true,
    "tech_change_status": "Not Planned"
   }
  },
  {
   "type": "Feature",
   "geometry": {
    "type": "Point",
    "coordinates": [
     138.87989458,
     -35.04472378
    ]
   },
   "properties": {
    "name": "21 COMPSON ROAD BLAKISTON 5250",
    "locID": "LOC000030083102",
    "tech": "FTTN",
    "upgrade": "NULL_NA",
    "gnaf_pid": "GASA_424656895",
    "ee": true,
    "tech_change_status": "Not Planned"
   }
  },
  {
   "type": "Feature",
   "geometry": {
    "type": "Point",
    "coordinates": [
     138.87994457,
     -35.04508822
    ]
   },
   "properties": {
    "name": "25 COMPSON ROAD BLAKISTON 5250",
    "locID": "LOC000063722414",
    "tech": "FTTN",
    "upgrade": "NULL_NA",
    "gnaf_pid": "GASA_424656896",
    "ee": true,
    "tech_change_status": "Not Planned"
   }
  },
  {
   "type": "Feature",
   "geometry": {
    "type": "Point",
    "coordinates": [
     138.8799901,
     -35.04549866
    ]
   },
   "properties": {
    "name": "29 COMPSON ROAD BLAKISTON 5250",
    "locID": "LOC000011698323",
    "tech": "FTTN",
    "upgrade": "NULL_NA",
    "gnaf_pid": "GASA_424656897",
    "ee": true,
    "tech_change_status": "Not Planned"
   }
  },
  {
   "type": "Feature",
   "geometry": {
    "type": "Point",
    "coordinates": [
     138.88011506,
     -35.04627951
    ]
   },
   "properties": {
    "name": "39 COMPSON ROAD BLAKISTON 5250",
    "locID": "LOC000021247003",
    "tech": "FTTN",
    "upgrade": "NULL_NA",
    "gnaf_pid": "GASA_424656898",
    "ee": true,
    "tech_change_status": "Not Planned"
   }
  },
  {
   "type": "Feature",
   "geometry": {
    "type": "Point",
    "coordinates": [
     138.87972079,
     -35.04353781
    ]
   },
   "properties": {
    "name": "7 COMPSON ROAD BLAKISTON 5250",
    "locID": "LOC000085511348",
    "tech": "FTTN",
    "upgrade": "NULL_NA",
    "gnaf_pid": "GASA_424656899",
    "ee": true,
    "tech_change_status": "Not Planned"
   }
  },
  {
   "type": "Feature",
   "geometry": {
    "type": "Point",
    "coordinates": [
     138.88967878,
     -35.04740597
    ]
   },
   "properties": {
    "name": "13 DAIRY COURT BLAKISTON 5250",
    "locID": "LOC000034179943",
    "tech": "FTTP",
    "upgrade": "NULL_NA",
    "gnaf_pid": "GASA_424657205",
    "ee": true
   }
  },
  {
   "type": "Feature",
   "geometry": {
    "type": "Point",
    "coordinates": [
     138.88962258,
     -35.04620215
    ]
   },
   "properties": {
    "name": "25 DAIRY COURT BLAKISTON 5250",
    "locID": "LOC000077445214",
    "tech": "FTTP",
    "upgrade": "NULL_NA",
    "gnaf_pid": "GASA_424657206",
    "ee": true,
    "tech_change_status": "Previous Tech Disconnected"
   }
  },
  {
   "type": "Feature",
   "geometry": {
    "type": "Point",
    "coordinates": [
     138.88977014,
     -35.0484331
    ]
   },
   "properties": {
    "name": "2 DAIRY COURT BLAKISTON 5250",
    "locID": "LOC000010126982",
    "tech": "FTTP",
    "upgrade": "NULL_NA",
    "gnaf_pid": "GASA_424657207",
    "ee": true,
    "tech_change_status": "Previous Tech Disconnected"
   }
  },
  {
   "type": "Feature",
   "geometry": {
    "type": "Point",
    "coordinates": [
     138.88976569,
     -35.04553552
    ]
   },
   "properties": {
    "name": "32 DAIRY COURT BLAKISTON 5250",
    "locID": "LOC000048839198",
    "tech": "FTTN",
    "upgrade": "NULL_NA",
    "gnaf_pid": "GASA_424657208",
    "ee": true,
    "tech_change_status": "Not Planned"
   }
  },
  {
   "type": "Feature",
   "geometry": {
    "type": "Point",
    "coordinates": [
     138.88964752,
     -35.04510594
    ]
   },
   "properties": {
    "name": "37 DAIRY COURT BLAKISTON 5250",
    "locID": "LOC000003429775",
    "tech": "FTTN",
    "upgrade": "NULL_NA",
    "gnaf_pid": "GASA_424657209",
    "ee": true,
    "tech_change_status": "Not Planned"
   }
  },
  {
   "type": "Feature",
   "geometry": {
    "type": "Point",
    "coordinates": [
     138.88962845,
     -35.0449702
    ]
   },
   "properties": {
    "name": "39 DAIRY COURT BLAKISTON 5250",
    "locID": "LOC000058558884",
    "tech": "FTTN",
    "upgrade": "NULL_NA",
    "gnaf_pid": "GASA_424657210",
    "ee": true,
    "tech_change_status": "Not Planned"
   }
  },
  {
   "type": "Feature",
   "geometry": {
    "type": "Point",
    "coordinates": [
     138.88970363,
     -35.04831652
    ]
   },
   "properties": {
    "name": "3 DAIRY COURT BLAKISTON 5250",
    "locID": "LOC000077193854",
    "tech": "FTTP",
    "upgrade": "NULL_NA",
    "gnaf_pid": "GASA_424657211",
    "ee": true,
    "tech_change_status": "Previous Tech Disconnected"
   }
  },
  {
   "type": "Feature",
   "geometry": {
    "type": "Point",
    "coordinates": [
     138.88974459,
     -35.04497491
    ]
   },
   "properties": {
    "name": "40 DAIRY COURT BLAKISTON 5250",
    "locID": "LOC000029199961",
    "tech": "FTTN",
    "upgrade": "NULL_NA",
    "gnaf_pid": "GASA_424657212",
    "ee": true,
    "tech_change_status": "Not Planned"
   }
  },
  {
   "type": "Feature",
   "geometry": {
    "type": "Point",
    "coordinates": [
     138.88978113,
     -35.0481964
    ]
   },
   "properties": {
    "name": "4 DAIRY COURT BLAKISTON 5250",
    "locID": "LOC000014301106",
    "tech": "FTTN",
    "upgrade": "FTTP",
    "gnaf_pid": "GASA_424657213",
    "ee": true,
    "tech_change_status": "Eligible to Order"
   }
  },
  {
   "type": "Feature",
   "geometry": {
    "type": "Point",
    "coordinates": [
     138.88121644,
     -35.04323295
    ]
   },
   "properties": {
    "name": "16 DALEBANK COURT BLAKISTON 5250",
    "locID": "LOC000091430151",
    "tech": "FTTN",
    "upgrade": "NULL_NA",
    "gnaf_pid": "GASA_424657214",
    "ee": true,
    "tech_change_status": "Not Planned"
   }
  },
  {
   "type": "Feature",
   "geometry": {
    "type": "Point",
    "coordinates": [
     138.88179673,
     -35.0433706
    ]
   },
   "properties": {
    "name": "20 DALEBANK COURT BLAKISTON 5250",
    "locID": "LOC000088931552",
    "tech": "FTTN",
    "upgrade": "NULL_NA",
    "gnaf_pid": "GASA_424657215",
    "ee": true,
    "tech_change_status": "Not Planned"
   }
  },
  {
   "type": "Feature",
   "geometry": {
    "type": "Point",
    "coordinates": [
     138.881913,
     -35.043354
    ]
   },
   "properties": {
    "name": "22 DALEBANK COURT BLAKISTON 5250",
    "locID": "LOC000088881629",
    "tech": "FTTN",
    "upgrade": "NULL_NA",
    "gnaf_pid": "GASA_424657216",
    "ee": true,
    "tech_change_status": "Not Planned"
   }
  },
  {
   "type": "Feature",
   "geometry": {
    "type": "Point",
    "coordinates": [
     138.88003789,
     -35.04313639
    ]
   },
   "properties": {
    "name": "4 DALEBANK COURT BLAKISTON 5250",
    "locID": "LOC000017591424",
    "tech": "FTTN",
    "upgrade": "NULL_NA",
    "gnaf_pid": "GASA_424657217",
    "ee": true,
    "tech_change_status": "Not Planned"
   }
  },
  {
   "type": "Feature",
   "geometry": {
    "type": "Point",
    "coordinates": [
     138.88211409,
     -35.0486705
    ]
   },
   "properties": {
    "name": "17 HENRY ROAD BLAKISTON 5250",
    "locID": "LOC000021208708",
    "tech": "FTTN",
    "upgrade": "NULL_NA",
    "gnaf_pid": "GASA_424659235",
    "ee": true,
    "tech_change_status": "Not Planned"
   }
  },
  {
   "type": "Feature",
   "geometry": {
    "type": "Point",
    "coordinates": [
     138.88239746,
     -35.04940568
    ]
   },
   "properties": {
    "name": "25 HENRY ROAD BLAKISTON 5250",
    "locID": "LOC000078665279",
    "tech": "FTTN",
    "upgrade": "NULL_NA",
    "gnaf_pid": "GASA_424659236",
    "ee": true,
    "tech_change_status": "Not Planned"
   }
  },
  {
   "type": "Feature",
   "geometry": {
    "type": "Point",
    "coordinates": [
     138.88279681,
     -35.0504685
    ]
   },
   "properties": {
    "name": "37 HENRY ROAD BLAKISTON 5250",
    "locID": "LOC000064908329",
    "tech": "FTTN",
    "upgrade": "NULL_NA",
    "gnaf_pid": "GASA_424659237",
    "ee": true,
    "tech_change_status": "Not Planned"
   }
  },
  {
   "type": "Feature",
   "geometry": {
    "type": "Point",
    "coordinates": [
     138.88318478,
     -35.05162019
    ]
   },
   "properties": {
    "name": "51 HENRY ROAD BLAKISTON 5250",
    "locID": "LOC000067010416",
    "tech": "FTTN",
    "upgrade": "NULL_NA",
    "gnaf_pid": "GASA_424659238",
    "ee": true,
    "tech_change_status": "Not Planned"
   }
  },
  {
   "type": "Feature",
   "geometry": {
    "type": "Point",
    "coordinates": [
     138.88331296,
     -35.05199732
    ]
   },
   "properties": {
    "name": "55 HENRY ROAD BLAKISTON 5250",
    "locID": "LOC000009274345",
    "tech": "FTTN",
    "upgrade": "NULL_NA",
    "gnaf_pid": "GASA_424659239",
    "ee": true,
    "tech_change_status": "Not Planned"
   }
  },
  {
   "type": "Feature",
   "geometry": {
    "type": "Point",
    "coordinates": [
     138.88353847,
     -35.05248318
    ]
   },
   "properties": {
    "name": "61 HENRY ROAD BLAKISTON 5250",
    "locID": "LOC000020048666",
    "tech": "FTTN",
    "upgrade": "NULL_NA",
    "gnaf_pid": "GASA_424659240",
    "ee": true,
    "tech_change_status": "Not Planned"
   }
  },
  {
   "type": "Feature",
   "geometry": {
    "type": "Point",
    "coordinates": [
     138.8814715,
     -35.03855593
    ]
   },
   "properties": {
    "name": "18 HOWARD COURT BLAKISTON 5250",
    "locID": "LOC000015954860",
    "tech": "FTTN",
    "upgrade": "NULL_NA",
    "gnaf_pid": "GASA_424659433",
    "ee": true,
    "tech_change_status": "Not Planned"
   }
  },
  {
   "type": "Feature",
   "geometry": {
    "type": "Point",
    "coordinates": [
     138.88174215,
     -35.03831
    ]
   },
   "properties": {
    "name": "21 HOWARD COURT BLAKISTON 5250",
    "locID": "LOC000081979680",
    "tech": "FTTN",
    "upgrade": "NULL_NA",
    "gnaf_pid": "GASA_424659434",
    "ee": true,
    "tech_change_status": "Not Planned"
   }
  },
  {
   "type": "Feature",
   "geometry": {
    "type": "Point",
    "coordinates": [
     138.88216762,
     -35.03818454
    ]
   },
   "properties": {
    "name": "26 HOWARD COURT BLAKISTON 5250",
    "locID": "LOC000070950403",
    "tech": "FTTN",
    "upgrade": "NULL_NA",
    "gnaf_pid": "GASA_424659435",
    "ee": true,
    "tech_change_status": "Not Planned"
   }
  },
  {
   "type": "Feature",
   "geometry": {
    "type": "Point",
    "coordinates": [
     138.88250409,
     -35.03794883
    ]
   },
   "properties": {
    "name": "29 HOWARD COURT BLAKISTON 5250",
    "locID": "LOC000012602342",
    "tech": "FTTN",
    "upgrade": "NULL_NA",
    "gnaf_pid": "GASA_424659436",
    "ee": true,
    "tech_change_status": "Not Planned"
   }
  },
  {
   "type": "Feature",
   "geometry": {
    "type": "Point",
    "coordinates": [
     138.88256504,
     -35.03800731
    ]
   },
   "properties": {
    "name": "30 HOWARD COURT BLAKISTON 5250",
    "locID": "LOC000106801121",
    "tech": "FTTN",
    "upgrade": "NULL_NA",
    "gnaf_pid": "GASA_424659437",
    "ee": true,
    "tech_change_status": "Not Planned"
   }
  },
  {
   "type": "Feature",
   "geometry": {
    "type": "Point",
    "coordinates": [
     138.8839375,
     -35.04606279
    ]
   },
   "properties": {
    "name": "19 JOSEPH ROAD BLAKISTON 5250",
    "locID": "LOC000020142579",
    "tech": "FTTN",
    "upgrade": "NULL_NA",
    "gnaf_pid": "GASA_424659735",
    "ee": true,
    "tech_change_status": "Not Planned"
   }
  },
  {
   "type": "Feature",
   "geometry": {
    "type": "Point",
    "coordinates": [
     138.88396822,
     -35.04577817
    ]
   },
   "properties": {
    "name": "23 JOSEPH ROAD BLAKISTON 5250",
    "locID": "LOC000074182648",
    "tech": "FTTN",
    "upgrade": "NULL_NA",
    "gnaf_pid": "GASA_424659736",
    "ee": true,
    "tech_change_status": "Not Planned"
   }
  },
  {
   "type": "Feature",
   "geometry": {
    "type": "Point",
    "coordinates": [
     138.88402193,
     -35.04524724
    ]
   },
   "properties": {
    "name": "27 JOSEPH ROAD BLAKISTON 5250",
    "locID": "LOC000095667769",
    "tech": "FTTN",
    "upgrade": "NULL_NA",
    "gnaf_pid": "GASA_424659737",
    "ee": true,
    "tech_change_status": "Not Planned"
   }
  },
  {
   "type": "Feature",
   "geometry": {
    "type": "Point",
    "coordinates": [
     138.88414625,
     -35.0452395
    ]
   },
   "properties": {
    "name": "28 JOSEPH ROAD BLAKISTON 5250",
    "locID": "LOC000017545094",
    "tech": "FTTN",
    "upgrade": "NULL_NA",
    "gnaf_pid": "GASA_424659738",
    "ee": true,
    "tech_change_status": "Not Planned"
   }
  },
  {
   "type": "Feature",
   "geometry": {
    "type": "Point",
    "coordinates": [
     138.88407445,
     -35.04488904
    ]
   },
   "properties": {
    "name": "31 JOSEPH ROAD BLAKISTON 5250",
    "locID": "LOC000017667482",
    "tech": "FTTN",
    "upgrade": "NULL_NA",
    "gnaf_pid": "GASA_424659739",
    "ee": true,
    "tech_change_status": "Not Planned"
   }
  },
  {
   "type": "Feature",
   "geometry": {
    "type": "Point",
    "coordinates": [
     138.88414382,
     -35.04485474
    ]
   },
   "properties": {
    "name": "32 JOSEPH ROAD BLAKISTON 5250",
    "locID": "LOC000025173649",
    "tech": "FTTN",
    "upgrade": "NULL_NA",
    "gnaf_pid": "GASA_424659740",
    "ee": true,
    "tech_change_status": "Not Planned"
   }
  },
  {
   "type": "Feature",
   "geometry": {
    "type": "Point",
    "coordinates": [
     138.88409,
     -35.04467
    ]
   },
   "properties": {
    "name": "35 JOSEPH ROAD BLAKISTON 5250",
    "locID": "LOC000085897068",
    "tech": "FTTN",
    "upgrade": "NULL_NA",
    "gnaf_pid": "GASA_424659741",
    "ee": true,
    "tech_change_status": "Not Planned"
   }
  },
  {
   "type": "Feature",
   "geometry": {
    "type": "Point",
    "coordinates": [
     138.88409587,
     -35.0445768
    ]
   },
   "properties": {
    "name": "37 JOSEPH ROAD BLAKISTON 5250",
    "locID": "LOC000056357914",
    "tech": "FTTN",
    "upgrade": "NULL_NA",
    "gnaf_pid": "GASA_424659742",
    "ee": true,
    "tech_change_status": "Not Planned"
   }
  },
  {
   "type": "Feature",
   "geometry": {
    "type": "Point",
    "coordinates": [
     138.88434337,
     -35.04390126
    ]
   },
   "properties": {
    "name": "43 JOSEPH ROAD BLAKISTON 5250",
    "locID": "LOC000052287054",
    "tech": "FTTN",
    "upgrade": "NULL_NA",
    "gnaf_pid": "GASA_424659743",
    "ee": true,
    "tech_change_status": "Not Planned"
   }
  },
  {
   "type": "Feature",
   "geometry": {
    "type": "Point",
    "coordinates": [
     138.8823383,
     -35.02837603
    ]
   },
   "properties": {
    "name": "26 MACE ROAD BLAKISTON 5250",
    "locID": "LOC000019312718",
    "tech": "WIRELESS",
    "upgrade": "NULL_NA",
    "gnaf_pid": "GASA_424660775",
    "ee": true,
    "tech_change_status": "Not Planned",
    "program_type": "Fixed Wireless and Satellite Upgrade Program",
    "target_eligibility_quarter": "NA"
   }
  },
  {
   "type": "Feature",
   "geometry": {
    "type": "Point",
    "coordinates": [
     138.88963644,
     -35.03153018
    ]
   },
   "properties": {
    "name": "104 RIDER ROAD BLAKISTON 5250",
    "locID": "LOC000111787005",
    "tech": "WIRELESS",
    "upgrade": "NULL_NA",
    "gnaf_pid": "GASA_424740261",
    "ee": true,
    "tech_change_status": "Not Planned",
    "program_type": "Fixed Wireless and Satellite Upgrade Program",
    "target_eligibility_quarter": "NA"
   }
  },
  {
   "type": "Feature",
   "geometry": {
    "type": "Point",
    "coordinates": [
     138.88707314,
     -35.05005084
    ]
   },
   "properties": {
    "name": "34 CHESTER COURT BLAKISTON 5250",
    "locID": "LOC000131014800",
    "tech": "FTTN",
    "upgrade": "NULL_NA",
    "gnaf_pid": "GASA_424801143",
    "ee": true,
    "tech_change_status": "Not Planned"
   }
  },
  {
   "type": "Feature",
   "geometry": {
    "type": "Point",
    "coordinates": [
     138.88726871,
     -35.05024572
    ]
   },
   "properties": {
    "name": "36 CHESTER COURT BLAKISTON 5250",
    "locID": "LOC000116240159",
    "tech": "FTTN",
    "upgrade": "NULL_NA",
    "gnaf_pid": "GASA_424801144",
    "ee": true,
    "tech_change_status": "Not Planned"
   }
  },
  {
   "type": "Feature",
   "geometry": {
    "type": "Point",
    "coordinates": [
     138.88736065,
     -35.05024279
    ]
   },
   "properties": {
    "name": "40A CHESTER COURT BLAKISTON 5250",
    "locID": "LOC000131014844",
    "tech": "FTTN",
    "upgrade": "NULL_NA",
    "gnaf_pid": "GASA_424801145",
    "ee": true,
    "tech_change_status": "Not Planned"
   }
  },
  {
   "type": "Feature",
   "geometry": {
    "type": "Point",
    "coordinates": [
     138.88729745,
     -35.05025949
    ]
   },
   "properties": {
    "name": "40C CHESTER COURT BLAKISTON 5250",
    "locID": "LOC000116241234",
    "tech": "FTTN",
    "upgrade": "NULL_NA",
    "gnaf_pid": "GASA_424801147",
    "ee": true,
    "tech_change_status": "Not Planned"
   }
  },
  {
   "type": "Feature",
   "geometry": {
    "type": "Point",
    "coordinates": [
     138.88877345,
     -35.05310857
    ]
   },
   "properties": {
    "name": "34 LITTLE DUBLIN WEST ROAD BLAKISTON 5250",
    "locID": "LOC000116240090",
    "tech": "WIRELESS",
    "upgrade": "NULL_NA",
    "gnaf_pid": "GASA_424803430",
    "ee": true,
    "tech_change_status": "Not Planned",
    "program_type": "Fixed Wireless and Satellite Upgrade Program",
    "target_eligibility_quarter": "NA"
   }
  },
  {
   "type": "Feature",
   "geometry": {
    "type": "Point",
    "coordinates": [
     138.88855645,
     -35.05309934
    ]
   },
   "properties": {
    "name": "36 LITTLE DUBLIN WEST ROAD BLAKISTON 5250",
    "locID": "LOC000116240163",
    "tech": "WIRELESS",
    "upgrade": "NULL_NA",
    "gnaf_pid": "GASA_424803431",
    "ee": true,
    "tech_change_status": "Not Planned",
    "program_type": "Fixed Wireless and Satellite Upgrade Program",
    "target_eligibility_quarter": "NA"
   }
  },
  {
   "type": "Feature",
   "geometry": {
    "type": "Point",
    "coordinates": [
     138.88596706,
     -35.05298337
    ]
   },
   "properties": {
    "name": "58 LITTLE DUBLIN WEST ROAD BLAKISTON 5250",
    "locID": "LOC000116226138",
    "tech": "FTTN",
    "upgrade": "NULL_NA",
    "gnaf_pid": "GASA_424803432",
    "ee": true,
    "tech_change_status": "Not Planned"
   }
  },
  {
   "type": "Feature",
   "geometry": {
    "type": "Point",
    "coordinates": [
     138.88539195,
     -35.05295471
    ]
   },
   "properties": {
    "name": "64 LITTLE DUBLIN WEST ROAD BLAKISTON 5250",
    "locID": "LOC000116230103",
    "tech": "FTTN",
    "upgrade": "NULL_NA",
    "gnaf_pid": "GASA_424803433",
    "ee": true,
    "tech_change_status": "Not Planned"
   }
  },
  {
   "type": "Feature",
   "geometry": {
    "type": "Point",
    "coordinates": [
     138.89152138,
     -35.05317703
    ]
   },
   "properties": {
    "name": "8 LITTLE DUBLIN WEST ROAD BLAKISTON 5250",
    "locID": "LOC000116231311",
    "tech": "WIRELESS",
    "upgrade": "NULL_NA",
    "gnaf_pid": "GASA_424803434",
    "ee": true,
    "tech_change_status": "Not Planned",
    "program_type": "Fixed Wireless and Satellite Upgrade Program",
    "target_eligibility_quarter": "NA"
   }
  },
  {
   "type": "Feature",
   "geometry": {
    "type": "Point",
    "coordinates": [
     138.8855666,
     -35.03968744
    ]
   },
   "properties": {
    "name": "359 OLD PRINCES HIGHWAY BLAKISTON 5250",
    "locID": "LOC000112641596",
    "tech": "FTTN",
    "upgrade": "NULL_NA",
    "gnaf_pid": "GASA_424804619",
    "ee": true,
    "tech_change_status": "Not Planned"
   }
  },
  {
   "type": "Feature",
   "geometry": {
    "type": "Point",
    "coordinates": [
     138.88557314,
     -35.03980591
    ]
   },
   "properties": {
    "name": "360 OLD PRINCES HIGHWAY BLAKISTON 5250",
    "locID": "LOC000112573009",
    "tech": "FTTN",
    "upgrade": "NULL_NA",
    "gnaf_pid": "GASA_424804620",
    "ee": true,
    "tech_change_status": "Not Planned"
   }
  },
  {
   "type": "Feature",
   "geometry": {
    "type": "Point",
    "coordinates": [
     138.88580564,
     -35.03971528
    ]
   },
   "properties": {
    "name": "361 OLD PRINCES HIGHWAY BLAKISTON 5250",
    "locID": "LOC000113831375",
    "tech": "FTTN",
    "upgrade": "NULL_NA",
    "gnaf_pid": "GASA_424804621",
    "ee": true,
    "tech_change_status": "Not Planned"
   }
  },
  {
   "type": "Feature",
   "geometry": {
    "type": "Point",
    "coordinates": [
     138.8872625,
     -35.03993785
    ]
   },
   "properties": {
    "name": "374 OLD PRINCES HIGHWAY BLAKISTON 5250",
    "locID": "LOC000112628495",
    "tech": "FTTN",
    "upgrade": "NULL_NA",
    "gnaf_pid": "GASA_424804622",
    "ee": true,
    "tech_change_status": "Not Planned"
   }
  },
  {
   "type": "Feature",
   "geometry": {
    "type": "Point",
    "coordinates": [
     138.8871937,
     -35.03981166
    ]
   },
   "properties": {
    "name": "375 OLD PRINCES HIGHWAY BLAKISTON 5250",
    "locID": "LOC000113718063",
    "tech": "FTTN",
    "upgrade": "FTTP_NA",
    "gnaf_pid": "GASA_424804623",
    "ee": true,
    "tech_change_status": "Build Finalised"
   }
  },
  {
   "type": "Feature",
   "geometry": {
    "type": "Point",
    "coordinates": [
     138.88747828,
     -35.03993766
    ]
   },
   "properties": {
    "name": "376 OLD PRINCES HIGHWAY BLAKISTON 5250",
    "locID": "LOC000110726452",
    "tech": "FTTN",
    "upgrade": "NULL_NA",
    "gnaf_pid": "GASA_424804624",
    "ee": true,
    "tech_change_status": "Not Planned"
   }
  },
  {
   "type": "Feature",
   "geometry": {
    "type": "Point",
    "coordinates": [
     138.88833708,
     -35.03992508
    ]
   },
   "properties": {
    "name": "384 OLD PRINCES HIGHWAY BLAKISTON 5250",
    "locID": "LOC000110784411",
    "tech": "FTTN",
    "upgrade": "FTTP_NA",
    "gnaf_pid": "GASA_424804625",
    "ee": true,
    "tech_change_status": "Build Finalised"
   }
  },
  {
   "type": "Feature",
   "geometry": {
    "type": "Point",
    "coordinates": [
     138.88961132,
     -35.03997874
    ]
   },
   "properties": {
    "name": "396 OLD PRINCES HIGHWAY BLAKISTON 5250",
    "locID": "LOC000111371760",
    "tech": "FTTN",
    "upgrade": "FTTP_NA",
    "gnaf_pid": "GASA_424804626",
    "ee": true,
    "tech_change_status": "Build Finalised"
   }
  },
  {
   "type": "Feature",
   "geometry": {
    "type": "Point",
    "coordinates": [
     138.89040495,
     -35.04007146
    ]
   },
   "properties": {
    "name": "404 OLD PRINCES HIGHWAY BLAKISTON 5250",
    "locID": "LOC000112414891",
    "tech": "FTTN",
    "upgrade": "FTTP_NA",
    "gnaf_pid": "GASA_424804627",
    "ee": true,
    "tech_change_status": "Build Finalised"
   }
  },
  {
   "type": "Feature",
   "geometry": {
    "type": "Point",
    "coordinates": [
     138.89157283,
     -35.04017731
    ]
   },
   "properties": {
    "name": "414 OLD PRINCES HIGHWAY BLAKISTON 5250",
    "locID": "LOC000113859426",
    "tech": "FTTN",
    "upgrade": "FTTP_NA",
    "gnaf_pid": "GASA_424804628",
    "ee": true,
    "tech_change_status": "Build Finalised"
   }
  },
  {
   "type": "Feature",
   "geometry": {
    "type": "Point",
    "coordinates": [
     138.880104,
     -35.042519
    ]
   },
   "properties": {
    "name": "296 OLD PRINCES HIGHWAY BLAKISTON 5250",
    "locID": "LOC000112845865",
    "tech": "FTTN",
    "upgrade": "NULL_NA",
    "gnaf_pid": "GASA_424813591",
    "ee": true,
    "tech_change_status": "Not Planned"
   }
  },
  {
   "type": "Feature",
   "geometry": {
    "type": "Point",
    "coordinates": [
     138.89371735,
     -35.04431106
    ]
   },
   "properties": {
    "name": "48 BALD HILLS ROAD BLAKISTON 5250",
    "locID": "LOC000116224946",
    "tech": "FTTN",
    "upgrade": "NULL_NA",
    "gnaf_pid": "GASA_424817177",
    "ee": true,
    "tech_change_status": "Not Planned"
   }
  },
  {
   "type": "Feature",
   "geometry": {
    "type": "Point",
    "coordinates": [
     138.88635464,
     -35.04253606
    ]
   },
   "properties": {
    "name": "14 CLAMPETT COURT BLAKISTON 5250",
    "locID": "LOC000116229871",
    "tech": "FTTN",
    "upgrade": "NULL_NA",
    "gnaf_pid": "GASA_424819000",
    "ee": true,
    "tech_change_status": "Not Planned"
   }
  },
  {
   "type": "Feature",
   "geometry": {
    "type": "Point",
    "coordinates": [
     138.88660714,
     -35.04241806
    ]
   },
   "properties": {
    "name": "16 CLAMPETT COURT BLAKISTON 5250",
    "locID": "LOC000116233516",
    "tech": "FTTN",
    "upgrade": "NULL_NA",
    "gnaf_pid": "GASA_424819001",
    "ee": true,
    "tech_change_status": "Not Planned"
   }
  },
  {
   "type": "Feature",
   "geometry": {
    "type": "Point",
    "coordinates": [
     138.88569037,
     -35.04233015
    ]
   },
   "properties": {
    "name": "7 CLAMPETT COURT BLAKISTON 5250",
    "locID": "LOC000131017748",
    "tech": "FTTN",
    "upgrade": "NULL_NA",
    "gnaf_pid": "GASA_424819002",
    "ee": true,
    "tech_change_status": "Not Planned"
   }
  },
  {
   "type": "Feature",
   "geometry": {
    "type": "Point",
    "coordinates": [
     138.88472451,
     -35.04329948
    ]
   },
   "properties": {
    "name": "50 JOSEPH ROAD BLAKISTON 5250",
    "locID": "LOC000131017657",
    "tech": "FTTN",
    "upgrade": "NULL_NA",
    "gnaf_pid": "GASA_424822441",
    "ee": true,
    "tech_change_status": "Not Planned"
   }
  },
  {
   "type": "Feature",
   "geometry": {
    "type": "Point",
    "coordinates": [
     138.88495314,
     -35.04274918
    ]
   },
   "properties": {
    "name": "58 JOSEPH ROAD BLAKISTON 5250",
    "locID": "LOC000116226129",
    "tech": "FTTN",
    "upgrade": "NULL_NA",
    "gnaf_pid": "GASA_424822442",
    "ee": true,
    "tech_change_status": "Not Planned"
   }
  },
  {
   "type": "Feature",
   "geometry": {
    "type": "Point",
    "coordinates": [
     138.88467805,
     -35.04153869
    ]
   },
   "properties": {
    "name": "72 JOSEPH ROAD BLAKISTON 5250",
    "locID": "LOC000131017782",
    "tech": "FTTN",
    "upgrade": "NULL_NA",
    "gnaf_pid": "GASA_424822443",
    "ee": true,
    "tech_change_status": "Not Planned"
   }
  },
  {
   "type": "Feature",
   "geometry": {
    "type": "Point",
    "coordinates": [
     138.88284717,
     -35.04006419
    ]
   },
   "properties": {
    "name": "LOT 14 OLD PRINCES HIGHWAY BLAKISTON 5250",
    "locID": "LOC000148706848",
    "tech": "FTTP",
    "upgrade": "FTTP_NA",
    "gnaf_pid": "GASA_424825130",
    "ee": true,
    "tech_change_status": "Previous Tech Disconnected",
    "program_type": "On-Demand N2P SDU/MDU Simple",
    "target_eligibility_quarter": "NA"
   }
  },
  {
   "type": "Feature",
   "geometry": {
    "type": "Point",
    "coordinates": [
     138.88346218,
     -35.03991552
    ]
   },
   "properties": {
    "name": "LOT 87 OLD PRINCES HIGHWAY BLAKISTON 5250",
    "locID": "LOC000189308196",
    "tech": "FTTN",
    "upgrade": "FTTP_SA",
    "gnaf_pid": "GASA_424825131",
    "ee": true,
    "tech_change_status": "Eligible to Order",
    "program_type": "On-Demand N2P SDU/MDU Simple",
    "target_eligibility_quarter": "NA"
   }
  },
  {
   "type": "Feature",
   "geometry": {
    "type": "Point",
    "coordinates": [
     138.88834787,
     -35.03076526
    ]
   },
   "properties": {
    "name": "88 RIDER ROAD BLAKISTON 5250",
    "locID": "LOC000130900692",
    "tech": "WIRELESS",
    "upgrade": "NULL_NA",
    "gnaf_pid": "GASA_424827051",
    "ee": true,
    "tech_change_status": "Not Planned",
    "program_type": "Fixed Wireless and Satellite Upgrade Program",
    "target_eligibility_quarter": "NA"
   }
  },
  {
   "type": "Feature",
   "geometry": {
    "type": "Point",
    "coordinates": [
     138.88606049,
     -35.0441001
    ]
   },
   "properties": {
    "name": "17 WYNDHAM COURT BLAKISTON 5250",
    "locID": "LOC000131009926",
    "tech": "FTTN",
    "upgrade": "NULL_NA",
    "gnaf_pid": "GASA_424830142",
    "ee": true,
    "tech_change_status": "Not Planned"
   }
  },
  {
   "type": "Feature",
   "geometry": {
    "type": "Point",
    "coordinates": [
     138.88646477,
     -35.04420796
    ]
   },
   "properties": {
    "name": "20 WYNDHAM COURT BLAKISTON 5250",
    "locID": "LOC000131012634",
    "tech": "FTTN",
    "upgrade": "NULL_NA",
    "gnaf_pid": "GASA_424830143",
    "ee": true,
    "tech_change_status": "Not Planned"
   }
  },
  {
   "type": "Feature",
   "geometry": {
    "type": "Point",
    "coordinates": [
     138.88665886,
     -35.04414654
    ]
   },
   "properties": {
    "name": "22 WYNDHAM COURT BLAKISTON 5250",
    "locID": "LOC000116234986",
    "tech": "FTTN",
    "upgrade": "NULL_NA",
    "gnaf_pid": "GASA_424830144",
    "ee": true,
    "tech_change_status": "Not Planned"
   }
  },
  {
   "type": "Feature",
   "geometry": {
    "type": "Point",
    "coordinates": [
     138.88664299,
     -35.04408507
    ]
   },
   "properties": {
    "name": "23 WYNDHAM COURT BLAKISTON 5250",
    "locID": "LOC000116235010",
    "tech": "FTTN",
    "upgrade": "NULL_NA",
    "gnaf_pid": "GASA_424830145",
    "ee": true,
    "tech_change_status": "Not Planned"
   }
  },
  {
   "type": "Feature",
   "geometry": {
    "type": "Point",
    "coordinates": [
     138.88406162,
     -35.0458969
    ]
   },
   "properties": {
    "name": "20 JOSEPH ROAD BLAKISTON 5250",
    "locID": "LOC000116234917",
    "tech": "FTTN",
    "upgrade": "NULL_NA",
    "gnaf_pid": "GASA_424831300",
    "ee": true,
    "tech_change_status": "Not Planned"
   }
  },
  {
   "type": "Feature",
   "geometry": {
    "type": "Point",
    "coordinates": [
     138.89248417,
     -35.04679587
    ]
   },
   "properties": {
    "name": "13 DAVISON ROAD BLAKISTON 5250",
    "locID": "LOC000131007107",
    "tech": "FTTN",
    "upgrade": "NULL_NA",
    "gnaf_pid": "GASA_424900779",
    "ee": true,
    "tech_change_status": "Not Planned"
   }
  },
  {
   "type": "Feature",
   "geometry": {
    "type": "Point",
    "coordinates": [
     138.89221482,
     -35.04671547
    ]
   },
   "properties": {
    "name": "16 DAVISON ROAD BLAKISTON 5250",
    "locID": "LOC000131009903",
    "tech": "FTTN",
    "upgrade": "NULL_NA",
    "gnaf_pid": "GASA_424900780",
    "ee": true,
    "tech_change_status": "Not Planned"
   }
  },
  {
   "type": "Feature",
   "geometry": {
    "type": "Point",
    "coordinates": [
     138.8860404,
     -35.04229738
    ]
   },
   "properties": {
    "name": "11 CLAMPETT COURT BLAKISTON 5250",
    "locID": "LOC100080843243",
    "tech": "FTTN",
    "upgrade": "NULL_NA",
    "gnaf_pid": "GASA_425187519",
    "ee": true,
    "tech_change_status": "Not Planned"
   }
  },
  {
   "type": "Feature",
   "geometry": {
    "type": "Point",
    "coordinates": [
     138.88453537,
     -35.04147098
    ]
   },
   "properties": {
    "name": "73 JOSEPH ROAD BLAKISTON 5250",
    "locID": "LOC000148925341",
    "tech": "FTTN",
    "upgrade": "NULL_NA",
    "gnaf_pid": "GASA_425189949",
    "ee": true,
    "tech_change_status": "Not Planned"
   }
  },
  {
   "type": "Feature",
   "geometry": {
    "type": "Point",
    "coordinates": [
     138.88449689,
     -35.04122544
    ]
   },
   "properties": {
    "name": "75 JOSEPH ROAD BLAKISTON 5250",
    "locID": "LOC000154941476",
    "tech": "FTTN",
    "upgrade": "NULL_NA",
    "gnaf_pid": "GASA_425189950",
    "ee": true,
    "tech_change_status": "Not Planned"
   }
  },
  {
   "type": "Feature",
   "geometry": {
    "type": "Point",
    "coordinates": [
     138.88439849,
     -35.0408103
    ]
   },
   "properties": {
    "name": "79 JOSEPH ROAD BLAKISTON 5250",
    "locID": "LOC000148747365",
    "tech": "FTTN",
    "upgrade": "NULL_NA",
    "gnaf_pid": "GASA_425189951",
    "ee": true,
    "tech_change_status": "Not Planned"
   }
  },
  {
   "type": "Feature",
   "geometry": {
    "type": "Point",
    "coordinates": [
     138.88445217,
     -35.04071546
    ]
   },
   "properties": {
    "name": "81 JOSEPH ROAD BLAKISTON 5250",
    "locID": "LOC000148747354",
    "tech": "FTTN",
    "upgrade": "NULL_NA",
    "gnaf_pid": "GASA_425189952",
    "ee": true,
    "tech_change_status": "Not Planned"
   }
  },
  {
   "type": "Feature",
   "geometry": {
    "type": "Point",
    "coordinates": [
     138.88475005,
     -35.04207132
    ]
   },
   "properties": {
    "name": "65 JOSEPH ROAD BLAKISTON 5250",
    "locID": "LOC000148925339",
    "tech": "FTTN",
    "upgrade": "NULL_NA",
    "gnaf_pid": "GASA_425298236",
    "ee": true,
    "tech_change_status": "Not Planned"
   }
  },
  {
   "type": "Feature",
   "geometry": {
    "type": "Point",
    "coordinates": [
     138.88662913,
     -35.04236842
    ]
   },
   "properties": {
    "name": "15 CLAMPETT COURT BLAKISTON 5250",
    "locID": "LOC000162043741",
    "tech": "FTTN",
    "upgrade": "NULL_NA",
    "gnaf_pid": "GASA_425353347",
    "ee": true,
    "tech_change_status": "Not Planned"
   }
  },
  {
   "type": "Feature",
   "geometry": {
    "type": "Point",
    "coordinates": [
     138.88445423,
     -35.04371079
    ]
   },
   "properties": {
    "name": "45 JOSEPH ROAD BLAKISTON 5250",
    "locID": "LOC000148925133",
    "tech": "FTTN",
    "upgrade": "NULL_NA",
    "gnaf_pid": "GASA_425354903",
    "ee": true,
    "tech_change_status": "Not Planned"
   }
  },
  {
   "type": "Feature",
   "geometry": {
    "type": "Point",
    "coordinates": [
     138.88458519,
     -35.0407302
    ]
   },
   "properties": {
    "name": "80 JOSEPH ROAD BLAKISTON 5250",
    "locID": "LOC000148925736",
    "tech": "FTTN",
    "upgrade": "NULL_NA",
    "gnaf_pid": "GASA_425360270",
    "ee": true,
    "tech_change_status": "Not Planned"
   }
  },
  {
   "type": "Feature",
   "geometry": {
    "type": "Point",
    "coordinates": [
     138.88258282,
     -35.04750036
    ]
   },
   "properties": {
    "name": "60 ALSTON ROAD BLAKISTON 5250",
    "locID": "LOC000148639239",
    "tech": "FTTN",
    "upgrade": "NULL_NA",
    "gnaf_pid": "GASA_425500105",
    "ee": true,
    "tech_change_status": "Not Planned"
   }
  },
  {
   "type": "Feature",
   "geometry": {
    "type": "Point",
    "coordinates": [
     138.88453538,
     -35.04133608
    ]
   },
   "properties": {
    "name": "73A JOSEPH ROAD BLAKISTON 5250",
    "locID": "LOC000173520486",
    "tech": "FTTN",
    "upgrade": "NULL_NA",
    "gnaf_pid": "GASA_425856397",
    "ee": true,
    "tech_change_status": "Not Planned"
   }
  },
  {
   "type": "Feature",
   "geometry": {
    "type": "Point",
    "coordinates": [
     138.8858288,
     -35.04416791
    ]
   },
   "properties": {
    "name": "14 WYNDHAM COURT BLAKISTON 5250",
    "locID": "LOC000190312916",
    "tech": "FTTN",
    "upgrade": "NULL_NA",
    "gnaf_pid": "GASA_719393324",
    "ee": true,
    "tech_change_status": "Not Planned"
   }
  },
  {
   "type": "Feature",
   "geometry": {
    "type": "Point",
    "coordinates": [
     138.885662,
     -35.047831
    ]
   },
   "properties": {
    "name": "5 CHESTER COURT BLAKISTON 5250",
    "locID": "LOC000043915712",
    "tech": "FTTN",
    "upgrade": "NULL_NA",
    "gnaf_pid": "GASA_720585029",
    "ee": true,
    "tech_change_status": "Not Planned"
   }
  },
  {
   "type": "Feature",
   "geometry": {
    "type": "Point",
    "coordinates": [
     138.892999,
     -35.05194
    ]
   },
   "properties": {
    "name": "136 BALD HILLS ROAD BLAKISTON 5250",
    "locID": "LOC000190229261",
    "tech": "FTTN",
    "upgrade": "NULL_NA",
    "gnaf_pid": "GASA_720883826",
    "ee": true,
    "tech_change_status": "Not Planned"
   }
  },
  {
   "type": "Feature",
   "geometry": {
    "type": "Point",
    "coordinates": [
     138.881826,
     -35.043221
    ]
   },
   "properties": {
    "name": "19 DALEBANK COURT BLAKISTON 5250",
    "locID": "LOC000191788178",
    "tech": "FTTN",
    "upgrade": "NULL_NA",
    "gnaf_pid": "GASA_721002411",
    "ee": true,
    "tech_change_status": "Not Planned"
   }
  }
 ]
}