{
 "type": "FeatureCollection",
 "generated": "2025-06-15T09:25:14.418141",
 "suburb": "BOLIVAR",
 "features": [
  {
   "type": "Feature",
   "geometry": {
    "type": "Point",
    "coordinates": [
     138.59310271,
     -34.76749635
    ]
   },
   "properties": {
    "name": "2 HODGSON ROAD BOLIVAR 5110",
    "locID": "LOC000178089958",
    "tech": "FTTN",
    "upgrade": "NULL_NA",
    "gnaf_pid": "GASA_415908406",
    "ee": true,
    "tech_change_status": "Not Planned"
   }
  },
  {
   "type": "Feature",
   "geometry": {
    "type": "Point",
    "coordinates": [
     138.58542141,
     -34.74697256
    ]
   },
   "properties": {
    "name": "47-55 SUMMER ROAD BOLIVAR 5110",
    "locID": "LOC000159761599",
    "tech": "FTTC",
    "upgrade": "FTTP_SA",
    "gnaf_pid": "GASA_421962393",
    "ee": true,
    "tech_change_status": "Eligible to Order"
   }
  },
  {
   "type": "Feature",
   "geometry": {
    "type": "Point",
    "coordinates": [
     138.59077341,
     -34.75728895
    ]
   },
   "properties": {
    "name": "101 PORT WAKEFIELD ROAD BOLIVAR 5110",
    "locID": "LOC100055395368",
    "tech": "FTTC",
    "upgrade": "FTTP_SA",
    "gnaf_pid": "GASA_423423996",
    "ee": true,
    "tech_change_status": "Eligible to Order"
   }
  },
  {
   "type": "Feature",
   "geometry": {
    "type": "Point",
    "coordinates": [
     138.59077341,
     -34.75728895
    ]
   },
   "properties": {
    "name": "108 PORT WAKEFIELD ROAD BOLIVAR 5110",
    "locID": "LOC000159765320",
    "tech": "FTTP",
    "upgrade": "NULL_NA",
    "gnaf_pid": "GASA_423424004",
    "ee": true
   }
  },
  {
   "type": "Feature",
   "geometry": {
    "type": "Point",
    "coordinates": [
     138.59077341,
     -34.75728895
    ]
   },
   "properties": {
    "name": "109 PORT WAKEFIELD ROAD BOLIVAR 5110",
    "locID": "LOC000185057408",
    "tech": "FTTN",
    "upgrade": "NULL_NA",
    "gnaf_pid": "GASA_423424005",
    "ee": true,
    "tech_change_status": "Not Planned"
   }
  },
  {
   "type": "Feature",
   "geometry": {
    "type": "Point",
    "coordinates": [
     138.59077341,
     -34.75728895
    ]
   },
   "properties": {
    "name": "10 PORT WAKEFIELD ROAD BOLIVAR 5110",
    "locID": "LOC000159765320",
    "tech": "FTTP",
    "upgrade": "NULL_NA",
    "gnaf_pid": "GASA_423424006",
    "ee": true
   }
  },
  {
   "type": "Feature",
   "geometry": {
    "type": "Point",
    "coordinates": [
     138.58452182,
     -34.74625719
    ]
   },
   "properties": {
    "name": "1103 PORT WAKEFIELD ROAD BOLIVAR 5110",
    "locID": "LOC000030911469",
    "tech": "FTTC",
    "upgrade": "FTTP_SA",
    "gnaf_pid": "GASA_423424007",
    "ee": true,
    "tech_change_status": "Eligible to Order"
   }
  },
  {
   "type": "Feature",
   "geometry": {
    "type": "Point",
    "coordinates": [
     138.59077341,
     -34.75728895
    ]
   },
   "properties": {
    "name": "110 PORT WAKEFIELD ROAD BOLIVAR 5110",
    "locID": "LOC000030911469",
    "tech": "FTTC",
    "upgrade": "FTTP_SA",
    "gnaf_pid": "GASA_423424008",
    "ee": true,
    "tech_change_status": "Eligible to Order"
   }
  },
  {
   "type": "Feature",
   "geometry": {
    "type": "Point",
    "coordinates": [
     138.59077341,
     -34.75728895
    ]
   },
   "properties": {
    "name": "111 PORT WAKEFIELD ROAD BOLIVAR 5110",
    "locID": "LOC000159761608",
    "tech": "FTTC",
    "upgrade": "FTTP_SA",
    "gnaf_pid": "GASA_423424009",
    "ee": true,
    "tech_change_status": "Eligible to Order"
   }
  },
  {
   "type": "Feature",
   "geometry": {
    "type": "Point",
    "coordinates": [
     138.59077341,
     -34.75728895
    ]
   },
   "properties": {
    "name": "112 PORT WAKEFIELD ROAD BOLIVAR 5110",
    "locID": "LOC000009332338",
    "tech": "FTTC",
    "upgrade": "FTTP_SA",
    "gnaf_pid": "GASA_423424010",
    "ee": true,
    "tech_change_status": "Eligible to Order"
   }
  },
  {
   "type": "Feature",
   "geometry": {
    "type": "Point",
    "coordinates": [
     138.59077341,
     -34.75728895
    ]
   },
   "properties": {
    "name": "113 PORT WAKEFIELD ROAD BOLIVAR 5110",
    "locID": "LOC000172826241",
    "tech": "FTTC",
    "upgrade": "FTTP_SA",
    "gnaf_pid": "GASA_423424011",
    "ee": true,
    "tech_change_status": "Eligible to Order"
   }
  },
  {
   "type": "Feature",
   "geometry": {
    "type": "Point",
    "coordinates": [
     138.59077341,
     -34.75728895
    ]
   },
   "properties": {
    "name": "114 PORT WAKEFIELD ROAD BOLIVAR 5110",
    "locID": "LOC000159761612",
    "tech": "FTTC",
    "upgrade": "FTTP",
    "gnaf_pid": "GASA_423424012",
    "ee": true,
    "tech_change_status": "Eligible to Order"
   }
  },
  {
   "type": "Feature",
   "geometry": {
    "type": "Point",
    "coordinates": [
     138.59077341,
     -34.75728895
    ]
   },
   "properties": {
    "name": "115 PORT WAKEFIELD ROAD BOLIVAR 5110",
    "locID": "LOC000159762224",
    "tech": "FTTC",
    "upgrade": "FTTP_SA",
    "gnaf_pid": "GASA_423424013",
    "ee": true,
    "tech_change_status": "Eligible to Order"
   }
  },
  {
   "type": "Feature",
   "geometry": {
    "type": "Point",
    "coordinates": [
     138.59077341,
     -34.75728895
    ]
   },
   "properties": {
    "name": "118 PORT WAKEFIELD ROAD BOLIVAR 5110",
    "locID": "LOC000159770131",
    "tech": "FTTC",
    "upgrade": "FTTP_SA",
    "gnaf_pid": "GASA_423424016",
    "ee": true,
    "tech_change_status": "Eligible to Order"
   }
  },
  {
   "type": "Feature",
   "geometry": {
    "type": "Point",
    "coordinates": [
     138.59077341,
     -34.75728895
    ]
   },
   "properties": {
    "name": "11 PORT WAKEFIELD ROAD BOLIVAR 5110",
    "locID": "LOC000159761608",
    "tech": "FTTC",
    "upgrade": "FTTP_SA",
    "gnaf_pid": "GASA_423424019",
    "ee": true,
    "tech_change_status": "Eligible to Order"
   }
  },
  {
   "type": "Feature",
   "geometry": {
    "type": "Point",
    "coordinates": [
     138.59077341,
     -34.75728895
    ]
   },
   "properties": {
    "name": "122 PORT WAKEFIELD ROAD BOLIVAR 5110",
    "locID": "LOC000177464894",
    "tech": "FTTN",
    "upgrade": "NULL_NA",
    "gnaf_pid": "GASA_423424023",
    "ee": true,
    "tech_change_status": "Not Planned"
   }
  },
  {
   "type": "Feature",
   "geometry": {
    "type": "Point",
    "coordinates": [
     138.59077341,
     -34.75728895
    ]
   },
   "properties": {
    "name": "129 PORT WAKEFIELD ROAD BOLIVAR 5110",
    "locID": "LOC000022448229",
    "tech": "WIRELESS",
    "upgrade": "NULL_NA",
    "gnaf_pid": "GASA_423424030",
    "ee": true,
    "tech_change_status": "Not Planned",
    "program_type": "Fixed Wireless and Satellite Upgrade Program",
    "target_eligibility_quarter": "NA"
   }
  },
  {
   "type": "Feature",
   "geometry": {
    "type": "Point",
    "coordinates": [
     138.59077341,
     -34.75728895
    ]
   },
   "properties": {
    "name": "132 PORT WAKEFIELD ROAD BOLIVAR 5110",
    "locID": "LOC000005893572",
    "tech": "WIRELESS",
    "upgrade": "NULL_NA",
    "gnaf_pid": "GASA_423424034",
    "ee": true,
    "tech_change_status": "Not Planned",
    "program_type": "Fixed Wireless and Satellite Upgrade Program",
    "target_eligibility_quarter": "NA"
   }
  },
  {
   "type": "Feature",
   "geometry": {
    "type": "Point",
    "coordinates": [
     138.59077341,
     -34.75728895
    ]
   },
   "properties": {
    "name": "136 PORT WAKEFIELD ROAD BOLIVAR 5110",
    "locID": "LOC000177464839",
    "tech": "FTTN",
    "upgrade": "NULL_NA",
    "gnaf_pid": "GASA_423424038",
    "ee": true,
    "tech_change_status": "Not Planned"
   }
  },
  {
   "type": "Feature",
   "geometry": {
    "type": "Point",
    "coordinates": [
     138.59077341,
     -34.75728895
    ]
   },
   "properties": {
    "name": "138 PORT WAKEFIELD ROAD BOLIVAR 5110",
    "locID": "LOC000185057408",
    "tech": "FTTN",
    "upgrade": "NULL_NA",
    "gnaf_pid": "GASA_423424040",
    "ee": true,
    "tech_change_status": "Not Planned"
   }
  },
  {
   "type": "Feature",
   "geometry": {
    "type": "Point",
    "coordinates": [
     138.59077341,
     -34.75728895
    ]
   },
   "properties": {
    "name": "142 PORT WAKEFIELD ROAD BOLIVAR 5110",
    "locID": "LOC000179363523",
    "tech": "FTTN",
    "upgrade": "NULL_NA",
    "gnaf_pid": "GASA_423424045",
    "ee": true,
    "tech_change_status": "Not Planned"
   }
  },
  {
   "type": "Feature",
   "geometry": {
    "type": "Point",
    "coordinates": [
     138.59077341,
     -34.75728895
    ]
   },
   "properties": {
    "name": "144 PORT WAKEFIELD ROAD BOLIVAR 5110",
    "locID": "LOC000185057408",
    "tech": "FTTN",
    "upgrade": "NULL_NA",
    "gnaf_pid": "GASA_423424047",
    "ee": true,
    "tech_change_status": "Not Planned"
   }
  },
  {
   "type": "Feature",
   "geometry": {
    "type": "Point",
    "coordinates": [
     138.59077341,
     -34.75728895
    ]
   },
   "properties": {
    "name": "148 PORT WAKEFIELD ROAD BOLIVAR 5110",
    "locID": "LOC100055396921",
    "tech": "WIRELESS",
    "upgrade": "NULL_NA",
    "gnaf_pid": "GASA_423424051",
    "ee": true,
    "tech_change_status": "Not Planned",
    "program_type": "Fixed Wireless and Satellite Upgrade Program",
    "target_eligibility_quarter": "NA"
   }
  },
  {
   "type": "Feature",
   "geometry": {
    "type": "Point",
    "coordinates": [
     138.59077341,
     -34.75728895
    ]
   },
   "properties": {
    "name": "150 PORT WAKEFIELD ROAD BOLIVAR 5110",
    "locID": "LOC000177464841",
    "tech": "FTTN",
    "upgrade": "NULL_NA",
    "gnaf_pid": "GASA_423424054",
    "ee": true,
    "tech_change_status": "Not Planned"
   }
  },
  {
   "type": "Feature",
   "geometry": {
    "type": "Point",
    "coordinates": [
     138.59077341,
     -34.75728895
    ]
   },
   "properties": {
    "name": "151 PORT WAKEFIELD ROAD BOLIVAR 5110",
    "locID": "LOC000185057408",
    "tech": "FTTN",
    "upgrade": "NULL_NA",
    "gnaf_pid": "GASA_423424055",
    "ee": true,
    "tech_change_status": "Not Planned"
   }
  },
  {
   "type": "Feature",
   "geometry": {
    "type": "Point",
    "coordinates": [
     138.59077341,
     -34.75728895
    ]
   },
   "properties": {
    "name": "167 PORT WAKEFIELD ROAD BOLIVAR 5110",
    "locID": "LOC000185057408",
    "tech": "FTTN",
    "upgrade": "NULL_NA",
    "gnaf_pid": "GASA_423424072",
    "ee": true,
    "tech_change_status": "Not Planned"
   }
  },
  {
   "type": "Feature",
   "geometry": {
    "type": "Point",
    "coordinates": [
     138.59077341,
     -34.75728895
    ]
   },
   "properties": {
    "name": "16 PORT WAKEFIELD ROAD BOLIVAR 5110",
    "locID": "LOC000177464792",
    "tech": "FTTN",
    "upgrade": "NULL_NA",
    "gnaf_pid": "GASA_423424075",
    "ee": true,
    "tech_change_status": "Not Planned"
   }
  },
  {
   "type": "Feature",
   "geometry": {
    "type": "Point",
    "coordinates": [
     138.59077341,
     -34.75728895
    ]
   },
   "properties": {
    "name": "181 PORT WAKEFIELD ROAD BOLIVAR 5110",
    "locID": "LOC000177464904",
    "tech": "FTTN",
    "upgrade": "NULL_NA",
    "gnaf_pid": "GASA_423424088",
    "ee": true,
    "tech_change_status": "Not Planned"
   }
  },
  {
   "type": "Feature",
   "geometry": {
    "type": "Point",
    "coordinates": [
     138.59077341,
     -34.75728895
    ]
   },
   "properties": {
    "name": "181A PORT WAKEFIELD ROAD BOLIVAR 5110",
    "locID": "LOC000177464887",
    "tech": "FTTN",
    "upgrade": "NULL_NA",
    "gnaf_pid": "GASA_423424089",
    "ee": true,
    "tech_change_status": "Not Planned"
   }
  },
  {
   "type": "Feature",
   "geometry": {
    "type": "Point",
    "coordinates": [
     138.59077341,
     -34.75728895
    ]
   },
   "properties": {
    "name": "187 PORT WAKEFIELD ROAD BOLIVAR 5110",
    "locID": "LOC000177465124",
    "tech": "FTTN",
    "upgrade": "NULL_NA",
    "gnaf_pid": "GASA_423424095",
    "ee": true,
    "tech_change_status": "Not Planned"
   }
  },
  {
   "type": "Feature",
   "geometry": {
    "type": "Point",
    "coordinates": [
     138.59077341,
     -34.75728895
    ]
   },
   "properties": {
    "name": "190 PORT WAKEFIELD ROAD BOLIVAR 5110",
    "locID": "LOC000177465111",
    "tech": "FTTN",
    "upgrade": "NULL_NA",
    "gnaf_pid": "GASA_423424099",
    "ee": true,
    "tech_change_status": "Not Planned"
   }
  },
  {
   "type": "Feature",
   "geometry": {
    "type": "Point",
    "coordinates": [
     138.59077341,
     -34.75728895
    ]
   },
   "properties": {
    "name": "21 PORT WAKEFIELD ROAD BOLIVAR 5110",
    "locID": "LOC000193740751",
    "tech": "NULL",
    "upgrade": "NULL_NA",
    "gnaf_pid": "GASA_423424103",
    "ee": false
   }
  },
  {
   "type": "Feature",
   "geometry": {
    "type": "Point",
    "coordinates": [
     138.59077341,
     -34.75728895
    ]
   },
   "properties": {
    "name": "22 PORT WAKEFIELD ROAD BOLIVAR 5110",
    "locID": "LOC000193740767",
    "tech": "NULL",
    "upgrade": "NULL_NA",
    "gnaf_pid": "GASA_423424104",
    "ee": false
   }
  },
  {
   "type": "Feature",
   "geometry": {
    "type": "Point",
    "coordinates": [
     138.59077341,
     -34.75728895
    ]
   },
   "properties": {
    "name": "28 PORT WAKEFIELD ROAD BOLIVAR 5110",
    "locID": "LOC000193740820",
    "tech": "NULL",
    "upgrade": "NULL_NA",
    "gnaf_pid": "GASA_423424110",
    "ee": false
   }
  },
  {
   "type": "Feature",
   "geometry": {
    "type": "Point",
    "coordinates": [
     138.59077341,
     -34.75728895
    ]
   },
   "properties": {
    "name": "2 PORT WAKEFIELD ROAD BOLIVAR 5110",
    "locID": "LOC000177465148",
    "tech": "FTTN",
    "upgrade": "NULL_NA",
    "gnaf_pid": "GASA_423424112",
    "ee": true,
    "tech_change_status": "Not Planned"
   }
  },
  {
   "type": "Feature",
   "geometry": {
    "type": "Point",
    "coordinates": [
     138.59077341,
     -34.75728895
    ]
   },
   "properties": {
    "name": "30 PORT WAKEFIELD ROAD BOLIVAR 5110",
    "locID": "LOC000179700359",
    "tech": "FTTN",
    "upgrade": "NULL_NA",
    "gnaf_pid": "GASA_423424113",
    "ee": true,
    "tech_change_status": "Not Planned"
   }
  },
  {
   "type": "Feature",
   "geometry": {
    "type": "Point",
    "coordinates": [
     138.59077341,
     -34.75728895
    ]
   },
   "properties": {
    "name": "32 PORT WAKEFIELD ROAD BOLIVAR 5110",
    "locID": "LOC000193740865",
    "tech": "NULL",
    "upgrade": "NULL_NA",
    "gnaf_pid": "GASA_423424115",
    "ee": false
   }
  },
  {
   "type": "Feature",
   "geometry": {
    "type": "Point",
    "coordinates": [
     138.59077341,
     -34.75728895
    ]
   },
   "properties": {
    "name": "34 PORT WAKEFIELD ROAD BOLIVAR 5110",
    "locID": "LOC000193740883",
    "tech": "NULL",
    "upgrade": "NULL_NA",
    "gnaf_pid": "GASA_423424117",
    "ee": false
   }
  },
  {
   "type": "Feature",
   "geometry": {
    "type": "Point",
    "coordinates": [
     138.59077341,
     -34.75728895
    ]
   },
   "properties": {
    "name": "35 PORT WAKEFIELD ROAD BOLIVAR 5110",
    "locID": "LOC000178089991",
    "tech": "WIRELESS",
    "upgrade": "NULL_NA",
    "gnaf_pid": "GASA_423424118",
    "ee": true,
    "tech_change_status": "Not Planned",
    "program_type": "Fixed Wireless and Satellite Upgrade Program",
    "target_eligibility_quarter": "NA"
   }
  },
  {
   "type": "Feature",
   "geometry": {
    "type": "Point",
    "coordinates": [
     138.59077341,
     -34.75728895
    ]
   },
   "properties": {
    "name": "42 PORT WAKEFIELD ROAD BOLIVAR 5110",
    "locID": "LOC000193740975",
    "tech": "NULL",
    "upgrade": "NULL_NA",
    "gnaf_pid": "GASA_423424126",
    "ee": false
   }
  },
  {
   "type": "Feature",
   "geometry": {
    "type": "Point",
    "coordinates": [
     138.59077341,
     -34.75728895
    ]
   },
   "properties": {
    "name": "44 PORT WAKEFIELD ROAD BOLIVAR 5110",
    "locID": "LOC000193740999",
    "tech": "NULL",
    "upgrade": "NULL_NA",
    "gnaf_pid": "GASA_423424128",
    "ee": false
   }
  },
  {
   "type": "Feature",
   "geometry": {
    "type": "Point",
    "coordinates": [
     138.59077341,
     -34.75728895
    ]
   },
   "properties": {
    "name": "58 PORT WAKEFIELD ROAD BOLIVAR 5110",
    "locID": "LOC000177464873",
    "tech": "FTTN",
    "upgrade": "NULL_NA",
    "gnaf_pid": "GASA_423424143",
    "ee": true,
    "tech_change_status": "Not Planned"
   }
  },
  {
   "type": "Feature",
   "geometry": {
    "type": "Point",
    "coordinates": [
     138.59077341,
     -34.75728895
    ]
   },
   "properties": {
    "name": "5 PORT WAKEFIELD ROAD BOLIVAR 5110",
    "locID": "LOC000178089991",
    "tech": "WIRELESS",
    "upgrade": "NULL_NA",
    "gnaf_pid": "GASA_423424146",
    "ee": true,
    "tech_change_status": "Not Planned",
    "program_type": "Fixed Wireless and Satellite Upgrade Program",
    "target_eligibility_quarter": "NA"
   }
  },
  {
   "type": "Feature",
   "geometry": {
    "type": "Point",
    "coordinates": [
     138.59077341,
     -34.75728895
    ]
   },
   "properties": {
    "name": "61 PORT WAKEFIELD ROAD BOLIVAR 5110",
    "locID": "LOC000177464856",
    "tech": "FTTN",
    "upgrade": "NULL_NA",
    "gnaf_pid": "GASA_423424148",
    "ee": true,
    "tech_change_status": "Not Planned"
   }
  },
  {
   "type": "Feature",
   "geometry": {
    "type": "Point",
    "coordinates": [
     138.59077341,
     -34.75728895
    ]
   },
   "properties": {
    "name": "65 PORT WAKEFIELD ROAD BOLIVAR 5110",
    "locID": "LOC000185057408",
    "tech": "FTTN",
    "upgrade": "NULL_NA",
    "gnaf_pid": "GASA_423424152",
    "ee": true,
    "tech_change_status": "Not Planned"
   }
  },
  {
   "type": "Feature",
   "geometry": {
    "type": "Point",
    "coordinates": [
     138.59077341,
     -34.75728895
    ]
   },
   "properties": {
    "name": "69 PORT WAKEFIELD ROAD BOLIVAR 5110",
    "locID": "LOC000152557877",
    "tech": "FTTN",
    "upgrade": "NULL_NA",
    "gnaf_pid": "GASA_423424156",
    "ee": true,
    "tech_change_status": "Not Planned"
   }
  },
  {
   "type": "Feature",
   "geometry": {
    "type": "Point",
    "coordinates": [
     138.59077341,
     -34.75728895
    ]
   },
   "properties": {
    "name": "71 PORT WAKEFIELD ROAD BOLIVAR 5110",
    "locID": "LOC000177464785",
    "tech": "FTTN",
    "upgrade": "NULL_NA",
    "gnaf_pid": "GASA_423424159",
    "ee": true,
    "tech_change_status": "Not Planned"
   }
  },
  {
   "type": "Feature",
   "geometry": {
    "type": "Point",
    "coordinates": [
     138.59077341,
     -34.75728895
    ]
   },
   "properties": {
    "name": "72 PORT WAKEFIELD ROAD BOLIVAR 5110",
    "locID": "LOC000177464818",
    "tech": "FTTN",
    "upgrade": "NULL_NA",
    "gnaf_pid": "GASA_423424160",
    "ee": true,
    "tech_change_status": "Not Planned"
   }
  },
  {
   "type": "Feature",
   "geometry": {
    "type": "Point",
    "coordinates": [
     138.59077341,
     -34.75728895
    ]
   },
   "properties": {
    "name": "75 PORT WAKEFIELD ROAD BOLIVAR 5110",
    "locID": "LOC000052556292",
    "tech": "FTTP",
    "upgrade": "NULL_NA",
    "gnaf_pid": "GASA_423424164",
    "ee": true
   }
  },
  {
   "type": "Feature",
   "geometry": {
    "type": "Point",
    "coordinates": [
     138.59077341,
     -34.75728895
    ]
   },
   "properties": {
    "name": "8 PORT WAKEFIELD ROAD BOLIVAR 5110",
    "locID": "LOC000152560717",
    "tech": "FTTN",
    "upgrade": "NULL_NA",
    "gnaf_pid": "GASA_423424181",
    "ee": true,
    "tech_change_status": "Not Planned"
   }
  },
  {
   "type": "Feature",
   "geometry": {
    "type": "Point",
    "coordinates": [
     138.59077341,
     -34.75728895
    ]
   },
   "properties": {
    "name": "92 PORT WAKEFIELD ROAD BOLIVAR 5110",
    "locID": "LOC000152557952",
    "tech": "FTTN",
    "upgrade": "NULL_NA",
    "gnaf_pid": "GASA_423424184",
    "ee": true,
    "tech_change_status": "Not Planned"
   }
  },
  {
   "type": "Feature",
   "geometry": {
    "type": "Point",
    "coordinates": [
     138.59077341,
     -34.75728895
    ]
   },
   "properties": {
    "name": "96 PORT WAKEFIELD ROAD BOLIVAR 5110",
    "locID": "LOC000152557968",
    "tech": "FTTN",
    "upgrade": "NULL_NA",
    "gnaf_pid": "GASA_423424188",
    "ee": true,
    "tech_change_status": "Not Planned"
   }
  },
  {
   "type": "Feature",
   "geometry": {
    "type": "Point",
    "coordinates": [
     138.58564435,
     -34.75029387
    ]
   },
   "properties": {
    "name": "16 SUMMER ROAD BOLIVAR 5110",
    "locID": "LOC000163577231",
    "tech": "FTTC",
    "upgrade": "FTTP_SA",
    "gnaf_pid": "GASA_423607587",
    "ee": true,
    "tech_change_status": "Eligible to Order"
   }
  },
  {
   "type": "Feature",
   "geometry": {
    "type": "Point",
    "coordinates": [
     138.58327547,
     -34.74466425
    ]
   },
   "properties": {
    "name": "LOT 4 PORT WAKEFIELD ROAD BOLIVAR 5110",
    "locID": "LOC000185057408",
    "tech": "FTTN",
    "upgrade": "NULL_NA",
    "gnaf_pid": "GASA_424326013",
    "ee": true,
    "tech_change_status": "Not Planned"
   }
  },
  {
   "type": "Feature",
   "geometry": {
    "type": "Point",
    "coordinates": [
     138.59284639,
     -34.77109671
    ]
   },
   "properties": {
    "name": "LOT 26 PORT WAKEFIELD ROAD BOLIVAR 5110",
    "locID": "LOC000185057408",
    "tech": "FTTN",
    "upgrade": "NULL_NA",
    "gnaf_pid": "GASA_424826135",
    "ee": true,
    "tech_change_status": "Not Planned"
   }
  },
  {
   "type": "Feature",
   "geometry": {
    "type": "Point",
    "coordinates": [
     138.58564435,
     -34.75029387
    ]
   },
   "properties": {
    "name": "16-22 SUMMER ROAD BOLIVAR 5110",
    "locID": "LOC000163577231",
    "tech": "FTTC",
    "upgrade": "FTTP_SA",
    "gnaf_pid": "GASA_424921807",
    "ee": true,
    "tech_change_status": "Eligible to Order"
   }
  },
  {
   "type": "Feature",
   "geometry": {
    "type": "Point",
    "coordinates": [
     138.58447537,
     -34.74946254
    ]
   },
   "properties": {
    "name": "24-40 SUMMER ROAD BOLIVAR 5110",
    "locID": "LOC000159761568",
    "tech": "FTTC",
    "upgrade": "FTTP_SA",
    "gnaf_pid": "GASA_424921808",
    "ee": true,
    "tech_change_status": "Eligible to Order"
   }
  },
  {
   "type": "Feature",
   "geometry": {
    "type": "Point",
    "coordinates": [
     138.586122,
     -34.74799123
    ]
   },
   "properties": {
    "name": "37-43 SUMMER ROAD BOLIVAR 5110",
    "locID": "LOC000130530814",
    "tech": "FTTC",
    "upgrade": "FTTP_SA",
    "gnaf_pid": "GASA_424921809",
    "ee": true,
    "tech_change_status": "Eligible to Order"
   }
  },
  {
   "type": "Feature",
   "geometry": {
    "type": "Point",
    "coordinates": [
     138.58272781,
     -34.74589411
    ]
   },
   "properties": {
    "name": "63-71 SUMMER ROAD BOLIVAR 5110",
    "locID": "LOC000159761510",
    "tech": "FTTC",
    "upgrade": "FTTP_SA",
    "gnaf_pid": "GASA_424921810",
    "ee": true,
    "tech_change_status": "Eligible to Order"
   }
  },
  {
   "type": "Feature",
   "geometry": {
    "type": "Point",
    "coordinates": [
     138.58527439,
     -34.75285297
    ]
   },
   "properties": {
    "name": "31-41 JOBSON ROAD BOLIVAR 5110",
    "locID": "LOC100055395347",
    "tech": "WIRELESS",
    "upgrade": "NULL_NA",
    "gnaf_pid": "GASA_425071628",
    "ee": true,
    "tech_change_status": "Not Planned",
    "program_type": "Fixed Wireless and Satellite Upgrade Program",
    "target_eligibility_quarter": "NA"
   }
  },
  {
   "type": "Feature",
   "geometry": {
    "type": "Point",
    "coordinates": [
     138.58690082,
     -34.74889474
    ]
   },
   "properties": {
    "name": "1-35 SUMMER ROAD BOLIVAR 5110",
    "locID": "LOC000130565977",
    "tech": "FTTC",
    "upgrade": "FTTP_SA",
    "gnaf_pid": "GASA_425072217",
    "ee": true,
    "tech_change_status": "Eligible to Order"
   }
  },
  {
   "type": "Feature",
   "geometry": {
    "type": "Point",
    "coordinates": [
     138.58460044,
     -34.74806574
    ]
   },
   "properties": {
    "name": "2-14 SUMMER ROAD BOLIVAR 5110",
    "locID": "LOC000163577231",
    "tech": "FTTC",
    "upgrade": "FTTP_SA",
    "gnaf_pid": "GASA_425072218",
    "ee": true,
    "tech_change_status": "Eligible to Order"
   }
  },
  {
   "type": "Feature",
   "geometry": {
    "type": "Point",
    "coordinates": [
     138.58961878,
     -34.75965206
    ]
   },
   "properties": {
    "name": "925-963 PORT WAKEFIELD ROAD BOLIVAR 5110",
    "locID": "LOC000152557952",
    "tech": "FTTN",
    "upgrade": "NULL_NA",
    "gnaf_pid": "GASA_425140081",
    "ee": true,
    "tech_change_status": "Not Planned"
   }
  },
  {
   "type": "Feature",
   "geometry": {
    "type": "Point",
    "coordinates": [
     138.58628082,
     -34.75169279
    ]
   },
   "properties": {
    "name": "19-23 JOBSON ROAD BOLIVAR 5110",
    "locID": "LOC000159761547",
    "tech": "FTTC",
    "upgrade": "FTTP_SA",
    "gnaf_pid": "GASA_425441791",
    "ee": true,
    "tech_change_status": "Eligible to Order"
   }
  },
  {
   "type": "Feature",
   "geometry": {
    "type": "Point",
    "coordinates": [
     138.58663119,
     -34.75082661
    ]
   },
   "properties": {
    "name": "1-17 JOBSON ROAD BOLIVAR 5110",
    "locID": "LOC000098727270",
    "tech": "FTTC",
    "upgrade": "FTTP_SA",
    "gnaf_pid": "GASA_425441792",
    "ee": true,
    "tech_change_status": "Eligible to Order"
   }
  },
  {
   "type": "Feature",
   "geometry": {
    "type": "Point",
    "coordinates": [
     138.58775182,
     -34.75068462
    ]
   },
   "properties": {
    "name": "2-10 JOBSON ROAD BOLIVAR 5110",
    "locID": "LOC000035120367",
    "tech": "FTTP",
    "upgrade": "NULL_NA",
    "gnaf_pid": "GASA_425441793",
    "ee": true
   }
  },
  {
   "type": "Feature",
   "geometry": {
    "type": "Point",
    "coordinates": [
     138.58850376,
     -34.75372776
    ]
   },
   "properties": {
    "name": "1015-1059 PORT WAKEFIELD ROAD BOLIVAR 5110",
    "locID": "LOC100055395368",
    "tech": "FTTC",
    "upgrade": "FTTP_SA",
    "gnaf_pid": "GASA_425448311",
    "ee": true,
    "tech_change_status": "Eligible to Order"
   }
  },
  {
   "type": "Feature",
   "geometry": {
    "type": "Point",
    "coordinates": [
     138.58728749,
     -34.74833933
    ]
   },
   "properties": {
    "name": "1083-1085 PORT WAKEFIELD ROAD BOLIVAR 5110",
    "locID": "LOC000159765320",
    "tech": "FTTP",
    "upgrade": "NULL_NA",
    "gnaf_pid": "GASA_425448312",
    "ee": true
   }
  },
  {
   "type": "Feature",
   "geometry": {
    "type": "Point",
    "coordinates": [
     138.58500496,
     -34.74502511
    ]
   },
   "properties": {
    "name": "1113-1117 PORT WAKEFIELD ROAD BOLIVAR 5110",
    "locID": "LOC000159761608",
    "tech": "FTTC",
    "upgrade": "FTTP_SA",
    "gnaf_pid": "GASA_425448314",
    "ee": true,
    "tech_change_status": "Eligible to Order"
   }
  },
  {
   "type": "Feature",
   "geometry": {
    "type": "Point",
    "coordinates": [
     138.59302176,
     -34.76904939
    ]
   },
   "properties": {
    "name": "859-885 PORT WAKEFIELD ROAD BOLIVAR 5110",
    "locID": "LOC100053277639",
    "tech": "FTTN",
    "upgrade": "NULL_NA",
    "gnaf_pid": "GASA_425448315",
    "ee": true,
    "tech_change_status": "Not Planned"
   }
  },
  {
   "type": "Feature",
   "geometry": {
    "type": "Point",
    "coordinates": [
     138.59286112,
     -34.76666086
    ]
   },
   "properties": {
    "name": "887-899 PORT WAKEFIELD ROAD BOLIVAR 5110",
    "locID": "LOC000152560717",
    "tech": "FTTN",
    "upgrade": "NULL_NA",
    "gnaf_pid": "GASA_425448316",
    "ee": true,
    "tech_change_status": "Not Planned"
   }
  },
  {
   "type": "Feature",
   "geometry": {
    "type": "Point",
    "coordinates": [
     138.59104774,
     -34.75964178
    ]
   },
   "properties": {
    "name": "965-977 PORT WAKEFIELD ROAD BOLIVAR 5110",
    "locID": "LOC000152557968",
    "tech": "FTTN",
    "upgrade": "NULL_NA",
    "gnaf_pid": "GASA_425448318",
    "ee": true,
    "tech_change_status": "Not Planned"
   }
  },
  {
   "type": "Feature",
   "geometry": {
    "type": "Point",
    "coordinates": [
     138.58231411,
     -34.74523883
    ]
   },
   "properties": {
    "name": "73-79 SUMMER ROAD BOLIVAR 5110",
    "locID": "LOC000159761523",
    "tech": "FTTC",
    "upgrade": "FTTP_SA",
    "gnaf_pid": "GASA_425452669",
    "ee": true,
    "tech_change_status": "Eligible to Order"
   }
  },
  {
   "type": "Feature",
   "geometry": {
    "type": "Point",
    "coordinates": [
     138.58447537,
     -34.74946254
    ]
   },
   "properties": {
    "name": "UNIT 1, 24-40 SUMMER ROAD BOLIVAR 5110",
    "locID": "LOC000159761568",
    "tech": "FTTC",
    "upgrade": "FTTP_SA",
    "gnaf_pid": "GASA_425600070",
    "ee": true,
    "tech_change_status": "Eligible to Order"
   }
  },
  {
   "type": "Feature",
   "geometry": {
    "type": "Point",
    "coordinates": [
     138.58564435,
     -34.75029387
    ]
   },
   "properties": {
    "name": "18 SUMMER ROAD BOLIVAR 5110",
    "locID": "LOC000159761581",
    "tech": "FTTC",
    "upgrade": "FTTP_SA",
    "gnaf_pid": "GASA_425600071",
    "ee": true,
    "tech_change_status": "Eligible to Order"
   }
  },
  {
   "type": "Feature",
   "geometry": {
    "type": "Point",
    "coordinates": [
     138.58628082,
     -34.75169279
    ]
   },
   "properties": {
    "name": "19-21 JOBSON ROAD BOLIVAR 5110",
    "locID": "LOC000159761547",
    "tech": "FTTC",
    "upgrade": "FTTP_SA",
    "gnaf_pid": "GASA_425717289",
    "ee": true,
    "tech_change_status": "Eligible to Order"
   }
  },
  {
   "type": "Feature",
   "geometry": {
    "type": "Point",
    "coordinates": [
     138.58628082,
     -34.75169279
    ]
   },
   "properties": {
    "name": "23 JOBSON ROAD BOLIVAR 5110",
    "locID": "LOC000159761547",
    "tech": "FTTC",
    "upgrade": "FTTP_SA",
    "gnaf_pid": "GASA_425717290",
    "ee": true,
    "tech_change_status": "Eligible to Order"
   }
  },
  {
   "type": "Feature",
   "geometry": {
    "type": "Point",
    "coordinates": [
     138.58081757,
     -34.74544265
    ]
   },
   "properties": {
    "name": "LOT 71 SUMMER ROAD BOLIVAR 5110",
    "locID": "LOC000159761510",
    "tech": "FTTC",
    "upgrade": "FTTP_SA",
    "gnaf_pid": "GASA_719248284",
    "ee": true,
    "tech_change_status": "Eligible to Order"
   }
  },
  {
   "type": "Feature",
   "geometry": {
    "type": "Point",
    "coordinates": [
     138.59216137,
     -34.76618221
    ]
   },
   "properties": {
    "name": "LOT 51 PORT WAKEFIELD ROAD BOLIVAR 5110",
    "locID": "LOC000178089991",
    "tech": "WIRELESS",
    "upgrade": "NULL_NA",
    "gnaf_pid": "GASA_719398017",
    "ee": true,
    "tech_change_status": "Not Planned",
    "program_type": "Fixed Wireless and Satellite Upgrade Program",
    "target_eligibility_quarter": "NA"
   }
  },
  {
   "type": "Feature",
   "geometry": {
    "type": "Point",
    "coordinates": [
     138.59077341,
     -34.75728895
    ]
   },
   "properties": {
    "name": "46 PORT WAKEFIELD ROAD BOLIVAR 5110",
    "locID": "LOC000177464771",
    "tech": "FTTN",
    "upgrade": "NULL_NA",
    "gnaf_pid": "GASA_719475508",
    "ee": true,
    "tech_change_status": "Not Planned"
   }
  },
  {
   "type": "Feature",
   "geometry": {
    "type": "Point",
    "coordinates": [
     138.59077341,
     -34.75728895
    ]
   },
   "properties": {
    "name": "14 PORT WAKEFIELD ROAD BOLIVAR 5110",
    "locID": "LOC000179363523",
    "tech": "FTTN",
    "upgrade": "NULL_NA",
    "gnaf_pid": "GASA_719702667",
    "ee": true,
    "tech_change_status": "Not Planned"
   }
  },
  {
   "type": "Feature",
   "geometry": {
    "type": "Point",
    "coordinates": [
     138.59077341,
     -34.75728895
    ]
   },
   "properties": {
    "name": "116 PORT WAKEFIELD ROAD BOLIVAR 5110",
    "locID": "LOC000159762248",
    "tech": "FTTC",
    "upgrade": "FTTP_SA",
    "gnaf_pid": "GASA_719703049",
    "ee": true,
    "tech_change_status": "Eligible to Order"
   }
  },
  {
   "type": "Feature",
   "geometry": {
    "type": "Point",
    "coordinates": [
     138.59355396,
     -34.76624505
    ]
   },
   "properties": {
    "name": "LOT 84 PORT WAKEFIELD ROAD BOLIVAR 5110",
    "locID": "LOC000185057408",
    "tech": "FTTN",
    "upgrade": "NULL_NA",
    "gnaf_pid": "GASA_719705968",
    "ee": true,
    "tech_change_status": "Not Planned"
   }
  },
  {
   "type": "Feature",
   "geometry": {
    "type": "Point",
    "coordinates": [
     138.59077341,
     -34.75728895
    ]
   },
   "properties": {
    "name": "121A PORT WAKEFIELD ROAD BOLIVAR 5110",
    "locID": "LOC000180430945",
    "tech": "FTTN",
    "upgrade": "NULL_NA",
    "gnaf_pid": "GASA_720191649",
    "ee": true,
    "tech_change_status": "Not Planned"
   }
  },
  {
   "type": "Feature",
   "geometry": {
    "type": "Point",
    "coordinates": [
     138.59077341,
     -34.75728895
    ]
   },
   "properties": {
    "name": "20 PORT WAKEFIELD ROAD BOLIVAR 5110",
    "locID": "LOC000193740746",
    "tech": "NULL",
    "upgrade": "NULL_NA",
    "gnaf_pid": "GASA_720418019",
    "ee": false
   }
  },
  {
   "type": "Feature",
   "geometry": {
    "type": "Point",
    "coordinates": [
     138.59077341,
     -34.75728895
    ]
   },
   "properties": {
    "name": "33 PORT WAKEFIELD ROAD BOLIVAR 5110",
    "locID": "LOC000185057408",
    "tech": "FTTN",
    "upgrade": "NULL_NA",
    "gnaf_pid": "GASA_720630329",
    "ee": true,
    "tech_change_status": "Not Planned"
   }
  },
  {
   "type": "Feature",
   "geometry": {
    "type": "Point",
    "coordinates": [
     138.59077341,
     -34.75728895
    ]
   },
   "properties": {
    "name": "62 PORT WAKEFIELD ROAD BOLIVAR 5110",
    "locID": "LOC000179751571",
    "tech": "FTTN",
    "upgrade": "NULL_NA",
    "gnaf_pid": "GASA_720630357",
    "ee": true,
    "tech_change_status": "Not Planned"
   }
  },
  {
   "type": "Feature",
   "geometry": {
    "type": "Point",
    "coordinates": [
     138.59077341,
     -34.75728895
    ]
   },
   "properties": {
    "name": "123 PORT WAKEFIELD ROAD BOLIVAR 5110",
    "locID": "LOC000159761696",
    "tech": "FTTC",
    "upgrade": "FTTP_SA",
    "gnaf_pid": "GASA_720851362",
    "ee": true,
    "tech_change_status": "Eligible to Order"
   }
  },
  {
   "type": "Feature",
   "geometry": {
    "type": "Point",
    "coordinates": [
     138.59077341,
     -34.75728895
    ]
   },
   "properties": {
    "name": "18 PORT WAKEFIELD ROAD BOLIVAR 5110",
    "locID": "LOC000177464887",
    "tech": "FTTN",
    "upgrade": "NULL_NA",
    "gnaf_pid": "GASA_720892908",
    "ee": true,
    "tech_change_status": "Not Planned"
   }
  },
  {
   "type": "Feature",
   "geometry": {
    "type": "Point",
    "coordinates": [
     138.59077341,
     -34.75728895
    ]
   },
   "properties": {
    "name": "186 PORT WAKEFIELD ROAD BOLIVAR 5110",
    "locID": "LOC000186689258",
    "tech": "FTTN",
    "upgrade": "NULL_NA",
    "gnaf_pid": "GASA_721008349",
    "ee": true,
    "tech_change_status": "Not Planned"
   }
  },
  {
   "type": "Feature",
   "geometry": {
    "type": "Point",
    "coordinates": [
     138.59077341,
     -34.75728895
    ]
   },
   "properties": {
    "name": "9 PORT WAKEFIELD ROAD BOLIVAR 5110",
    "locID": "LOC000152557968",
    "tech": "FTTN",
    "upgrade": "NULL_NA",
    "gnaf_pid": "GASA_721076113",
    "ee": true,
    "tech_change_status": "Not Planned"
   }
  },
  {
   "type": "Feature",
   "geometry": {
    "type": "Point",
    "coordinates": [
     138.59302176,
     -34.76904939
    ]
   },
   "properties": {
    "name": "SHOP 1, 859-885 PORT WAKEFIELD ROAD BOLIVAR 5110",
    "locID": "LOC100053277639",
    "tech": "FTTN",
    "upgrade": "NULL_NA",
    "gnaf_pid": "GASA_721076291",
    "ee": true,
    "tech_change_status": "Not Planned"
   }
  },
  {
   "type": "Feature",
   "geometry": {
    "type": "Point",
    "coordinates": [
     138.59302176,
     -34.76904939
    ]
   },
   "properties": {
    "name": "SHOP 2, 859-885 PORT WAKEFIELD ROAD BOLIVAR 5110",
    "locID": "LOC000179976802",
    "tech": "FTTN",
    "upgrade": "NULL_NA",
    "gnaf_pid": "GASA_721076367",
    "ee": true,
    "tech_change_status": "Not Planned"
   }
  },
  {
   "type": "Feature",
   "geometry": {
    "type": "Point",
    "coordinates": [
     138.59077341,
     -34.75728895
    ]
   },
   "properties": {
    "name": "300 PORT WAKEFIELD ROAD BOLIVAR 5110",
    "locID": "LOC000185057408",
    "tech": "FTTN",
    "upgrade": "NULL_NA",
    "gnaf_pid": "GASA_721202623",
    "ee": true,
    "tech_change_status": "Not Planned"
   }
  },
  {
   "type": "Feature",
   "geometry": {
    "type": "Point",
    "coordinates": [
     138.59077341,
     -34.75728895
    ]
   },
   "properties": {
    "name": "1 PORT WAKEFIELD ROAD BOLIVAR 5110",
    "locID": "LOC000177465130",
    "tech": "FTTN",
    "upgrade": "NULL_NA",
    "gnaf_pid": "GASA_721259368",
    "ee": true,
    "tech_change_status": "Not Planned"
   }
  },
  {
   "type": "Feature",
   "geometry": {
    "type": "Point",
    "coordinates": [
     138.59077341,
     -34.75728895
    ]
   },
   "properties": {
    "name": "162 PORT WAKEFIELD ROAD BOLIVAR 5110",
    "locID": "LOC000177464792",
    "tech": "FTTN",
    "upgrade": "NULL_NA",
    "gnaf_pid": "GASA_721351295",
    "ee": true,
    "tech_change_status": "Not Planned"
   }
  }
 ]
}