{
 "type": "FeatureCollection",
 "generated": "2025-06-15T09:25:16.747286",
 "suburb": "BOLLARDS LAGOON",
 "features": [
  {
   "type": "Feature",
   "geometry": {
    "type": "Point",
    "coordinates": [
     140.85406787,
     -28.98624031
    ]
   },
   "properties": {
    "name": "10349 RIECKS ROAD BOLLARDS LAGOON 5731",
    "locID": "LOC000148242051",
    "tech": "NULL",
    "upgrade": "NULL_NA",
    "gnaf_pid": "GASA_425630151",
    "ee": false,
    "tech_change_status": "Not Planned"
   }
  }
 ]
}