{
 "type": "FeatureCollection",
 "generated": "2025-06-15T09:29:06.177404",
 "suburb": "BOOLCOOMATTA",
 "features": [
  {
   "type": "Feature",
   "geometry": {
    "type": "Point",
    "coordinates": [
     140.5483631,
     -31.96692436
    ]
   },
   "properties": {
    "name": "2610 MOOLEULOOLOO ROAD BOOLCOOMATTA 5440",
    "locID": "LOC000148247321",
    "tech": "SATELLITE",
    "upgrade": "NULL_NA",
    "gnaf_pid": "GASA_425629691",
    "ee": false,
    "tech_change_status": "Not Planned"
   }
  }
 ]
}