{
 "type": "FeatureCollection",
 "generated": "2025-06-15T09:44:23.944957",
 "suburb": "BRENDA PARK",
 "features": [
  {
   "type": "Feature",
   "geometry": {
    "type": "Point",
    "coordinates": [
     139.67546504,
     -34.06196096
    ]
   },
   "properties": {
    "name": "1 BRENDA PARK SHACK ROAD BRENDA PARK 5320",
    "locID": "LOC000177511790",
    "tech": "WIRELESS",
    "upgrade": "NULL_NA",
    "gnaf_pid": "GASA_425186882",
    "ee": false,
    "tech_change_status": "Not Planned",
    "program_type": "Fixed Wireless and Satellite Upgrade Program",
    "target_eligibility_quarter": "NA"
   }
  },
  {
   "type": "Feature",
   "geometry": {
    "type": "Point",
    "coordinates": [
     139.68722194,
     -34.08415206
    ]
   },
   "properties": {
    "name": "SITE 100, 1 BRENDA PARK SHACK ROAD BRENDA PARK 5320",
    "locID": "LOC000177511790",
    "tech": "WIRELESS",
    "upgrade": "NULL_NA",
    "gnaf_pid": "GASA_425719306",
    "ee": false,
    "tech_change_status": "Not Planned",
    "program_type": "Fixed Wireless and Satellite Upgrade Program",
    "target_eligibility_quarter": "NA"
   }
  },
  {
   "type": "Feature",
   "geometry": {
    "type": "Point",
    "coordinates": [
     139.68699603,
     -34.08440981
    ]
   },
   "properties": {
    "name": "SITE 101, 1 BRENDA PARK SHACK ROAD BRENDA PARK 5320",
    "locID": "LOC000148794611",
    "tech": "WIRELESS",
    "upgrade": "NULL_NA",
    "gnaf_pid": "GASA_425719307",
    "ee": false,
    "tech_change_status": "Not Planned",
    "program_type": "Fixed Wireless and Satellite Upgrade Program",
    "target_eligibility_quarter": "NA"
   }
  },
  {
   "type": "Feature",
   "geometry": {
    "type": "Point",
    "coordinates": [
     139.68674643,
     -34.08474032
    ]
   },
   "properties": {
    "name": "SITE 102, 1 BRENDA PARK SHACK ROAD BRENDA PARK 5320",
    "locID": "LOC000177511790",
    "tech": "WIRELESS",
    "upgrade": "NULL_NA",
    "gnaf_pid": "GASA_425719308",
    "ee": false,
    "tech_change_status": "Not Planned",
    "program_type": "Fixed Wireless and Satellite Upgrade Program",
    "target_eligibility_quarter": "NA"
   }
  },
  {
   "type": "Feature",
   "geometry": {
    "type": "Point",
    "coordinates": [
     139.6864842,
     -34.08504692
    ]
   },
   "properties": {
    "name": "SITE 103, 1 BRENDA PARK SHACK ROAD BRENDA PARK 5320",
    "locID": "LOC000177511790",
    "tech": "WIRELESS",
    "upgrade": "NULL_NA",
    "gnaf_pid": "GASA_425719309",
    "ee": false,
    "tech_change_status": "Not Planned",
    "program_type": "Fixed Wireless and Satellite Upgrade Program",
    "target_eligibility_quarter": "NA"
   }
  },
  {
   "type": "Feature",
   "geometry": {
    "type": "Point",
    "coordinates": [
     139.68625962,
     -34.08532884
    ]
   },
   "properties": {
    "name": "SITE 104, 1 BRENDA PARK SHACK ROAD BRENDA PARK 5320",
    "locID": "LOC000177511790",
    "tech": "WIRELESS",
    "upgrade": "NULL_NA",
    "gnaf_pid": "GASA_425719310",
    "ee": false,
    "tech_change_status": "Not Planned",
    "program_type": "Fixed Wireless and Satellite Upgrade Program",
    "target_eligibility_quarter": "NA"
   }
  },
  {
   "type": "Feature",
   "geometry": {
    "type": "Point",
    "coordinates": [
     139.68601067,
     -34.08564462
    ]
   },
   "properties": {
    "name": "SITE 105, 1 BRENDA PARK SHACK ROAD BRENDA PARK 5320",
    "locID": "LOC000180785060",
    "tech": "WIRELESS",
    "upgrade": "NULL_NA",
    "gnaf_pid": "GASA_425719311",
    "ee": false,
    "tech_change_status": "Not Planned",
    "program_type": "Fixed Wireless and Satellite Upgrade Program",
    "target_eligibility_quarter": "NA"
   }
  },
  {
   "type": "Feature",
   "geometry": {
    "type": "Point",
    "coordinates": [
     139.68579632,
     -34.0859392
    ]
   },
   "properties": {
    "name": "SITE 106, 1 BRENDA PARK SHACK ROAD BRENDA PARK 5320",
    "locID": "LOC000177511790",
    "tech": "WIRELESS",
    "upgrade": "NULL_NA",
    "gnaf_pid": "GASA_425719312",
    "ee": false,
    "tech_change_status": "Not Planned",
    "program_type": "Fixed Wireless and Satellite Upgrade Program",
    "target_eligibility_quarter": "NA"
   }
  },
  {
   "type": "Feature",
   "geometry": {
    "type": "Point",
    "coordinates": [
     139.68557185,
     -34.0862086
    ]
   },
   "properties": {
    "name": "SITE 107, 1 BRENDA PARK SHACK ROAD BRENDA PARK 5320",
    "locID": "LOC000177511790",
    "tech": "WIRELESS",
    "upgrade": "NULL_NA",
    "gnaf_pid": "GASA_425719313",
    "ee": false,
    "tech_change_status": "Not Planned",
    "program_type": "Fixed Wireless and Satellite Upgrade Program",
    "target_eligibility_quarter": "NA"
   }
  },
  {
   "type": "Feature",
   "geometry": {
    "type": "Point",
    "coordinates": [
     139.68531377,
     -34.08648585
    ]
   },
   "properties": {
    "name": "SITE 108, 1 BRENDA PARK SHACK ROAD BRENDA PARK 5320",
    "locID": "LOC000177511790",
    "tech": "WIRELESS",
    "upgrade": "NULL_NA",
    "gnaf_pid": "GASA_425719314",
    "ee": false,
    "tech_change_status": "Not Planned",
    "program_type": "Fixed Wireless and Satellite Upgrade Program",
    "target_eligibility_quarter": "NA"
   }
  },
  {
   "type": "Feature",
   "geometry": {
    "type": "Point",
    "coordinates": [
     139.68503966,
     -34.0867722
    ]
   },
   "properties": {
    "name": "SITE 109, 1 BRENDA PARK SHACK ROAD BRENDA PARK 5320",
    "locID": "LOC000177511790",
    "tech": "WIRELESS",
    "upgrade": "NULL_NA",
    "gnaf_pid": "GASA_425719315",
    "ee": false,
    "tech_change_status": "Not Planned",
    "program_type": "Fixed Wireless and Satellite Upgrade Program",
    "target_eligibility_quarter": "NA"
   }
  },
  {
   "type": "Feature",
   "geometry": {
    "type": "Point",
    "coordinates": [
     139.67560799,
     -34.06381737
    ]
   },
   "properties": {
    "name": "SITE 10, 1 BRENDA PARK SHACK ROAD BRENDA PARK 5320",
    "locID": "LOC000148794611",
    "tech": "WIRELESS",
    "upgrade": "NULL_NA",
    "gnaf_pid": "GASA_425719316",
    "ee": false,
    "tech_change_status": "Not Planned",
    "program_type": "Fixed Wireless and Satellite Upgrade Program",
    "target_eligibility_quarter": "NA"
   }
  },
  {
   "type": "Feature",
   "geometry": {
    "type": "Point",
    "coordinates": [
     139.68478541,
     -34.08706129
    ]
   },
   "properties": {
    "name": "SITE 110, 1 BRENDA PARK SHACK ROAD BRENDA PARK 5320",
    "locID": "LOC000177511790",
    "tech": "WIRELESS",
    "upgrade": "NULL_NA",
    "gnaf_pid": "GASA_425719317",
    "ee": false,
    "tech_change_status": "Not Planned",
    "program_type": "Fixed Wireless and Satellite Upgrade Program",
    "target_eligibility_quarter": "NA"
   }
  },
  {
   "type": "Feature",
   "geometry": {
    "type": "Point",
    "coordinates": [
     139.6845317,
     -34.08735156
    ]
   },
   "properties": {
    "name": "SITE 111, 1 BRENDA PARK SHACK ROAD BRENDA PARK 5320",
    "locID": "LOC000177511790",
    "tech": "WIRELESS",
    "upgrade": "NULL_NA",
    "gnaf_pid": "GASA_425719318",
    "ee": false,
    "tech_change_status": "Not Planned",
    "program_type": "Fixed Wireless and Satellite Upgrade Program",
    "target_eligibility_quarter": "NA"
   }
  },
  {
   "type": "Feature",
   "geometry": {
    "type": "Point",
    "coordinates": [
     139.68429772,
     -34.0876344
    ]
   },
   "properties": {
    "name": "SITE 112, 1 BRENDA PARK SHACK ROAD BRENDA PARK 5320",
    "locID": "LOC000177511790",
    "tech": "WIRELESS",
    "upgrade": "NULL_NA",
    "gnaf_pid": "GASA_425719319",
    "ee": false,
    "tech_change_status": "Not Planned",
    "program_type": "Fixed Wireless and Satellite Upgrade Program",
    "target_eligibility_quarter": "NA"
   }
  },
  {
   "type": "Feature",
   "geometry": {
    "type": "Point",
    "coordinates": [
     139.68405281,
     -34.08794006
    ]
   },
   "properties": {
    "name": "SITE 113, 1 BRENDA PARK SHACK ROAD BRENDA PARK 5320",
    "locID": "LOC000177511790",
    "tech": "WIRELESS",
    "upgrade": "NULL_NA",
    "gnaf_pid": "GASA_425719320",
    "ee": false,
    "tech_change_status": "Not Planned",
    "program_type": "Fixed Wireless and Satellite Upgrade Program",
    "target_eligibility_quarter": "NA"
   }
  },
  {
   "type": "Feature",
   "geometry": {
    "type": "Point",
    "coordinates": [
     139.68610375,
     -34.08081912
    ]
   },
   "properties": {
    "name": "SITE 114, 1 BRENDA PARK SHACK ROAD BRENDA PARK 5320",
    "locID": "LOC000177511790",
    "tech": "WIRELESS",
    "upgrade": "NULL_NA",
    "gnaf_pid": "GASA_425719321",
    "ee": false,
    "tech_change_status": "Not Planned",
    "program_type": "Fixed Wireless and Satellite Upgrade Program",
    "target_eligibility_quarter": "NA"
   }
  },
  {
   "type": "Feature",
   "geometry": {
    "type": "Point",
    "coordinates": [
     139.67568377,
     -34.06398742
    ]
   },
   "properties": {
    "name": "SITE 11, 1 BRENDA PARK SHACK ROAD BRENDA PARK 5320",
    "locID": "LOC000177511790",
    "tech": "WIRELESS",
    "upgrade": "NULL_NA",
    "gnaf_pid": "GASA_425719322",
    "ee": false,
    "tech_change_status": "Not Planned",
    "program_type": "Fixed Wireless and Satellite Upgrade Program",
    "target_eligibility_quarter": "NA"
   }
  },
  {
   "type": "Feature",
   "geometry": {
    "type": "Point",
    "coordinates": [
     139.67578232,
     -34.06415254
    ]
   },
   "properties": {
    "name": "SITE 12, 1 BRENDA PARK SHACK ROAD BRENDA PARK 5320",
    "locID": "LOC000177511790",
    "tech": "WIRELESS",
    "upgrade": "NULL_NA",
    "gnaf_pid": "GASA_425719323",
    "ee": false,
    "tech_change_status": "Not Planned",
    "program_type": "Fixed Wireless and Satellite Upgrade Program",
    "target_eligibility_quarter": "NA"
   }
  },
  {
   "type": "Feature",
   "geometry": {
    "type": "Point",
    "coordinates": [
     139.67587749,
     -34.06432474
    ]
   },
   "properties": {
    "name": "SITE 13, 1 BRENDA PARK SHACK ROAD BRENDA PARK 5320",
    "locID": "LOC000177511790",
    "tech": "WIRELESS",
    "upgrade": "NULL_NA",
    "gnaf_pid": "GASA_425719324",
    "ee": false,
    "tech_change_status": "Not Planned",
    "program_type": "Fixed Wireless and Satellite Upgrade Program",
    "target_eligibility_quarter": "NA"
   }
  },
  {
   "type": "Feature",
   "geometry": {
    "type": "Point",
    "coordinates": [
     139.67599745,
     -34.06449543
    ]
   },
   "properties": {
    "name": "SITE 14, 1 BRENDA PARK SHACK ROAD BRENDA PARK 5320",
    "locID": "LOC000177511790",
    "tech": "WIRELESS",
    "upgrade": "NULL_NA",
    "gnaf_pid": "GASA_425719325",
    "ee": false,
    "tech_change_status": "Not Planned",
    "program_type": "Fixed Wireless and Satellite Upgrade Program",
    "target_eligibility_quarter": "NA"
   }
  },
  {
   "type": "Feature",
   "geometry": {
    "type": "Point",
    "coordinates": [
     139.67644876,
     -34.06504704
    ]
   },
   "properties": {
    "name": "SITE 15, 1 BRENDA PARK SHACK ROAD BRENDA PARK 5320",
    "locID": "LOC000177511790",
    "tech": "WIRELESS",
    "upgrade": "NULL_NA",
    "gnaf_pid": "GASA_425719326",
    "ee": false,
    "tech_change_status": "Not Planned",
    "program_type": "Fixed Wireless and Satellite Upgrade Program",
    "target_eligibility_quarter": "NA"
   }
  },
  {
   "type": "Feature",
   "geometry": {
    "type": "Point",
    "coordinates": [
     139.67664183,
     -34.06521219
    ]
   },
   "properties": {
    "name": "SITE 16, 1 BRENDA PARK SHACK ROAD BRENDA PARK 5320",
    "locID": "LOC000177511790",
    "tech": "WIRELESS",
    "upgrade": "NULL_NA",
    "gnaf_pid": "GASA_425719327",
    "ee": false,
    "tech_change_status": "Not Planned",
    "program_type": "Fixed Wireless and Satellite Upgrade Program",
    "target_eligibility_quarter": "NA"
   }
  },
  {
   "type": "Feature",
   "geometry": {
    "type": "Point",
    "coordinates": [
     139.67680579,
     -34.06533874
    ]
   },
   "properties": {
    "name": "SITE 17, 1 BRENDA PARK SHACK ROAD BRENDA PARK 5320",
    "locID": "LOC000177511790",
    "tech": "WIRELESS",
    "upgrade": "NULL_NA",
    "gnaf_pid": "GASA_425719328",
    "ee": false,
    "tech_change_status": "Not Planned",
    "program_type": "Fixed Wireless and Satellite Upgrade Program",
    "target_eligibility_quarter": "NA"
   }
  },
  {
   "type": "Feature",
   "geometry": {
    "type": "Point",
    "coordinates": [
     139.67694453,
     -34.06546212
    ]
   },
   "properties": {
    "name": "SITE 18, 1 BRENDA PARK SHACK ROAD BRENDA PARK 5320",
    "locID": "LOC000177511790",
    "tech": "WIRELESS",
    "upgrade": "NULL_NA",
    "gnaf_pid": "GASA_425719329",
    "ee": false,
    "tech_change_status": "Not Planned",
    "program_type": "Fixed Wireless and Satellite Upgrade Program",
    "target_eligibility_quarter": "NA"
   }
  },
  {
   "type": "Feature",
   "geometry": {
    "type": "Point",
    "coordinates": [
     139.6770979,
     -34.06558534
    ]
   },
   "properties": {
    "name": "SITE 19, 1 BRENDA PARK SHACK ROAD BRENDA PARK 5320",
    "locID": "LOC000177511790",
    "tech": "WIRELESS",
    "upgrade": "NULL_NA",
    "gnaf_pid": "GASA_425719330",
    "ee": false,
    "tech_change_status": "Not Planned",
    "program_type": "Fixed Wireless and Satellite Upgrade Program",
    "target_eligibility_quarter": "NA"
   }
  },
  {
   "type": "Feature",
   "geometry": {
    "type": "Point",
    "coordinates": [
     139.67729916,
     -34.06570307
    ]
   },
   "properties": {
    "name": "SITE 20, 1 BRENDA PARK SHACK ROAD BRENDA PARK 5320",
    "locID": "LOC000177511790",
    "tech": "WIRELESS",
    "upgrade": "NULL_NA",
    "gnaf_pid": "GASA_425719331",
    "ee": false,
    "tech_change_status": "Not Planned",
    "program_type": "Fixed Wireless and Satellite Upgrade Program",
    "target_eligibility_quarter": "NA"
   }
  },
  {
   "type": "Feature",
   "geometry": {
    "type": "Point",
    "coordinates": [
     139.67749689,
     -34.06579471
    ]
   },
   "properties": {
    "name": "SITE 21, 1 BRENDA PARK SHACK ROAD BRENDA PARK 5320",
    "locID": "LOC000177511790",
    "tech": "WIRELESS",
    "upgrade": "NULL_NA",
    "gnaf_pid": "GASA_425719332",
    "ee": false,
    "tech_change_status": "Not Planned",
    "program_type": "Fixed Wireless and Satellite Upgrade Program",
    "target_eligibility_quarter": "NA"
   }
  },
  {
   "type": "Feature",
   "geometry": {
    "type": "Point",
    "coordinates": [
     139.67768737,
     -34.06587767
    ]
   },
   "properties": {
    "name": "SITE 22, 1 BRENDA PARK SHACK ROAD BRENDA PARK 5320",
    "locID": "LOC000177511790",
    "tech": "WIRELESS",
    "upgrade": "NULL_NA",
    "gnaf_pid": "GASA_425719333",
    "ee": false,
    "tech_change_status": "Not Planned",
    "program_type": "Fixed Wireless and Satellite Upgrade Program",
    "target_eligibility_quarter": "NA"
   }
  },
  {
   "type": "Feature",
   "geometry": {
    "type": "Point",
    "coordinates": [
     139.67791164,
     -34.06596732
    ]
   },
   "properties": {
    "name": "SITE 23, 1 BRENDA PARK SHACK ROAD BRENDA PARK 5320",
    "locID": "LOC000177511790",
    "tech": "WIRELESS",
    "upgrade": "NULL_NA",
    "gnaf_pid": "GASA_425719334",
    "ee": false,
    "tech_change_status": "Not Planned",
    "program_type": "Fixed Wireless and Satellite Upgrade Program",
    "target_eligibility_quarter": "NA"
   }
  },
  {
   "type": "Feature",
   "geometry": {
    "type": "Point",
    "coordinates": [
     139.67815513,
     -34.06603584
    ]
   },
   "properties": {
    "name": "SITE 24, 1 BRENDA PARK SHACK ROAD BRENDA PARK 5320",
    "locID": "LOC000177511790",
    "tech": "WIRELESS",
    "upgrade": "NULL_NA",
    "gnaf_pid": "GASA_425719335",
    "ee": false,
    "tech_change_status": "Not Planned",
    "program_type": "Fixed Wireless and Satellite Upgrade Program",
    "target_eligibility_quarter": "NA"
   }
  },
  {
   "type": "Feature",
   "geometry": {
    "type": "Point",
    "coordinates": [
     139.67839657,
     -34.06610304
    ]
   },
   "properties": {
    "name": "SITE 25, 1 BRENDA PARK SHACK ROAD BRENDA PARK 5320",
    "locID": "LOC000177511790",
    "tech": "WIRELESS",
    "upgrade": "NULL_NA",
    "gnaf_pid": "GASA_425719336",
    "ee": false,
    "tech_change_status": "Not Planned",
    "program_type": "Fixed Wireless and Satellite Upgrade Program",
    "target_eligibility_quarter": "NA"
   }
  },
  {
   "type": "Feature",
   "geometry": {
    "type": "Point",
    "coordinates": [
     139.67865789,
     -34.06618432
    ]
   },
   "properties": {
    "name": "SITE 26, 1 BRENDA PARK SHACK ROAD BRENDA PARK 5320",
    "locID": "LOC000177511790",
    "tech": "WIRELESS",
    "upgrade": "NULL_NA",
    "gnaf_pid": "GASA_425719337",
    "ee": false,
    "tech_change_status": "Not Planned",
    "program_type": "Fixed Wireless and Satellite Upgrade Program",
    "target_eligibility_quarter": "NA"
   }
  },
  {
   "type": "Feature",
   "geometry": {
    "type": "Point",
    "coordinates": [
     139.67887105,
     -34.06629669
    ]
   },
   "properties": {
    "name": "SITE 27, 1 BRENDA PARK SHACK ROAD BRENDA PARK 5320",
    "locID": "LOC000177511790",
    "tech": "WIRELESS",
    "upgrade": "NULL_NA",
    "gnaf_pid": "GASA_425719338",
    "ee": false,
    "tech_change_status": "Not Planned",
    "program_type": "Fixed Wireless and Satellite Upgrade Program",
    "target_eligibility_quarter": "NA"
   }
  },
  {
   "type": "Feature",
   "geometry": {
    "type": "Point",
    "coordinates": [
     139.67905159,
     -34.0664078
    ]
   },
   "properties": {
    "name": "SITE 28, 1 BRENDA PARK SHACK ROAD BRENDA PARK 5320",
    "locID": "LOC000177511790",
    "tech": "WIRELESS",
    "upgrade": "NULL_NA",
    "gnaf_pid": "GASA_425719339",
    "ee": false,
    "tech_change_status": "Not Planned",
    "program_type": "Fixed Wireless and Satellite Upgrade Program",
    "target_eligibility_quarter": "NA"
   }
  },
  {
   "type": "Feature",
   "geometry": {
    "type": "Point",
    "coordinates": [
     139.67921944,
     -34.06651721
    ]
   },
   "properties": {
    "name": "SITE 29, 1 BRENDA PARK SHACK ROAD BRENDA PARK 5320",
    "locID": "LOC000177511790",
    "tech": "WIRELESS",
    "upgrade": "NULL_NA",
    "gnaf_pid": "GASA_425719340",
    "ee": false,
    "tech_change_status": "Not Planned",
    "program_type": "Fixed Wireless and Satellite Upgrade Program",
    "target_eligibility_quarter": "NA"
   }
  },
  {
   "type": "Feature",
   "geometry": {
    "type": "Point",
    "coordinates": [
     139.67545041,
     -34.06214492
    ]
   },
   "properties": {
    "name": "SITE 2, 1 BRENDA PARK SHACK ROAD BRENDA PARK 5320",
    "locID": "LOC000177511790",
    "tech": "WIRELESS",
    "upgrade": "NULL_NA",
    "gnaf_pid": "GASA_425719341",
    "ee": false,
    "tech_change_status": "Not Planned",
    "program_type": "Fixed Wireless and Satellite Upgrade Program",
    "target_eligibility_quarter": "NA"
   }
  },
  {
   "type": "Feature",
   "geometry": {
    "type": "Point",
    "coordinates": [
     139.67937116,
     -34.06665406
    ]
   },
   "properties": {
    "name": "SITE 30, 1 BRENDA PARK SHACK ROAD BRENDA PARK 5320",
    "locID": "LOC000177511790",
    "tech": "WIRELESS",
    "upgrade": "NULL_NA",
    "gnaf_pid": "GASA_425719342",
    "ee": false,
    "tech_change_status": "Not Planned",
    "program_type": "Fixed Wireless and Satellite Upgrade Program",
    "target_eligibility_quarter": "NA"
   }
  },
  {
   "type": "Feature",
   "geometry": {
    "type": "Point",
    "coordinates": [
     139.67953901,
     -34.06678836
    ]
   },
   "properties": {
    "name": "SITE 31, 1 BRENDA PARK SHACK ROAD BRENDA PARK 5320",
    "locID": "LOC000177511790",
    "tech": "WIRELESS",
    "upgrade": "NULL_NA",
    "gnaf_pid": "GASA_425719343",
    "ee": false,
    "tech_change_status": "Not Planned",
    "program_type": "Fixed Wireless and Satellite Upgrade Program",
    "target_eligibility_quarter": "NA"
   }
  },
  {
   "type": "Feature",
   "geometry": {
    "type": "Point",
    "coordinates": [
     139.6797003,
     -34.06690992
    ]
   },
   "properties": {
    "name": "SITE 32, 1 BRENDA PARK SHACK ROAD BRENDA PARK 5320",
    "locID": "LOC000177511790",
    "tech": "WIRELESS",
    "upgrade": "NULL_NA",
    "gnaf_pid": "GASA_425719344",
    "ee": false,
    "tech_change_status": "Not Planned",
    "program_type": "Fixed Wireless and Satellite Upgrade Program",
    "target_eligibility_quarter": "NA"
   }
  },
  {
   "type": "Feature",
   "geometry": {
    "type": "Point",
    "coordinates": [
     139.68408822,
     -34.06802817
    ]
   },
   "properties": {
    "name": "SITE 33, 1 BRENDA PARK SHACK ROAD BRENDA PARK 5320",
    "locID": "LOC000177511790",
    "tech": "WIRELESS",
    "upgrade": "NULL_NA",
    "gnaf_pid": "GASA_425719345",
    "ee": false,
    "tech_change_status": "Not Planned",
    "program_type": "Fixed Wireless and Satellite Upgrade Program",
    "target_eligibility_quarter": "NA"
   }
  },
  {
   "type": "Feature",
   "geometry": {
    "type": "Point",
    "coordinates": [
     139.68440587,
     -34.06804659
    ]
   },
   "properties": {
    "name": "SITE 34, 1 BRENDA PARK SHACK ROAD BRENDA PARK 5320",
    "locID": "LOC000177511790",
    "tech": "WIRELESS",
    "upgrade": "NULL_NA",
    "gnaf_pid": "GASA_425719346",
    "ee": false,
    "tech_change_status": "Not Planned",
    "program_type": "Fixed Wireless and Satellite Upgrade Program",
    "target_eligibility_quarter": "NA"
   }
  },
  {
   "type": "Feature",
   "geometry": {
    "type": "Point",
    "coordinates": [
     139.68462979,
     -34.06804004
    ]
   },
   "properties": {
    "name": "SITE 35, 1 BRENDA PARK SHACK ROAD BRENDA PARK 5320",
    "locID": "LOC000189650375",
    "tech": "WIRELESS",
    "upgrade": "NULL_NA",
    "gnaf_pid": "GASA_425719347",
    "ee": false,
    "tech_change_status": "Not Planned",
    "program_type": "Fixed Wireless and Satellite Upgrade Program",
    "target_eligibility_quarter": "NA"
   }
  },
  {
   "type": "Feature",
   "geometry": {
    "type": "Point",
    "coordinates": [
     139.68510956,
     -34.068029
    ]
   },
   "properties": {
    "name": "SITE 37, 1 BRENDA PARK SHACK ROAD BRENDA PARK 5320",
    "locID": "LOC000177511790",
    "tech": "WIRELESS",
    "upgrade": "NULL_NA",
    "gnaf_pid": "GASA_425719348",
    "ee": false,
    "tech_change_status": "Not Planned",
    "program_type": "Fixed Wireless and Satellite Upgrade Program",
    "target_eligibility_quarter": "NA"
   }
  },
  {
   "type": "Feature",
   "geometry": {
    "type": "Point",
    "coordinates": [
     139.68572612,
     -34.06793965
    ]
   },
   "properties": {
    "name": "SITE 38, 1 BRENDA PARK SHACK ROAD BRENDA PARK 5320",
    "locID": "LOC000177511790",
    "tech": "WIRELESS",
    "upgrade": "NULL_NA",
    "gnaf_pid": "GASA_425719349",
    "ee": false,
    "tech_change_status": "Not Planned",
    "program_type": "Fixed Wireless and Satellite Upgrade Program",
    "target_eligibility_quarter": "NA"
   }
  },
  {
   "type": "Feature",
   "geometry": {
    "type": "Point",
    "coordinates": [
     139.68600113,
     -34.06781162
    ]
   },
   "properties": {
    "name": "SITE 39, 1 BRENDA PARK SHACK ROAD BRENDA PARK 5320",
    "locID": "LOC000177511790",
    "tech": "WIRELESS",
    "upgrade": "NULL_NA",
    "gnaf_pid": "GASA_425719350",
    "ee": false,
    "tech_change_status": "Not Planned",
    "program_type": "Fixed Wireless and Satellite Upgrade Program",
    "target_eligibility_quarter": "NA"
   }
  },
  {
   "type": "Feature",
   "geometry": {
    "type": "Point",
    "coordinates": [
     139.67545259,
     -34.06230618
    ]
   },
   "properties": {
    "name": "SITE 3, 1 BRENDA PARK SHACK ROAD BRENDA PARK 5320",
    "locID": "LOC000189650375",
    "tech": "WIRELESS",
    "upgrade": "NULL_NA",
    "gnaf_pid": "GASA_425719351",
    "ee": false,
    "tech_change_status": "Not Planned",
    "program_type": "Fixed Wireless and Satellite Upgrade Program",
    "target_eligibility_quarter": "NA"
   }
  },
  {
   "type": "Feature",
   "geometry": {
    "type": "Point",
    "coordinates": [
     139.68625817,
     -34.06771444
    ]
   },
   "properties": {
    "name": "SITE 40, 1 BRENDA PARK SHACK ROAD BRENDA PARK 5320",
    "locID": "LOC000177511790",
    "tech": "WIRELESS",
    "upgrade": "NULL_NA",
    "gnaf_pid": "GASA_425719352",
    "ee": false,
    "tech_change_status": "Not Planned",
    "program_type": "Fixed Wireless and Satellite Upgrade Program",
    "target_eligibility_quarter": "NA"
   }
  },
  {
   "type": "Feature",
   "geometry": {
    "type": "Point",
    "coordinates": [
     139.68656362,
     -34.06758508
    ]
   },
   "properties": {
    "name": "SITE 41, 1 BRENDA PARK SHACK ROAD BRENDA PARK 5320",
    "locID": "LOC000177511790",
    "tech": "WIRELESS",
    "upgrade": "NULL_NA",
    "gnaf_pid": "GASA_425719353",
    "ee": false,
    "tech_change_status": "Not Planned",
    "program_type": "Fixed Wireless and Satellite Upgrade Program",
    "target_eligibility_quarter": "NA"
   }
  },
  {
   "type": "Feature",
   "geometry": {
    "type": "Point",
    "coordinates": [
     139.6751273,
     -34.06181384
    ]
   },
   "properties": {
    "name": "SITE 42, 1 BRENDA PARK SHACK ROAD BRENDA PARK 5320",
    "locID": "LOC000177511790",
    "tech": "WIRELESS",
    "upgrade": "NULL_NA",
    "gnaf_pid": "GASA_425719354",
    "ee": false,
    "tech_change_status": "Not Planned",
    "program_type": "Fixed Wireless and Satellite Upgrade Program",
    "target_eligibility_quarter": "NA"
   }
  },
  {
   "type": "Feature",
   "geometry": {
    "type": "Point",
    "coordinates": [
     139.68679178,
     -34.06843788
    ]
   },
   "properties": {
    "name": "SITE 43, 1 BRENDA PARK SHACK ROAD BRENDA PARK 5320",
    "locID": "LOC000177511790",
    "tech": "WIRELESS",
    "upgrade": "NULL_NA",
    "gnaf_pid": "GASA_425719355",
    "ee": false,
    "tech_change_status": "Not Planned",
    "program_type": "Fixed Wireless and Satellite Upgrade Program",
    "target_eligibility_quarter": "NA"
   }
  },
  {
   "type": "Feature",
   "geometry": {
    "type": "Point",
    "coordinates": [
     139.68666287,
     -34.06861191
    ]
   },
   "properties": {
    "name": "SITE 44, 1 BRENDA PARK SHACK ROAD BRENDA PARK 5320",
    "locID": "LOC000177511790",
    "tech": "WIRELESS",
    "upgrade": "NULL_NA",
    "gnaf_pid": "GASA_425719356",
    "ee": false,
    "tech_change_status": "Not Planned",
    "program_type": "Fixed Wireless and Satellite Upgrade Program",
    "target_eligibility_quarter": "NA"
   }
  },
  {
   "type": "Feature",
   "geometry": {
    "type": "Point",
    "coordinates": [
     139.68654591,
     -34.06878431
    ]
   },
   "properties": {
    "name": "SITE 45, 1 BRENDA PARK SHACK ROAD BRENDA PARK 5320",
    "locID": "LOC000177511790",
    "tech": "WIRELESS",
    "upgrade": "NULL_NA",
    "gnaf_pid": "GASA_425719357",
    "ee": false,
    "tech_change_status": "Not Planned",
    "program_type": "Fixed Wireless and Satellite Upgrade Program",
    "target_eligibility_quarter": "NA"
   }
  },
  {
   "type": "Feature",
   "geometry": {
    "type": "Point",
    "coordinates": [
     139.6864038,
     -34.06895969
    ]
   },
   "properties": {
    "name": "SITE 46, 1 BRENDA PARK SHACK ROAD BRENDA PARK 5320",
    "locID": "LOC000177511790",
    "tech": "WIRELESS",
    "upgrade": "NULL_NA",
    "gnaf_pid": "GASA_425719358",
    "ee": false,
    "tech_change_status": "Not Planned",
    "program_type": "Fixed Wireless and Satellite Upgrade Program",
    "target_eligibility_quarter": "NA"
   }
  },
  {
   "type": "Feature",
   "geometry": {
    "type": "Point",
    "coordinates": [
     139.68634518,
     -34.0691409
    ]
   },
   "properties": {
    "name": "SITE 47, 1 BRENDA PARK SHACK ROAD BRENDA PARK 5320",
    "locID": "LOC000177511790",
    "tech": "WIRELESS",
    "upgrade": "NULL_NA",
    "gnaf_pid": "GASA_425719359",
    "ee": false,
    "tech_change_status": "Not Planned",
    "program_type": "Fixed Wireless and Satellite Upgrade Program",
    "target_eligibility_quarter": "NA"
   }
  },
  {
   "type": "Feature",
   "geometry": {
    "type": "Point",
    "coordinates": [
     139.68627059,
     -34.06931643
    ]
   },
   "properties": {
    "name": "SITE 48, 1 BRENDA PARK SHACK ROAD BRENDA PARK 5320",
    "locID": "LOC000188438317",
    "tech": "WIRELESS",
    "upgrade": "NULL_NA",
    "gnaf_pid": "GASA_425719360",
    "ee": false,
    "tech_change_status": "Not Planned",
    "program_type": "Fixed Wireless and Satellite Upgrade Program",
    "target_eligibility_quarter": "NA"
   }
  },
  {
   "type": "Feature",
   "geometry": {
    "type": "Point",
    "coordinates": [
     139.68624412,
     -34.06950351
    ]
   },
   "properties": {
    "name": "SITE 49, 1 BRENDA PARK SHACK ROAD BRENDA PARK 5320",
    "locID": "LOC000177511790",
    "tech": "WIRELESS",
    "upgrade": "NULL_NA",
    "gnaf_pid": "GASA_425719361",
    "ee": false,
    "tech_change_status": "Not Planned",
    "program_type": "Fixed Wireless and Satellite Upgrade Program",
    "target_eligibility_quarter": "NA"
   }
  },
  {
   "type": "Feature",
   "geometry": {
    "type": "Point",
    "coordinates": [
     139.67543679,
     -34.0624636
    ]
   },
   "properties": {
    "name": "SITE 4, 1 BRENDA PARK SHACK ROAD BRENDA PARK 5320",
    "locID": "LOC000188438317",
    "tech": "WIRELESS",
    "upgrade": "NULL_NA",
    "gnaf_pid": "GASA_425719362",
    "ee": false,
    "tech_change_status": "Not Planned",
    "program_type": "Fixed Wireless and Satellite Upgrade Program",
    "target_eligibility_quarter": "NA"
   }
  },
  {
   "type": "Feature",
   "geometry": {
    "type": "Point",
    "coordinates": [
     139.68621802,
     -34.06968035
    ]
   },
   "properties": {
    "name": "SITE 50, 1 BRENDA PARK SHACK ROAD BRENDA PARK 5320",
    "locID": "LOC000177511790",
    "tech": "WIRELESS",
    "upgrade": "NULL_NA",
    "gnaf_pid": "GASA_425719363",
    "ee": false,
    "tech_change_status": "Not Planned",
    "program_type": "Fixed Wireless and Satellite Upgrade Program",
    "target_eligibility_quarter": "NA"
   }
  },
  {
   "type": "Feature",
   "geometry": {
    "type": "Point",
    "coordinates": [
     139.68614894,
     -34.06984754
    ]
   },
   "properties": {
    "name": "SITE 51, 1 BRENDA PARK SHACK ROAD BRENDA PARK 5320",
    "locID": "LOC000177511790",
    "tech": "WIRELESS",
    "upgrade": "NULL_NA",
    "gnaf_pid": "GASA_425719364",
    "ee": false,
    "tech_change_status": "Not Planned",
    "program_type": "Fixed Wireless and Satellite Upgrade Program",
    "target_eligibility_quarter": "NA"
   }
  },
  {
   "type": "Feature",
   "geometry": {
    "type": "Point",
    "coordinates": [
     139.68612972,
     -34.07002324
    ]
   },
   "properties": {
    "name": "SITE 52, 1 BRENDA PARK SHACK ROAD BRENDA PARK 5320",
    "locID": "LOC000177511790",
    "tech": "WIRELESS",
    "upgrade": "NULL_NA",
    "gnaf_pid": "GASA_425719365",
    "ee": false,
    "tech_change_status": "Not Planned",
    "program_type": "Fixed Wireless and Satellite Upgrade Program",
    "target_eligibility_quarter": "NA"
   }
  },
  {
   "type": "Feature",
   "geometry": {
    "type": "Point",
    "coordinates": [
     139.68612133,
     -34.07020708
    ]
   },
   "properties": {
    "name": "SITE 53, 1 BRENDA PARK SHACK ROAD BRENDA PARK 5320",
    "locID": "LOC000177511790",
    "tech": "WIRELESS",
    "upgrade": "NULL_NA",
    "gnaf_pid": "GASA_425719366",
    "ee": false,
    "tech_change_status": "Not Planned",
    "program_type": "Fixed Wireless and Satellite Upgrade Program",
    "target_eligibility_quarter": "NA"
   }
  },
  {
   "type": "Feature",
   "geometry": {
    "type": "Point",
    "coordinates": [
     139.68608332,
     -34.0703895
    ]
   },
   "properties": {
    "name": "SITE 54, 1 BRENDA PARK SHACK ROAD BRENDA PARK 5320",
    "locID": "LOC000177511790",
    "tech": "WIRELESS",
    "upgrade": "NULL_NA",
    "gnaf_pid": "GASA_425719367",
    "ee": false,
    "tech_change_status": "Not Planned",
    "program_type": "Fixed Wireless and Satellite Upgrade Program",
    "target_eligibility_quarter": "NA"
   }
  },
  {
   "type": "Feature",
   "geometry": {
    "type": "Point",
    "coordinates": [
     139.68604225,
     -34.07057667
    ]
   },
   "properties": {
    "name": "SITE 55, 1 BRENDA PARK SHACK ROAD BRENDA PARK 5320",
    "locID": "LOC000177511790",
    "tech": "WIRELESS",
    "upgrade": "NULL_NA",
    "gnaf_pid": "GASA_425719368",
    "ee": false,
    "tech_change_status": "Not Planned",
    "program_type": "Fixed Wireless and Satellite Upgrade Program",
    "target_eligibility_quarter": "NA"
   }
  },
  {
   "type": "Feature",
   "geometry": {
    "type": "Point",
    "coordinates": [
     139.6859804,
     -34.07075208
    ]
   },
   "properties": {
    "name": "SITE 56, 1 BRENDA PARK SHACK ROAD BRENDA PARK 5320",
    "locID": "LOC000177511790",
    "tech": "WIRELESS",
    "upgrade": "NULL_NA",
    "gnaf_pid": "GASA_425719369",
    "ee": false,
    "tech_change_status": "Not Planned",
    "program_type": "Fixed Wireless and Satellite Upgrade Program",
    "target_eligibility_quarter": "NA"
   }
  },
  {
   "type": "Feature",
   "geometry": {
    "type": "Point",
    "coordinates": [
     139.68597547,
     -34.07094225
    ]
   },
   "properties": {
    "name": "SITE 57, 1 BRENDA PARK SHACK ROAD BRENDA PARK 5320",
    "locID": "LOC000177511790",
    "tech": "WIRELESS",
    "upgrade": "NULL_NA",
    "gnaf_pid": "GASA_425719370",
    "ee": false,
    "tech_change_status": "Not Planned",
    "program_type": "Fixed Wireless and Satellite Upgrade Program",
    "target_eligibility_quarter": "NA"
   }
  },
  {
   "type": "Feature",
   "geometry": {
    "type": "Point",
    "coordinates": [
     139.68597399,
     -34.07113711
    ]
   },
   "properties": {
    "name": "SITE 58, 1 BRENDA PARK SHACK ROAD BRENDA PARK 5320",
    "locID": "LOC000177511790",
    "tech": "WIRELESS",
    "upgrade": "NULL_NA",
    "gnaf_pid": "GASA_425719371",
    "ee": false,
    "tech_change_status": "Not Planned",
    "program_type": "Fixed Wireless and Satellite Upgrade Program",
    "target_eligibility_quarter": "NA"
   }
  },
  {
   "type": "Feature",
   "geometry": {
    "type": "Point",
    "coordinates": [
     139.68589418,
     -34.07129944
    ]
   },
   "properties": {
    "name": "SITE 59, 1 BRENDA PARK SHACK ROAD BRENDA PARK 5320",
    "locID": "LOC000177511790",
    "tech": "WIRELESS",
    "upgrade": "NULL_NA",
    "gnaf_pid": "GASA_425719372",
    "ee": false,
    "tech_change_status": "Not Planned",
    "program_type": "Fixed Wireless and Satellite Upgrade Program",
    "target_eligibility_quarter": "NA"
   }
  },
  {
   "type": "Feature",
   "geometry": {
    "type": "Point",
    "coordinates": [
     139.67542548,
     -34.06263606
    ]
   },
   "properties": {
    "name": "SITE 5, 1 BRENDA PARK SHACK ROAD BRENDA PARK 5320",
    "locID": "LOC000177511790",
    "tech": "WIRELESS",
    "upgrade": "NULL_NA",
    "gnaf_pid": "GASA_425719373",
    "ee": false,
    "tech_change_status": "Not Planned",
    "program_type": "Fixed Wireless and Satellite Upgrade Program",
    "target_eligibility_quarter": "NA"
   }
  },
  {
   "type": "Feature",
   "geometry": {
    "type": "Point",
    "coordinates": [
     139.68573301,
     -34.07228192
    ]
   },
   "properties": {
    "name": "SITE 64, 1 BRENDA PARK SHACK ROAD BRENDA PARK 5320",
    "locID": "LOC000190293933",
    "tech": "WIRELESS",
    "upgrade": "NULL_NA",
    "gnaf_pid": "GASA_425719374",
    "ee": false,
    "tech_change_status": "Not Planned",
    "program_type": "Fixed Wireless and Satellite Upgrade Program",
    "target_eligibility_quarter": "NA"
   }
  },
  {
   "type": "Feature",
   "geometry": {
    "type": "Point",
    "coordinates": [
     139.68545231,
     -34.07252241
    ]
   },
   "properties": {
    "name": "SITE 65, 1 BRENDA PARK SHACK ROAD BRENDA PARK 5320",
    "locID": "LOC000177511790",
    "tech": "WIRELESS",
    "upgrade": "NULL_NA",
    "gnaf_pid": "GASA_425719375",
    "ee": false,
    "tech_change_status": "Not Planned",
    "program_type": "Fixed Wireless and Satellite Upgrade Program",
    "target_eligibility_quarter": "NA"
   }
  },
  {
   "type": "Feature",
   "geometry": {
    "type": "Point",
    "coordinates": [
     139.68569603,
     -34.0727725
    ]
   },
   "properties": {
    "name": "SITE 66, 1 BRENDA PARK SHACK ROAD BRENDA PARK 5320",
    "locID": "LOC000177511790",
    "tech": "WIRELESS",
    "upgrade": "NULL_NA",
    "gnaf_pid": "GASA_425719376",
    "ee": false,
    "tech_change_status": "Not Planned",
    "program_type": "Fixed Wireless and Satellite Upgrade Program",
    "target_eligibility_quarter": "NA"
   }
  },
  {
   "type": "Feature",
   "geometry": {
    "type": "Point",
    "coordinates": [
     139.6856557,
     -34.07296336
    ]
   },
   "properties": {
    "name": "SITE 67, 1 BRENDA PARK SHACK ROAD BRENDA PARK 5320",
    "locID": "LOC000177511790",
    "tech": "WIRELESS",
    "upgrade": "NULL_NA",
    "gnaf_pid": "GASA_425719377",
    "ee": false,
    "tech_change_status": "Not Planned",
    "program_type": "Fixed Wireless and Satellite Upgrade Program",
    "target_eligibility_quarter": "NA"
   }
  },
  {
   "type": "Feature",
   "geometry": {
    "type": "Point",
    "coordinates": [
     139.68561523,
     -34.07315283
    ]
   },
   "properties": {
    "name": "SITE 68, 1 BRENDA PARK SHACK ROAD BRENDA PARK 5320",
    "locID": "LOC000177511790",
    "tech": "WIRELESS",
    "upgrade": "NULL_NA",
    "gnaf_pid": "GASA_425719378",
    "ee": false,
    "tech_change_status": "Not Planned",
    "program_type": "Fixed Wireless and Satellite Upgrade Program",
    "target_eligibility_quarter": "NA"
   }
  },
  {
   "type": "Feature",
   "geometry": {
    "type": "Point",
    "coordinates": [
     139.68559677,
     -34.07334614
    ]
   },
   "properties": {
    "name": "SITE 69, 1 BRENDA PARK SHACK ROAD BRENDA PARK 5320",
    "locID": "LOC000177511790",
    "tech": "WIRELESS",
    "upgrade": "NULL_NA",
    "gnaf_pid": "GASA_425719379",
    "ee": false,
    "tech_change_status": "Not Planned",
    "program_type": "Fixed Wireless and Satellite Upgrade Program",
    "target_eligibility_quarter": "NA"
   }
  },
  {
   "type": "Feature",
   "geometry": {
    "type": "Point",
    "coordinates": [
     139.67542442,
     -34.06305021
    ]
   },
   "properties": {
    "name": "SITE 6, 1 BRENDA PARK SHACK ROAD BRENDA PARK 5320",
    "locID": "LOC000190293933",
    "tech": "WIRELESS",
    "upgrade": "NULL_NA",
    "gnaf_pid": "GASA_425719380",
    "ee": false,
    "tech_change_status": "Not Planned",
    "program_type": "Fixed Wireless and Satellite Upgrade Program",
    "target_eligibility_quarter": "NA"
   }
  },
  {
   "type": "Feature",
   "geometry": {
    "type": "Point",
    "coordinates": [
     139.6855448,
     -34.07353469
    ]
   },
   "properties": {
    "name": "SITE 70, 1 BRENDA PARK SHACK ROAD BRENDA PARK 5320",
    "locID": "LOC000177511790",
    "tech": "WIRELESS",
    "upgrade": "NULL_NA",
    "gnaf_pid": "GASA_425719381",
    "ee": false,
    "tech_change_status": "Not Planned",
    "program_type": "Fixed Wireless and Satellite Upgrade Program",
    "target_eligibility_quarter": "NA"
   }
  },
  {
   "type": "Feature",
   "geometry": {
    "type": "Point",
    "coordinates": [
     139.68548446,
     -34.07369665
    ]
   },
   "properties": {
    "name": "SITE 71, 1 BRENDA PARK SHACK ROAD BRENDA PARK 5320",
    "locID": "LOC000177511790",
    "tech": "WIRELESS",
    "upgrade": "NULL_NA",
    "gnaf_pid": "GASA_425719382",
    "ee": false,
    "tech_change_status": "Not Planned",
    "program_type": "Fixed Wireless and Satellite Upgrade Program",
    "target_eligibility_quarter": "NA"
   }
  },
  {
   "type": "Feature",
   "geometry": {
    "type": "Point",
    "coordinates": [
     139.68549862,
     -34.07386368
    ]
   },
   "properties": {
    "name": "SITE 72, 1 BRENDA PARK SHACK ROAD BRENDA PARK 5320",
    "locID": "LOC000177511790",
    "tech": "WIRELESS",
    "upgrade": "NULL_NA",
    "gnaf_pid": "GASA_425719383",
    "ee": false,
    "tech_change_status": "Not Planned",
    "program_type": "Fixed Wireless and Satellite Upgrade Program",
    "target_eligibility_quarter": "NA"
   }
  },
  {
   "type": "Feature",
   "geometry": {
    "type": "Point",
    "coordinates": [
     139.68539548,
     -34.07403919
    ]
   },
   "properties": {
    "name": "SITE 73, 1 BRENDA PARK SHACK ROAD BRENDA PARK 5320",
    "locID": "LOC000177511790",
    "tech": "WIRELESS",
    "upgrade": "NULL_NA",
    "gnaf_pid": "GASA_425719384",
    "ee": false,
    "tech_change_status": "Not Planned",
    "program_type": "Fixed Wireless and Satellite Upgrade Program",
    "target_eligibility_quarter": "NA"
   }
  },
  {
   "type": "Feature",
   "geometry": {
    "type": "Point",
    "coordinates": [
     139.68540845,
     -34.0742129
    ]
   },
   "properties": {
    "name": "SITE 74, 1 BRENDA PARK SHACK ROAD BRENDA PARK 5320",
    "locID": "LOC000177511790",
    "tech": "WIRELESS",
    "upgrade": "NULL_NA",
    "gnaf_pid": "GASA_425719385",
    "ee": false,
    "tech_change_status": "Not Planned",
    "program_type": "Fixed Wireless and Satellite Upgrade Program",
    "target_eligibility_quarter": "NA"
   }
  },
  {
   "type": "Feature",
   "geometry": {
    "type": "Point",
    "coordinates": [
     139.68534986,
     -34.0743977
    ]
   },
   "properties": {
    "name": "SITE 75, 1 BRENDA PARK SHACK ROAD BRENDA PARK 5320",
    "locID": "LOC000180870662",
    "tech": "WIRELESS",
    "upgrade": "NULL_NA",
    "gnaf_pid": "GASA_425719386",
    "ee": false,
    "tech_change_status": "Not Planned",
    "program_type": "Fixed Wireless and Satellite Upgrade Program",
    "target_eligibility_quarter": "NA"
   }
  },
  {
   "type": "Feature",
   "geometry": {
    "type": "Point",
    "coordinates": [
     139.68531781,
     -34.07457735
    ]
   },
   "properties": {
    "name": "SITE 76, 1 BRENDA PARK SHACK ROAD BRENDA PARK 5320",
    "locID": "LOC000177511790",
    "tech": "WIRELESS",
    "upgrade": "NULL_NA",
    "gnaf_pid": "GASA_425719387",
    "ee": false,
    "tech_change_status": "Not Planned",
    "program_type": "Fixed Wireless and Satellite Upgrade Program",
    "target_eligibility_quarter": "NA"
   }
  },
  {
   "type": "Feature",
   "geometry": {
    "type": "Point",
    "coordinates": [
     139.68528759,
     -34.07475912
    ]
   },
   "properties": {
    "name": "SITE 77, 1 BRENDA PARK SHACK ROAD BRENDA PARK 5320",
    "locID": "LOC000177511790",
    "tech": "WIRELESS",
    "upgrade": "NULL_NA",
    "gnaf_pid": "GASA_425719388",
    "ee": false,
    "tech_change_status": "Not Planned",
    "program_type": "Fixed Wireless and Satellite Upgrade Program",
    "target_eligibility_quarter": "NA"
   }
  },
  {
   "type": "Feature",
   "geometry": {
    "type": "Point",
    "coordinates": [
     139.68529026,
     -34.074958
    ]
   },
   "properties": {
    "name": "SITE 78, 1 BRENDA PARK SHACK ROAD BRENDA PARK 5320",
    "locID": "LOC000177511790",
    "tech": "WIRELESS",
    "upgrade": "NULL_NA",
    "gnaf_pid": "GASA_425719389",
    "ee": false,
    "tech_change_status": "Not Planned",
    "program_type": "Fixed Wireless and Satellite Upgrade Program",
    "target_eligibility_quarter": "NA"
   }
  },
  {
   "type": "Feature",
   "geometry": {
    "type": "Point",
    "coordinates": [
     139.68516267,
     -34.07516444
    ]
   },
   "properties": {
    "name": "SITE 79, 1 BRENDA PARK SHACK ROAD BRENDA PARK 5320",
    "locID": "LOC000177511790",
    "tech": "WIRELESS",
    "upgrade": "NULL_NA",
    "gnaf_pid": "GASA_425719390",
    "ee": false,
    "tech_change_status": "Not Planned",
    "program_type": "Fixed Wireless and Satellite Upgrade Program",
    "target_eligibility_quarter": "NA"
   }
  },
  {
   "type": "Feature",
   "geometry": {
    "type": "Point",
    "coordinates": [
     139.67543405,
     -34.06326124
    ]
   },
   "properties": {
    "name": "SITE 7, 1 BRENDA PARK SHACK ROAD BRENDA PARK 5320",
    "locID": "LOC000177511790",
    "tech": "WIRELESS",
    "upgrade": "NULL_NA",
    "gnaf_pid": "GASA_425719391",
    "ee": false,
    "tech_change_status": "Not Planned",
    "program_type": "Fixed Wireless and Satellite Upgrade Program",
    "target_eligibility_quarter": "NA"
   }
  },
  {
   "type": "Feature",
   "geometry": {
    "type": "Point",
    "coordinates": [
     139.68516064,
     -34.07535016
    ]
   },
   "properties": {
    "name": "SITE 80, 1 BRENDA PARK SHACK ROAD BRENDA PARK 5320",
    "locID": "LOC000177511790",
    "tech": "WIRELESS",
    "upgrade": "NULL_NA",
    "gnaf_pid": "GASA_425719392",
    "ee": false,
    "tech_change_status": "Not Planned",
    "program_type": "Fixed Wireless and Satellite Upgrade Program",
    "target_eligibility_quarter": "NA"
   }
  },
  {
   "type": "Feature",
   "geometry": {
    "type": "Point",
    "coordinates": [
     139.68512828,
     -34.07552731
    ]
   },
   "properties": {
    "name": "SITE 81, 1 BRENDA PARK SHACK ROAD BRENDA PARK 5320",
    "locID": "LOC000186950877",
    "tech": "WIRELESS",
    "upgrade": "NULL_NA",
    "gnaf_pid": "GASA_425719393",
    "ee": false,
    "tech_change_status": "Not Planned",
    "program_type": "Fixed Wireless and Satellite Upgrade Program",
    "target_eligibility_quarter": "NA"
   }
  },
  {
   "type": "Feature",
   "geometry": {
    "type": "Point",
    "coordinates": [
     139.6851055,
     -34.07570347
    ]
   },
   "properties": {
    "name": "SITE 82, 1 BRENDA PARK SHACK ROAD BRENDA PARK 5320",
    "locID": "LOC000177511790",
    "tech": "WIRELESS",
    "upgrade": "NULL_NA",
    "gnaf_pid": "GASA_425719394",
    "ee": false,
    "tech_change_status": "Not Planned",
    "program_type": "Fixed Wireless and Satellite Upgrade Program",
    "target_eligibility_quarter": "NA"
   }
  },
  {
   "type": "Feature",
   "geometry": {
    "type": "Point",
    "coordinates": [
     139.68509378,
     -34.07590326
    ]
   },
   "properties": {
    "name": "SITE 83, 1 BRENDA PARK SHACK ROAD BRENDA PARK 5320",
    "locID": "LOC000177511790",
    "tech": "WIRELESS",
    "upgrade": "NULL_NA",
    "gnaf_pid": "GASA_425719395",
    "ee": false,
    "tech_change_status": "Not Planned",
    "program_type": "Fixed Wireless and Satellite Upgrade Program",
    "target_eligibility_quarter": "NA"
   }
  },
  {
   "type": "Feature",
   "geometry": {
    "type": "Point",
    "coordinates": [
     139.68507685,
     -34.07610012
    ]
   },
   "properties": {
    "name": "SITE 84, 1 BRENDA PARK SHACK ROAD BRENDA PARK 5320",
    "locID": "LOC000177511790",
    "tech": "WIRELESS",
    "upgrade": "NULL_NA",
    "gnaf_pid": "GASA_425719396",
    "ee": false,
    "tech_change_status": "Not Planned",
    "program_type": "Fixed Wireless and Satellite Upgrade Program",
    "target_eligibility_quarter": "NA"
   }
  },
  {
   "type": "Feature",
   "geometry": {
    "type": "Point",
    "coordinates": [
     139.68504909,
     -34.07626639
    ]
   },
   "properties": {
    "name": "SITE 85, 1 BRENDA PARK SHACK ROAD BRENDA PARK 5320",
    "locID": "LOC000177511790",
    "tech": "WIRELESS",
    "upgrade": "NULL_NA",
    "gnaf_pid": "GASA_425719397",
    "ee": false,
    "tech_change_status": "Not Planned",
    "program_type": "Fixed Wireless and Satellite Upgrade Program",
    "target_eligibility_quarter": "NA"
   }
  },
  {
   "type": "Feature",
   "geometry": {
    "type": "Point",
    "coordinates": [
     139.6850189,
     -34.07644265
    ]
   },
   "properties": {
    "name": "SITE 86, 1 BRENDA PARK SHACK ROAD BRENDA PARK 5320",
    "locID": "LOC000177511790",
    "tech": "WIRELESS",
    "upgrade": "NULL_NA",
    "gnaf_pid": "GASA_425719398",
    "ee": false,
    "tech_change_status": "Not Planned",
    "program_type": "Fixed Wireless and Satellite Upgrade Program",
    "target_eligibility_quarter": "NA"
   }
  },
  {
   "type": "Feature",
   "geometry": {
    "type": "Point",
    "coordinates": [
     139.68500086,
     -34.07664708
    ]
   },
   "properties": {
    "name": "SITE 87, 1 BRENDA PARK SHACK ROAD BRENDA PARK 5320",
    "locID": "LOC100077965173",
    "tech": "WIRELESS",
    "upgrade": "NULL_NA",
    "gnaf_pid": "GASA_425719399",
    "ee": false,
    "tech_change_status": "Not Planned",
    "program_type": "Fixed Wireless and Satellite Upgrade Program",
    "target_eligibility_quarter": "NA"
   }
  },
  {
   "type": "Feature",
   "geometry": {
    "type": "Point",
    "coordinates": [
     139.68794098,
     -34.08178897
    ]
   },
   "properties": {
    "name": "SITE 88, 1 BRENDA PARK SHACK ROAD BRENDA PARK 5320",
    "locID": "LOC000177511790",
    "tech": "WIRELESS",
    "upgrade": "NULL_NA",
    "gnaf_pid": "GASA_425719400",
    "ee": false,
    "tech_change_status": "Not Planned",
    "program_type": "Fixed Wireless and Satellite Upgrade Program",
    "target_eligibility_quarter": "NA"
   }
  },
  {
   "type": "Feature",
   "geometry": {
    "type": "Point",
    "coordinates": [
     139.68810294,
     -34.08201973
    ]
   },
   "properties": {
    "name": "SITE 89, 1 BRENDA PARK SHACK ROAD BRENDA PARK 5320",
    "locID": "LOC000177511790",
    "tech": "WIRELESS",
    "upgrade": "NULL_NA",
    "gnaf_pid": "GASA_425719401",
    "ee": false,
    "tech_change_status": "Not Planned",
    "program_type": "Fixed Wireless and Satellite Upgrade Program",
    "target_eligibility_quarter": "NA"
   }
  },
  {
   "type": "Feature",
   "geometry": {
    "type": "Point",
    "coordinates": [
     139.67547516,
     -34.06346774
    ]
   },
   "properties": {
    "name": "SITE 8, 1 BRENDA PARK SHACK ROAD BRENDA PARK 5320",
    "locID": "LOC100077965173",
    "tech": "WIRELESS",
    "upgrade": "NULL_NA",
    "gnaf_pid": "GASA_425719402",
    "ee": false,
    "tech_change_status": "Not Planned",
    "program_type": "Fixed Wireless and Satellite Upgrade Program",
    "target_eligibility_quarter": "NA"
   }
  },
  {
   "type": "Feature",
   "geometry": {
    "type": "Point",
    "coordinates": [
     139.68818245,
     -34.08221864
    ]
   },
   "properties": {
    "name": "SITE 90, 1 BRENDA PARK SHACK ROAD BRENDA PARK 5320",
    "locID": "LOC000177511790",
    "tech": "WIRELESS",
    "upgrade": "NULL_NA",
    "gnaf_pid": "GASA_425719403",
    "ee": false,
    "tech_change_status": "Not Planned",
    "program_type": "Fixed Wireless and Satellite Upgrade Program",
    "target_eligibility_quarter": "NA"
   }
  },
  {
   "type": "Feature",
   "geometry": {
    "type": "Point",
    "coordinates": [
     139.68811346,
     -34.08237812
    ]
   },
   "properties": {
    "name": "SITE 91, 1 BRENDA PARK SHACK ROAD BRENDA PARK 5320",
    "locID": "LOC000177511790",
    "tech": "WIRELESS",
    "upgrade": "NULL_NA",
    "gnaf_pid": "GASA_425719404",
    "ee": false,
    "tech_change_status": "Not Planned",
    "program_type": "Fixed Wireless and Satellite Upgrade Program",
    "target_eligibility_quarter": "NA"
   }
  },
  {
   "type": "Feature",
   "geometry": {
    "type": "Point",
    "coordinates": [
     139.68802865,
     -34.08252974
    ]
   },
   "properties": {
    "name": "SITE 92, 1 BRENDA PARK SHACK ROAD BRENDA PARK 5320",
    "locID": "LOC000177511790",
    "tech": "WIRELESS",
    "upgrade": "NULL_NA",
    "gnaf_pid": "GASA_425719405",
    "ee": false,
    "tech_change_status": "Not Planned",
    "program_type": "Fixed Wireless and Satellite Upgrade Program",
    "target_eligibility_quarter": "NA"
   }
  },
  {
   "type": "Feature",
   "geometry": {
    "type": "Point",
    "coordinates": [
     139.68774765,
     -34.08327177
    ]
   },
   "properties": {
    "name": "SITE 95, 1 BRENDA PARK SHACK ROAD BRENDA PARK 5320",
    "locID": "LOC000177511790",
    "tech": "WIRELESS",
    "upgrade": "NULL_NA",
    "gnaf_pid": "GASA_425719406",
    "ee": false,
    "tech_change_status": "Not Planned",
    "program_type": "Fixed Wireless and Satellite Upgrade Program",
    "target_eligibility_quarter": "NA"
   }
  },
  {
   "type": "Feature",
   "geometry": {
    "type": "Point",
    "coordinates": [
     139.68747259,
     -34.08375619
    ]
   },
   "properties": {
    "name": "SITE 98, 1 BRENDA PARK SHACK ROAD BRENDA PARK 5320",
    "locID": "LOC000177511790",
    "tech": "WIRELESS",
    "upgrade": "NULL_NA",
    "gnaf_pid": "GASA_425719407",
    "ee": false,
    "tech_change_status": "Not Planned",
    "program_type": "Fixed Wireless and Satellite Upgrade Program",
    "target_eligibility_quarter": "NA"
   }
  },
  {
   "type": "Feature",
   "geometry": {
    "type": "Point",
    "coordinates": [
     139.6873716,
     -34.08394561
    ]
   },
   "properties": {
    "name": "SITE 99, 1 BRENDA PARK SHACK ROAD BRENDA PARK 5320",
    "locID": "LOC000177511790",
    "tech": "WIRELESS",
    "upgrade": "NULL_NA",
    "gnaf_pid": "GASA_425719408",
    "ee": false,
    "tech_change_status": "Not Planned",
    "program_type": "Fixed Wireless and Satellite Upgrade Program",
    "target_eligibility_quarter": "NA"
   }
  },
  {
   "type": "Feature",
   "geometry": {
    "type": "Point",
    "coordinates": [
     139.67554289,
     -34.06364434
    ]
   },
   "properties": {
    "name": "SITE 9, 1 BRENDA PARK SHACK ROAD BRENDA PARK 5320",
    "locID": "LOC000177511790",
    "tech": "WIRELESS",
    "upgrade": "NULL_NA",
    "gnaf_pid": "GASA_425719409",
    "ee": false,
    "tech_change_status": "Not Planned",
    "program_type": "Fixed Wireless and Satellite Upgrade Program",
    "target_eligibility_quarter": "NA"
   }
  },
  {
   "type": "Feature",
   "geometry": {
    "type": "Point",
    "coordinates": [
     139.68739196,
     -34.08280422
    ]
   },
   "properties": {
    "name": "4 BRENDA PARK SHACK ROAD BRENDA PARK 5320",
    "locID": "LOC000188438317",
    "tech": "WIRELESS",
    "upgrade": "NULL_NA",
    "gnaf_pid": "GASA_719451899",
    "ee": false,
    "tech_change_status": "Not Planned",
    "program_type": "Fixed Wireless and Satellite Upgrade Program",
    "target_eligibility_quarter": "NA"
   }
  },
  {
   "type": "Feature",
   "geometry": {
    "type": "Point",
    "coordinates": [
     139.68530892,
     -34.07429876
    ]
   },
   "properties": {
    "name": "3 BRENDA PARK SHACK ROAD BRENDA PARK 5320",
    "locID": "LOC000187607017",
    "tech": "WIRELESS",
    "upgrade": "NULL_NA",
    "gnaf_pid": "GASA_719454389",
    "ee": false,
    "tech_change_status": "Not Planned",
    "program_type": "Fixed Wireless and Satellite Upgrade Program",
    "target_eligibility_quarter": "NA"
   }
  },
  {
   "type": "Feature",
   "geometry": {
    "type": "Point",
    "coordinates": [
     139.6751273,
     -34.06181384
    ]
   },
   "properties": {
    "name": "SITE 1, 1 BRENDA PARK SHACK ROAD BRENDA PARK 5320",
    "locID": "LOC000177511790",
    "tech": "WIRELESS",
    "upgrade": "NULL_NA",
    "gnaf_pid": "GASA_720846522",
    "ee": false,
    "tech_change_status": "Not Planned",
    "program_type": "Fixed Wireless and Satellite Upgrade Program",
    "target_eligibility_quarter": "NA"
   }
  },
  {
   "type": "Feature",
   "geometry": {
    "type": "Point",
    "coordinates": [
     139.68486143,
     -34.0680331
    ]
   },
   "properties": {
    "name": "SITE 36, 1 BRENDA PARK SHACK ROAD BRENDA PARK 5320",
    "locID": "LOC000177511790",
    "tech": "WIRELESS",
    "upgrade": "NULL_NA",
    "gnaf_pid": "GASA_720846946",
    "ee": false,
    "tech_change_status": "Not Planned",
    "program_type": "Fixed Wireless and Satellite Upgrade Program",
    "target_eligibility_quarter": "NA"
   }
  },
  {
   "type": "Feature",
   "geometry": {
    "type": "Point",
    "coordinates": [
     139.68760857,
     -34.08350962
    ]
   },
   "properties": {
    "name": "SITE 96, 1 BRENDA PARK SHACK ROAD BRENDA PARK 5320",
    "locID": "LOC000177511790",
    "tech": "WIRELESS",
    "upgrade": "NULL_NA",
    "gnaf_pid": "GASA_720848570",
    "ee": false,
    "tech_change_status": "Not Planned",
    "program_type": "Fixed Wireless and Satellite Upgrade Program",
    "target_eligibility_quarter": "NA"
   }
  },
  {
   "type": "Feature",
   "geometry": {
    "type": "Point",
    "coordinates": [
     139.68576838,
     -34.07199934
    ]
   },
   "properties": {
    "name": "SITE 62, 1 BRENDA PARK SHACK ROAD BRENDA PARK 5320",
    "locID": "LOC000177511790",
    "tech": "WIRELESS",
    "upgrade": "NULL_NA",
    "gnaf_pid": "GASA_720848703",
    "ee": false,
    "tech_change_status": "Not Planned",
    "program_type": "Fixed Wireless and Satellite Upgrade Program",
    "target_eligibility_quarter": "NA"
   }
  },
  {
   "type": "Feature",
   "geometry": {
    "type": "Point",
    "coordinates": [
     139.68793651,
     -34.08279384
    ]
   },
   "properties": {
    "name": "SITE 93, 1 BRENDA PARK SHACK ROAD BRENDA PARK 5320",
    "locID": "LOC000177511790",
    "tech": "WIRELESS",
    "upgrade": "NULL_NA",
    "gnaf_pid": "GASA_720849447",
    "ee": false,
    "tech_change_status": "Not Planned",
    "program_type": "Fixed Wireless and Satellite Upgrade Program",
    "target_eligibility_quarter": "NA"
   }
  },
  {
   "type": "Feature",
   "geometry": {
    "type": "Point",
    "coordinates": [
     139.6844114,
     -34.07477811
    ]
   },
   "properties": {
    "name": "60 BRENDA PARK SHACK ROAD BRENDA PARK 5320",
    "locID": "LOC000187032852",
    "tech": "WIRELESS",
    "upgrade": "NULL_NA",
    "gnaf_pid": "GASA_720851415",
    "ee": false,
    "tech_change_status": "Not Planned",
    "program_type": "Fixed Wireless and Satellite Upgrade Program",
    "target_eligibility_quarter": "NA"
   }
  }
 ]
}