{
 "type": "FeatureCollection",
 "generated": "2025-06-15T09:50:28.634503",
 "suburb": "BRINKWORTH",
 "features": [
  {
   "type": "Feature",
   "geometry": {
    "type": "Point",
    "coordinates": [
     138.40274942,
     -33.69595355
    ]
   },
   "properties": {
    "name": "35 MAIN STREET BRINKWORTH 5464",
    "locID": "LOC000048959568",
    "tech": "WIRELESS",
    "upgrade": "NULL_NA",
    "gnaf_pid": "GASA_414947575",
    "ee": true,
    "tech_change_status": "Not Planned",
    "program_type": "Fixed Wireless and Satellite Upgrade Program",
    "target_eligibility_quarter": "NA"
   }
  },
  {
   "type": "Feature",
   "geometry": {
    "type": "Point",
    "coordinates": [
     138.40303601,
     -33.6966778
    ]
   },
   "properties": {
    "name": "29 MAIN STREET BRINKWORTH 5464",
    "locID": "LOC000090856879",
    "tech": "WIRELESS",
    "upgrade": "NULL_NA",
    "gnaf_pid": "GASA_414947576",
    "ee": true,
    "tech_change_status": "Not Planned",
    "program_type": "Fixed Wireless and Satellite Upgrade Program",
    "target_eligibility_quarter": "NA"
   }
  },
  {
   "type": "Feature",
   "geometry": {
    "type": "Point",
    "coordinates": [
     138.40303751,
     -33.6968588
    ]
   },
   "properties": {
    "name": "27 MAIN STREET BRINKWORTH 5464",
    "locID": "LOC000051236272",
    "tech": "SATELLITE",
    "upgrade": "WIRELESS",
    "gnaf_pid": "GASA_414947577",
    "ee": true,
    "tech_change_status": "Eligible to Order",
    "program_type": "Fixed Wireless and Satellite Upgrade Program",
    "target_eligibility_quarter": "NA"
   }
  },
  {
   "type": "Feature",
   "geometry": {
    "type": "Point",
    "coordinates": [
     138.40303276,
     -33.6961396
    ]
   },
   "properties": {
    "name": "33 MAIN STREET BRINKWORTH 5464",
    "locID": "LOC000003434983",
    "tech": "WIRELESS",
    "upgrade": "NULL_NA",
    "gnaf_pid": "GASA_414957980",
    "ee": true,
    "tech_change_status": "Not Planned",
    "program_type": "Fixed Wireless and Satellite Upgrade Program",
    "target_eligibility_quarter": "NA"
   }
  },
  {
   "type": "Feature",
   "geometry": {
    "type": "Point",
    "coordinates": [
     138.40303513,
     -33.6963246
    ]
   },
   "properties": {
    "name": "31 MAIN STREET BRINKWORTH 5464",
    "locID": "LOC000062379893",
    "tech": "WIRELESS",
    "upgrade": "NULL_NA",
    "gnaf_pid": "GASA_414957981",
    "ee": true,
    "tech_change_status": "Not Planned",
    "program_type": "Fixed Wireless and Satellite Upgrade Program",
    "target_eligibility_quarter": "NA"
   }
  },
  {
   "type": "Feature",
   "geometry": {
    "type": "Point",
    "coordinates": [
     138.40435609,
     -33.68933483
    ]
   },
   "properties": {
    "name": "7 RAILWAY TERRACE BRINKWORTH 5464",
    "locID": "LOC000012630422",
    "tech": "WIRELESS",
    "upgrade": "NULL_NA",
    "gnaf_pid": "GASA_414958977",
    "ee": true,
    "tech_change_status": "Not Planned",
    "program_type": "Fixed Wireless and Satellite Upgrade Program",
    "target_eligibility_quarter": "NA"
   }
  },
  {
   "type": "Feature",
   "geometry": {
    "type": "Point",
    "coordinates": [
     138.40387648,
     -33.69121481
    ]
   },
   "properties": {
    "name": "80 MAIN STREET BRINKWORTH 5464",
    "locID": "LOC000131350239",
    "tech": "WIRELESS",
    "upgrade": "NULL_NA",
    "gnaf_pid": "GASA_414958983",
    "ee": true,
    "tech_change_status": "Not Planned",
    "program_type": "Fixed Wireless and Satellite Upgrade Program",
    "target_eligibility_quarter": "NA"
   }
  },
  {
   "type": "Feature",
   "geometry": {
    "type": "Point",
    "coordinates": [
     138.40304513,
     -33.6984385
    ]
   },
   "properties": {
    "name": "11 MAIN STREET BRINKWORTH 5464",
    "locID": "LOC000004555790",
    "tech": "WIRELESS",
    "upgrade": "NULL_NA",
    "gnaf_pid": "GASA_414964340",
    "ee": true,
    "tech_change_status": "Not Planned",
    "program_type": "Fixed Wireless and Satellite Upgrade Program",
    "target_eligibility_quarter": "NA"
   }
  },
  {
   "type": "Feature",
   "geometry": {
    "type": "Point",
    "coordinates": [
     138.4029165,
     -33.69862789
    ]
   },
   "properties": {
    "name": "9 MAIN STREET BRINKWORTH 5464",
    "locID": "LOC000086968367",
    "tech": "WIRELESS",
    "upgrade": "NULL_NA",
    "gnaf_pid": "GASA_414964341",
    "ee": true,
    "tech_change_status": "Not Planned",
    "program_type": "Fixed Wireless and Satellite Upgrade Program",
    "target_eligibility_quarter": "NA"
   }
  },
  {
   "type": "Feature",
   "geometry": {
    "type": "Point",
    "coordinates": [
     138.40304713,
     -33.698809
    ]
   },
   "properties": {
    "name": "7 MAIN STREET BRINKWORTH 5464",
    "locID": "LOC000065951444",
    "tech": "WIRELESS",
    "upgrade": "NULL_NA",
    "gnaf_pid": "GASA_414964342",
    "ee": true,
    "tech_change_status": "Not Planned",
    "program_type": "Fixed Wireless and Satellite Upgrade Program",
    "target_eligibility_quarter": "NA"
   }
  },
  {
   "type": "Feature",
   "geometry": {
    "type": "Point",
    "coordinates": [
     138.40302113,
     -33.6991212
    ]
   },
   "properties": {
    "name": "5 MAIN STREET BRINKWORTH 5464",
    "locID": "LOC100076249058",
    "tech": "WIRELESS",
    "upgrade": "NULL_NA",
    "gnaf_pid": "GASA_414964343",
    "ee": true,
    "tech_change_status": "Not Planned",
    "program_type": "Fixed Wireless and Satellite Upgrade Program",
    "target_eligibility_quarter": "NA"
   }
  },
  {
   "type": "Feature",
   "geometry": {
    "type": "Point",
    "coordinates": [
     138.40302818,
     -33.69942723
    ]
   },
   "properties": {
    "name": "3 MAIN STREET BRINKWORTH 5464",
    "locID": "LOC100076249058",
    "tech": "WIRELESS",
    "upgrade": "NULL_NA",
    "gnaf_pid": "GASA_414964344",
    "ee": true,
    "tech_change_status": "Not Planned",
    "program_type": "Fixed Wireless and Satellite Upgrade Program",
    "target_eligibility_quarter": "NA"
   }
  },
  {
   "type": "Feature",
   "geometry": {
    "type": "Point",
    "coordinates": [
     138.40249051,
     -33.6993067
    ]
   },
   "properties": {
    "name": "3 SOUTH STREET BRINKWORTH 5464",
    "locID": "LOC000091982041",
    "tech": "WIRELESS",
    "upgrade": "NULL_NA",
    "gnaf_pid": "GASA_414964346",
    "ee": true,
    "tech_change_status": "Not Planned",
    "program_type": "Fixed Wireless and Satellite Upgrade Program",
    "target_eligibility_quarter": "NA"
   }
  },
  {
   "type": "Feature",
   "geometry": {
    "type": "Point",
    "coordinates": [
     138.40247813,
     -33.6949962
    ]
   },
   "properties": {
    "name": "2 JUNCTION STREET BRINKWORTH 5464",
    "locID": "LOC000097559439",
    "tech": "WIRELESS",
    "upgrade": "NULL_NA",
    "gnaf_pid": "GASA_414964353",
    "ee": true,
    "tech_change_status": "Not Planned",
    "program_type": "Fixed Wireless and Satellite Upgrade Program",
    "target_eligibility_quarter": "NA"
   }
  },
  {
   "type": "Feature",
   "geometry": {
    "type": "Point",
    "coordinates": [
     138.40302338,
     -33.6947251
    ]
   },
   "properties": {
    "name": "47 MAIN STREET BRINKWORTH 5464",
    "locID": "LOC000059886741",
    "tech": "WIRELESS",
    "upgrade": "NULL_NA",
    "gnaf_pid": "GASA_414964354",
    "ee": true,
    "tech_change_status": "Not Planned",
    "program_type": "Fixed Wireless and Satellite Upgrade Program",
    "target_eligibility_quarter": "NA"
   }
  },
  {
   "type": "Feature",
   "geometry": {
    "type": "Point",
    "coordinates": [
     138.40302376,
     -33.6949072
    ]
   },
   "properties": {
    "name": "45 MAIN STREET BRINKWORTH 5464",
    "locID": "LOC000001827038",
    "tech": "WIRELESS",
    "upgrade": "NULL_NA",
    "gnaf_pid": "GASA_414964355",
    "ee": true,
    "tech_change_status": "Not Planned",
    "program_type": "Fixed Wireless and Satellite Upgrade Program",
    "target_eligibility_quarter": "NA"
   }
  },
  {
   "type": "Feature",
   "geometry": {
    "type": "Point",
    "coordinates": [
     138.40302426,
     -33.6950932
    ]
   },
   "properties": {
    "name": "43 MAIN STREET BRINKWORTH 5464",
    "locID": "LOC000091903971",
    "tech": "WIRELESS",
    "upgrade": "NULL_NA",
    "gnaf_pid": "GASA_414964356",
    "ee": true,
    "tech_change_status": "Not Planned",
    "program_type": "Fixed Wireless and Satellite Upgrade Program",
    "target_eligibility_quarter": "NA"
   }
  },
  {
   "type": "Feature",
   "geometry": {
    "type": "Point",
    "coordinates": [
     138.40302426,
     -33.6954102
    ]
   },
   "properties": {
    "name": "41 MAIN STREET BRINKWORTH 5464",
    "locID": "LOC000047106153",
    "tech": "WIRELESS",
    "upgrade": "NULL_NA",
    "gnaf_pid": "GASA_414964357",
    "ee": true,
    "tech_change_status": "Not Planned",
    "program_type": "Fixed Wireless and Satellite Upgrade Program",
    "target_eligibility_quarter": "NA"
   }
  },
  {
   "type": "Feature",
   "geometry": {
    "type": "Point",
    "coordinates": [
     138.40302626,
     -33.6955911
    ]
   },
   "properties": {
    "name": "39 MAIN STREET BRINKWORTH 5464",
    "locID": "LOC000078197559",
    "tech": "WIRELESS",
    "upgrade": "NULL_NA",
    "gnaf_pid": "GASA_414964358",
    "ee": true,
    "tech_change_status": "Not Planned",
    "program_type": "Fixed Wireless and Satellite Upgrade Program",
    "target_eligibility_quarter": "NA"
   }
  },
  {
   "type": "Feature",
   "geometry": {
    "type": "Point",
    "coordinates": [
     138.40431277,
     -33.68961192
    ]
   },
   "properties": {
    "name": "5 RAILWAY TERRACE BRINKWORTH 5464",
    "locID": "LOC000024204206",
    "tech": "WIRELESS",
    "upgrade": "NULL_NA",
    "gnaf_pid": "GASA_414964413",
    "ee": true,
    "tech_change_status": "Not Planned",
    "program_type": "Fixed Wireless and Satellite Upgrade Program",
    "target_eligibility_quarter": "NA"
   }
  },
  {
   "type": "Feature",
   "geometry": {
    "type": "Point",
    "coordinates": [
     138.40377326,
     -33.6896096
    ]
   },
   "properties": {
    "name": "94 MAIN STREET BRINKWORTH 5464",
    "locID": "LOC000055474872",
    "tech": "WIRELESS",
    "upgrade": "NULL_NA",
    "gnaf_pid": "GASA_414964414",
    "ee": true,
    "tech_change_status": "Not Planned",
    "program_type": "Fixed Wireless and Satellite Upgrade Program",
    "target_eligibility_quarter": "NA"
   }
  },
  {
   "type": "Feature",
   "geometry": {
    "type": "Point",
    "coordinates": [
     138.40507437,
     -33.69556368
    ]
   },
   "properties": {
    "name": "3 EAST TERRACE BRINKWORTH 5464",
    "locID": "LOC000086889756",
    "tech": "NULL",
    "upgrade": "NULL_NA",
    "gnaf_pid": "GASA_414964986",
    "ee": true,
    "tech_change_status": "Not Planned"
   }
  },
  {
   "type": "Feature",
   "geometry": {
    "type": "Point",
    "coordinates": [
     138.40507251,
     -33.6958371
    ]
   },
   "properties": {
    "name": "1 EAST TERRACE BRINKWORTH 5464",
    "locID": "LOC000044992337",
    "tech": "WIRELESS",
    "upgrade": "NULL_NA",
    "gnaf_pid": "GASA_414964988",
    "ee": true,
    "tech_change_status": "Not Planned",
    "program_type": "Fixed Wireless and Satellite Upgrade Program",
    "target_eligibility_quarter": "NA"
   }
  },
  {
   "type": "Feature",
   "geometry": {
    "type": "Point",
    "coordinates": [
     138.40654326,
     -33.6951225
    ]
   },
   "properties": {
    "name": "12 OVAL AVENUE BRINKWORTH 5464",
    "locID": "LOC000025822807",
    "tech": "WIRELESS",
    "upgrade": "NULL_NA",
    "gnaf_pid": "GASA_414966861",
    "ee": true,
    "tech_change_status": "Not Planned",
    "program_type": "Fixed Wireless and Satellite Upgrade Program",
    "target_eligibility_quarter": "NA"
   }
  },
  {
   "type": "Feature",
   "geometry": {
    "type": "Point",
    "coordinates": [
     138.40304401,
     -33.6975782
    ]
   },
   "properties": {
    "name": "19 MAIN STREET BRINKWORTH 5464",
    "locID": "LOC000095136187",
    "tech": "WIRELESS",
    "upgrade": "NULL_NA",
    "gnaf_pid": "GASA_414966943",
    "ee": true,
    "tech_change_status": "Not Planned",
    "program_type": "Fixed Wireless and Satellite Upgrade Program",
    "target_eligibility_quarter": "NA"
   }
  },
  {
   "type": "Feature",
   "geometry": {
    "type": "Point",
    "coordinates": [
     138.40304238,
     -33.6979018
    ]
   },
   "properties": {
    "name": "17 MAIN STREET BRINKWORTH 5464",
    "locID": "LOC000109146551",
    "tech": "WIRELESS",
    "upgrade": "NULL_NA",
    "gnaf_pid": "GASA_414966944",
    "ee": true,
    "tech_change_status": "Not Planned",
    "program_type": "Fixed Wireless and Satellite Upgrade Program",
    "target_eligibility_quarter": "NA"
   }
  },
  {
   "type": "Feature",
   "geometry": {
    "type": "Point",
    "coordinates": [
     138.40304426,
     -33.6982621
    ]
   },
   "properties": {
    "name": "13 MAIN STREET BRINKWORTH 5464",
    "locID": "LOC000023328293",
    "tech": "WIRELESS",
    "upgrade": "NULL_NA",
    "gnaf_pid": "GASA_414966945",
    "ee": true,
    "tech_change_status": "Not Planned",
    "program_type": "Fixed Wireless and Satellite Upgrade Program",
    "target_eligibility_quarter": "NA"
   }
  },
  {
   "type": "Feature",
   "geometry": {
    "type": "Point",
    "coordinates": [
     138.40424242,
     -33.69015963
    ]
   },
   "properties": {
    "name": "86 MAIN STREET BRINKWORTH 5464",
    "locID": "LOC000103217951",
    "tech": "WIRELESS",
    "upgrade": "NULL_NA",
    "gnaf_pid": "GASA_414966983",
    "ee": true,
    "tech_change_status": "Not Planned",
    "program_type": "Fixed Wireless and Satellite Upgrade Program",
    "target_eligibility_quarter": "NA"
   }
  },
  {
   "type": "Feature",
   "geometry": {
    "type": "Point",
    "coordinates": [
     138.40279928,
     -33.69368864
    ]
   },
   "properties": {
    "name": "59 MAIN STREET BRINKWORTH 5464",
    "locID": "LOC000025793521",
    "tech": "WIRELESS",
    "upgrade": "NULL_NA",
    "gnaf_pid": "GASA_414967204",
    "ee": true,
    "tech_change_status": "Not Planned",
    "program_type": "Fixed Wireless and Satellite Upgrade Program",
    "target_eligibility_quarter": "NA"
   }
  },
  {
   "type": "Feature",
   "geometry": {
    "type": "Point",
    "coordinates": [
     138.40378576,
     -33.6906917
    ]
   },
   "properties": {
    "name": "84 MAIN STREET BRINKWORTH 5464",
    "locID": "LOC000063654773",
    "tech": "WIRELESS",
    "upgrade": "NULL_NA",
    "gnaf_pid": "GASA_414967862",
    "ee": true,
    "tech_change_status": "Not Planned",
    "program_type": "Fixed Wireless and Satellite Upgrade Program",
    "target_eligibility_quarter": "NA"
   }
  },
  {
   "type": "Feature",
   "geometry": {
    "type": "Point",
    "coordinates": [
     138.402763,
     -33.69577327
    ]
   },
   "properties": {
    "name": "37 MAIN STREET BRINKWORTH 5464",
    "locID": "LOC100076249058",
    "tech": "WIRELESS",
    "upgrade": "NULL_NA",
    "gnaf_pid": "GASA_414968169",
    "ee": true,
    "tech_change_status": "Not Planned",
    "program_type": "Fixed Wireless and Satellite Upgrade Program",
    "target_eligibility_quarter": "NA"
   }
  },
  {
   "type": "Feature",
   "geometry": {
    "type": "Point",
    "coordinates": [
     138.40654513,
     -33.6958343
    ]
   },
   "properties": {
    "name": "4 OVAL AVENUE BRINKWORTH 5464",
    "locID": "LOC000078216685",
    "tech": "WIRELESS",
    "upgrade": "NULL_NA",
    "gnaf_pid": "GASA_414971277",
    "ee": true,
    "tech_change_status": "Not Planned",
    "program_type": "Fixed Wireless and Satellite Upgrade Program",
    "target_eligibility_quarter": "NA"
   }
  },
  {
   "type": "Feature",
   "geometry": {
    "type": "Point",
    "coordinates": [
     138.40654463,
     -33.6956492
    ]
   },
   "properties": {
    "name": "6 OVAL AVENUE BRINKWORTH 5464",
    "locID": "LOC000062431208",
    "tech": "WIRELESS",
    "upgrade": "NULL_NA",
    "gnaf_pid": "GASA_414971279",
    "ee": true,
    "tech_change_status": "Not Planned",
    "program_type": "Fixed Wireless and Satellite Upgrade Program",
    "target_eligibility_quarter": "NA"
   }
  },
  {
   "type": "Feature",
   "geometry": {
    "type": "Point",
    "coordinates": [
     138.40566863,
     -33.6946595
    ]
   },
   "properties": {
    "name": "2 CLARE ROAD BRINKWORTH 5464",
    "locID": "LOC000011710594",
    "tech": "WIRELESS",
    "upgrade": "NULL_NA",
    "gnaf_pid": "GASA_414973271",
    "ee": true,
    "tech_change_status": "Not Planned",
    "program_type": "Fixed Wireless and Satellite Upgrade Program",
    "target_eligibility_quarter": "NA"
   }
  },
  {
   "type": "Feature",
   "geometry": {
    "type": "Point",
    "coordinates": [
     138.40462413,
     -33.6957795
    ]
   },
   "properties": {
    "name": "102 OVAL AVENUE BRINKWORTH 5464",
    "locID": "LOC000131340728",
    "tech": "WIRELESS",
    "upgrade": "NULL_NA",
    "gnaf_pid": "GASA_415036500",
    "ee": true,
    "tech_change_status": "Not Planned",
    "program_type": "Fixed Wireless and Satellite Upgrade Program",
    "target_eligibility_quarter": "NA"
   }
  },
  {
   "type": "Feature",
   "geometry": {
    "type": "Point",
    "coordinates": [
     138.40462313,
     -33.6955615
    ]
   },
   "properties": {
    "name": "103 OVAL AVENUE BRINKWORTH 5464",
    "locID": "LOC000116305616",
    "tech": "WIRELESS",
    "upgrade": "NULL_NA",
    "gnaf_pid": "GASA_415036501",
    "ee": true,
    "tech_change_status": "Not Planned",
    "program_type": "Fixed Wireless and Satellite Upgrade Program",
    "target_eligibility_quarter": "NA"
   }
  },
  {
   "type": "Feature",
   "geometry": {
    "type": "Point",
    "coordinates": [
     138.40366239,
     -33.69247672
    ]
   },
   "properties": {
    "name": "2 EDGAR STREET BRINKWORTH 5464",
    "locID": "LOC000084840570",
    "tech": "WIRELESS",
    "upgrade": "NULL_NA",
    "gnaf_pid": "GASA_415080428",
    "ee": true,
    "tech_change_status": "Not Planned",
    "program_type": "Fixed Wireless and Satellite Upgrade Program",
    "target_eligibility_quarter": "NA"
   }
  },
  {
   "type": "Feature",
   "geometry": {
    "type": "Point",
    "coordinates": [
     138.40393726,
     -33.6924338
    ]
   },
   "properties": {
    "name": "4 EDGAR STREET BRINKWORTH 5464",
    "locID": "LOC000034211506",
    "tech": "WIRELESS",
    "upgrade": "NULL_NA",
    "gnaf_pid": "GASA_415080429",
    "ee": true,
    "tech_change_status": "Not Planned",
    "program_type": "Fixed Wireless and Satellite Upgrade Program",
    "target_eligibility_quarter": "NA"
   }
  },
  {
   "type": "Feature",
   "geometry": {
    "type": "Point",
    "coordinates": [
     138.40247526,
     -33.6946362
    ]
   },
   "properties": {
    "name": "26 WILLIAM STREET BRINKWORTH 5464",
    "locID": "LOC000049663903",
    "tech": "WIRELESS",
    "upgrade": "NULL_NA",
    "gnaf_pid": "GASA_415092456",
    "ee": true,
    "tech_change_status": "Not Planned",
    "program_type": "Fixed Wireless and Satellite Upgrade Program",
    "target_eligibility_quarter": "NA"
   }
  },
  {
   "type": "Feature",
   "geometry": {
    "type": "Point",
    "coordinates": [
     138.40272451,
     -33.690072
    ]
   },
   "properties": {
    "name": "89 MAIN STREET BRINKWORTH 5464",
    "locID": "LOC000049676399",
    "tech": "WIRELESS",
    "upgrade": "NULL_NA",
    "gnaf_pid": "GASA_415145752",
    "ee": true,
    "tech_change_status": "Not Planned",
    "program_type": "Fixed Wireless and Satellite Upgrade Program",
    "target_eligibility_quarter": "NA"
   }
  },
  {
   "type": "Feature",
   "geometry": {
    "type": "Point",
    "coordinates": [
     138.40381903,
     -33.69175123
    ]
   },
   "properties": {
    "name": "74 MAIN STREET BRINKWORTH 5464",
    "locID": "LOC000003583975",
    "tech": "WIRELESS",
    "upgrade": "NULL_NA",
    "gnaf_pid": "GASA_415207128",
    "ee": true,
    "tech_change_status": "Not Planned",
    "program_type": "Fixed Wireless and Satellite Upgrade Program",
    "target_eligibility_quarter": "NA"
   }
  },
  {
   "type": "Feature",
   "geometry": {
    "type": "Point",
    "coordinates": [
     138.40301617,
     -33.69277402
    ]
   },
   "properties": {
    "name": "67 MAIN STREET BRINKWORTH 5464",
    "locID": "LOC000008468285",
    "tech": "WIRELESS",
    "upgrade": "NULL_NA",
    "gnaf_pid": "GASA_415257348",
    "ee": true,
    "tech_change_status": "Not Planned",
    "program_type": "Fixed Wireless and Satellite Upgrade Program",
    "target_eligibility_quarter": "NA"
   }
  },
  {
   "type": "Feature",
   "geometry": {
    "type": "Point",
    "coordinates": [
     138.40390637,
     -33.69086595
    ]
   },
   "properties": {
    "name": "82 MAIN STREET BRINKWORTH 5464",
    "locID": "LOC000063382650",
    "tech": "WIRELESS",
    "upgrade": "NULL_NA",
    "gnaf_pid": "GASA_415404839",
    "ee": true,
    "tech_change_status": "Not Planned",
    "program_type": "Fixed Wireless and Satellite Upgrade Program",
    "target_eligibility_quarter": "NA"
   }
  },
  {
   "type": "Feature",
   "geometry": {
    "type": "Point",
    "coordinates": [
     138.40298199,
     -33.68594158
    ]
   },
   "properties": {
    "name": "127 MAIN STREET BRINKWORTH 5464",
    "locID": "LOC000023496658",
    "tech": "WIRELESS",
    "upgrade": "NULL_NA",
    "gnaf_pid": "GASA_415451821",
    "ee": true,
    "tech_change_status": "Not Planned",
    "program_type": "Fixed Wireless and Satellite Upgrade Program",
    "target_eligibility_quarter": "NA"
   }
  },
  {
   "type": "Feature",
   "geometry": {
    "type": "Point",
    "coordinates": [
     138.40298338,
     -33.6863071
    ]
   },
   "properties": {
    "name": "125 MAIN STREET BRINKWORTH 5464",
    "locID": "LOC000047717043",
    "tech": "WIRELESS",
    "upgrade": "NULL_NA",
    "gnaf_pid": "GASA_415451822",
    "ee": true,
    "tech_change_status": "Not Planned",
    "program_type": "Fixed Wireless and Satellite Upgrade Program",
    "target_eligibility_quarter": "NA"
   }
  },
  {
   "type": "Feature",
   "geometry": {
    "type": "Point",
    "coordinates": [
     138.40298738,
     -33.6873
    ]
   },
   "properties": {
    "name": "115 MAIN STREET BRINKWORTH 5464",
    "locID": "LOC000090813786",
    "tech": "WIRELESS",
    "upgrade": "NULL_NA",
    "gnaf_pid": "GASA_415451825",
    "ee": true,
    "tech_change_status": "Not Planned",
    "program_type": "Fixed Wireless and Satellite Upgrade Program",
    "target_eligibility_quarter": "NA"
   }
  },
  {
   "type": "Feature",
   "geometry": {
    "type": "Point",
    "coordinates": [
     138.40298813,
     -33.6874896
    ]
   },
   "properties": {
    "name": "113 MAIN STREET BRINKWORTH 5464",
    "locID": "LOC000020910811",
    "tech": "WIRELESS",
    "upgrade": "NULL_NA",
    "gnaf_pid": "GASA_415451826",
    "ee": true,
    "tech_change_status": "Not Planned",
    "program_type": "Fixed Wireless and Satellite Upgrade Program",
    "target_eligibility_quarter": "NA"
   }
  },
  {
   "type": "Feature",
   "geometry": {
    "type": "Point",
    "coordinates": [
     138.40297238,
     -33.6884356
    ]
   },
   "properties": {
    "name": "105 MAIN STREET BRINKWORTH 5464",
    "locID": "LOC000106855149",
    "tech": "WIRELESS",
    "upgrade": "NULL_NA",
    "gnaf_pid": "GASA_415463453",
    "ee": true,
    "tech_change_status": "Not Planned",
    "program_type": "Fixed Wireless and Satellite Upgrade Program",
    "target_eligibility_quarter": "NA"
   }
  },
  {
   "type": "Feature",
   "geometry": {
    "type": "Point",
    "coordinates": [
     138.40247001,
     -33.6938611
    ]
   },
   "properties": {
    "name": "2 CLARE STREET BRINKWORTH 5464",
    "locID": "LOC000131340915",
    "tech": "WIRELESS",
    "upgrade": "NULL_NA",
    "gnaf_pid": "GASA_415473233",
    "ee": true,
    "tech_change_status": "Not Planned",
    "program_type": "Fixed Wireless and Satellite Upgrade Program",
    "target_eligibility_quarter": "NA"
   }
  },
  {
   "type": "Feature",
   "geometry": {
    "type": "Point",
    "coordinates": [
     138.40271788,
     -33.688908
    ]
   },
   "properties": {
    "name": "101 MAIN STREET BRINKWORTH 5464",
    "locID": "LOC000067092963",
    "tech": "WIRELESS",
    "upgrade": "NULL_NA",
    "gnaf_pid": "GASA_415504755",
    "ee": true,
    "tech_change_status": "Not Planned",
    "program_type": "Fixed Wireless and Satellite Upgrade Program",
    "target_eligibility_quarter": "NA"
   }
  },
  {
   "type": "Feature",
   "geometry": {
    "type": "Point",
    "coordinates": [
     138.40238088,
     -33.6987195
    ]
   },
   "properties": {
    "name": "4 SOUTH STREET BRINKWORTH 5464",
    "locID": "LOC000034211506",
    "tech": "WIRELESS",
    "upgrade": "NULL_NA",
    "gnaf_pid": "GASA_415504821",
    "ee": true,
    "tech_change_status": "Not Planned",
    "program_type": "Fixed Wireless and Satellite Upgrade Program",
    "target_eligibility_quarter": "NA"
   }
  },
  {
   "type": "Feature",
   "geometry": {
    "type": "Point",
    "coordinates": [
     138.40277563,
     -33.698083
    ]
   },
   "properties": {
    "name": "15 MAIN STREET BRINKWORTH 5464",
    "locID": "LOC000070926382",
    "tech": "WIRELESS",
    "upgrade": "NULL_NA",
    "gnaf_pid": "GASA_415504822",
    "ee": true,
    "tech_change_status": "Not Planned",
    "program_type": "Fixed Wireless and Satellite Upgrade Program",
    "target_eligibility_quarter": "NA"
   }
  },
  {
   "type": "Feature",
   "geometry": {
    "type": "Point",
    "coordinates": [
     138.40271951,
     -33.6891763
    ]
   },
   "properties": {
    "name": "99 MAIN STREET BRINKWORTH 5464",
    "locID": "LOC000028359552",
    "tech": "WIRELESS",
    "upgrade": "NULL_NA",
    "gnaf_pid": "GASA_415506652",
    "ee": true,
    "tech_change_status": "Not Planned",
    "program_type": "Fixed Wireless and Satellite Upgrade Program",
    "target_eligibility_quarter": "NA"
   }
  },
  {
   "type": "Feature",
   "geometry": {
    "type": "Point",
    "coordinates": [
     138.40272063,
     -33.6893618
    ]
   },
   "properties": {
    "name": "97 MAIN STREET BRINKWORTH 5464",
    "locID": "LOC000096696506",
    "tech": "WIRELESS",
    "upgrade": "NULL_NA",
    "gnaf_pid": "GASA_415506653",
    "ee": true,
    "tech_change_status": "Not Planned",
    "program_type": "Fixed Wireless and Satellite Upgrade Program",
    "target_eligibility_quarter": "NA"
   }
  },
  {
   "type": "Feature",
   "geometry": {
    "type": "Point",
    "coordinates": [
     138.40272563,
     -33.6902868
    ]
   },
   "properties": {
    "name": "87 MAIN STREET BRINKWORTH 5464",
    "locID": "LOC000043071807",
    "tech": "WIRELESS",
    "upgrade": "NULL_NA",
    "gnaf_pid": "GASA_415517227",
    "ee": true,
    "tech_change_status": "Not Planned",
    "program_type": "Fixed Wireless and Satellite Upgrade Program",
    "target_eligibility_quarter": "NA"
   }
  },
  {
   "type": "Feature",
   "geometry": {
    "type": "Point",
    "coordinates": [
     138.40301663,
     -33.6938583
    ]
   },
   "properties": {
    "name": "57 MAIN STREET BRINKWORTH 5464",
    "locID": "LOC000052815875",
    "tech": "WIRELESS",
    "upgrade": "NULL_NA",
    "gnaf_pid": "GASA_415517228",
    "ee": true,
    "tech_change_status": "Not Planned",
    "program_type": "Fixed Wireless and Satellite Upgrade Program",
    "target_eligibility_quarter": "NA"
   }
  },
  {
   "type": "Feature",
   "geometry": {
    "type": "Point",
    "coordinates": [
     138.40246976,
     -33.6935015
    ]
   },
   "properties": {
    "name": "34 WILLIAM STREET BRINKWORTH 5464",
    "locID": "LOC000093623402",
    "tech": "WIRELESS",
    "upgrade": "NULL_NA",
    "gnaf_pid": "GASA_415517229",
    "ee": true,
    "tech_change_status": "Not Planned",
    "program_type": "Fixed Wireless and Satellite Upgrade Program",
    "target_eligibility_quarter": "NA"
   }
  },
  {
   "type": "Feature",
   "geometry": {
    "type": "Point",
    "coordinates": [
     138.40301726,
     -33.6931351
    ]
   },
   "properties": {
    "name": "65 MAIN STREET BRINKWORTH 5464",
    "locID": "LOC000039165298",
    "tech": "WIRELESS",
    "upgrade": "NULL_NA",
    "gnaf_pid": "GASA_415517232",
    "ee": true,
    "tech_change_status": "Not Planned",
    "program_type": "Fixed Wireless and Satellite Upgrade Program",
    "target_eligibility_quarter": "NA"
   }
  },
  {
   "type": "Feature",
   "geometry": {
    "type": "Point",
    "coordinates": [
     138.40301738,
     -33.6933161
    ]
   },
   "properties": {
    "name": "63 MAIN STREET BRINKWORTH 5464",
    "locID": "LOC000104806062",
    "tech": "WIRELESS",
    "upgrade": "NULL_NA",
    "gnaf_pid": "GASA_415517233",
    "ee": true,
    "tech_change_status": "Not Planned",
    "program_type": "Fixed Wireless and Satellite Upgrade Program",
    "target_eligibility_quarter": "NA"
   }
  },
  {
   "type": "Feature",
   "geometry": {
    "type": "Point",
    "coordinates": [
     138.40301751,
     -33.693502
    ]
   },
   "properties": {
    "name": "61 MAIN STREET BRINKWORTH 5464",
    "locID": "LOC000083204061",
    "tech": "WIRELESS",
    "upgrade": "NULL_NA",
    "gnaf_pid": "GASA_415517234",
    "ee": true,
    "tech_change_status": "Not Planned",
    "program_type": "Fixed Wireless and Satellite Upgrade Program",
    "target_eligibility_quarter": "NA"
   }
  },
  {
   "type": "Feature",
   "geometry": {
    "type": "Point",
    "coordinates": [
     138.40581001,
     -33.6933337
    ]
   },
   "properties": {
    "name": "18 EAST TERRACE BRINKWORTH 5464",
    "locID": "LOC000074186786",
    "tech": "WIRELESS",
    "upgrade": "NULL_NA",
    "gnaf_pid": "GASA_415521455",
    "ee": true,
    "tech_change_status": "Not Planned",
    "program_type": "Fixed Wireless and Satellite Upgrade Program",
    "target_eligibility_quarter": "NA"
   }
  },
  {
   "type": "Feature",
   "geometry": {
    "type": "Point",
    "coordinates": [
     138.40580976,
     -33.6931436
    ]
   },
   "properties": {
    "name": "20 EAST TERRACE BRINKWORTH 5464",
    "locID": "LOC000104193208",
    "tech": "NULL",
    "upgrade": "NULL_NA",
    "gnaf_pid": "GASA_415521456",
    "ee": true,
    "tech_change_status": "Not Planned"
   }
  },
  {
   "type": "Feature",
   "geometry": {
    "type": "Point",
    "coordinates": [
     138.40477303,
     -33.68867475
    ]
   },
   "properties": {
    "name": "1 BELLING STREET BRINKWORTH 5464",
    "locID": "LOC000021750500",
    "tech": "WIRELESS",
    "upgrade": "NULL_NA",
    "gnaf_pid": "GASA_415521946",
    "ee": true,
    "tech_change_status": "Not Planned",
    "program_type": "Fixed Wireless and Satellite Upgrade Program",
    "target_eligibility_quarter": "NA"
   }
  },
  {
   "type": "Feature",
   "geometry": {
    "type": "Point",
    "coordinates": [
     138.40580951,
     -33.692938
    ]
   },
   "properties": {
    "name": "22 EAST TERRACE BRINKWORTH 5464",
    "locID": "LOC000042535214",
    "tech": "WIRELESS",
    "upgrade": "NULL_NA",
    "gnaf_pid": "GASA_415524041",
    "ee": true,
    "tech_change_status": "Not Planned",
    "program_type": "Fixed Wireless and Satellite Upgrade Program",
    "target_eligibility_quarter": "NA"
   }
  },
  {
   "type": "Feature",
   "geometry": {
    "type": "Point",
    "coordinates": [
     138.40580997,
     -33.69262498
    ]
   },
   "properties": {
    "name": "24 EAST TERRACE BRINKWORTH 5464",
    "locID": "LOC000051274044",
    "tech": "WIRELESS",
    "upgrade": "NULL_NA",
    "gnaf_pid": "GASA_415524042",
    "ee": true,
    "tech_change_status": "Not Planned",
    "program_type": "Fixed Wireless and Satellite Upgrade Program",
    "target_eligibility_quarter": "NA"
   }
  },
  {
   "type": "Feature",
   "geometry": {
    "type": "Point",
    "coordinates": [
     138.40580838,
     -33.6923242
    ]
   },
   "properties": {
    "name": "26 EAST TERRACE BRINKWORTH 5464",
    "locID": "LOC000062494292",
    "tech": "WIRELESS",
    "upgrade": "NULL_NA",
    "gnaf_pid": "GASA_415524044",
    "ee": true,
    "tech_change_status": "Not Planned",
    "program_type": "Fixed Wireless and Satellite Upgrade Program",
    "target_eligibility_quarter": "NA"
   }
  },
  {
   "type": "Feature",
   "geometry": {
    "type": "Point",
    "coordinates": [
     138.40421326,
     -33.6906921
    ]
   },
   "properties": {
    "name": "2 ANAMA STREET BRINKWORTH 5464",
    "locID": "LOC000032455395",
    "tech": "WIRELESS",
    "upgrade": "NULL_NA",
    "gnaf_pid": "GASA_415524046",
    "ee": true,
    "tech_change_status": "Not Planned",
    "program_type": "Fixed Wireless and Satellite Upgrade Program",
    "target_eligibility_quarter": "NA"
   }
  },
  {
   "type": "Feature",
   "geometry": {
    "type": "Point",
    "coordinates": [
     138.40507526,
     -33.6949933
    ]
   },
   "properties": {
    "name": "7 EAST TERRACE BRINKWORTH 5464",
    "locID": "LOC000050680410",
    "tech": "WIRELESS",
    "upgrade": "NULL_NA",
    "gnaf_pid": "GASA_415524048",
    "ee": true,
    "tech_change_status": "Not Planned",
    "program_type": "Fixed Wireless and Satellite Upgrade Program",
    "target_eligibility_quarter": "NA"
   }
  },
  {
   "type": "Feature",
   "geometry": {
    "type": "Point",
    "coordinates": [
     138.40507438,
     -33.6952556
    ]
   },
   "properties": {
    "name": "5 EAST TERRACE BRINKWORTH 5464",
    "locID": "LOC000007537935",
    "tech": "WIRELESS",
    "upgrade": "NULL_NA",
    "gnaf_pid": "GASA_415524049",
    "ee": true,
    "tech_change_status": "Not Planned",
    "program_type": "Fixed Wireless and Satellite Upgrade Program",
    "target_eligibility_quarter": "NA"
   }
  },
  {
   "type": "Feature",
   "geometry": {
    "type": "Point",
    "coordinates": [
     138.40581038,
     -33.693537
    ]
   },
   "properties": {
    "name": "16 EAST TERRACE BRINKWORTH 5464",
    "locID": "LOC000073722764",
    "tech": "WIRELESS",
    "upgrade": "NULL_NA",
    "gnaf_pid": "GASA_415559731",
    "ee": true,
    "tech_change_status": "Not Planned",
    "program_type": "Fixed Wireless and Satellite Upgrade Program",
    "target_eligibility_quarter": "NA"
   }
  },
  {
   "type": "Feature",
   "geometry": {
    "type": "Point",
    "coordinates": [
     138.40581076,
     -33.6937483
    ]
   },
   "properties": {
    "name": "14 EAST TERRACE BRINKWORTH 5464",
    "locID": "LOC000011296082",
    "tech": "WIRELESS",
    "upgrade": "NULL_NA",
    "gnaf_pid": "GASA_415559732",
    "ee": true,
    "tech_change_status": "Not Planned",
    "program_type": "Fixed Wireless and Satellite Upgrade Program",
    "target_eligibility_quarter": "NA"
   }
  },
  {
   "type": "Feature",
   "geometry": {
    "type": "Point",
    "coordinates": [
     138.40581113,
     -33.6939597
    ]
   },
   "properties": {
    "name": "12 EAST TERRACE BRINKWORTH 5464",
    "locID": "LOC000105763943",
    "tech": "WIRELESS",
    "upgrade": "NULL_NA",
    "gnaf_pid": "GASA_415559733",
    "ee": true,
    "tech_change_status": "Not Planned",
    "program_type": "Fixed Wireless and Satellite Upgrade Program",
    "target_eligibility_quarter": "NA"
   }
  },
  {
   "type": "Feature",
   "geometry": {
    "type": "Point",
    "coordinates": [
     138.40595437,
     -33.69421408
    ]
   },
   "properties": {
    "name": "1 CLARE ROAD BRINKWORTH 5464",
    "locID": "LOC000037512358",
    "tech": "WIRELESS",
    "upgrade": "NULL_NA",
    "gnaf_pid": "GASA_415559734",
    "ee": true,
    "tech_change_status": "Not Planned",
    "program_type": "Fixed Wireless and Satellite Upgrade Program",
    "target_eligibility_quarter": "NA"
   }
  },
  {
   "type": "Feature",
   "geometry": {
    "type": "Point",
    "coordinates": [
     138.40377861,
     -33.68997798
    ]
   },
   "properties": {
    "name": "92 MAIN STREET BRINKWORTH 5464",
    "locID": "LOC000064689459",
    "tech": "WIRELESS",
    "upgrade": "NULL_NA",
    "gnaf_pid": "GASA_415900520",
    "ee": true,
    "tech_change_status": "Not Planned",
    "program_type": "Fixed Wireless and Satellite Upgrade Program",
    "target_eligibility_quarter": "NA"
   }
  },
  {
   "type": "Feature",
   "geometry": {
    "type": "Point",
    "coordinates": [
     138.40285458,
     -33.69139051
    ]
   },
   "properties": {
    "name": "79 MAIN STREET BRINKWORTH 5464",
    "locID": "LOC000021754728",
    "tech": "WIRELESS",
    "upgrade": "NULL_NA",
    "gnaf_pid": "GASA_415900523",
    "ee": true,
    "tech_change_status": "Not Planned",
    "program_type": "Fixed Wireless and Satellite Upgrade Program",
    "target_eligibility_quarter": "NA"
   }
  },
  {
   "type": "Feature",
   "geometry": {
    "type": "Point",
    "coordinates": [
     138.40285089,
     -33.69140028
    ]
   },
   "properties": {
    "name": "73 MAIN STREET BRINKWORTH 5464",
    "locID": "LOC000085604787",
    "tech": "WIRELESS",
    "upgrade": "NULL_NA",
    "gnaf_pid": "GASA_415902575",
    "ee": true,
    "tech_change_status": "Not Planned",
    "program_type": "Fixed Wireless and Satellite Upgrade Program",
    "target_eligibility_quarter": "NA"
   }
  },
  {
   "type": "Feature",
   "geometry": {
    "type": "Point",
    "coordinates": [
     138.40376416,
     -33.68924269
    ]
   },
   "properties": {
    "name": "98 MAIN STREET BRINKWORTH 5464",
    "locID": "LOC000020936887",
    "tech": "WIRELESS",
    "upgrade": "NULL_NA",
    "gnaf_pid": "GASA_415906902",
    "ee": true,
    "tech_change_status": "Not Planned",
    "program_type": "Fixed Wireless and Satellite Upgrade Program",
    "target_eligibility_quarter": "NA"
   }
  },
  {
   "type": "Feature",
   "geometry": {
    "type": "Point",
    "coordinates": [
     138.4050776,
     -33.69458546
    ]
   },
   "properties": {
    "name": "11 EAST TERRACE BRINKWORTH 5464",
    "locID": "LOC000091359927",
    "tech": "WIRELESS",
    "upgrade": "NULL_NA",
    "gnaf_pid": "GASA_415906909",
    "ee": true,
    "tech_change_status": "Not Planned",
    "program_type": "Fixed Wireless and Satellite Upgrade Program",
    "target_eligibility_quarter": "NA"
   }
  },
  {
   "type": "Feature",
   "geometry": {
    "type": "Point",
    "coordinates": [
     138.40207471,
     -33.69536089
    ]
   },
   "properties": {
    "name": "49 WILLIAM STREET BRINKWORTH 5464",
    "locID": "LOC000056545729",
    "tech": "WIRELESS",
    "upgrade": "NULL_NA",
    "gnaf_pid": "GASA_415907771",
    "ee": true,
    "tech_change_status": "Not Planned",
    "program_type": "Fixed Wireless and Satellite Upgrade Program",
    "target_eligibility_quarter": "NA"
   }
  },
  {
   "type": "Feature",
   "geometry": {
    "type": "Point",
    "coordinates": [
     138.40331657,
     -33.69459102
    ]
   },
   "properties": {
    "name": "8 MAIN STREET BRINKWORTH 5464",
    "locID": "LOC000043071807",
    "tech": "WIRELESS",
    "upgrade": "NULL_NA",
    "gnaf_pid": "GASA_417067886",
    "ee": true,
    "tech_change_status": "Not Planned",
    "program_type": "Fixed Wireless and Satellite Upgrade Program",
    "target_eligibility_quarter": "NA"
   }
  },
  {
   "type": "Feature",
   "geometry": {
    "type": "Point",
    "coordinates": [
     138.40436017,
     -33.68824937
    ]
   },
   "properties": {
    "name": "104 MAIN STREET BRINKWORTH 5464",
    "locID": "LOC000009258410",
    "tech": "WIRELESS",
    "upgrade": "NULL_NA",
    "gnaf_pid": "GASA_422065519",
    "ee": true,
    "tech_change_status": "Not Planned",
    "program_type": "Fixed Wireless and Satellite Upgrade Program",
    "target_eligibility_quarter": "NA"
   }
  },
  {
   "type": "Feature",
   "geometry": {
    "type": "Point",
    "coordinates": [
     138.40302818,
     -33.69942723
    ]
   },
   "properties": {
    "name": "1 MAIN STREET BRINKWORTH 5464",
    "locID": "LOC000009258410",
    "tech": "WIRELESS",
    "upgrade": "NULL_NA",
    "gnaf_pid": "GASA_422266211",
    "ee": true,
    "tech_change_status": "Not Planned",
    "program_type": "Fixed Wireless and Satellite Upgrade Program",
    "target_eligibility_quarter": "NA"
   }
  },
  {
   "type": "Feature",
   "geometry": {
    "type": "Point",
    "coordinates": [
     138.40249008,
     -33.69623121
    ]
   },
   "properties": {
    "name": "2 BOUCAUT STREET BRINKWORTH 5464",
    "locID": "LOC000131345618",
    "tech": "WIRELESS",
    "upgrade": "NULL_NA",
    "gnaf_pid": "GASA_423414124",
    "ee": true,
    "tech_change_status": "Not Planned",
    "program_type": "Fixed Wireless and Satellite Upgrade Program",
    "target_eligibility_quarter": "NA"
   }
  },
  {
   "type": "Feature",
   "geometry": {
    "type": "Point",
    "coordinates": [
     138.40624301,
     -33.67945638
    ]
   },
   "properties": {
    "name": "LOT 1 KOOLUNGA ROAD BRINKWORTH 5464",
    "locID": "LOC000108122336",
    "tech": "WIRELESS",
    "upgrade": "NULL_NA",
    "gnaf_pid": "GASA_423997593",
    "ee": false,
    "tech_change_status": "Not Planned",
    "program_type": "Fixed Wireless and Satellite Upgrade Program",
    "target_eligibility_quarter": "NA"
   }
  },
  {
   "type": "Feature",
   "geometry": {
    "type": "Point",
    "coordinates": [
     138.4050168,
     -33.6912396
    ]
   },
   "properties": {
    "name": "LOT 895 EDGAR STREET BRINKWORTH 5464",
    "locID": "LOC100078086834",
    "tech": "WIRELESS",
    "upgrade": "NULL_NA",
    "gnaf_pid": "GASA_424105128",
    "ee": true,
    "tech_change_status": "Not Planned",
    "program_type": "Fixed Wireless and Satellite Upgrade Program",
    "target_eligibility_quarter": "NA"
   }
  },
  {
   "type": "Feature",
   "geometry": {
    "type": "Point",
    "coordinates": [
     138.40390764,
     -33.70225815
    ]
   },
   "properties": {
    "name": "LOT 104 MAIN STREET BRINKWORTH 5464",
    "locID": "LOC000108471030",
    "tech": "WIRELESS",
    "upgrade": "NULL_NA",
    "gnaf_pid": "GASA_424188788",
    "ee": true,
    "tech_change_status": "Not Planned",
    "program_type": "Fixed Wireless and Satellite Upgrade Program",
    "target_eligibility_quarter": "NA"
   }
  },
  {
   "type": "Feature",
   "geometry": {
    "type": "Point",
    "coordinates": [
     138.4027619,
     -33.70033539
    ]
   },
   "properties": {
    "name": "LOT 1 MAIN STREET BRINKWORTH 5464",
    "locID": "LOC000108471030",
    "tech": "WIRELESS",
    "upgrade": "NULL_NA",
    "gnaf_pid": "GASA_424188791",
    "ee": true,
    "tech_change_status": "Not Planned",
    "program_type": "Fixed Wireless and Satellite Upgrade Program",
    "target_eligibility_quarter": "NA"
   }
  },
  {
   "type": "Feature",
   "geometry": {
    "type": "Point",
    "coordinates": [
     138.40277404,
     -33.70154056
    ]
   },
   "properties": {
    "name": "LOT 2 MAIN STREET BRINKWORTH 5464",
    "locID": "LOC000109404792",
    "tech": "WIRELESS",
    "upgrade": "NULL_NA",
    "gnaf_pid": "GASA_424188792",
    "ee": true,
    "tech_change_status": "Not Planned",
    "program_type": "Fixed Wireless and Satellite Upgrade Program",
    "target_eligibility_quarter": "NA"
   }
  },
  {
   "type": "Feature",
   "geometry": {
    "type": "Point",
    "coordinates": [
     138.40398399,
     -33.70354745
    ]
   },
   "properties": {
    "name": "LOT 882 MAIN STREET BRINKWORTH 5464",
    "locID": "LOC000108772277",
    "tech": "WIRELESS",
    "upgrade": "NULL_NA",
    "gnaf_pid": "GASA_424315683",
    "ee": true,
    "tech_change_status": "Not Planned",
    "program_type": "Fixed Wireless and Satellite Upgrade Program",
    "target_eligibility_quarter": "NA"
   }
  },
  {
   "type": "Feature",
   "geometry": {
    "type": "Point",
    "coordinates": [
     138.45010085,
     -33.66268163
    ]
   },
   "properties": {
    "name": "LOT 1 HORROCKS HIGHWAY BRINKWORTH 5464",
    "locID": "LOC000148242482",
    "tech": "SATELLITE",
    "upgrade": "NULL_NA",
    "gnaf_pid": "GASA_424901598",
    "ee": true,
    "tech_change_status": "Not Planned"
   }
  },
  {
   "type": "Feature",
   "geometry": {
    "type": "Point",
    "coordinates": [
     138.33208523,
     -33.67402521
    ]
   },
   "properties": {
    "name": "1145 CHURCHES ROAD BRINKWORTH 5464",
    "locID": "LOC000131319151",
    "tech": "WIRELESS",
    "upgrade": "NULL_NA",
    "gnaf_pid": "GASA_425073102",
    "ee": false,
    "tech_change_status": "Not Planned",
    "program_type": "Fixed Wireless and Satellite Upgrade Program",
    "target_eligibility_quarter": "NA"
   }
  },
  {
   "type": "Feature",
   "geometry": {
    "type": "Point",
    "coordinates": [
     138.32958548,
     -33.64466105
    ]
   },
   "properties": {
    "name": "1479 CHURCHES ROAD BRINKWORTH 5464",
    "locID": "LOC000131319167",
    "tech": "WIRELESS",
    "upgrade": "NULL_NA",
    "gnaf_pid": "GASA_425073103",
    "ee": false,
    "tech_change_status": "Not Planned",
    "program_type": "Fixed Wireless and Satellite Upgrade Program",
    "target_eligibility_quarter": "NA"
   }
  },
  {
   "type": "Feature",
   "geometry": {
    "type": "Point",
    "coordinates": [
     138.32222803,
     -33.62623968
    ]
   },
   "properties": {
    "name": "1694 CHURCHES ROAD BRINKWORTH 5464",
    "locID": "LOC000131319179",
    "tech": "WIRELESS",
    "upgrade": "NULL_NA",
    "gnaf_pid": "GASA_425073104",
    "ee": false,
    "tech_change_status": "Not Planned",
    "program_type": "Fixed Wireless and Satellite Upgrade Program",
    "target_eligibility_quarter": "NA"
   }
  },
  {
   "type": "Feature",
   "geometry": {
    "type": "Point",
    "coordinates": [
     138.39540693,
     -33.63323168
    ]
   },
   "properties": {
    "name": "653 KOOLUNGA ROAD BRINKWORTH 5464",
    "locID": "LOC000131319198",
    "tech": "WIRELESS",
    "upgrade": "NULL_NA",
    "gnaf_pid": "GASA_425074467",
    "ee": true,
    "tech_change_status": "Not Planned",
    "program_type": "Fixed Wireless and Satellite Upgrade Program",
    "target_eligibility_quarter": "NA"
   }
  },
  {
   "type": "Feature",
   "geometry": {
    "type": "Point",
    "coordinates": [
     138.44496111,
     -33.67080253
    ]
   },
   "properties": {
    "name": "379 ANGLE GROVE ROAD BRINKWORTH 5464",
    "locID": "LOC000146329879",
    "tech": "WIRELESS",
    "upgrade": "NULL_NA",
    "gnaf_pid": "GASA_425105018",
    "ee": true,
    "tech_change_status": "Not Planned",
    "program_type": "Fixed Wireless and Satellite Upgrade Program",
    "target_eligibility_quarter": "NA"
   }
  },
  {
   "type": "Feature",
   "geometry": {
    "type": "Point",
    "coordinates": [
     138.40388598,
     -33.70451894
    ]
   },
   "properties": {
    "name": "2074 CONDOWIE PLAIN ROAD BRINKWORTH 5464",
    "locID": "LOC000152964613",
    "tech": "WIRELESS",
    "upgrade": "NULL_NA",
    "gnaf_pid": "GASA_425106601",
    "ee": true,
    "tech_change_status": "Not Planned",
    "program_type": "Fixed Wireless and Satellite Upgrade Program",
    "target_eligibility_quarter": "NA"
   }
  },
  {
   "type": "Feature",
   "geometry": {
    "type": "Point",
    "coordinates": [
     138.44959825,
     -33.63428158
    ]
   },
   "properties": {
    "name": "1 EAGLE ROAD BRINKWORTH 5464",
    "locID": "LOC000148395917",
    "tech": "WIRELESS",
    "upgrade": "NULL_NA",
    "gnaf_pid": "GASA_425107061",
    "ee": true,
    "tech_change_status": "Not Planned",
    "program_type": "Fixed Wireless and Satellite Upgrade Program",
    "target_eligibility_quarter": "NA"
   }
  },
  {
   "type": "Feature",
   "geometry": {
    "type": "Point",
    "coordinates": [
     138.43150861,
     -33.69968006
    ]
   },
   "properties": {
    "name": "49 GOSS ROAD BRINKWORTH 5464",
    "locID": "LOC000148250628",
    "tech": "WIRELESS",
    "upgrade": "NULL_NA",
    "gnaf_pid": "GASA_425107936",
    "ee": true,
    "tech_change_status": "Not Planned",
    "program_type": "Fixed Wireless and Satellite Upgrade Program",
    "target_eligibility_quarter": "NA"
   }
  },
  {
   "type": "Feature",
   "geometry": {
    "type": "Point",
    "coordinates": [
     138.47037127,
     -33.69120139
    ]
   },
   "properties": {
    "name": "11242 HORROCKS HIGHWAY BRINKWORTH 5464",
    "locID": "LOC000148242482",
    "tech": "SATELLITE",
    "upgrade": "NULL_NA",
    "gnaf_pid": "GASA_425108396",
    "ee": true,
    "tech_change_status": "Not Planned"
   }
  },
  {
   "type": "Feature",
   "geometry": {
    "type": "Point",
    "coordinates": [
     138.45902546,
     -33.69180213
    ]
   },
   "properties": {
    "name": "11348 HORROCKS HIGHWAY BRINKWORTH 5464",
    "locID": "LOC000148396006",
    "tech": "NULL",
    "upgrade": "NULL_NA",
    "gnaf_pid": "GASA_425108397",
    "ee": true,
    "tech_change_status": "Not Planned"
   }
  },
  {
   "type": "Feature",
   "geometry": {
    "type": "Point",
    "coordinates": [
     138.45481,
     -33.683843
    ]
   },
   "properties": {
    "name": "11449 HORROCKS HIGHWAY BRINKWORTH 5464",
    "locID": "LOC000148242545",
    "tech": "WIRELESS",
    "upgrade": "NULL_NA",
    "gnaf_pid": "GASA_425108398",
    "ee": true,
    "tech_change_status": "Not Planned",
    "program_type": "Fixed Wireless and Satellite Upgrade Program",
    "target_eligibility_quarter": "NA"
   }
  },
  {
   "type": "Feature",
   "geometry": {
    "type": "Point",
    "coordinates": [
     138.45105706,
     -33.66643198
    ]
   },
   "properties": {
    "name": "11656 HORROCKS HIGHWAY BRINKWORTH 5464",
    "locID": "LOC000148396010",
    "tech": "SATELLITE",
    "upgrade": "NULL_NA",
    "gnaf_pid": "GASA_425108399",
    "ee": true,
    "tech_change_status": "Not Planned"
   }
  },
  {
   "type": "Feature",
   "geometry": {
    "type": "Point",
    "coordinates": [
     138.44718408,
     -33.65282879
    ]
   },
   "properties": {
    "name": "11811 HORROCKS HIGHWAY BRINKWORTH 5464",
    "locID": "LOC000148242699",
    "tech": "NULL",
    "upgrade": "NULL_NA",
    "gnaf_pid": "GASA_425108400",
    "ee": true,
    "tech_change_status": "Not Planned"
   }
  },
  {
   "type": "Feature",
   "geometry": {
    "type": "Point",
    "coordinates": [
     138.44765503,
     -33.64859641
    ]
   },
   "properties": {
    "name": "11858 HORROCKS HIGHWAY BRINKWORTH 5464",
    "locID": "LOC000142388510",
    "tech": "SATELLITE",
    "upgrade": "NULL_NA",
    "gnaf_pid": "GASA_425108401",
    "ee": true,
    "tech_change_status": "Not Planned"
   }
  },
  {
   "type": "Feature",
   "geometry": {
    "type": "Point",
    "coordinates": [
     138.44927778,
     -33.63626187
    ]
   },
   "properties": {
    "name": "11998 HORROCKS HIGHWAY BRINKWORTH 5464",
    "locID": "LOC000148242773",
    "tech": "NULL",
    "upgrade": "NULL_NA",
    "gnaf_pid": "GASA_425108402",
    "ee": true,
    "tech_change_status": "Not Planned"
   }
  },
  {
   "type": "Feature",
   "geometry": {
    "type": "Point",
    "coordinates": [
     138.33787031,
     -33.63915887
    ]
   },
   "properties": {
    "name": "1028 LAKE VIEW ROAD BRINKWORTH 5464",
    "locID": "LOC000144395537",
    "tech": "WIRELESS",
    "upgrade": "NULL_NA",
    "gnaf_pid": "GASA_425109045",
    "ee": false,
    "tech_change_status": "Not Planned",
    "program_type": "Fixed Wireless and Satellite Upgrade Program",
    "target_eligibility_quarter": "NA"
   }
  },
  {
   "type": "Feature",
   "geometry": {
    "type": "Point",
    "coordinates": [
     138.37773672,
     -33.65345386
    ]
   },
   "properties": {
    "name": "1461 LAKE VIEW ROAD BRINKWORTH 5464",
    "locID": "LOC000109155406",
    "tech": "WIRELESS",
    "upgrade": "NULL_NA",
    "gnaf_pid": "GASA_425109046",
    "ee": true,
    "tech_change_status": "Not Planned",
    "program_type": "Fixed Wireless and Satellite Upgrade Program",
    "target_eligibility_quarter": "NA"
   }
  },
  {
   "type": "Feature",
   "geometry": {
    "type": "Point",
    "coordinates": [
     138.3777919,
     -33.6537019
    ]
   },
   "properties": {
    "name": "1462 LAKE VIEW ROAD BRINKWORTH 5464",
    "locID": "LOC100078857056",
    "tech": "WIRELESS",
    "upgrade": "NULL_NA",
    "gnaf_pid": "GASA_425109047",
    "ee": true,
    "tech_change_status": "Not Planned",
    "program_type": "Fixed Wireless and Satellite Upgrade Program",
    "target_eligibility_quarter": "NA"
   }
  },
  {
   "type": "Feature",
   "geometry": {
    "type": "Point",
    "coordinates": [
     138.38995916,
     -33.66296004
    ]
   },
   "properties": {
    "name": "1615 LAKE VIEW ROAD BRINKWORTH 5464",
    "locID": "LOC000109457195",
    "tech": "WIRELESS",
    "upgrade": "NULL_NA",
    "gnaf_pid": "GASA_425109048",
    "ee": true,
    "tech_change_status": "Not Planned",
    "program_type": "Fixed Wireless and Satellite Upgrade Program",
    "target_eligibility_quarter": "NA"
   }
  },
  {
   "type": "Feature",
   "geometry": {
    "type": "Point",
    "coordinates": [
     138.34970516,
     -33.66854178
    ]
   },
   "properties": {
    "name": "1160 MALLEE CORNER ROAD BRINKWORTH 5464",
    "locID": "LOC100078645700",
    "tech": "WIRELESS",
    "upgrade": "NULL_NA",
    "gnaf_pid": "GASA_425109465",
    "ee": true,
    "tech_change_status": "Not Planned",
    "program_type": "Fixed Wireless and Satellite Upgrade Program",
    "target_eligibility_quarter": "NA"
   }
  },
  {
   "type": "Feature",
   "geometry": {
    "type": "Point",
    "coordinates": [
     138.36030119,
     -33.6693699
    ]
   },
   "properties": {
    "name": "1258 MALLEE CORNER ROAD BRINKWORTH 5464",
    "locID": "LOC000146869736",
    "tech": "WIRELESS",
    "upgrade": "NULL_NA",
    "gnaf_pid": "GASA_425109466",
    "ee": true,
    "tech_change_status": "Not Planned",
    "program_type": "Fixed Wireless and Satellite Upgrade Program",
    "target_eligibility_quarter": "NA"
   }
  },
  {
   "type": "Feature",
   "geometry": {
    "type": "Point",
    "coordinates": [
     138.36839035,
     -33.66987277
    ]
   },
   "properties": {
    "name": "1335 MALLEE CORNER ROAD BRINKWORTH 5464",
    "locID": "LOC000148950131",
    "tech": "WIRELESS",
    "upgrade": "NULL_NA",
    "gnaf_pid": "GASA_425109467",
    "ee": true,
    "tech_change_status": "Not Planned",
    "program_type": "Fixed Wireless and Satellite Upgrade Program",
    "target_eligibility_quarter": "NA"
   }
  },
  {
   "type": "Feature",
   "geometry": {
    "type": "Point",
    "coordinates": [
     138.38553987,
     -33.67137734
    ]
   },
   "properties": {
    "name": "1494 MALLEE CORNER ROAD BRINKWORTH 5464",
    "locID": "LOC100078857087",
    "tech": "WIRELESS",
    "upgrade": "NULL_NA",
    "gnaf_pid": "GASA_425109468",
    "ee": true,
    "tech_change_status": "Not Planned",
    "program_type": "Fixed Wireless and Satellite Upgrade Program",
    "target_eligibility_quarter": "NA"
   }
  },
  {
   "type": "Feature",
   "geometry": {
    "type": "Point",
    "coordinates": [
     138.3870321,
     -33.67133768
    ]
   },
   "properties": {
    "name": "1507 MALLEE CORNER ROAD BRINKWORTH 5464",
    "locID": "LOC100071974082",
    "tech": "WIRELESS",
    "upgrade": "NULL_NA",
    "gnaf_pid": "GASA_425109469",
    "ee": true,
    "tech_change_status": "Not Planned",
    "program_type": "Fixed Wireless and Satellite Upgrade Program",
    "target_eligibility_quarter": "NA"
   }
  },
  {
   "type": "Feature",
   "geometry": {
    "type": "Point",
    "coordinates": [
     138.39999148,
     -33.67254093
    ]
   },
   "properties": {
    "name": "1628 MALLEE CORNER ROAD BRINKWORTH 5464",
    "locID": "LOC000154870913",
    "tech": "WIRELESS",
    "upgrade": "NULL_NA",
    "gnaf_pid": "GASA_425109470",
    "ee": true,
    "tech_change_status": "Not Planned",
    "program_type": "Fixed Wireless and Satellite Upgrade Program",
    "target_eligibility_quarter": "NA"
   }
  },
  {
   "type": "Feature",
   "geometry": {
    "type": "Point",
    "coordinates": [
     138.41588463,
     -33.67521662
    ]
   },
   "properties": {
    "name": "1779 MALLEE CORNER ROAD BRINKWORTH 5464",
    "locID": "LOC000146280367",
    "tech": "WIRELESS",
    "upgrade": "NULL_NA",
    "gnaf_pid": "GASA_425109472",
    "ee": true,
    "tech_change_status": "Not Planned",
    "program_type": "Fixed Wireless and Satellite Upgrade Program",
    "target_eligibility_quarter": "NA"
   }
  },
  {
   "type": "Feature",
   "geometry": {
    "type": "Point",
    "coordinates": [
     138.32246987,
     -33.66596018
    ]
   },
   "properties": {
    "name": "906 MALLEE CORNER ROAD BRINKWORTH 5464",
    "locID": "LOC000153999712",
    "tech": "WIRELESS",
    "upgrade": "NULL_NA",
    "gnaf_pid": "GASA_425109473",
    "ee": false,
    "tech_change_status": "Not Planned",
    "program_type": "Fixed Wireless and Satellite Upgrade Program",
    "target_eligibility_quarter": "NA"
   }
  },
  {
   "type": "Feature",
   "geometry": {
    "type": "Point",
    "coordinates": [
     138.51526587,
     -33.65178823
    ]
   },
   "properties": {
    "name": "663 MAROLA ROAD BRINKWORTH 5464",
    "locID": "LOC000148253129",
    "tech": "SATELLITE",
    "upgrade": "NULL_NA",
    "gnaf_pid": "GASA_425109524",
    "ee": true,
    "tech_change_status": "Not Planned"
   }
  },
  {
   "type": "Feature",
   "geometry": {
    "type": "Point",
    "coordinates": [
     138.51690927,
     -33.64231703
    ]
   },
   "properties": {
    "name": "771 MAROLA ROAD BRINKWORTH 5464",
    "locID": "LOC000148396166",
    "tech": "SATELLITE",
    "upgrade": "NULL_NA",
    "gnaf_pid": "GASA_425109525",
    "ee": true,
    "tech_change_status": "Not Planned"
   }
  },
  {
   "type": "Feature",
   "geometry": {
    "type": "Point",
    "coordinates": [
     138.37435719,
     -33.63166699
    ]
   },
   "properties": {
    "name": "120 POWER STATION ROAD BRINKWORTH 5464",
    "locID": "LOC100079108609",
    "tech": "WIRELESS",
    "upgrade": "NULL_NA",
    "gnaf_pid": "GASA_425110916",
    "ee": true,
    "tech_change_status": "Not Planned",
    "program_type": "Fixed Wireless and Satellite Upgrade Program",
    "target_eligibility_quarter": "NA"
   }
  },
  {
   "type": "Feature",
   "geometry": {
    "type": "Point",
    "coordinates": [
     138.40352136,
     -33.72114899
    ]
   },
   "properties": {
    "name": "189 POWERLINE ROAD BRINKWORTH 5464",
    "locID": "LOC000109546573",
    "tech": "WIRELESS",
    "upgrade": "NULL_NA",
    "gnaf_pid": "GASA_425110918",
    "ee": true,
    "tech_change_status": "Not Planned",
    "program_type": "Fixed Wireless and Satellite Upgrade Program",
    "target_eligibility_quarter": "NA"
   }
  },
  {
   "type": "Feature",
   "geometry": {
    "type": "Point",
    "coordinates": [
     138.40328599,
     -33.70759018
    ]
   },
   "properties": {
    "name": "34 POWERLINE ROAD BRINKWORTH 5464",
    "locID": "LOC000169821642",
    "tech": "WIRELESS",
    "upgrade": "NULL_NA",
    "gnaf_pid": "GASA_425110919",
    "ee": true,
    "tech_change_status": "Not Planned",
    "program_type": "Fixed Wireless and Satellite Upgrade Program",
    "target_eligibility_quarter": "NA"
   }
  },
  {
   "type": "Feature",
   "geometry": {
    "type": "Point",
    "coordinates": [
     138.35545705,
     -33.70256719
    ]
   },
   "properties": {
    "name": "192 PROVISIONAL SCHOOL ROAD BRINKWORTH 5464",
    "locID": "LOC100078645759",
    "tech": "WIRELESS",
    "upgrade": "NULL_NA",
    "gnaf_pid": "GASA_425111039",
    "ee": true,
    "tech_change_status": "Not Planned",
    "program_type": "Fixed Wireless and Satellite Upgrade Program",
    "target_eligibility_quarter": "NA"
   }
  },
  {
   "type": "Feature",
   "geometry": {
    "type": "Point",
    "coordinates": [
     138.35583789,
     -33.69107163
    ]
   },
   "properties": {
    "name": "319 PROVISIONAL SCHOOL ROAD BRINKWORTH 5464",
    "locID": "LOC000108976326",
    "tech": "WIRELESS",
    "upgrade": "NULL_NA",
    "gnaf_pid": "GASA_425111040",
    "ee": true,
    "tech_change_status": "Not Planned",
    "program_type": "Fixed Wireless and Satellite Upgrade Program",
    "target_eligibility_quarter": "NA"
   }
  },
  {
   "type": "Feature",
   "geometry": {
    "type": "Point",
    "coordinates": [
     138.35501096,
     -33.71212649
    ]
   },
   "properties": {
    "name": "84 PROVISIONAL SCHOOL ROAD BRINKWORTH 5464",
    "locID": "LOC000153353446",
    "tech": "WIRELESS",
    "upgrade": "NULL_NA",
    "gnaf_pid": "GASA_425111041",
    "ee": true,
    "tech_change_status": "Not Planned",
    "program_type": "Fixed Wireless and Satellite Upgrade Program",
    "target_eligibility_quarter": "NA"
   }
  },
  {
   "type": "Feature",
   "geometry": {
    "type": "Point",
    "coordinates": [
     138.46478964,
     -33.69346789
    ]
   },
   "properties": {
    "name": "14 ROCHESTER ROAD BRINKWORTH 5464",
    "locID": "LOC000148396372",
    "tech": "NULL",
    "upgrade": "NULL_NA",
    "gnaf_pid": "GASA_425111381",
    "ee": true,
    "tech_change_status": "Not Planned"
   }
  },
  {
   "type": "Feature",
   "geometry": {
    "type": "Point",
    "coordinates": [
     138.43852502,
     -33.69637981
    ]
   },
   "properties": {
    "name": "297 STONE CUTTER ROAD BRINKWORTH 5464",
    "locID": "LOC000144609756",
    "tech": "WIRELESS",
    "upgrade": "NULL_NA",
    "gnaf_pid": "GASA_425112299",
    "ee": true,
    "tech_change_status": "Not Planned",
    "program_type": "Fixed Wireless and Satellite Upgrade Program",
    "target_eligibility_quarter": "NA"
   }
  },
  {
   "type": "Feature",
   "geometry": {
    "type": "Point",
    "coordinates": [
     138.41481364,
     -33.69512165
    ]
   },
   "properties": {
    "name": "73 STONE CUTTER ROAD BRINKWORTH 5464",
    "locID": "LOC000145116135",
    "tech": "WIRELESS",
    "upgrade": "NULL_NA",
    "gnaf_pid": "GASA_425112300",
    "ee": true,
    "tech_change_status": "Not Planned",
    "program_type": "Fixed Wireless and Satellite Upgrade Program",
    "target_eligibility_quarter": "NA"
   }
  },
  {
   "type": "Feature",
   "geometry": {
    "type": "Point",
    "coordinates": [
     138.33213181,
     -33.69460747
    ]
   },
   "properties": {
    "name": "684 STURT PEA ROAD BRINKWORTH 5464",
    "locID": "LOC000108895921",
    "tech": "WIRELESS",
    "upgrade": "NULL_NA",
    "gnaf_pid": "GASA_425112350",
    "ee": true,
    "tech_change_status": "Not Planned",
    "program_type": "Fixed Wireless and Satellite Upgrade Program",
    "target_eligibility_quarter": "NA"
   }
  },
  {
   "type": "Feature",
   "geometry": {
    "type": "Point",
    "coordinates": [
     138.477042,
     -33.655833
    ]
   },
   "properties": {
    "name": "304 WECKERT ROAD BRINKWORTH 5464",
    "locID": "LOC000148396648",
    "tech": "SATELLITE",
    "upgrade": "NULL_NA",
    "gnaf_pid": "GASA_425113268",
    "ee": true,
    "tech_change_status": "Not Planned"
   }
  },
  {
   "type": "Feature",
   "geometry": {
    "type": "Point",
    "coordinates": [
     138.31634094,
     -33.643902
    ]
   },
   "properties": {
    "name": "1695 WINDVIEW ROAD BRINKWORTH 5464",
    "locID": "LOC000142389247",
    "tech": "WIRELESS",
    "upgrade": "NULL_NA",
    "gnaf_pid": "GASA_425113488",
    "ee": false,
    "tech_change_status": "Not Planned",
    "program_type": "Fixed Wireless and Satellite Upgrade Program",
    "target_eligibility_quarter": "NA"
   }
  },
  {
   "type": "Feature",
   "geometry": {
    "type": "Point",
    "coordinates": [
     138.35407677,
     -33.73269602
    ]
   },
   "properties": {
    "name": "145 WUNDKE ROAD BRINKWORTH 5464",
    "locID": "LOC000108223475",
    "tech": "WIRELESS",
    "upgrade": "NULL_NA",
    "gnaf_pid": "GASA_425113695",
    "ee": true,
    "tech_change_status": "Not Planned",
    "program_type": "Fixed Wireless and Satellite Upgrade Program",
    "target_eligibility_quarter": "NA"
   }
  },
  {
   "type": "Feature",
   "geometry": {
    "type": "Point",
    "coordinates": [
     138.40333929,
     -33.67654048
    ]
   },
   "properties": {
    "name": "140 KOOLUNGA ROAD BRINKWORTH 5464",
    "locID": "LOC000152091576",
    "tech": "WIRELESS",
    "upgrade": "NULL_NA",
    "gnaf_pid": "GASA_425190127",
    "ee": true,
    "tech_change_status": "Not Planned",
    "program_type": "Fixed Wireless and Satellite Upgrade Program",
    "target_eligibility_quarter": "NA"
   }
  },
  {
   "type": "Feature",
   "geometry": {
    "type": "Point",
    "coordinates": [
     138.40250603,
     -33.69835712
    ]
   },
   "properties": {
    "name": "2-4 WILLIAM STREET BRINKWORTH 5464",
    "locID": "LOC100078086913",
    "tech": "WIRELESS",
    "upgrade": "NULL_NA",
    "gnaf_pid": "GASA_425258783",
    "ee": true,
    "tech_change_status": "Not Planned",
    "program_type": "Fixed Wireless and Satellite Upgrade Program",
    "target_eligibility_quarter": "NA"
   }
  },
  {
   "type": "Feature",
   "geometry": {
    "type": "Point",
    "coordinates": [
     138.3640293,
     -33.73370671
    ]
   },
   "properties": {
    "name": "LOT 1 WUNDKE ROAD BRINKWORTH 5464",
    "locID": "LOC000108223475",
    "tech": "WIRELESS",
    "upgrade": "NULL_NA",
    "gnaf_pid": "GASA_425357925",
    "ee": true,
    "tech_change_status": "Not Planned",
    "program_type": "Fixed Wireless and Satellite Upgrade Program",
    "target_eligibility_quarter": "NA"
   }
  },
  {
   "type": "Feature",
   "geometry": {
    "type": "Point",
    "coordinates": [
     138.36376393,
     -33.7119081
    ]
   },
   "properties": {
    "name": "LOT 2 CONDOWIE PLAIN ROAD BRINKWORTH 5464",
    "locID": "LOC000152964613",
    "tech": "WIRELESS",
    "upgrade": "NULL_NA",
    "gnaf_pid": "GASA_425389694",
    "ee": true,
    "tech_change_status": "Not Planned",
    "program_type": "Fixed Wireless and Satellite Upgrade Program",
    "target_eligibility_quarter": "NA"
   }
  },
  {
   "type": "Feature",
   "geometry": {
    "type": "Point",
    "coordinates": [
     138.41829094,
     -33.63997864
    ]
   },
   "properties": {
    "name": "LOT 1 EAGLE ROAD BRINKWORTH 5464",
    "locID": "LOC000148395917",
    "tech": "WIRELESS",
    "upgrade": "NULL_NA",
    "gnaf_pid": "GASA_425390110",
    "ee": true,
    "tech_change_status": "Not Planned",
    "program_type": "Fixed Wireless and Satellite Upgrade Program",
    "target_eligibility_quarter": "NA"
   }
  },
  {
   "type": "Feature",
   "geometry": {
    "type": "Point",
    "coordinates": [
     138.4105154,
     -33.63020277
    ]
   },
   "properties": {
    "name": "LOT 435 EAGLE ROAD BRINKWORTH 5464",
    "locID": "LOC000148395917",
    "tech": "WIRELESS",
    "upgrade": "NULL_NA",
    "gnaf_pid": "GASA_425390111",
    "ee": true,
    "tech_change_status": "Not Planned",
    "program_type": "Fixed Wireless and Satellite Upgrade Program",
    "target_eligibility_quarter": "NA"
   }
  },
  {
   "type": "Feature",
   "geometry": {
    "type": "Point",
    "coordinates": [
     138.43345003,
     -33.72127782
    ]
   },
   "properties": {
    "name": "LOT 795 GOSS ROAD BRINKWORTH 5464",
    "locID": "LOC000148250628",
    "tech": "WIRELESS",
    "upgrade": "NULL_NA",
    "gnaf_pid": "GASA_425390987",
    "ee": true,
    "tech_change_status": "Not Planned",
    "program_type": "Fixed Wireless and Satellite Upgrade Program",
    "target_eligibility_quarter": "NA"
   }
  },
  {
   "type": "Feature",
   "geometry": {
    "type": "Point",
    "coordinates": [
     138.47226204,
     -33.69414141
    ]
   },
   "properties": {
    "name": "LOT 346 HORROCKS HIGHWAY BRINKWORTH 5464",
    "locID": "LOC000148242482",
    "tech": "SATELLITE",
    "upgrade": "NULL_NA",
    "gnaf_pid": "GASA_425391411",
    "ee": true,
    "tech_change_status": "Not Planned"
   }
  },
  {
   "type": "Feature",
   "geometry": {
    "type": "Point",
    "coordinates": [
     138.45971441,
     -33.6925929
    ]
   },
   "properties": {
    "name": "LOT 500 HORROCKS HIGHWAY BRINKWORTH 5464",
    "locID": "LOC000148242482",
    "tech": "SATELLITE",
    "upgrade": "NULL_NA",
    "gnaf_pid": "GASA_425391412",
    "ee": true,
    "tech_change_status": "Not Planned"
   }
  },
  {
   "type": "Feature",
   "geometry": {
    "type": "Point",
    "coordinates": [
     138.39177693,
     -33.6556706
    ]
   },
   "properties": {
    "name": "LOT 1 LAKE VIEW ROAD BRINKWORTH 5464",
    "locID": "LOC000109457195",
    "tech": "WIRELESS",
    "upgrade": "NULL_NA",
    "gnaf_pid": "GASA_425391959",
    "ee": true,
    "tech_change_status": "Not Planned",
    "program_type": "Fixed Wireless and Satellite Upgrade Program",
    "target_eligibility_quarter": "NA"
   }
  },
  {
   "type": "Feature",
   "geometry": {
    "type": "Point",
    "coordinates": [
     138.49233011,
     -33.66697573
    ]
   },
   "properties": {
    "name": "LOT 107 WHITE HILL ROAD BRINKWORTH 5464",
    "locID": "LOC000148396653",
    "tech": "NULL",
    "upgrade": "NULL_NA",
    "gnaf_pid": "GASA_425395756",
    "ee": true,
    "tech_change_status": "Not Planned"
   }
  },
  {
   "type": "Feature",
   "geometry": {
    "type": "Point",
    "coordinates": [
     138.31779412,
     -33.65896681
    ]
   },
   "properties": {
    "name": "LOT 234 WINDVIEW ROAD BRINKWORTH 5464",
    "locID": "LOC000142389247",
    "tech": "WIRELESS",
    "upgrade": "NULL_NA",
    "gnaf_pid": "GASA_425725970",
    "ee": false,
    "tech_change_status": "Not Planned",
    "program_type": "Fixed Wireless and Satellite Upgrade Program",
    "target_eligibility_quarter": "NA"
   }
  },
  {
   "type": "Feature",
   "geometry": {
    "type": "Point",
    "coordinates": [
     138.30466887,
     -33.64550088
    ]
   },
   "properties": {
    "name": "LOT 2 WINDVIEW ROAD BRINKWORTH 5464",
    "locID": "LOC000142389247",
    "tech": "WIRELESS",
    "upgrade": "NULL_NA",
    "gnaf_pid": "GASA_425725971",
    "ee": false,
    "tech_change_status": "Not Planned",
    "program_type": "Fixed Wireless and Satellite Upgrade Program",
    "target_eligibility_quarter": "NA"
   }
  },
  {
   "type": "Feature",
   "geometry": {
    "type": "Point",
    "coordinates": [
     138.44616392,
     -33.67859991
    ]
   },
   "properties": {
    "name": "LOT 3 HORROCKS HIGHWAY BRINKWORTH 5464",
    "locID": "LOC000148242482",
    "tech": "SATELLITE",
    "upgrade": "NULL_NA",
    "gnaf_pid": "GASA_719517720",
    "ee": true,
    "tech_change_status": "Not Planned"
   }
  },
  {
   "type": "Feature",
   "geometry": {
    "type": "Point",
    "coordinates": [
     138.31114526,
     -33.68109596
    ]
   },
   "properties": {
    "name": "LOT 241 WINDVIEW ROAD BRINKWORTH 5464",
    "locID": "LOC000142389247",
    "tech": "WIRELESS",
    "upgrade": "NULL_NA",
    "gnaf_pid": "GASA_719773566",
    "ee": false,
    "tech_change_status": "Not Planned",
    "program_type": "Fixed Wireless and Satellite Upgrade Program",
    "target_eligibility_quarter": "NA"
   }
  },
  {
   "type": "Feature",
   "geometry": {
    "type": "Point",
    "coordinates": [
     138.45621163,
     -33.72383581
    ]
   },
   "properties": {
    "name": "327 KATALI LANE BRINKWORTH 5464",
    "locID": "LOC000142385385",
    "tech": "SATELLITE",
    "upgrade": "NULL_NA",
    "gnaf_pid": "GASA_720886378",
    "ee": true,
    "tech_change_status": "Not Planned"
   }
  },
  {
   "type": "Feature",
   "geometry": {
    "type": "Point",
    "coordinates": [
     138.48039593,
     -33.66549781
    ]
   },
   "properties": {
    "name": "LOT 21 WECKERT ROAD BRINKWORTH 5464",
    "locID": "LOC000148396648",
    "tech": "SATELLITE",
    "upgrade": "NULL_NA",
    "gnaf_pid": "GASA_721277783",
    "ee": true,
    "tech_change_status": "Not Planned"
   }
  }
 ]
}