{
 "type": "FeatureCollection",
 "generated": "2025-06-15T10:08:40.597995",
 "suburb": "BULLOO CREEK",
 "features": [
  {
   "type": "Feature",
   "geometry": {
    "type": "Point",
    "coordinates": [
     140.44601954,
     -32.1607151
    ]
   },
   "properties": {
    "name": "700 BULLOO CREEK ROAD BULLOO CREEK 5440",
    "locID": "LOC000148253418",
    "tech": "SATELLITE",
    "upgrade": "NULL_NA",
    "gnaf_pid": "GASA_425628584",
    "ee": false,
    "tech_change_status": "Not Planned"
   }
  }
 ]
}