{
 "type": "FeatureCollection",
 "generated": "2025-06-15T10:09:11.012432",
 "suburb": "BUNBURY",
 "features": [
  {
   "type": "Feature",
   "geometry": {
    "type": "Point",
    "coordinates": [
     139.96005309,
     -36.14046668
    ]
   },
   "properties": {
    "name": "LOT 101 BUNBURY ROAD BUNBURY 5266",
    "locID": "LOC000114217494",
    "tech": "SATELLITE",
    "upgrade": "NULL_NA",
    "gnaf_pid": "GASA_424159750",
    "ee": false,
    "tech_change_status": "Not Planned"
   }
  },
  {
   "type": "Feature",
   "geometry": {
    "type": "Point",
    "coordinates": [
     139.96292567,
     -36.22099449
    ]
   },
   "properties": {
    "name": "LOT 104 BUNBURY ROAD BUNBURY 5266",
    "locID": "LOC000114217494",
    "tech": "SATELLITE",
    "upgrade": "NULL_NA",
    "gnaf_pid": "GASA_424159751",
    "ee": false,
    "tech_change_status": "Not Planned"
   }
  },
  {
   "type": "Feature",
   "geometry": {
    "type": "Point",
    "coordinates": [
     139.98569389,
     -36.21774284
    ]
   },
   "properties": {
    "name": "LOT 12 BUNBURY ROAD BUNBURY 5266",
    "locID": "LOC000114217494",
    "tech": "SATELLITE",
    "upgrade": "NULL_NA",
    "gnaf_pid": "GASA_424159752",
    "ee": false,
    "tech_change_status": "Not Planned"
   }
  },
  {
   "type": "Feature",
   "geometry": {
    "type": "Point",
    "coordinates": [
     139.9619125,
     -36.19756505
    ]
   },
   "properties": {
    "name": "LOT 2 BUNBURY ROAD BUNBURY 5266",
    "locID": "LOC000114217494",
    "tech": "SATELLITE",
    "upgrade": "NULL_NA",
    "gnaf_pid": "GASA_424159753",
    "ee": false,
    "tech_change_status": "Not Planned"
   }
  },
  {
   "type": "Feature",
   "geometry": {
    "type": "Point",
    "coordinates": [
     140.00012145,
     -36.18708223
    ]
   },
   "properties": {
    "name": "LOT 50 BUNBURY ROAD BUNBURY 5266",
    "locID": "LOC000114217494",
    "tech": "SATELLITE",
    "upgrade": "NULL_NA",
    "gnaf_pid": "GASA_424159754",
    "ee": false,
    "tech_change_status": "Not Planned"
   }
  },
  {
   "type": "Feature",
   "geometry": {
    "type": "Point",
    "coordinates": [
     140.03250498,
     -36.1113186
    ]
   },
   "properties": {
    "name": "LOT 10 BUNBURY ROAD BUNBURY 5266",
    "locID": "LOC000114217494",
    "tech": "SATELLITE",
    "upgrade": "NULL_NA",
    "gnaf_pid": "GASA_424292296",
    "ee": false,
    "tech_change_status": "Not Planned"
   }
  },
  {
   "type": "Feature",
   "geometry": {
    "type": "Point",
    "coordinates": [
     139.97075609,
     -36.18110168
    ]
   },
   "properties": {
    "name": "LOT 21 BUNBURY ROAD BUNBURY 5266",
    "locID": "LOC000114217494",
    "tech": "SATELLITE",
    "upgrade": "NULL_NA",
    "gnaf_pid": "GASA_424292299",
    "ee": false,
    "tech_change_status": "Not Planned"
   }
  },
  {
   "type": "Feature",
   "geometry": {
    "type": "Point",
    "coordinates": [
     140.02752445,
     -36.14092337
    ]
   },
   "properties": {
    "name": "LOT 39 BUNBURY ROAD BUNBURY 5266",
    "locID": "LOC000114217494",
    "tech": "SATELLITE",
    "upgrade": "NULL_NA",
    "gnaf_pid": "GASA_424292301",
    "ee": false,
    "tech_change_status": "Not Planned"
   }
  },
  {
   "type": "Feature",
   "geometry": {
    "type": "Point",
    "coordinates": [
     139.9644982,
     -36.23957216
    ]
   },
   "properties": {
    "name": "LOT 46 CANTARA ROAD BUNBURY 5266",
    "locID": "LOC000116252668",
    "tech": "NULL",
    "upgrade": "NULL_NA",
    "gnaf_pid": "GASA_424690124",
    "ee": true,
    "tech_change_status": "Not Planned"
   }
  },
  {
   "type": "Feature",
   "geometry": {
    "type": "Point",
    "coordinates": [
     139.94738062,
     -36.22885973
    ]
   },
   "properties": {
    "name": "LOT 70 CANTARA ROAD BUNBURY 5266",
    "locID": "LOC000116252668",
    "tech": "NULL",
    "upgrade": "NULL_NA",
    "gnaf_pid": "GASA_424690126",
    "ee": true,
    "tech_change_status": "Not Planned"
   }
  },
  {
   "type": "Feature",
   "geometry": {
    "type": "Point",
    "coordinates": [
     139.97880561,
     -36.19752971
    ]
   },
   "properties": {
    "name": "1285 BUNBURY ROAD BUNBURY 5266",
    "locID": "LOC000113121994",
    "tech": "NULL",
    "upgrade": "NULL_NA",
    "gnaf_pid": "GASA_424697210",
    "ee": false,
    "tech_change_status": "Not Planned"
   }
  },
  {
   "type": "Feature",
   "geometry": {
    "type": "Point",
    "coordinates": [
     139.97488274,
     -36.20843259
    ]
   },
   "properties": {
    "name": "1413 BUNBURY ROAD BUNBURY 5266",
    "locID": "LOC000114217494",
    "tech": "SATELLITE",
    "upgrade": "NULL_NA",
    "gnaf_pid": "GASA_424697211",
    "ee": false,
    "tech_change_status": "Not Planned"
   }
  },
  {
   "type": "Feature",
   "geometry": {
    "type": "Point",
    "coordinates": [
     140.00178756,
     -36.14680153
    ]
   },
   "properties": {
    "name": "676 BUNBURY ROAD BUNBURY 5266",
    "locID": "LOC000113150730",
    "tech": "NULL",
    "upgrade": "NULL_NA",
    "gnaf_pid": "GASA_424697213",
    "ee": false,
    "tech_change_status": "Not Planned"
   }
  },
  {
   "type": "Feature",
   "geometry": {
    "type": "Point",
    "coordinates": [
     139.99545723,
     -36.15931113
    ]
   },
   "properties": {
    "name": "830 BUNBURY ROAD BUNBURY 5266",
    "locID": "LOC000114297365",
    "tech": "NULL",
    "upgrade": "NULL_NA",
    "gnaf_pid": "GASA_424697214",
    "ee": false,
    "tech_change_status": "Not Planned"
   }
  },
  {
   "type": "Feature",
   "geometry": {
    "type": "Point",
    "coordinates": [
     139.99159568,
     -36.17394347
    ]
   },
   "properties": {
    "name": "999 BUNBURY ROAD BUNBURY 5266",
    "locID": "LOC000113285679",
    "tech": "SATELLITE",
    "upgrade": "NULL_NA",
    "gnaf_pid": "GASA_424697215",
    "ee": false,
    "tech_change_status": "Not Planned"
   }
  },
  {
   "type": "Feature",
   "geometry": {
    "type": "Point",
    "coordinates": [
     140.02301809,
     -36.23071718
    ]
   },
   "properties": {
    "name": "3055 CANTARA ROAD BUNBURY 5266",
    "locID": "LOC000112914812",
    "tech": "SATELLITE",
    "upgrade": "NULL_NA",
    "gnaf_pid": "GASA_424697470",
    "ee": false,
    "tech_change_status": "Not Planned"
   }
  },
  {
   "type": "Feature",
   "geometry": {
    "type": "Point",
    "coordinates": [
     139.97522677,
     -36.23746354
    ]
   },
   "properties": {
    "name": "3495 CANTARA ROAD BUNBURY 5266",
    "locID": "LOC000088122936",
    "tech": "NULL",
    "upgrade": "NULL_NA",
    "gnaf_pid": "GASA_424697472",
    "ee": false,
    "tech_change_status": "Not Planned"
   }
  },
  {
   "type": "Feature",
   "geometry": {
    "type": "Point",
    "coordinates": [
     139.99432428,
     -36.07865311
    ]
   },
   "properties": {
    "name": "1787 HERON ROAD BUNBURY 5266",
    "locID": "LOC000113332997",
    "tech": "NULL",
    "upgrade": "NULL_NA",
    "gnaf_pid": "GASA_424700902",
    "ee": false,
    "tech_change_status": "Not Planned"
   }
  },
  {
   "type": "Feature",
   "geometry": {
    "type": "Point",
    "coordinates": [
     139.95700053,
     -36.06440145
    ]
   },
   "properties": {
    "name": "2161 HERON ROAD BUNBURY 5266",
    "locID": "LOC000114029590",
    "tech": "NULL",
    "upgrade": "NULL_NA",
    "gnaf_pid": "GASA_424700903",
    "ee": false,
    "tech_change_status": "Not Planned"
   }
  },
  {
   "type": "Feature",
   "geometry": {
    "type": "Point",
    "coordinates": [
     139.93564563,
     -36.21347912
    ]
   },
   "properties": {
    "name": "LOT 71 BUNBURY ROAD BUNBURY 5266",
    "locID": "LOC000114217494",
    "tech": "SATELLITE",
    "upgrade": "NULL_NA",
    "gnaf_pid": "GASA_719859776",
    "ee": false,
    "tech_change_status": "Not Planned"
   }
  },
  {
   "type": "Feature",
   "geometry": {
    "type": "Point",
    "coordinates": [
     139.92643831,
     -36.19155979
    ]
   },
   "properties": {
    "name": "LOT 24 BUNBURY ROAD BUNBURY 5266",
    "locID": "LOC000114217494",
    "tech": "SATELLITE",
    "upgrade": "NULL_NA",
    "gnaf_pid": "GASA_719862401",
    "ee": false,
    "tech_change_status": "Not Planned"
   }
  }
 ]
}