{
 "type": "FeatureCollection",
 "generated": "2025-06-15T10:13:45.577249",
 "suburb": "BURR WELL",
 "features": [
  {
   "type": "Feature",
   "geometry": {
    "type": "Point",
    "coordinates": [
     138.67627904,
     -30.51623243
    ]
   },
   "properties": {
    "name": "2862 GAMMON RANGES ROAD BURR WELL 5732",
    "locID": "LOC000184251498",
    "tech": "SATELLITE",
    "upgrade": "NULL_NA",
    "gnaf_pid": "GASA_425628973",
    "ee": false,
    "tech_change_status": "Not Planned"
   }
  }
 ]
}