{
 "type": "FeatureCollection",
 "generated": "2025-06-15T10:38:58.263442",
 "suburb": "CARAWA",
 "features": [
  {
   "type": "Feature",
   "geometry": {
    "type": "Point",
    "coordinates": [
     134.28172497,
     -32.35448494
    ]
   },
   "properties": {
    "name": "LOT 21 EYRE HIGHWAY CARAWA 5680",
    "locID": "LOC000131708114",
    "tech": "NULL",
    "upgrade": "NULL_NA",
    "gnaf_pid": "GASA_424300258",
    "ee": false,
    "tech_change_status": "Not Planned"
   }
  },
  {
   "type": "Feature",
   "geometry": {
    "type": "Point",
    "coordinates": [
     134.15000637,
     -32.29199444
    ]
   },
   "properties": {
    "name": "LOT 14 MURRAMINGA ROAD CARAWA 5680",
    "locID": "LOC000116349418",
    "tech": "NULL",
    "upgrade": "NULL_NA",
    "gnaf_pid": "GASA_424320209",
    "ee": false,
    "tech_change_status": "Not Planned"
   }
  },
  {
   "type": "Feature",
   "geometry": {
    "type": "Point",
    "coordinates": [
     134.17131212,
     -32.32694592
    ]
   },
   "properties": {
    "name": "LOT 16 MURRAMINGA ROAD CARAWA 5680",
    "locID": "LOC000116349418",
    "tech": "NULL",
    "upgrade": "NULL_NA",
    "gnaf_pid": "GASA_424320211",
    "ee": false,
    "tech_change_status": "Not Planned"
   }
  },
  {
   "type": "Feature",
   "geometry": {
    "type": "Point",
    "coordinates": [
     134.18038459,
     -32.3623717
    ]
   },
   "properties": {
    "name": "LOT 28 MURRAMINGA ROAD CARAWA 5680",
    "locID": "LOC000116349418",
    "tech": "NULL",
    "upgrade": "NULL_NA",
    "gnaf_pid": "GASA_424320212",
    "ee": false,
    "tech_change_status": "Not Planned"
   }
  },
  {
   "type": "Feature",
   "geometry": {
    "type": "Point",
    "coordinates": [
     134.21535699,
     -32.3098201
    ]
   },
   "properties": {
    "name": "2111 CARAWA ROAD CARAWA 5680",
    "locID": "LOC000116350592",
    "tech": "NULL",
    "upgrade": "NULL_NA",
    "gnaf_pid": "GASA_424833866",
    "ee": false,
    "tech_change_status": "Not Planned"
   }
  },
  {
   "type": "Feature",
   "geometry": {
    "type": "Point",
    "coordinates": [
     134.1330121,
     -32.37770801
    ]
   },
   "properties": {
    "name": "1595 MILTABURRA ROAD CARAWA 5680",
    "locID": "LOC000116349425",
    "tech": "SATELLITE",
    "upgrade": "NULL_NA",
    "gnaf_pid": "GASA_424836488",
    "ee": false,
    "tech_change_status": "Not Planned"
   }
  },
  {
   "type": "Feature",
   "geometry": {
    "type": "Point",
    "coordinates": [
     134.13129032,
     -32.29751354
    ]
   },
   "properties": {
    "name": "1584 MURRAMINGA ROAD CARAWA 5680",
    "locID": "LOC000116349418",
    "tech": "NULL",
    "upgrade": "NULL_NA",
    "gnaf_pid": "GASA_424836705",
    "ee": false,
    "tech_change_status": "Not Planned"
   }
  },
  {
   "type": "Feature",
   "geometry": {
    "type": "Point",
    "coordinates": [
     134.22500982,
     -32.3849899
    ]
   },
   "properties": {
    "name": "1193 CARAWA ROAD CARAWA 5680",
    "locID": "LOC000131728956",
    "tech": "WIRELESS",
    "upgrade": "NULL_NA",
    "gnaf_pid": "GASA_424955347",
    "ee": false,
    "tech_change_status": "Not Planned",
    "program_type": "Fixed Wireless and Satellite Upgrade Program",
    "target_eligibility_quarter": "NA"
   }
  },
  {
   "type": "Feature",
   "geometry": {
    "type": "Point",
    "coordinates": [
     134.262463,
     -32.31226221
    ]
   },
   "properties": {
    "name": "40277 EYRE HIGHWAY CARAWA 5680",
    "locID": "LOC000148249637",
    "tech": "NULL",
    "upgrade": "NULL_NA",
    "gnaf_pid": "GASA_425390341",
    "ee": false,
    "tech_change_status": "Not Planned"
   }
  },
  {
   "type": "Feature",
   "geometry": {
    "type": "Point",
    "coordinates": [
     134.1856156,
     -32.27550784
    ]
   },
   "properties": {
    "name": "LOT 58 EYRE HIGHWAY CARAWA 5680",
    "locID": "LOC000131708114",
    "tech": "NULL",
    "upgrade": "NULL_NA",
    "gnaf_pid": "GASA_425720510",
    "ee": false,
    "tech_change_status": "Not Planned"
   }
  }
 ]
}