{
 "type": "FeatureCollection",
 "generated": "2025-06-15T10:44:47.960130",
 "suburb": "CARRIETON",
 "features": [
  {
   "type": "Feature",
   "geometry": {
    "type": "Point",
    "coordinates": [
     138.53175829,
     -32.42386706
    ]
   },
   "properties": {
    "name": "158 FOURTH STREET CARRIETON 5432",
    "locID": "LOC100078068308",
    "tech": "NULL",
    "upgrade": "NULL_NA",
    "gnaf_pid": "GASA_417059313",
    "ee": false,
    "tech_change_status": "Not Planned"
   }
  },
  {
   "type": "Feature",
   "geometry": {
    "type": "Point",
    "coordinates": [
     138.53134389,
     -32.42356563
    ]
   },
   "properties": {
    "name": "LOT 158 FOURTH STREET CARRIETON 5432",
    "locID": "LOC100078068308",
    "tech": "NULL",
    "upgrade": "NULL_NA",
    "gnaf_pid": "GASA_422220461",
    "ee": false,
    "tech_change_status": "Not Planned"
   }
  },
  {
   "type": "Feature",
   "geometry": {
    "type": "Point",
    "coordinates": [
     138.53057673,
     -32.42440133
    ]
   },
   "properties": {
    "name": "LOT 144 SECOND STREET CARRIETON 5432",
    "locID": "LOC000110101150",
    "tech": "SATELLITE",
    "upgrade": "NULL_NA",
    "gnaf_pid": "GASA_423741492",
    "ee": false,
    "tech_change_status": "Not Planned"
   }
  },
  {
   "type": "Feature",
   "geometry": {
    "type": "Point",
    "coordinates": [
     138.52946903,
     -32.42398269
    ]
   },
   "properties": {
    "name": "LOT 155 FIFTH STREET CARRIETON 5432",
    "locID": "LOC000109488020",
    "tech": "SATELLITE",
    "upgrade": "NULL_NA",
    "gnaf_pid": "GASA_424170675",
    "ee": false,
    "tech_change_status": "Not Planned"
   }
  },
  {
   "type": "Feature",
   "geometry": {
    "type": "Point",
    "coordinates": [
     138.52874353,
     -32.42721937
    ]
   },
   "properties": {
    "name": "LOT 21 MAIN STREET CARRIETON 5432",
    "locID": "LOC000108112969",
    "tech": "NULL",
    "upgrade": "NULL_NA",
    "gnaf_pid": "GASA_424188818",
    "ee": false,
    "tech_change_status": "Not Planned"
   }
  },
  {
   "type": "Feature",
   "geometry": {
    "type": "Point",
    "coordinates": [
     138.53056027,
     -32.42718242
    ]
   },
   "properties": {
    "name": "LOT 28 MAIN STREET CARRIETON 5432",
    "locID": "LOC000109273663",
    "tech": "NULL",
    "upgrade": "NULL_NA",
    "gnaf_pid": "GASA_424188821",
    "ee": false,
    "tech_change_status": "Not Planned"
   }
  },
  {
   "type": "Feature",
   "geometry": {
    "type": "Point",
    "coordinates": [
     138.53057673,
     -32.42440133
    ]
   },
   "properties": {
    "name": "LOT 131 SECOND STREET CARRIETON 5432",
    "locID": "LOC000110101150",
    "tech": "SATELLITE",
    "upgrade": "NULL_NA",
    "gnaf_pid": "GASA_424228498",
    "ee": false,
    "tech_change_status": "Not Planned"
   }
  },
  {
   "type": "Feature",
   "geometry": {
    "type": "Point",
    "coordinates": [
     138.53173205,
     -32.42750106
    ]
   },
   "properties": {
    "name": "LOT 14 MAIN STREET CARRIETON 5432",
    "locID": "LOC000109273663",
    "tech": "NULL",
    "upgrade": "NULL_NA",
    "gnaf_pid": "GASA_424315695",
    "ee": false,
    "tech_change_status": "Not Planned"
   }
  },
  {
   "type": "Feature",
   "geometry": {
    "type": "Point",
    "coordinates": [
     138.49059533,
     -32.45304433
    ]
   },
   "properties": {
    "name": "LOT 103 WILMINGTON ROAD CARRIETON 5432",
    "locID": "LOC000150221104",
    "tech": "NULL",
    "upgrade": "NULL_NA",
    "gnaf_pid": "GASA_424409053",
    "ee": false,
    "tech_change_status": "Not Planned"
   }
  },
  {
   "type": "Feature",
   "geometry": {
    "type": "Point",
    "coordinates": [
     138.48305856,
     -32.43693336
    ]
   },
   "properties": {
    "name": "LOT 870 WILMINGTON ROAD CARRIETON 5432",
    "locID": "LOC000150221104",
    "tech": "NULL",
    "upgrade": "NULL_NA",
    "gnaf_pid": "GASA_424409054",
    "ee": false,
    "tech_change_status": "Not Planned"
   }
  },
  {
   "type": "Feature",
   "geometry": {
    "type": "Point",
    "coordinates": [
     138.52971892,
     -32.42795179
    ]
   },
   "properties": {
    "name": "LOT 8 SOUTH TERRACE CARRIETON 5432",
    "locID": "LOC000109716086",
    "tech": "SATELLITE",
    "upgrade": "NULL_NA",
    "gnaf_pid": "GASA_424432859",
    "ee": false,
    "tech_change_status": "Not Planned"
   }
  },
  {
   "type": "Feature",
   "geometry": {
    "type": "Point",
    "coordinates": [
     138.53084975,
     -32.42252202
    ]
   },
   "properties": {
    "name": "LOT 204 THIRD STREET CARRIETON 5432",
    "locID": "LOC000110128539",
    "tech": "NULL",
    "upgrade": "NULL_NA",
    "gnaf_pid": "GASA_424433065",
    "ee": false,
    "tech_change_status": "Not Planned"
   }
  },
  {
   "type": "Feature",
   "geometry": {
    "type": "Point",
    "coordinates": [
     138.52490739,
     -32.40928731
    ]
   },
   "properties": {
    "name": "LOT 324 BELTON ROAD CARRIETON 5432",
    "locID": "LOC000150217124",
    "tech": "NULL",
    "upgrade": "NULL_NA",
    "gnaf_pid": "GASA_424557863",
    "ee": false,
    "tech_change_status": "Not Planned"
   }
  },
  {
   "type": "Feature",
   "geometry": {
    "type": "Point",
    "coordinates": [
     138.59391839,
     -32.40186411
    ]
   },
   "properties": {
    "name": "LOT 42 BELTON ROAD CARRIETON 5432",
    "locID": "LOC000150217124",
    "tech": "NULL",
    "upgrade": "NULL_NA",
    "gnaf_pid": "GASA_424557864",
    "ee": false,
    "tech_change_status": "Not Planned"
   }
  },
  {
   "type": "Feature",
   "geometry": {
    "type": "Point",
    "coordinates": [
     138.5291545,
     -32.41795568
    ]
   },
   "properties": {
    "name": "LOT 558 BELTON ROAD CARRIETON 5432",
    "locID": "LOC000150217124",
    "tech": "NULL",
    "upgrade": "NULL_NA",
    "gnaf_pid": "GASA_424557865",
    "ee": false,
    "tech_change_status": "Not Planned"
   }
  },
  {
   "type": "Feature",
   "geometry": {
    "type": "Point",
    "coordinates": [
     138.51154914,
     -32.42877436
    ]
   },
   "properties": {
    "name": "LOT 798 HOARE ROAD CARRIETON 5432",
    "locID": "LOC000150221056",
    "tech": "SATELLITE",
    "upgrade": "NULL_NA",
    "gnaf_pid": "GASA_424561567",
    "ee": false,
    "tech_change_status": "Not Planned"
   }
  },
  {
   "type": "Feature",
   "geometry": {
    "type": "Point",
    "coordinates": [
     138.55984242,
     -32.4329627
    ]
   },
   "properties": {
    "name": "LOT 108 OLADDIE ROAD CARRIETON 5432",
    "locID": "LOC000142383163",
    "tech": "SATELLITE",
    "upgrade": "NULL_NA",
    "gnaf_pid": "GASA_424563898",
    "ee": false,
    "tech_change_status": "Not Planned"
   }
  },
  {
   "type": "Feature",
   "geometry": {
    "type": "Point",
    "coordinates": [
     138.56162904,
     -32.45011595
    ]
   },
   "properties": {
    "name": "LOT 109 OLADDIE ROAD CARRIETON 5432",
    "locID": "LOC000142383163",
    "tech": "SATELLITE",
    "upgrade": "NULL_NA",
    "gnaf_pid": "GASA_424563899",
    "ee": false,
    "tech_change_status": "Not Planned"
   }
  },
  {
   "type": "Feature",
   "geometry": {
    "type": "Point",
    "coordinates": [
     138.58345258,
     -32.45801998
    ]
   },
   "properties": {
    "name": "LOT 90 OLADDIE ROAD CARRIETON 5432",
    "locID": "LOC000142383163",
    "tech": "SATELLITE",
    "upgrade": "NULL_NA",
    "gnaf_pid": "GASA_424563900",
    "ee": false,
    "tech_change_status": "Not Planned"
   }
  },
  {
   "type": "Feature",
   "geometry": {
    "type": "Point",
    "coordinates": [
     138.56490335,
     -32.40718737
    ]
   },
   "properties": {
    "name": "LOT 544 RADEMAKER ROAD CARRIETON 5432",
    "locID": "LOC000150221094",
    "tech": "SATELLITE",
    "upgrade": "NULL_NA",
    "gnaf_pid": "GASA_424565074",
    "ee": false,
    "tech_change_status": "Not Planned"
   }
  },
  {
   "type": "Feature",
   "geometry": {
    "type": "Point",
    "coordinates": [
     138.49304767,
     -32.42586807
    ]
   },
   "properties": {
    "name": "LOT 133 WILMINGTON ROAD CARRIETON 5432",
    "locID": "LOC100078855046",
    "tech": "NULL",
    "upgrade": "NULL_NA",
    "gnaf_pid": "GASA_424567442",
    "ee": false,
    "tech_change_status": "Not Planned"
   }
  },
  {
   "type": "Feature",
   "geometry": {
    "type": "Point",
    "coordinates": [
     138.51352045,
     -32.42923375
    ]
   },
   "properties": {
    "name": "LOT 822 WILMINGTON ROAD CARRIETON 5432",
    "locID": "LOC000150221104",
    "tech": "NULL",
    "upgrade": "NULL_NA",
    "gnaf_pid": "GASA_424605121",
    "ee": false,
    "tech_change_status": "Not Planned"
   }
  },
  {
   "type": "Feature",
   "geometry": {
    "type": "Point",
    "coordinates": [
     138.51939206,
     -32.42913166
    ]
   },
   "properties": {
    "name": "LOT 755 WILMINGTON ROAD CARRIETON 5432",
    "locID": "LOC000150221104",
    "tech": "NULL",
    "upgrade": "NULL_NA",
    "gnaf_pid": "GASA_424653389",
    "ee": false,
    "tech_change_status": "Not Planned"
   }
  },
  {
   "type": "Feature",
   "geometry": {
    "type": "Point",
    "coordinates": [
     138.54541977,
     -32.43208911
    ]
   },
   "properties": {
    "name": "LOT 628 OLADDIE ROAD CARRIETON 5432",
    "locID": "LOC000142383163",
    "tech": "SATELLITE",
    "upgrade": "NULL_NA",
    "gnaf_pid": "GASA_424804548",
    "ee": false,
    "tech_change_status": "Not Planned"
   }
  },
  {
   "type": "Feature",
   "geometry": {
    "type": "Point",
    "coordinates": [
     138.54048496,
     -32.416641
    ]
   },
   "properties": {
    "name": "LOT 549 RADEMAKER ROAD CARRIETON 5432",
    "locID": "LOC000150221094",
    "tech": "SATELLITE",
    "upgrade": "NULL_NA",
    "gnaf_pid": "GASA_424805375",
    "ee": false,
    "tech_change_status": "Not Planned"
   }
  },
  {
   "type": "Feature",
   "geometry": {
    "type": "Point",
    "coordinates": [
     138.53747844,
     -32.41663992
    ]
   },
   "properties": {
    "name": "LOT 552 RADEMAKER ROAD CARRIETON 5432",
    "locID": "LOC000150221094",
    "tech": "SATELLITE",
    "upgrade": "NULL_NA",
    "gnaf_pid": "GASA_424805376",
    "ee": false,
    "tech_change_status": "Not Planned"
   }
  },
  {
   "type": "Feature",
   "geometry": {
    "type": "Point",
    "coordinates": [
     138.53370495,
     -32.43021076
    ]
   },
   "properties": {
    "name": "LOT 619 R M WILLIAMS WAY CARRIETON 5432",
    "locID": "LOC000150221060",
    "tech": "SATELLITE",
    "upgrade": "NULL_NA",
    "gnaf_pid": "GASA_424950835",
    "ee": false,
    "tech_change_status": "Not Planned"
   }
  },
  {
   "type": "Feature",
   "geometry": {
    "type": "Point",
    "coordinates": [
     138.536656,
     -32.379167
    ]
   },
   "properties": {
    "name": "285 BELTON ROAD CARRIETON 5432",
    "locID": "LOC100078067943",
    "tech": "SATELLITE",
    "upgrade": "NULL_NA",
    "gnaf_pid": "GASA_425137040",
    "ee": false,
    "tech_change_status": "Not Planned"
   }
  },
  {
   "type": "Feature",
   "geometry": {
    "type": "Point",
    "coordinates": [
     138.49675363,
     -32.34702786
    ]
   },
   "properties": {
    "name": "146 BRIGHTS LANE CARRIETON 5432",
    "locID": "LOC000150221041",
    "tech": "NULL",
    "upgrade": "NULL_NA",
    "gnaf_pid": "GASA_425137263",
    "ee": false,
    "tech_change_status": "Not Planned"
   }
  },
  {
   "type": "Feature",
   "geometry": {
    "type": "Point",
    "coordinates": [
     138.51643417,
     -32.42616001
    ]
   },
   "properties": {
    "name": "126 HOARE ROAD CARRIETON 5432",
    "locID": "LOC000150221056",
    "tech": "SATELLITE",
    "upgrade": "NULL_NA",
    "gnaf_pid": "GASA_425138761",
    "ee": false,
    "tech_change_status": "Not Planned"
   }
  },
  {
   "type": "Feature",
   "geometry": {
    "type": "Point",
    "coordinates": [
     138.53617423,
     -32.44702288
    ]
   },
   "properties": {
    "name": "15635 R M WILLIAMS WAY CARRIETON 5432",
    "locID": "LOC000150221060",
    "tech": "SATELLITE",
    "upgrade": "NULL_NA",
    "gnaf_pid": "GASA_425140181",
    "ee": false,
    "tech_change_status": "Not Planned"
   }
  },
  {
   "type": "Feature",
   "geometry": {
    "type": "Point",
    "coordinates": [
     138.53163387,
     -32.43052056
    ]
   },
   "properties": {
    "name": "15827 R M WILLIAMS WAY CARRIETON 5432",
    "locID": "LOC000150221073",
    "tech": "SATELLITE",
    "upgrade": "NULL_NA",
    "gnaf_pid": "GASA_425140182",
    "ee": false,
    "tech_change_status": "Not Planned"
   }
  },
  {
   "type": "Feature",
   "geometry": {
    "type": "Point",
    "coordinates": [
     138.48635524,
     -32.34717372
    ]
   },
   "properties": {
    "name": "16873 R M WILLIAMS WAY CARRIETON 5432",
    "locID": "LOC000150221087",
    "tech": "NULL",
    "upgrade": "NULL_NA",
    "gnaf_pid": "GASA_425140183",
    "ee": false,
    "tech_change_status": "Not Planned"
   }
  },
  {
   "type": "Feature",
   "geometry": {
    "type": "Point",
    "coordinates": [
     138.54286602,
     -32.41777619
    ]
   },
   "properties": {
    "name": "154 RADEMAKER ROAD CARRIETON 5432",
    "locID": "LOC000154625816",
    "tech": "SATELLITE",
    "upgrade": "NULL_NA",
    "gnaf_pid": "GASA_425140223",
    "ee": false,
    "tech_change_status": "Not Planned"
   }
  },
  {
   "type": "Feature",
   "geometry": {
    "type": "Point",
    "coordinates": [
     138.53489089,
     -32.4206965
    ]
   },
   "properties": {
    "name": "49 RADEMAKER ROAD CARRIETON 5432",
    "locID": "LOC000150221094",
    "tech": "SATELLITE",
    "upgrade": "NULL_NA",
    "gnaf_pid": "GASA_425140224",
    "ee": false,
    "tech_change_status": "Not Planned"
   }
  },
  {
   "type": "Feature",
   "geometry": {
    "type": "Point",
    "coordinates": [
     138.517667,
     -32.431158
    ]
   },
   "properties": {
    "name": "133 WILMINGTON ROAD CARRIETON 5432",
    "locID": "LOC100078855046",
    "tech": "NULL",
    "upgrade": "NULL_NA",
    "gnaf_pid": "GASA_425141353",
    "ee": false,
    "tech_change_status": "Not Planned"
   }
  },
  {
   "type": "Feature",
   "geometry": {
    "type": "Point",
    "coordinates": [
     138.50841811,
     -32.4342528
    ]
   },
   "properties": {
    "name": "227 WILMINGTON ROAD CARRIETON 5432",
    "locID": "LOC100071955210",
    "tech": "NULL",
    "upgrade": "NULL_NA",
    "gnaf_pid": "GASA_425141354",
    "ee": false,
    "tech_change_status": "Not Planned"
   }
  },
  {
   "type": "Feature",
   "geometry": {
    "type": "Point",
    "coordinates": [
     138.5058822,
     -32.43362428
    ]
   },
   "properties": {
    "name": "252 WILMINGTON ROAD CARRIETON 5432",
    "locID": "LOC000150221104",
    "tech": "NULL",
    "upgrade": "NULL_NA",
    "gnaf_pid": "GASA_425141355",
    "ee": false,
    "tech_change_status": "Not Planned"
   }
  },
  {
   "type": "Feature",
   "geometry": {
    "type": "Point",
    "coordinates": [
     138.50207075,
     -32.38365437
    ]
   },
   "properties": {
    "name": "16405 R M WILLIAMS WAY CARRIETON 5432",
    "locID": "LOC000150221127",
    "tech": "NULL",
    "upgrade": "NULL_NA",
    "gnaf_pid": "GASA_425299989",
    "ee": false,
    "tech_change_status": "Not Planned"
   }
  },
  {
   "type": "Feature",
   "geometry": {
    "type": "Point",
    "coordinates": [
     138.53050304,
     -32.42440334
    ]
   },
   "properties": {
    "name": "LOT 1 MAIN STREET CARRIETON 5432",
    "locID": "LOC000109273663",
    "tech": "NULL",
    "upgrade": "NULL_NA",
    "gnaf_pid": "GASA_425301651",
    "ee": false,
    "tech_change_status": "Not Planned"
   }
  },
  {
   "type": "Feature",
   "geometry": {
    "type": "Point",
    "coordinates": [
     138.53063799,
     -32.42763706
    ]
   },
   "properties": {
    "name": "LOT 5 MAIN STREET CARRIETON 5432",
    "locID": "LOC000109273663",
    "tech": "NULL",
    "upgrade": "NULL_NA",
    "gnaf_pid": "GASA_425502505",
    "ee": false,
    "tech_change_status": "Not Planned"
   }
  },
  {
   "type": "Feature",
   "geometry": {
    "type": "Point",
    "coordinates": [
     138.50046501,
     -32.37495854
    ]
   },
   "properties": {
    "name": "LOT 358 R M WILLIAMS WAY CARRIETON 5432",
    "locID": "LOC000150221060",
    "tech": "SATELLITE",
    "upgrade": "NULL_NA",
    "gnaf_pid": "GASA_425583504",
    "ee": false,
    "tech_change_status": "Not Planned"
   }
  },
  {
   "type": "Feature",
   "geometry": {
    "type": "Point",
    "coordinates": [
     138.61607497,
     -32.41232128
    ]
   },
   "properties": {
    "name": "LOT 37 YANKAMITTLA ROAD CARRIETON 5432",
    "locID": "LOC100076435994",
    "tech": "SATELLITE",
    "upgrade": "NULL_NA",
    "gnaf_pid": "GASA_425584654",
    "ee": false,
    "tech_change_status": "Not Planned"
   }
  },
  {
   "type": "Feature",
   "geometry": {
    "type": "Point",
    "coordinates": [
     138.57295309,
     -32.45397494
    ]
   },
   "properties": {
    "name": "LOT 110 OLADDIE ROAD CARRIETON 5432",
    "locID": "LOC000142383163",
    "tech": "SATELLITE",
    "upgrade": "NULL_NA",
    "gnaf_pid": "GASA_425723160",
    "ee": false,
    "tech_change_status": "Not Planned"
   }
  },
  {
   "type": "Feature",
   "geometry": {
    "type": "Point",
    "coordinates": [
     138.58119074,
     -32.42161073
    ]
   },
   "properties": {
    "name": "LOT 111 OLADDIE ROAD CARRIETON 5432",
    "locID": "LOC000142383163",
    "tech": "SATELLITE",
    "upgrade": "NULL_NA",
    "gnaf_pid": "GASA_425723161",
    "ee": false,
    "tech_change_status": "Not Planned"
   }
  },
  {
   "type": "Feature",
   "geometry": {
    "type": "Point",
    "coordinates": [
     138.60995605,
     -32.40628251
    ]
   },
   "properties": {
    "name": "LOT 93 YANKAMITTLA ROAD CARRIETON 5432",
    "locID": "LOC100076435994",
    "tech": "SATELLITE",
    "upgrade": "NULL_NA",
    "gnaf_pid": "GASA_718978659",
    "ee": false,
    "tech_change_status": "Not Planned"
   }
  },
  {
   "type": "Feature",
   "geometry": {
    "type": "Point",
    "coordinates": [
     138.52050432,
     -32.43321595
    ]
   },
   "properties": {
    "name": "LOT 21 WILMINGTON ROAD CARRIETON 5432",
    "locID": "LOC000150221104",
    "tech": "NULL",
    "upgrade": "NULL_NA",
    "gnaf_pid": "GASA_719860860",
    "ee": false,
    "tech_change_status": "Not Planned"
   }
  },
  {
   "type": "Feature",
   "geometry": {
    "type": "Point",
    "coordinates": [
     138.52125743,
     -32.42733087
    ]
   },
   "properties": {
    "name": "LOT 839 WILMINGTON ROAD CARRIETON 5432",
    "locID": "LOC000150221104",
    "tech": "NULL",
    "upgrade": "NULL_NA",
    "gnaf_pid": "GASA_720186971",
    "ee": false,
    "tech_change_status": "Not Planned"
   }
  },
  {
   "type": "Feature",
   "geometry": {
    "type": "Point",
    "coordinates": [
     138.47592339,
     -32.37643453
    ]
   },
   "properties": {
    "name": "LOT 1 R M WILLIAMS WAY CARRIETON 5432",
    "locID": "LOC000150221060",
    "tech": "SATELLITE",
    "upgrade": "NULL_NA",
    "gnaf_pid": "GASA_720186992",
    "ee": false,
    "tech_change_status": "Not Planned"
   }
  },
  {
   "type": "Feature",
   "geometry": {
    "type": "Point",
    "coordinates": [
     138.55808116,
     -32.44340209
    ]
   },
   "properties": {
    "name": "LOT 819 R M WILLIAMS WAY CARRIETON 5432",
    "locID": "LOC000150221060",
    "tech": "SATELLITE",
    "upgrade": "NULL_NA",
    "gnaf_pid": "GASA_720189349",
    "ee": false,
    "tech_change_status": "Not Planned"
   }
  },
  {
   "type": "Feature",
   "geometry": {
    "type": "Point",
    "coordinates": [
     138.5053151,
     -32.42891486
    ]
   },
   "properties": {
    "name": "LOT 864 HOARE ROAD CARRIETON 5432",
    "locID": "LOC000150221056",
    "tech": "SATELLITE",
    "upgrade": "NULL_NA",
    "gnaf_pid": "GASA_720189772",
    "ee": false,
    "tech_change_status": "Not Planned"
   }
  },
  {
   "type": "Feature",
   "geometry": {
    "type": "Point",
    "coordinates": [
     138.53722059,
     -32.42580181
    ]
   },
   "properties": {
    "name": "LOT 533 R M WILLIAMS WAY CARRIETON 5432",
    "locID": "LOC000150221060",
    "tech": "SATELLITE",
    "upgrade": "NULL_NA",
    "gnaf_pid": "GASA_720189954",
    "ee": false,
    "tech_change_status": "Not Planned"
   }
  },
  {
   "type": "Feature",
   "geometry": {
    "type": "Point",
    "coordinates": [
     138.4961238,
     -32.41660817
    ]
   },
   "properties": {
    "name": "LOT 743 R M WILLIAMS WAY CARRIETON 5432",
    "locID": "LOC000150221060",
    "tech": "SATELLITE",
    "upgrade": "NULL_NA",
    "gnaf_pid": "GASA_720190032",
    "ee": false,
    "tech_change_status": "Not Planned"
   }
  },
  {
   "type": "Feature",
   "geometry": {
    "type": "Point",
    "coordinates": [
     138.52438973,
     -32.46540943
    ]
   },
   "properties": {
    "name": "LOT 850 R M WILLIAMS WAY CARRIETON 5432",
    "locID": "LOC000150221060",
    "tech": "SATELLITE",
    "upgrade": "NULL_NA",
    "gnaf_pid": "GASA_720190257",
    "ee": false,
    "tech_change_status": "Not Planned"
   }
  },
  {
   "type": "Feature",
   "geometry": {
    "type": "Point",
    "coordinates": [
     138.52980291,
     -32.42283357
    ]
   },
   "properties": {
    "name": "8 THIRD STREET CARRIETON 5432",
    "locID": "LOC000110128539",
    "tech": "NULL",
    "upgrade": "NULL_NA",
    "gnaf_pid": "GASA_721008167",
    "ee": false,
    "tech_change_status": "Not Planned"
   }
  },
  {
   "type": "Feature",
   "geometry": {
    "type": "Point",
    "coordinates": [
     138.52958889,
     -32.4247013
    ]
   },
   "properties": {
    "name": "6 SECOND STREET CARRIETON 5432",
    "locID": "LOC000110101150",
    "tech": "SATELLITE",
    "upgrade": "NULL_NA",
    "gnaf_pid": "GASA_721008268",
    "ee": false,
    "tech_change_status": "Not Planned"
   }
  },
  {
   "type": "Feature",
   "geometry": {
    "type": "Point",
    "coordinates": [
     138.53104244,
     -32.42194019
    ]
   },
   "properties": {
    "name": "5 RADEMAKER ROAD CARRIETON 5432",
    "locID": "LOC000150221094",
    "tech": "SATELLITE",
    "upgrade": "NULL_NA",
    "gnaf_pid": "GASA_721071375",
    "ee": false,
    "tech_change_status": "Not Planned"
   }
  },
  {
   "type": "Feature",
   "geometry": {
    "type": "Point",
    "coordinates": [
     138.52842316,
     -32.42226788
    ]
   },
   "properties": {
    "name": "10 FIFTH STREET CARRIETON 5432",
    "locID": "LOC000108985970",
    "tech": "SATELLITE",
    "upgrade": "NULL_NA",
    "gnaf_pid": "GASA_721071745",
    "ee": false,
    "tech_change_status": "Not Planned"
   }
  },
  {
   "type": "Feature",
   "geometry": {
    "type": "Point",
    "coordinates": [
     138.52984963,
     -32.4231048
    ]
   },
   "properties": {
    "name": "22 MAIN STREET CARRIETON 5432",
    "locID": "LOC000115044815",
    "tech": "SATELLITE",
    "upgrade": "NULL_NA",
    "gnaf_pid": "GASA_721071940",
    "ee": false,
    "tech_change_status": "Not Planned"
   }
  },
  {
   "type": "Feature",
   "geometry": {
    "type": "Point",
    "coordinates": [
     138.53021037,
     -32.42518469
    ]
   },
   "properties": {
    "name": "38 MAIN STREET CARRIETON 5432",
    "locID": "LOC100087508501",
    "tech": "NULL",
    "upgrade": "NULL_NA",
    "gnaf_pid": "GASA_721072107",
    "ee": false,
    "tech_change_status": "Not Planned"
   }
  },
  {
   "type": "Feature",
   "geometry": {
    "type": "Point",
    "coordinates": [
     138.53251718,
     -32.4246228
    ]
   },
   "properties": {
    "name": "15 FOURTH STREET CARRIETON 5432",
    "locID": "LOC100078068308",
    "tech": "NULL",
    "upgrade": "NULL_NA",
    "gnaf_pid": "GASA_721072248",
    "ee": false,
    "tech_change_status": "Not Planned"
   }
  },
  {
   "type": "Feature",
   "geometry": {
    "type": "Point",
    "coordinates": [
     138.52873514,
     -32.42407347
    ]
   },
   "properties": {
    "name": "26 FIFTH STREET CARRIETON 5432",
    "locID": "LOC100087508540",
    "tech": "NULL",
    "upgrade": "NULL_NA",
    "gnaf_pid": "GASA_721072424",
    "ee": false,
    "tech_change_status": "Not Planned"
   }
  },
  {
   "type": "Feature",
   "geometry": {
    "type": "Point",
    "coordinates": [
     138.53161411,
     -32.42189563
    ]
   },
   "properties": {
    "name": "4 RADEMAKER ROAD CARRIETON 5432",
    "locID": "LOC000150221094",
    "tech": "SATELLITE",
    "upgrade": "NULL_NA",
    "gnaf_pid": "GASA_721072578",
    "ee": false,
    "tech_change_status": "Not Planned"
   }
  },
  {
   "type": "Feature",
   "geometry": {
    "type": "Point",
    "coordinates": [
     138.52860905,
     -32.42334978
    ]
   },
   "properties": {
    "name": "19 FIFTH STREET CARRIETON 5432",
    "locID": "LOC100087508783",
    "tech": "NULL",
    "upgrade": "NULL_NA",
    "gnaf_pid": "GASA_721072703",
    "ee": false,
    "tech_change_status": "Not Planned"
   }
  },
  {
   "type": "Feature",
   "geometry": {
    "type": "Point",
    "coordinates": [
     138.52934179,
     -32.42325994
    ]
   },
   "properties": {
    "name": "17 FIFTH STREET CARRIETON 5432",
    "locID": "LOC100071955155",
    "tech": "NULL",
    "upgrade": "NULL_NA",
    "gnaf_pid": "GASA_721072970",
    "ee": false,
    "tech_change_status": "Not Planned"
   }
  },
  {
   "type": "Feature",
   "geometry": {
    "type": "Point",
    "coordinates": [
     138.5292949,
     -32.42298872
    ]
   },
   "properties": {
    "name": "15 FIFTH STREET CARRIETON 5432",
    "locID": "LOC000109488020",
    "tech": "SATELLITE",
    "upgrade": "NULL_NA",
    "gnaf_pid": "GASA_721073188",
    "ee": false,
    "tech_change_status": "Not Planned"
   }
  },
  {
   "type": "Feature",
   "geometry": {
    "type": "Point",
    "coordinates": [
     138.53005487,
     -32.42428048
    ]
   },
   "properties": {
    "name": "30 MAIN STREET CARRIETON 5432",
    "locID": "LOC000108680501",
    "tech": "NULL",
    "upgrade": "NULL_NA",
    "gnaf_pid": "GASA_721073409",
    "ee": false,
    "tech_change_status": "Not Planned"
   }
  },
  {
   "type": "Feature",
   "geometry": {
    "type": "Point",
    "coordinates": [
     138.52939004,
     -32.42353278
    ]
   },
   "properties": {
    "name": "21 FIFTH STREET CARRIETON 5432",
    "locID": "LOC100071955155",
    "tech": "NULL",
    "upgrade": "NULL_NA",
    "gnaf_pid": "GASA_721073448",
    "ee": false,
    "tech_change_status": "Not Planned"
   }
  },
  {
   "type": "Feature",
   "geometry": {
    "type": "Point",
    "coordinates": [
     138.52969968,
     -32.42229445
    ]
   },
   "properties": {
    "name": "14 MAIN STREET CARRIETON 5432",
    "locID": "LOC000109273663",
    "tech": "NULL",
    "upgrade": "NULL_NA",
    "gnaf_pid": "GASA_721074085",
    "ee": false,
    "tech_change_status": "Not Planned"
   }
  },
  {
   "type": "Feature",
   "geometry": {
    "type": "Point",
    "coordinates": [
     138.5285771,
     -32.42316888
    ]
   },
   "properties": {
    "name": "16 FIFTH STREET CARRIETON 5432",
    "locID": "LOC000131550681",
    "tech": "NULL",
    "upgrade": "NULL_NA",
    "gnaf_pid": "GASA_721074899",
    "ee": false,
    "tech_change_status": "Not Planned"
   }
  },
  {
   "type": "Feature",
   "geometry": {
    "type": "Point",
    "coordinates": [
     138.53000854,
     -32.4240081
    ]
   },
   "properties": {
    "name": "28 MAIN STREET CARRIETON 5432",
    "locID": "LOC000109273663",
    "tech": "NULL",
    "upgrade": "NULL_NA",
    "gnaf_pid": "GASA_721074989",
    "ee": false,
    "tech_change_status": "Not Planned"
   }
  },
  {
   "type": "Feature",
   "geometry": {
    "type": "Point",
    "coordinates": [
     138.53233298,
     -32.42510694
    ]
   },
   "properties": {
    "name": "17 FOURTH STREET CARRIETON 5432",
    "locID": "LOC000107783650",
    "tech": "NULL",
    "upgrade": "NULL_NA",
    "gnaf_pid": "GASA_721075246",
    "ee": false,
    "tech_change_status": "Not Planned"
   }
  },
  {
   "type": "Feature",
   "geometry": {
    "type": "Point",
    "coordinates": [
     138.52908711,
     -32.42764326
    ]
   },
   "properties": {
    "name": "8 SOUTH TERRACE CARRIETON 5432",
    "locID": "LOC000109716086",
    "tech": "SATELLITE",
    "upgrade": "NULL_NA",
    "gnaf_pid": "GASA_721075273",
    "ee": false,
    "tech_change_status": "Not Planned"
   }
  },
  {
   "type": "Feature",
   "geometry": {
    "type": "Point",
    "coordinates": [
     138.53096566,
     -32.42306219
    ]
   },
   "properties": {
    "name": "LOT 189 MAIN STREET CARRIETON 5432",
    "locID": "LOC000109273663",
    "tech": "NULL",
    "upgrade": "NULL_NA",
    "gnaf_pid": "GASA_721251301",
    "ee": false,
    "tech_change_status": "Not Planned"
   }
  },
  {
   "type": "Feature",
   "geometry": {
    "type": "Point",
    "coordinates": [
     138.53099774,
     -32.42324138
    ]
   },
   "properties": {
    "name": "LOT 179 FOURTH STREET CARRIETON 5432",
    "locID": "LOC000107783650",
    "tech": "NULL",
    "upgrade": "NULL_NA",
    "gnaf_pid": "GASA_721251623",
    "ee": false,
    "tech_change_status": "Not Planned"
   }
  },
  {
   "type": "Feature",
   "geometry": {
    "type": "Point",
    "coordinates": [
     138.4540945,
     -32.38634506
    ]
   },
   "properties": {
    "name": "LOT 14 GLEESON ROAD CARRIETON 5432",
    "locID": "LOC000153794884",
    "tech": "SATELLITE",
    "upgrade": "NULL_NA",
    "gnaf_pid": "GASA_721277149",
    "ee": false,
    "tech_change_status": "Not Planned"
   }
  }
 ]
}