{
 "type": "FeatureCollection",
 "generated": "2025-06-15T10:56:17.936046",
 "suburb": "CHINBINGINA",
 "features": [
  {
   "type": "Feature",
   "geometry": {
    "type": "Point",
    "coordinates": [
     134.17232599,
     -32.22090593
    ]
   },
   "properties": {
    "name": "LOT 38 EYRE HIGHWAY CHINBINGINA 5680",
    "locID": "LOC000148249637",
    "tech": "NULL",
    "upgrade": "NULL_NA",
    "gnaf_pid": "GASA_424300281",
    "ee": false,
    "tech_change_status": "Not Planned"
   }
  }
 ]
}