{
 "type": "FeatureCollection",
 "generated": "2025-06-15T11:09:00.723131",
 "suburb": "CLIFTON HILLS STATION",
 "features": [
  {
   "type": "Feature",
   "geometry": {
    "type": "Point",
    "coordinates": [
     138.895071,
     -27.018476
    ]
   },
   "properties": {
    "name": "217 CLIFTON HILLS ROAD CLIFTON HILLS STATION 5733",
    "locID": "LOC000148246181",
    "tech": "SATELLITE",
    "upgrade": "NULL_NA",
    "gnaf_pid": "GASA_425628687",
    "ee": false,
    "tech_change_status": "Not Planned"
   }
  }
 ]
}