{
 "type": "FeatureCollection",
 "generated": "2025-06-15T11:15:06.527420",
 "suburb": "COCKBURN",
 "features": [
  {
   "type": "Feature",
   "geometry": {
    "type": "Point",
    "coordinates": [
     140.99485676,
     -32.0785105
    ]
   },
   "properties": {
    "name": "2 WAITE TERRACE COCKBURN 5440",
    "locID": "LOC000107613715",
    "tech": "NULL",
    "upgrade": "NULL_NA",
    "gnaf_pid": "GASA_415719838",
    "ee": false,
    "tech_change_status": "Not Planned"
   }
  },
  {
   "type": "Feature",
   "geometry": {
    "type": "Point",
    "coordinates": [
     141.00000487,
     -32.07773938
    ]
   },
   "properties": {
    "name": "LOT 202 WAITE TERRACE COCKBURN 5440",
    "locID": "LOC000107613715",
    "tech": "NULL",
    "upgrade": "NULL_NA",
    "gnaf_pid": "GASA_424054985",
    "ee": false,
    "tech_change_status": "Not Planned"
   }
  },
  {
   "type": "Feature",
   "geometry": {
    "type": "Point",
    "coordinates": [
     140.99680346,
     -32.07642208
    ]
   },
   "properties": {
    "name": "LOT 164 ELDER TERRACE COCKBURN 5440",
    "locID": "LOC000108153006",
    "tech": "NULL",
    "upgrade": "NULL_NA",
    "gnaf_pid": "GASA_424168814",
    "ee": false,
    "tech_change_status": "Not Planned"
   }
  },
  {
   "type": "Feature",
   "geometry": {
    "type": "Point",
    "coordinates": [
     140.99858689,
     -32.07634786
    ]
   },
   "properties": {
    "name": "LOT 168 ELDER TERRACE COCKBURN 5440",
    "locID": "LOC000108153006",
    "tech": "NULL",
    "upgrade": "NULL_NA",
    "gnaf_pid": "GASA_424168815",
    "ee": false,
    "tech_change_status": "Not Planned"
   }
  },
  {
   "type": "Feature",
   "geometry": {
    "type": "Point",
    "coordinates": [
     140.99485674,
     -32.07642342
    ]
   },
   "properties": {
    "name": "LOT 1 ELDER TERRACE COCKBURN 5440",
    "locID": "LOC000108153006",
    "tech": "NULL",
    "upgrade": "NULL_NA",
    "gnaf_pid": "GASA_424168819",
    "ee": false,
    "tech_change_status": "Not Planned"
   }
  },
  {
   "type": "Feature",
   "geometry": {
    "type": "Point",
    "coordinates": [
     140.99952807,
     -32.07746709
    ]
   },
   "properties": {
    "name": "LOT 200 ELDER TERRACE COCKBURN 5440",
    "locID": "LOC000108153006",
    "tech": "NULL",
    "upgrade": "NULL_NA",
    "gnaf_pid": "GASA_424168820",
    "ee": false,
    "tech_change_status": "Not Planned"
   }
  },
  {
   "type": "Feature",
   "geometry": {
    "type": "Point",
    "coordinates": [
     140.9980861,
     -32.07746707
    ]
   },
   "properties": {
    "name": "LOT 203 ELDER TERRACE COCKBURN 5440",
    "locID": "LOC000108153006",
    "tech": "NULL",
    "upgrade": "NULL_NA",
    "gnaf_pid": "GASA_424168821",
    "ee": false,
    "tech_change_status": "Not Planned"
   }
  },
  {
   "type": "Feature",
   "geometry": {
    "type": "Point",
    "coordinates": [
     140.99794156,
     -32.07642352
    ]
   },
   "properties": {
    "name": "LOT 322 ELDER TERRACE COCKBURN 5440",
    "locID": "LOC000108153006",
    "tech": "NULL",
    "upgrade": "NULL_NA",
    "gnaf_pid": "GASA_424168828",
    "ee": false,
    "tech_change_status": "Not Planned"
   }
  },
  {
   "type": "Feature",
   "geometry": {
    "type": "Point",
    "coordinates": [
     141.000079,
     -32.07596981
    ]
   },
   "properties": {
    "name": "LOT 29 FOURTH STREET COCKBURN 5440",
    "locID": "LOC000096401628",
    "tech": "HFC",
    "upgrade": "NULL_NA",
    "gnaf_pid": "GASA_424172186",
    "ee": true
   }
  },
  {
   "type": "Feature",
   "geometry": {
    "type": "Point",
    "coordinates": [
     140.9979475,
     -32.0759698
    ]
   },
   "properties": {
    "name": "LOT 38 FOURTH STREET COCKBURN 5440",
    "locID": "LOC000109400516",
    "tech": "NULL",
    "upgrade": "NULL_NA",
    "gnaf_pid": "GASA_424172189",
    "ee": false,
    "tech_change_status": "Not Planned"
   }
  },
  {
   "type": "Feature",
   "geometry": {
    "type": "Point",
    "coordinates": [
     140.99613571,
     -32.07533454
    ]
   },
   "properties": {
    "name": "LOT 57 FOURTH STREET COCKBURN 5440",
    "locID": "LOC000048137372",
    "tech": "HFC",
    "upgrade": "NULL_NA",
    "gnaf_pid": "GASA_424172197",
    "ee": true
   }
  },
  {
   "type": "Feature",
   "geometry": {
    "type": "Point",
    "coordinates": [
     140.99720146,
     -32.07533457
    ]
   },
   "properties": {
    "name": "LOT 61 FOURTH STREET COCKBURN 5440",
    "locID": "LOC000131404606",
    "tech": "NULL",
    "upgrade": "NULL_NA",
    "gnaf_pid": "GASA_424172200",
    "ee": false,
    "tech_change_status": "Not Planned"
   }
  },
  {
   "type": "Feature",
   "geometry": {
    "type": "Point",
    "coordinates": [
     140.99688165,
     -32.07596972
    ]
   },
   "properties": {
    "name": "LOT 91 FOURTH STREET COCKBURN 5440",
    "locID": "LOC000131409314",
    "tech": "NULL",
    "upgrade": "NULL_NA",
    "gnaf_pid": "GASA_424172213",
    "ee": false,
    "tech_change_status": "Not Planned"
   }
  },
  {
   "type": "Feature",
   "geometry": {
    "type": "Point",
    "coordinates": [
     140.9954961,
     -32.07851056
    ]
   },
   "properties": {
    "name": "LOT 104 WAITE TERRACE COCKBURN 5440",
    "locID": "LOC000107613715",
    "tech": "NULL",
    "upgrade": "NULL_NA",
    "gnaf_pid": "GASA_424218097",
    "ee": false,
    "tech_change_status": "Not Planned"
   }
  },
  {
   "type": "Feature",
   "geometry": {
    "type": "Point",
    "coordinates": [
     140.99592242,
     -32.07851058
    ]
   },
   "properties": {
    "name": "LOT 107 WAITE TERRACE COCKBURN 5440",
    "locID": "LOC000131377269",
    "tech": "NULL",
    "upgrade": "NULL_NA",
    "gnaf_pid": "GASA_424218099",
    "ee": false,
    "tech_change_status": "Not Planned"
   }
  },
  {
   "type": "Feature",
   "geometry": {
    "type": "Point",
    "coordinates": [
     140.9965619,
     -32.0785106
    ]
   },
   "properties": {
    "name": "LOT 108 WAITE TERRACE COCKBURN 5440",
    "locID": "LOC000107613715",
    "tech": "NULL",
    "upgrade": "NULL_NA",
    "gnaf_pid": "GASA_424218100",
    "ee": false,
    "tech_change_status": "Not Planned"
   }
  },
  {
   "type": "Feature",
   "geometry": {
    "type": "Point",
    "coordinates": [
     140.99698817,
     -32.07851061
    ]
   },
   "properties": {
    "name": "LOT 110 WAITE TERRACE COCKBURN 5440",
    "locID": "LOC000107613715",
    "tech": "NULL",
    "upgrade": "NULL_NA",
    "gnaf_pid": "GASA_424218101",
    "ee": false,
    "tech_change_status": "Not Planned"
   }
  },
  {
   "type": "Feature",
   "geometry": {
    "type": "Point",
    "coordinates": [
     140.9979474,
     -32.07851063
    ]
   },
   "properties": {
    "name": "LOT 113 WAITE TERRACE COCKBURN 5440",
    "locID": "LOC000107613715",
    "tech": "NULL",
    "upgrade": "NULL_NA",
    "gnaf_pid": "GASA_424218102",
    "ee": false,
    "tech_change_status": "Not Planned"
   }
  },
  {
   "type": "Feature",
   "geometry": {
    "type": "Point",
    "coordinates": [
     141.00007901,
     -32.07851065
    ]
   },
   "properties": {
    "name": "LOT 114 WAITE TERRACE COCKBURN 5440",
    "locID": "LOC000107613715",
    "tech": "NULL",
    "upgrade": "NULL_NA",
    "gnaf_pid": "GASA_424218103",
    "ee": false,
    "tech_change_status": "Not Planned"
   }
  },
  {
   "type": "Feature",
   "geometry": {
    "type": "Point",
    "coordinates": [
     140.99880004,
     -32.07851064
    ]
   },
   "properties": {
    "name": "LOT 117 WAITE TERRACE COCKBURN 5440",
    "locID": "LOC000107613715",
    "tech": "NULL",
    "upgrade": "NULL_NA",
    "gnaf_pid": "GASA_424218104",
    "ee": false,
    "tech_change_status": "Not Planned"
   }
  },
  {
   "type": "Feature",
   "geometry": {
    "type": "Point",
    "coordinates": [
     141.00029217,
     -32.07851065
    ]
   },
   "properties": {
    "name": "LOT 123 WAITE TERRACE COCKBURN 5440",
    "locID": "LOC000107613715",
    "tech": "NULL",
    "upgrade": "NULL_NA",
    "gnaf_pid": "GASA_424218105",
    "ee": false,
    "tech_change_status": "Not Planned"
   }
  },
  {
   "type": "Feature",
   "geometry": {
    "type": "Point",
    "coordinates": [
     140.99655729,
     -32.07708911
    ]
   },
   "properties": {
    "name": "LOT 1578 ELDER TERRACE COCKBURN 5440",
    "locID": "LOC000131400190",
    "tech": "NULL",
    "upgrade": "NULL_NA",
    "gnaf_pid": "GASA_424299452",
    "ee": false,
    "tech_change_status": "Not Planned"
   }
  },
  {
   "type": "Feature",
   "geometry": {
    "type": "Point",
    "coordinates": [
     140.99711521,
     -32.07708787
    ]
   },
   "properties": {
    "name": "LOT 1579 ELDER TERRACE COCKBURN 5440",
    "locID": "LOC000131400208",
    "tech": "SATELLITE",
    "upgrade": "NULL_NA",
    "gnaf_pid": "GASA_424299453",
    "ee": false,
    "tech_change_status": "Not Planned"
   }
  },
  {
   "type": "Feature",
   "geometry": {
    "type": "Point",
    "coordinates": [
     140.99815758,
     -32.07620279
    ]
   },
   "properties": {
    "name": "LOT 5 ELDER TERRACE COCKBURN 5440",
    "locID": "LOC000108153006",
    "tech": "NULL",
    "upgrade": "NULL_NA",
    "gnaf_pid": "GASA_424299455",
    "ee": false,
    "tech_change_status": "Not Planned"
   }
  },
  {
   "type": "Feature",
   "geometry": {
    "type": "Point",
    "coordinates": [
     140.99838794,
     -32.07870701
    ]
   },
   "properties": {
    "name": "LOT 115 WAITE TERRACE COCKBURN 5440",
    "locID": "LOC000107613715",
    "tech": "NULL",
    "upgrade": "NULL_NA",
    "gnaf_pid": "GASA_424338813",
    "ee": false,
    "tech_change_status": "Not Planned"
   }
  },
  {
   "type": "Feature",
   "geometry": {
    "type": "Point",
    "coordinates": [
     140.99503473,
     -32.07784329
    ]
   },
   "properties": {
    "name": "LOT 1580 WAITE TERRACE COCKBURN 5440",
    "locID": "LOC000107613715",
    "tech": "NULL",
    "upgrade": "NULL_NA",
    "gnaf_pid": "GASA_424338814",
    "ee": false,
    "tech_change_status": "Not Planned"
   }
  },
  {
   "type": "Feature",
   "geometry": {
    "type": "Point",
    "coordinates": [
     140.99526446,
     -32.07784304
    ]
   },
   "properties": {
    "name": "LOT 1581 WAITE TERRACE COCKBURN 5440",
    "locID": "LOC000107613715",
    "tech": "NULL",
    "upgrade": "NULL_NA",
    "gnaf_pid": "GASA_424338815",
    "ee": false,
    "tech_change_status": "Not Planned"
   }
  },
  {
   "type": "Feature",
   "geometry": {
    "type": "Point",
    "coordinates": [
     140.99550269,
     -32.07783418
    ]
   },
   "properties": {
    "name": "LOT 1582 WAITE TERRACE COCKBURN 5440",
    "locID": "LOC000107613715",
    "tech": "NULL",
    "upgrade": "NULL_NA",
    "gnaf_pid": "GASA_424338816",
    "ee": false,
    "tech_change_status": "Not Planned"
   }
  },
  {
   "type": "Feature",
   "geometry": {
    "type": "Point",
    "coordinates": [
     140.99837373,
     -32.07642352
    ]
   },
   "properties": {
    "name": "LOT 15 ELDER TERRACE COCKBURN 5440",
    "locID": "LOC000131400208",
    "tech": "SATELLITE",
    "upgrade": "NULL_NA",
    "gnaf_pid": "GASA_424519597",
    "ee": false,
    "tech_change_status": "Not Planned"
   }
  },
  {
   "type": "Feature",
   "geometry": {
    "type": "Point",
    "coordinates": [
     140.99787069,
     -32.07813797
    ]
   },
   "properties": {
    "name": "LOT 112 WAITE TERRACE COCKBURN 5440",
    "locID": "LOC000107613715",
    "tech": "NULL",
    "upgrade": "NULL_NA",
    "gnaf_pid": "GASA_719399620",
    "ee": false,
    "tech_change_status": "Not Planned"
   }
  },
  {
   "type": "Feature",
   "geometry": {
    "type": "Point",
    "coordinates": [
     140.99787069,
     -32.07813797
    ]
   },
   "properties": {
    "name": "LOT 118 WAITE TERRACE COCKBURN 5440",
    "locID": "LOC000107613715",
    "tech": "NULL",
    "upgrade": "NULL_NA",
    "gnaf_pid": "GASA_719400298",
    "ee": false,
    "tech_change_status": "Not Planned"
   }
  }
 ]
}