{
 "type": "FeatureCollection",
 "generated": "2025-06-15T11:39:39.681631",
 "suburb": "COOTRA",
 "features": [
  {
   "type": "Feature",
   "geometry": {
    "type": "Point",
    "coordinates": [
     135.9046722,
     -33.24184501
    ]
   },
   "properties": {
    "name": "LOT 13 COOTRA EAST MB ROAD COOTRA 5650",
    "locID": "LOC000131564112",
    "tech": "NULL",
    "upgrade": "NULL_NA",
    "gnaf_pid": "GASA_424384060",
    "ee": false,
    "tech_change_status": "Not Planned"
   }
  },
  {
   "type": "Feature",
   "geometry": {
    "type": "Point",
    "coordinates": [
     135.98452732,
     -33.21066913
    ]
   },
   "properties": {
    "name": "LOT 52 JOYCE ROAD COOTRA 5650",
    "locID": "LOC000148253898",
    "tech": "NULL",
    "upgrade": "NULL_NA",
    "gnaf_pid": "GASA_424392230",
    "ee": false,
    "tech_change_status": "Not Planned"
   }
  },
  {
   "type": "Feature",
   "geometry": {
    "type": "Point",
    "coordinates": [
     135.99980307,
     -33.24304461
    ]
   },
   "properties": {
    "name": "LOT 4 OLD EYRE HIGHWAY COOTRA 5650",
    "locID": "LOC000131594473",
    "tech": "SATELLITE",
    "upgrade": "NULL_NA",
    "gnaf_pid": "GASA_424398369",
    "ee": false,
    "tech_change_status": "Not Planned"
   }
  },
  {
   "type": "Feature",
   "geometry": {
    "type": "Point",
    "coordinates": [
     135.93740012,
     -33.23966016
    ]
   },
   "properties": {
    "name": "LOT 12 COOTRA EAST MB ROAD COOTRA 5650",
    "locID": "LOC000131564112",
    "tech": "NULL",
    "upgrade": "NULL_NA",
    "gnaf_pid": "GASA_424947992",
    "ee": false,
    "tech_change_status": "Not Planned"
   }
  },
  {
   "type": "Feature",
   "geometry": {
    "type": "Point",
    "coordinates": [
     136.00107055,
     -33.31763124
    ]
   },
   "properties": {
    "name": "LOT 66 MCDONALD ROAD COOTRA 5650",
    "locID": "LOC000131603032",
    "tech": "NULL",
    "upgrade": "NULL_NA",
    "gnaf_pid": "GASA_424949916",
    "ee": false,
    "tech_change_status": "Not Planned"
   }
  },
  {
   "type": "Feature",
   "geometry": {
    "type": "Point",
    "coordinates": [
     135.885157,
     -33.254423
    ]
   },
   "properties": {
    "name": "528 COOTRA CENTRE ROAD COOTRA 5650",
    "locID": "LOC000131590264",
    "tech": "SATELLITE",
    "upgrade": "NULL_NA",
    "gnaf_pid": "GASA_424955755",
    "ee": false,
    "tech_change_status": "Not Planned"
   }
  },
  {
   "type": "Feature",
   "geometry": {
    "type": "Point",
    "coordinates": [
     135.98395404,
     -33.24729874
    ]
   },
   "properties": {
    "name": "165 COOTRA EAST MB ROAD COOTRA 5650",
    "locID": "LOC000131564112",
    "tech": "NULL",
    "upgrade": "NULL_NA",
    "gnaf_pid": "GASA_424955757",
    "ee": false,
    "tech_change_status": "Not Planned"
   }
  },
  {
   "type": "Feature",
   "geometry": {
    "type": "Point",
    "coordinates": [
     135.95507564,
     -33.2481464
    ]
   },
   "properties": {
    "name": "451 COOTRA EAST MB ROAD COOTRA 5650",
    "locID": "LOC000131581616",
    "tech": "NULL",
    "upgrade": "NULL_NA",
    "gnaf_pid": "GASA_424955758",
    "ee": false,
    "tech_change_status": "Not Planned"
   }
  },
  {
   "type": "Feature",
   "geometry": {
    "type": "Point",
    "coordinates": [
     135.92727259,
     -33.20346709
    ]
   },
   "properties": {
    "name": "145 FRISCHKE ROAD COOTRA 5650",
    "locID": "LOC000131607986",
    "tech": "SATELLITE",
    "upgrade": "NULL_NA",
    "gnaf_pid": "GASA_424956570",
    "ee": false,
    "tech_change_status": "Not Planned"
   }
  },
  {
   "type": "Feature",
   "geometry": {
    "type": "Point",
    "coordinates": [
     135.90804132,
     -33.21862076
    ]
   },
   "properties": {
    "name": "397 FRISCHKE ROAD COOTRA 5650",
    "locID": "LOC000131581334",
    "tech": "SATELLITE",
    "upgrade": "NULL_NA",
    "gnaf_pid": "GASA_424956571",
    "ee": false,
    "tech_change_status": "Not Planned"
   }
  },
  {
   "type": "Feature",
   "geometry": {
    "type": "Point",
    "coordinates": [
     135.98984832,
     -33.30556386
    ]
   },
   "properties": {
    "name": "731 MCDONALD ROAD COOTRA 5650",
    "locID": "LOC000131598462",
    "tech": "NULL",
    "upgrade": "NULL_NA",
    "gnaf_pid": "GASA_424958595",
    "ee": false,
    "tech_change_status": "Not Planned"
   }
  },
  {
   "type": "Feature",
   "geometry": {
    "type": "Point",
    "coordinates": [
     135.97065521,
     -33.30296671
    ]
   },
   "properties": {
    "name": "917 MCDONALD ROAD COOTRA 5650",
    "locID": "LOC000131603032",
    "tech": "NULL",
    "upgrade": "NULL_NA",
    "gnaf_pid": "GASA_424958596",
    "ee": false,
    "tech_change_status": "Not Planned"
   }
  },
  {
   "type": "Feature",
   "geometry": {
    "type": "Point",
    "coordinates": [
     135.9638685,
     -33.21413736
    ]
   },
   "properties": {
    "name": "6532 OLD EYRE HIGHWAY COOTRA 5650",
    "locID": "LOC000131594473",
    "tech": "SATELLITE",
    "upgrade": "NULL_NA",
    "gnaf_pid": "GASA_424959483",
    "ee": false,
    "tech_change_status": "Not Planned"
   }
  },
  {
   "type": "Feature",
   "geometry": {
    "type": "Point",
    "coordinates": [
     135.95974672,
     -33.21207228
    ]
   },
   "properties": {
    "name": "6577 OLD EYRE HIGHWAY COOTRA 5650",
    "locID": "LOC000131594487",
    "tech": "NULL",
    "upgrade": "NULL_NA",
    "gnaf_pid": "GASA_424959484",
    "ee": false,
    "tech_change_status": "Not Planned"
   }
  },
  {
   "type": "Feature",
   "geometry": {
    "type": "Point",
    "coordinates": [
     135.962068,
     -33.291637
    ]
   },
   "properties": {
    "name": "185 MOONLIGHT RIDGE ROAD COOTRA 5650",
    "locID": "LOC000148245263",
    "tech": "NULL",
    "upgrade": "NULL_NA",
    "gnaf_pid": "GASA_425299073",
    "ee": false,
    "tech_change_status": "Not Planned"
   }
  },
  {
   "type": "Feature",
   "geometry": {
    "type": "Point",
    "coordinates": [
     135.92216269,
     -33.2924097
    ]
   },
   "properties": {
    "name": "LOT 45 MCDONALD ROAD COOTRA 5650",
    "locID": "LOC000131603032",
    "tech": "NULL",
    "upgrade": "NULL_NA",
    "gnaf_pid": "GASA_720236749",
    "ee": false,
    "tech_change_status": "Not Planned"
   }
  },
  {
   "type": "Feature",
   "geometry": {
    "type": "Point",
    "coordinates": [
     136.00123541,
     -33.23466261
    ]
   },
   "properties": {
    "name": "773A JOYCE ROAD COOTRA 5650",
    "locID": "LOC000148253898",
    "tech": "NULL",
    "upgrade": "NULL_NA",
    "gnaf_pid": "GASA_721003784",
    "ee": false,
    "tech_change_status": "Not Planned"
   }
  }
 ]
}