{
 "type": "FeatureCollection",
 "generated": "2025-06-15T11:39:41.326317",
 "suburb": "COOYERDOO",
 "features": [
  {
   "type": "Feature",
   "geometry": {
    "type": "Point",
    "coordinates": [
     136.83651902,
     -33.17747404
    ]
   },
   "properties": {
    "name": "LOT 5 MIDDLEBACK ROAD COOYERDOO 5611",
    "locID": "LOC000148270789",
    "tech": "NULL",
    "upgrade": "NULL_NA",
    "gnaf_pid": "GASA_425392725",
    "ee": false,
    "tech_change_status": "Not Planned"
   }
  }
 ]
}