{
 "type": "FeatureCollection",
 "generated": "2025-06-15T12:03:57.349627",
 "suburb": "CURNAMONA",
 "features": [
  {
   "type": "Feature",
   "geometry": {
    "type": "Point",
    "coordinates": [
     139.55020935,
     -31.65236321
    ]
   },
   "properties": {
    "name": "74 CURNAMONA ROAD CURNAMONA 5440",
    "locID": "LOC000150223062",
    "tech": "SATELLITE",
    "upgrade": "NULL_NA",
    "gnaf_pid": "GASA_425628753",
    "ee": false,
    "tech_change_status": "Not Planned"
   }
  }
 ]
}