{
 "type": "FeatureCollection",
 "generated": "2025-06-15T12:17:24.627914",
 "suburb": "DE MOLE RIVER",
 "features": [
  {
   "type": "Feature",
   "geometry": {
    "type": "Point",
    "coordinates": [
     136.78226608,
     -35.71099268
    ]
   },
   "properties": {
    "name": "398 INVESTIGATOR WAY DE MOLE RIVER 5223",
    "locID": "LOC000010084806",
    "tech": "SATELLITE",
    "upgrade": "NULL_NA",
    "gnaf_pid": "GASA_424659599",
    "ee": false,
    "tech_change_status": "Not Planned"
   }
  },
  {
   "type": "Feature",
   "geometry": {
    "type": "Point",
    "coordinates": [
     136.84768856,
     -35.71103867
    ]
   },
   "properties": {
    "name": "169 FLINDERS WAY DE MOLE RIVER 5223",
    "locID": "LOC000113012841",
    "tech": "NULL",
    "upgrade": "NULL_NA",
    "gnaf_pid": "GASA_424699675",
    "ee": false,
    "tech_change_status": "Not Planned"
   }
  },
  {
   "type": "Feature",
   "geometry": {
    "type": "Point",
    "coordinates": [
     136.82402367,
     -35.71906542
    ]
   },
   "properties": {
    "name": "891 FLINDERS WAY DE MOLE RIVER 5223",
    "locID": "LOC000112855527",
    "tech": "SATELLITE",
    "upgrade": "NULL_NA",
    "gnaf_pid": "GASA_424699680",
    "ee": false,
    "tech_change_status": "Not Planned"
   }
  },
  {
   "type": "Feature",
   "geometry": {
    "type": "Point",
    "coordinates": [
     136.78652844,
     -35.74509915
    ]
   },
   "properties": {
    "name": "991B FLINDERS WAY DE MOLE RIVER 5223",
    "locID": "LOC000114452203",
    "tech": "NULL",
    "upgrade": "NULL_NA",
    "gnaf_pid": "GASA_424738799",
    "ee": false,
    "tech_change_status": "Not Planned"
   }
  },
  {
   "type": "Feature",
   "geometry": {
    "type": "Point",
    "coordinates": [
     136.78251825,
     -35.73612704
    ]
   },
   "properties": {
    "name": "938A FLINDERS WAY DE MOLE RIVER 5223",
    "locID": "LOC000116231416",
    "tech": "NULL",
    "upgrade": "NULL_NA",
    "gnaf_pid": "GASA_424820486",
    "ee": false,
    "tech_change_status": "Not Planned"
   }
  },
  {
   "type": "Feature",
   "geometry": {
    "type": "Point",
    "coordinates": [
     136.78662124,
     -35.72698782
    ]
   },
   "properties": {
    "name": "121 TORRENS LANE DE MOLE RIVER 5223",
    "locID": "LOC000148401005",
    "tech": "NULL",
    "upgrade": "NULL_NA",
    "gnaf_pid": "GASA_425194205",
    "ee": false,
    "tech_change_status": "Not Planned"
   }
  },
  {
   "type": "Feature",
   "geometry": {
    "type": "Point",
    "coordinates": [
     136.78704211,
     -35.71975402
    ]
   },
   "properties": {
    "name": "122 TORRENS LANE DE MOLE RIVER 5223",
    "locID": "LOC000148242929",
    "tech": "SATELLITE",
    "upgrade": "NULL_NA",
    "gnaf_pid": "GASA_425194206",
    "ee": false,
    "tech_change_status": "Not Planned"
   }
  },
  {
   "type": "Feature",
   "geometry": {
    "type": "Point",
    "coordinates": [
     136.825148,
     -35.705939
    ]
   },
   "properties": {
    "name": "133A KANGAROO LANE DE MOLE RIVER 5223",
    "locID": "LOC000148243419",
    "tech": "SATELLITE",
    "upgrade": "NULL_NA",
    "gnaf_pid": "GASA_425354934",
    "ee": false,
    "tech_change_status": "Not Planned"
   }
  },
  {
   "type": "Feature",
   "geometry": {
    "type": "Point",
    "coordinates": [
     136.825087,
     -35.705869
    ]
   },
   "properties": {
    "name": "133C KANGAROO LANE DE MOLE RIVER 5223",
    "locID": "LOC000148406379",
    "tech": "SATELLITE",
    "upgrade": "NULL_NA",
    "gnaf_pid": "GASA_425354936",
    "ee": false,
    "tech_change_status": "Not Planned"
   }
  },
  {
   "type": "Feature",
   "geometry": {
    "type": "Point",
    "coordinates": [
     136.79601534,
     -35.73421434
    ]
   },
   "properties": {
    "name": "104 THREE CREEKS LANE DE MOLE RIVER 5223",
    "locID": "LOC000148406966",
    "tech": "SATELLITE",
    "upgrade": "NULL_NA",
    "gnaf_pid": "GASA_425361486",
    "ee": false,
    "tech_change_status": "Not Planned"
   }
  },
  {
   "type": "Feature",
   "geometry": {
    "type": "Point",
    "coordinates": [
     136.78898569,
     -35.73610272
    ]
   },
   "properties": {
    "name": "171 THREE CREEKS LANE DE MOLE RIVER 5223",
    "locID": "LOC000148244816",
    "tech": "NULL",
    "upgrade": "NULL_NA",
    "gnaf_pid": "GASA_425361489",
    "ee": false,
    "tech_change_status": "Not Planned"
   }
  },
  {
   "type": "Feature",
   "geometry": {
    "type": "Point",
    "coordinates": [
     136.78514814,
     -35.73830242
    ]
   },
   "properties": {
    "name": "218A THREE CREEKS LANE DE MOLE RIVER 5223",
    "locID": "LOC000148246217",
    "tech": "SATELLITE",
    "upgrade": "NULL_NA",
    "gnaf_pid": "GASA_425361490",
    "ee": false,
    "tech_change_status": "Not Planned"
   }
  },
  {
   "type": "Feature",
   "geometry": {
    "type": "Point",
    "coordinates": [
     136.78513723,
     -35.73831844
    ]
   },
   "properties": {
    "name": "218B THREE CREEKS LANE DE MOLE RIVER 5223",
    "locID": "LOC000148246229",
    "tech": "NULL",
    "upgrade": "NULL_NA",
    "gnaf_pid": "GASA_425361491",
    "ee": false,
    "tech_change_status": "Not Planned"
   }
  },
  {
   "type": "Feature",
   "geometry": {
    "type": "Point",
    "coordinates": [
     136.78472269,
     -35.73878054
    ]
   },
   "properties": {
    "name": "221A THREE CREEKS LANE DE MOLE RIVER 5223",
    "locID": "LOC000148406997",
    "tech": "NULL",
    "upgrade": "NULL_NA",
    "gnaf_pid": "GASA_425361492",
    "ee": false,
    "tech_change_status": "Not Planned"
   }
  },
  {
   "type": "Feature",
   "geometry": {
    "type": "Point",
    "coordinates": [
     136.79098102,
     -35.71800594
    ]
   },
   "properties": {
    "name": "LOT 106 INVESTIGATOR WAY DE MOLE RIVER 5223",
    "locID": "LOC000010084806",
    "tech": "SATELLITE",
    "upgrade": "NULL_NA",
    "gnaf_pid": "GASA_425502087",
    "ee": false,
    "tech_change_status": "Not Planned"
   }
  },
  {
   "type": "Feature",
   "geometry": {
    "type": "Point",
    "coordinates": [
     136.79440682,
     -35.71886822
    ]
   },
   "properties": {
    "name": "LOT 108 INVESTIGATOR WAY DE MOLE RIVER 5223",
    "locID": "LOC000010084806",
    "tech": "SATELLITE",
    "upgrade": "NULL_NA",
    "gnaf_pid": "GASA_425502088",
    "ee": false,
    "tech_change_status": "Not Planned"
   }
  },
  {
   "type": "Feature",
   "geometry": {
    "type": "Point",
    "coordinates": [
     136.78291676,
     -35.70702628
    ]
   },
   "properties": {
    "name": "LOT 26 INVESTIGATOR WAY DE MOLE RIVER 5223",
    "locID": "LOC000010084806",
    "tech": "SATELLITE",
    "upgrade": "NULL_NA",
    "gnaf_pid": "GASA_425502089",
    "ee": false,
    "tech_change_status": "Not Planned"
   }
  },
  {
   "type": "Feature",
   "geometry": {
    "type": "Point",
    "coordinates": [
     136.79235431,
     -35.72655104
    ]
   },
   "properties": {
    "name": "LOT 109 TORRENS LANE DE MOLE RIVER 5223",
    "locID": "LOC000148278474",
    "tech": "NULL",
    "upgrade": "NULL_NA",
    "gnaf_pid": "GASA_425504475",
    "ee": false,
    "tech_change_status": "Not Planned"
   }
  },
  {
   "type": "Feature",
   "geometry": {
    "type": "Point",
    "coordinates": [
     136.82990461,
     -35.69723728
    ]
   },
   "properties": {
    "name": "LOT 1 INVESTIGATOR WAY DE MOLE RIVER 5223",
    "locID": "LOC000010084806",
    "tech": "SATELLITE",
    "upgrade": "NULL_NA",
    "gnaf_pid": "GASA_720185953",
    "ee": false,
    "tech_change_status": "Not Planned"
   }
  }
 ]
}