{
 "type": "FeatureCollection",
 "generated": "2025-06-15T12:33:53.262549",
 "suburb": "DULKANINNA",
 "features": [
  {
   "type": "Feature",
   "geometry": {
    "type": "Point",
    "coordinates": [
     138.66274644,
     -29.09375035
    ]
   },
   "properties": {
    "name": "8222 BIRDSVILLE TRACK DULKANINNA 5733",
    "locID": "LOC000170121584",
    "tech": "SATELLITE",
    "upgrade": "NULL_NA",
    "gnaf_pid": "GASA_425628481",
    "ee": false,
    "tech_change_status": "Not Planned"
   }
  }
 ]
}