{
 "type": "FeatureCollection",
 "generated": "2025-06-15T12:57:52.329566",
 "suburb": "ERINGA",
 "features": [
  {
   "type": "Feature",
   "geometry": {
    "type": "Point",
    "coordinates": [
     134.76955299,
     -26.56412965
    ]
   },
   "properties": {
    "name": "9012 MOUNT DARE ROAD ERINGA 5734",
    "locID": "LOC000148255081",
    "tech": "NULL",
    "upgrade": "NULL_NA",
    "gnaf_pid": "GASA_425629737",
    "ee": false,
    "tech_change_status": "Not Planned"
   }
  },
  {
   "type": "Feature",
   "geometry": {
    "type": "Point",
    "coordinates": [
     134.98382096,
     -26.71479979
    ]
   },
   "properties": {
    "name": "LOT 1524 MOUNT DARE ROAD ERINGA 5734",
    "locID": "LOC000148246650",
    "tech": "NULL",
    "upgrade": "NULL_NA",
    "gnaf_pid": "GASA_721111743",
    "ee": false,
    "tech_change_status": "Not Planned"
   }
  },
  {
   "type": "Feature",
   "geometry": {
    "type": "Point",
    "coordinates": [
     134.97168011,
     -26.44213029
    ]
   },
   "properties": {
    "name": "LOT 1525 MOUNT DARE ROAD ERINGA 5734",
    "locID": "LOC000148246650",
    "tech": "NULL",
    "upgrade": "NULL_NA",
    "gnaf_pid": "GASA_721112756",
    "ee": false,
    "tech_change_status": "Not Planned"
   }
  }
 ]
}