{
 "type": "FeatureCollection",
 "generated": "2025-06-15T13:09:08.045245",
 "suburb": "FARAWAY HILL",
 "features": [
  {
   "type": "Feature",
   "geometry": {
    "type": "Point",
    "coordinates": [
     139.61758722,
     -33.19008497
    ]
   },
   "properties": {
    "name": "3663 LILYDALE ROAD FARAWAY HILL 5417",
    "locID": "LOC000148249103",
    "tech": "SATELLITE",
    "upgrade": "NULL_NA",
    "gnaf_pid": "GASA_425629426",
    "ee": false,
    "tech_change_status": "Not Planned"
   }
  },
  {
   "type": "Feature",
   "geometry": {
    "type": "Point",
    "coordinates": [
     139.76300283,
     -33.10844054
    ]
   },
   "properties": {
    "name": "LOT 1 LILYDALE ROAD FARAWAY HILL 5417",
    "locID": "LOC000148249103",
    "tech": "SATELLITE",
    "upgrade": "NULL_NA",
    "gnaf_pid": "GASA_719185251",
    "ee": false,
    "tech_change_status": "Not Planned"
   }
  }
 ]
}