{
 "type": "FeatureCollection",
 "generated": "2025-06-15T13:30:30.383671",
 "suburb": "FLORINA STATION",
 "features": [
  {
   "type": "Feature",
   "geometry": {
    "type": "Point",
    "coordinates": [
     139.98171728,
     -32.40392867
    ]
   },
   "properties": {
    "name": "323 PLUMBAGO ROAD FLORINA STATION 5440",
    "locID": "LOC000150224235",
    "tech": "NULL",
    "upgrade": "NULL_NA",
    "gnaf_pid": "GASA_425629976",
    "ee": false,
    "tech_change_status": "Not Planned"
   }
  },
  {
   "type": "Feature",
   "geometry": {
    "type": "Point",
    "coordinates": [
     139.98104601,
     -32.39686274
    ]
   },
   "properties": {
    "name": "71 FLORINA ROAD FLORINA STATION 5440",
    "locID": "LOC100071954899",
    "tech": "NULL",
    "upgrade": "NULL_NA",
    "gnaf_pid": "GASA_425845331",
    "ee": false,
    "tech_change_status": "Not Planned"
   }
  }
 ]
}