{
 "type": "FeatureCollection",
 "generated": "2025-06-15T13:39:08.249054",
 "suburb": "FRANKTON",
 "features": [
  {
   "type": "Feature",
   "geometry": {
    "type": "Point",
    "coordinates": [
     139.18496629,
     -34.29621858
    ]
   },
   "properties": {
    "name": "LOT 91 DIAGONAL ROAD FRANKTON 5374",
    "locID": "LOC000148403388",
    "tech": "NULL",
    "upgrade": "NULL_NA",
    "gnaf_pid": "GASA_424297926",
    "ee": true,
    "tech_change_status": "Not Planned"
   }
  },
  {
   "type": "Feature",
   "geometry": {
    "type": "Point",
    "coordinates": [
     139.18794475,
     -34.30249919
    ]
   },
   "properties": {
    "name": "LOT 317 LEVI ROAD FRANKTON 5374",
    "locID": "LOC000148404400",
    "tech": "NULL",
    "upgrade": "NULL_NA",
    "gnaf_pid": "GASA_424313269",
    "ee": true,
    "tech_change_status": "Not Planned"
   }
  },
  {
   "type": "Feature",
   "geometry": {
    "type": "Point",
    "coordinates": [
     139.21350872,
     -34.32009483
    ]
   },
   "properties": {
    "name": "LOT 313 DIAGONAL ROAD FRANKTON 5374",
    "locID": "LOC000148403388",
    "tech": "NULL",
    "upgrade": "NULL_NA",
    "gnaf_pid": "GASA_424559536",
    "ee": true,
    "tech_change_status": "Not Planned"
   }
  },
  {
   "type": "Feature",
   "geometry": {
    "type": "Point",
    "coordinates": [
     139.20153753,
     -34.31681062
    ]
   },
   "properties": {
    "name": "LOT 114 FRANKTON ROAD FRANKTON 5374",
    "locID": "LOC000114442099",
    "tech": "NULL",
    "upgrade": "NULL_NA",
    "gnaf_pid": "GASA_424560593",
    "ee": true,
    "tech_change_status": "Not Planned"
   }
  },
  {
   "type": "Feature",
   "geometry": {
    "type": "Point",
    "coordinates": [
     139.21230503,
     -34.31328346
    ]
   },
   "properties": {
    "name": "734 FRANKTON ROAD FRANKTON 5374",
    "locID": "LOC000114442099",
    "tech": "NULL",
    "upgrade": "NULL_NA",
    "gnaf_pid": "GASA_424699822",
    "ee": true,
    "tech_change_status": "Not Planned"
   }
  },
  {
   "type": "Feature",
   "geometry": {
    "type": "Point",
    "coordinates": [
     139.21568274,
     -34.31056769
    ]
   },
   "properties": {
    "name": "776 FRANKTON ROAD FRANKTON 5374",
    "locID": "LOC000113320473",
    "tech": "NULL",
    "upgrade": "NULL_NA",
    "gnaf_pid": "GASA_424699823",
    "ee": true,
    "tech_change_status": "Not Planned"
   }
  },
  {
   "type": "Feature",
   "geometry": {
    "type": "Point",
    "coordinates": [
     139.16085393,
     -34.29404908
    ]
   },
   "properties": {
    "name": "LOT 141 EUDUNDA ROAD FRANKTON 5374",
    "locID": "LOC100078100022",
    "tech": "NULL",
    "upgrade": "NULL_NA",
    "gnaf_pid": "GASA_424948478",
    "ee": true,
    "tech_change_status": "Not Planned"
   }
  },
  {
   "type": "Feature",
   "geometry": {
    "type": "Point",
    "coordinates": [
     139.16085096,
     -34.31454842
    ]
   },
   "properties": {
    "name": "LOT 148 EUDUNDA ROAD FRANKTON 5374",
    "locID": "LOC000131552617",
    "tech": "SATELLITE",
    "upgrade": "NULL_NA",
    "gnaf_pid": "GASA_424948479",
    "ee": true,
    "tech_change_status": "Not Planned"
   }
  },
  {
   "type": "Feature",
   "geometry": {
    "type": "Point",
    "coordinates": [
     139.16304438,
     -34.30208227
    ]
   },
   "properties": {
    "name": "LOT 151 EUDUNDA ROAD FRANKTON 5374",
    "locID": "LOC100078100022",
    "tech": "NULL",
    "upgrade": "NULL_NA",
    "gnaf_pid": "GASA_424948480",
    "ee": true,
    "tech_change_status": "Not Planned"
   }
  },
  {
   "type": "Feature",
   "geometry": {
    "type": "Point",
    "coordinates": [
     139.19450639,
     -34.31370207
    ]
   },
   "properties": {
    "name": "152 DIAGONAL ROAD FRANKTON 5374",
    "locID": "LOC000148403388",
    "tech": "NULL",
    "upgrade": "NULL_NA",
    "gnaf_pid": "GASA_425302982",
    "ee": true,
    "tech_change_status": "Not Planned"
   }
  },
  {
   "type": "Feature",
   "geometry": {
    "type": "Point",
    "coordinates": [
     139.16138934,
     -34.31096949
    ]
   },
   "properties": {
    "name": "1174 EUDUNDA ROAD FRANKTON 5374",
    "locID": "LOC100078100022",
    "tech": "NULL",
    "upgrade": "NULL_NA",
    "gnaf_pid": "GASA_425303123",
    "ee": true,
    "tech_change_status": "Not Planned"
   }
  },
  {
   "type": "Feature",
   "geometry": {
    "type": "Point",
    "coordinates": [
     139.16699913,
     -34.30479698
    ]
   },
   "properties": {
    "name": "79 LEVI ROAD FRANKTON 5374",
    "locID": "LOC000148404400",
    "tech": "NULL",
    "upgrade": "NULL_NA",
    "gnaf_pid": "GASA_425304107",
    "ee": true,
    "tech_change_status": "Not Planned"
   }
  },
  {
   "type": "Feature",
   "geometry": {
    "type": "Point",
    "coordinates": [
     139.21766035,
     -34.28465048
    ]
   },
   "properties": {
    "name": "261 HUTT ROAD FRANKTON 5374",
    "locID": "LOC000148247313",
    "tech": "NULL",
    "upgrade": "NULL_NA",
    "gnaf_pid": "GASA_425360225",
    "ee": true,
    "tech_change_status": "Not Planned"
   }
  },
  {
   "type": "Feature",
   "geometry": {
    "type": "Point",
    "coordinates": [
     139.20609145,
     -34.28883148
    ]
   },
   "properties": {
    "name": "1138 FRANKTON ROAD FRANKTON 5374",
    "locID": "LOC000148407717",
    "tech": "NULL",
    "upgrade": "NULL_NA",
    "gnaf_pid": "GASA_425506618",
    "ee": true,
    "tech_change_status": "Not Planned"
   }
  },
  {
   "type": "Feature",
   "geometry": {
    "type": "Point",
    "coordinates": [
     139.20575761,
     -34.2886234
    ]
   },
   "properties": {
    "name": "1141 FRANKTON ROAD FRANKTON 5374",
    "locID": "LOC000148407729",
    "tech": "NULL",
    "upgrade": "NULL_NA",
    "gnaf_pid": "GASA_425506619",
    "ee": true,
    "tech_change_status": "Not Planned"
   }
  },
  {
   "type": "Feature",
   "geometry": {
    "type": "Point",
    "coordinates": [
     139.20537431,
     -34.26627378
    ]
   },
   "properties": {
    "name": "1389 FRANKTON ROAD FRANKTON 5374",
    "locID": "LOC000148407738",
    "tech": "NULL",
    "upgrade": "NULL_NA",
    "gnaf_pid": "GASA_425506620",
    "ee": true,
    "tech_change_status": "Not Planned"
   }
  },
  {
   "type": "Feature",
   "geometry": {
    "type": "Point",
    "coordinates": [
     139.21520768,
     -34.3008187
    ]
   },
   "properties": {
    "name": "975 FRANKTON ROAD FRANKTON 5374",
    "locID": "LOC100078099444",
    "tech": "NULL",
    "upgrade": "NULL_NA",
    "gnaf_pid": "GASA_425506621",
    "ee": true,
    "tech_change_status": "Not Planned"
   }
  },
  {
   "type": "Feature",
   "geometry": {
    "type": "Point",
    "coordinates": [
     139.2223291,
     -34.27954026
    ]
   },
   "properties": {
    "name": "301 WATCHBOX ROAD FRANKTON 5374",
    "locID": "LOC000148408015",
    "tech": "NULL",
    "upgrade": "NULL_NA",
    "gnaf_pid": "GASA_425507571",
    "ee": true,
    "tech_change_status": "Not Planned"
   }
  },
  {
   "type": "Feature",
   "geometry": {
    "type": "Point",
    "coordinates": [
     139.19552074,
     -34.30372636
    ]
   },
   "properties": {
    "name": "LOT 423 DIAGONAL ROAD FRANKTON 5374",
    "locID": "LOC000148403388",
    "tech": "NULL",
    "upgrade": "NULL_NA",
    "gnaf_pid": "GASA_720185151",
    "ee": true,
    "tech_change_status": "Not Planned"
   }
  },
  {
   "type": "Feature",
   "geometry": {
    "type": "Point",
    "coordinates": [
     139.19966969,
     -34.31005329
    ]
   },
   "properties": {
    "name": "LOT 454 DIAGONAL ROAD FRANKTON 5374",
    "locID": "LOC000148403388",
    "tech": "NULL",
    "upgrade": "NULL_NA",
    "gnaf_pid": "GASA_720185541",
    "ee": true,
    "tech_change_status": "Not Planned"
   }
  },
  {
   "type": "Feature",
   "geometry": {
    "type": "Point",
    "coordinates": [
     139.21133486,
     -34.30776516
    ]
   },
   "properties": {
    "name": "LOT 444 DIAGONAL ROAD FRANKTON 5374",
    "locID": "LOC000148403388",
    "tech": "NULL",
    "upgrade": "NULL_NA",
    "gnaf_pid": "GASA_720185962",
    "ee": true,
    "tech_change_status": "Not Planned"
   }
  },
  {
   "type": "Feature",
   "geometry": {
    "type": "Point",
    "coordinates": [
     139.16101005,
     -34.32469485
    ]
   },
   "properties": {
    "name": "LOT 144 EUDUNDA ROAD FRANKTON 5374",
    "locID": "LOC100078100022",
    "tech": "NULL",
    "upgrade": "NULL_NA",
    "gnaf_pid": "GASA_720186453",
    "ee": true,
    "tech_change_status": "Not Planned"
   }
  },
  {
   "type": "Feature",
   "geometry": {
    "type": "Point",
    "coordinates": [
     139.19129057,
     -34.30990872
    ]
   },
   "properties": {
    "name": "LOT 353 DIAGONAL ROAD FRANKTON 5374",
    "locID": "LOC000148403388",
    "tech": "NULL",
    "upgrade": "NULL_NA",
    "gnaf_pid": "GASA_720186581",
    "ee": true,
    "tech_change_status": "Not Planned"
   }
  },
  {
   "type": "Feature",
   "geometry": {
    "type": "Point",
    "coordinates": [
     139.16229744,
     -34.31484892
    ]
   },
   "properties": {
    "name": "LOT 457 EUDUNDA ROAD FRANKTON 5374",
    "locID": "LOC100078100022",
    "tech": "NULL",
    "upgrade": "NULL_NA",
    "gnaf_pid": "GASA_720188190",
    "ee": true,
    "tech_change_status": "Not Planned"
   }
  },
  {
   "type": "Feature",
   "geometry": {
    "type": "Point",
    "coordinates": [
     139.19242053,
     -34.29716666
    ]
   },
   "properties": {
    "name": "LOT 424 DIAGONAL ROAD FRANKTON 5374",
    "locID": "LOC000148403388",
    "tech": "NULL",
    "upgrade": "NULL_NA",
    "gnaf_pid": "GASA_720188480",
    "ee": true,
    "tech_change_status": "Not Planned"
   }
  },
  {
   "type": "Feature",
   "geometry": {
    "type": "Point",
    "coordinates": [
     139.17225963,
     -34.31898534
    ]
   },
   "properties": {
    "name": "LOT 438 EUDUNDA ROAD FRANKTON 5374",
    "locID": "LOC100078100022",
    "tech": "NULL",
    "upgrade": "NULL_NA",
    "gnaf_pid": "GASA_720188729",
    "ee": true,
    "tech_change_status": "Not Planned"
   }
  },
  {
   "type": "Feature",
   "geometry": {
    "type": "Point",
    "coordinates": [
     139.21151146,
     -34.27937479
    ]
   },
   "properties": {
    "name": "LOT 373 HUTT ROAD FRANKTON 5374",
    "locID": "LOC000148247313",
    "tech": "NULL",
    "upgrade": "NULL_NA",
    "gnaf_pid": "GASA_720189471",
    "ee": true,
    "tech_change_status": "Not Planned"
   }
  },
  {
   "type": "Feature",
   "geometry": {
    "type": "Point",
    "coordinates": [
     139.22104606,
     -34.26661695
    ]
   },
   "properties": {
    "name": "LOT 362 ALTMANN ROAD FRANKTON 5374",
    "locID": "LOC000148243314",
    "tech": "SATELLITE",
    "upgrade": "WIRELESS",
    "gnaf_pid": "GASA_720190259",
    "ee": true,
    "tech_change_status": "Eligible to Order",
    "program_type": "Fixed Wireless and Satellite Upgrade Program",
    "target_eligibility_quarter": "NA"
   }
  },
  {
   "type": "Feature",
   "geometry": {
    "type": "Point",
    "coordinates": [
     139.19000324,
     -34.29203083
    ]
   },
   "properties": {
    "name": "LOT 425 DIAGONAL ROAD FRANKTON 5374",
    "locID": "LOC000148403388",
    "tech": "NULL",
    "upgrade": "NULL_NA",
    "gnaf_pid": "GASA_720190958",
    "ee": true,
    "tech_change_status": "Not Planned"
   }
  },
  {
   "type": "Feature",
   "geometry": {
    "type": "Point",
    "coordinates": [
     139.19922235,
     -34.30413161
    ]
   },
   "properties": {
    "name": "LOT 422 DIAGONAL ROAD FRANKTON 5374",
    "locID": "LOC000148403388",
    "tech": "NULL",
    "upgrade": "NULL_NA",
    "gnaf_pid": "GASA_720191191",
    "ee": true,
    "tech_change_status": "Not Planned"
   }
  },
  {
   "type": "Feature",
   "geometry": {
    "type": "Point",
    "coordinates": [
     139.16073562,
     -34.31650891
    ]
   },
   "properties": {
    "name": "LOT 71 EUDUNDA ROAD FRANKTON 5374",
    "locID": "LOC100078100022",
    "tech": "NULL",
    "upgrade": "NULL_NA",
    "gnaf_pid": "GASA_720191387",
    "ee": true,
    "tech_change_status": "Not Planned"
   }
  }
 ]
}