{
 "type": "FeatureCollection",
 "generated": "2025-06-15T13:39:15.511658",
 "suburb": "FROME DOWNS",
 "features": [
  {
   "type": "Feature",
   "geometry": {
    "type": "Point",
    "coordinates": [
     139.7735624,
     -31.22185357
    ]
   },
   "properties": {
    "name": "101 FROME DOWNS ROAD FROME DOWNS 5440",
    "locID": "LOC000148241884",
    "tech": "NULL",
    "upgrade": "NULL_NA",
    "gnaf_pid": "GASA_425628963",
    "ee": false,
    "tech_change_status": "Not Planned"
   }
  }
 ]
}