{
 "type": "FeatureCollection",
 "generated": "2025-06-15T13:55:47.006073",
 "suburb": "GILES CORNER",
 "features": [
  {
   "type": "Feature",
   "geometry": {
    "type": "Point",
    "coordinates": [
     138.74105917,
     -34.2296192
    ]
   },
   "properties": {
    "name": "LOT 700 HORROCKS HIGHWAY GILES CORNER 5411",
    "locID": "LOC000149300002",
    "tech": "WIRELESS",
    "upgrade": "NULL_NA",
    "gnaf_pid": "GASA_424901819",
    "ee": true,
    "tech_change_status": "Not Planned",
    "program_type": "Fixed Wireless and Satellite Upgrade Program",
    "target_eligibility_quarter": "NA"
   }
  },
  {
   "type": "Feature",
   "geometry": {
    "type": "Point",
    "coordinates": [
     138.71430977,
     -34.21518589
    ]
   },
   "properties": {
    "name": "164 DAYS HILL ROAD GILES CORNER 5411",
    "locID": "LOC000150767536",
    "tech": "WIRELESS",
    "upgrade": "NULL_NA",
    "gnaf_pid": "GASA_425302949",
    "ee": true,
    "tech_change_status": "Not Planned",
    "program_type": "Fixed Wireless and Satellite Upgrade Program",
    "target_eligibility_quarter": "NA"
   }
  },
  {
   "type": "Feature",
   "geometry": {
    "type": "Point",
    "coordinates": [
     138.7120045,
     -34.21470107
    ]
   },
   "properties": {
    "name": "186 DAYS HILL ROAD GILES CORNER 5411",
    "locID": "LOC000150767543",
    "tech": "SATELLITE",
    "upgrade": "NULL_NA",
    "gnaf_pid": "GASA_425302950",
    "ee": true,
    "tech_change_status": "Not Planned"
   }
  },
  {
   "type": "Feature",
   "geometry": {
    "type": "Point",
    "coordinates": [
     138.72703288,
     -34.22164801
    ]
   },
   "properties": {
    "name": "23 DAYS HILL ROAD GILES CORNER 5411",
    "locID": "LOC000150767558",
    "tech": "WIRELESS",
    "upgrade": "NULL_NA",
    "gnaf_pid": "GASA_425302951",
    "ee": true,
    "tech_change_status": "Not Planned",
    "program_type": "Fixed Wireless and Satellite Upgrade Program",
    "target_eligibility_quarter": "NA"
   }
  },
  {
   "type": "Feature",
   "geometry": {
    "type": "Point",
    "coordinates": [
     138.72522253,
     -34.22031109
    ]
   },
   "properties": {
    "name": "45 DAYS HILL ROAD GILES CORNER 5411",
    "locID": "LOC000150767562",
    "tech": "WIRELESS",
    "upgrade": "NULL_NA",
    "gnaf_pid": "GASA_425302952",
    "ee": true,
    "tech_change_status": "Not Planned",
    "program_type": "Fixed Wireless and Satellite Upgrade Program",
    "target_eligibility_quarter": "NA"
   }
  },
  {
   "type": "Feature",
   "geometry": {
    "type": "Point",
    "coordinates": [
     138.72667048,
     -34.22757701
    ]
   },
   "properties": {
    "name": "1189 GILES CORNER ROAD GILES CORNER 5411",
    "locID": "LOC000190790640",
    "tech": "WIRELESS",
    "upgrade": "NULL_NA",
    "gnaf_pid": "GASA_425303317",
    "ee": true,
    "tech_change_status": "Not Planned",
    "program_type": "Fixed Wireless and Satellite Upgrade Program",
    "target_eligibility_quarter": "NA"
   }
  },
  {
   "type": "Feature",
   "geometry": {
    "type": "Point",
    "coordinates": [
     138.72968426,
     -34.22372061
    ]
   },
   "properties": {
    "name": "4141 HORROCKS HIGHWAY GILES CORNER 5411",
    "locID": "LOC000149300002",
    "tech": "WIRELESS",
    "upgrade": "NULL_NA",
    "gnaf_pid": "GASA_425303662",
    "ee": true,
    "tech_change_status": "Not Planned",
    "program_type": "Fixed Wireless and Satellite Upgrade Program",
    "target_eligibility_quarter": "NA"
   }
  },
  {
   "type": "Feature",
   "geometry": {
    "type": "Point",
    "coordinates": [
     138.72886867,
     -34.22249171
    ]
   },
   "properties": {
    "name": "4156 HORROCKS HIGHWAY GILES CORNER 5411",
    "locID": "LOC000150768293",
    "tech": "WIRELESS",
    "upgrade": "NULL_NA",
    "gnaf_pid": "GASA_425303663",
    "ee": true,
    "tech_change_status": "Not Planned",
    "program_type": "Fixed Wireless and Satellite Upgrade Program",
    "target_eligibility_quarter": "NA"
   }
  },
  {
   "type": "Feature",
   "geometry": {
    "type": "Point",
    "coordinates": [
     138.71328039,
     -34.23062853
    ]
   },
   "properties": {
    "name": "172 MERRINDIE SCHOOL ROAD GILES CORNER 5411",
    "locID": "LOC000107608894",
    "tech": "WIRELESS",
    "upgrade": "NULL_NA",
    "gnaf_pid": "GASA_425304295",
    "ee": true,
    "tech_change_status": "Not Planned",
    "program_type": "Fixed Wireless and Satellite Upgrade Program",
    "target_eligibility_quarter": "NA"
   }
  },
  {
   "type": "Feature",
   "geometry": {
    "type": "Point",
    "coordinates": [
     138.7086659,
     -34.22938595
    ]
   },
   "properties": {
    "name": "217 MERRINDIE SCHOOL ROAD GILES CORNER 5411",
    "locID": "LOC000108230656",
    "tech": "SATELLITE",
    "upgrade": "NULL_NA",
    "gnaf_pid": "GASA_425355575",
    "ee": true,
    "tech_change_status": "Not Planned"
   }
  },
  {
   "type": "Feature",
   "geometry": {
    "type": "Point",
    "coordinates": [
     138.73202223,
     -34.23049164
    ]
   },
   "properties": {
    "name": "LOT 31 HORROCKS HIGHWAY GILES CORNER 5411",
    "locID": "LOC000149300002",
    "tech": "WIRELESS",
    "upgrade": "NULL_NA",
    "gnaf_pid": "GASA_425391413",
    "ee": true,
    "tech_change_status": "Not Planned",
    "program_type": "Fixed Wireless and Satellite Upgrade Program",
    "target_eligibility_quarter": "NA"
   }
  },
  {
   "type": "Feature",
   "geometry": {
    "type": "Point",
    "coordinates": [
     138.75417187,
     -34.22368732
    ]
   },
   "properties": {
    "name": "LOT 95 OLD MAIN ROAD SOUTH GILES CORNER 5411",
    "locID": "LOC100079109636",
    "tech": "WIRELESS",
    "upgrade": "NULL_NA",
    "gnaf_pid": "GASA_720185110",
    "ee": true,
    "tech_change_status": "Not Planned",
    "program_type": "Fixed Wireless and Satellite Upgrade Program",
    "target_eligibility_quarter": "NA"
   }
  },
  {
   "type": "Feature",
   "geometry": {
    "type": "Point",
    "coordinates": [
     138.7279944,
     -34.22298898
    ]
   },
   "properties": {
    "name": "LOT 464 DAYS HILL ROAD GILES CORNER 5411",
    "locID": "LOC000150767558",
    "tech": "WIRELESS",
    "upgrade": "NULL_NA",
    "gnaf_pid": "GASA_720189085",
    "ee": true,
    "tech_change_status": "Not Planned",
    "program_type": "Fixed Wireless and Satellite Upgrade Program",
    "target_eligibility_quarter": "NA"
   }
  },
  {
   "type": "Feature",
   "geometry": {
    "type": "Point",
    "coordinates": [
     138.7281548,
     -34.21995996
    ]
   },
   "properties": {
    "name": "LOT 411 HORROCKS HIGHWAY GILES CORNER 5411",
    "locID": "LOC000149300002",
    "tech": "WIRELESS",
    "upgrade": "NULL_NA",
    "gnaf_pid": "GASA_720304363",
    "ee": true,
    "tech_change_status": "Not Planned",
    "program_type": "Fixed Wireless and Satellite Upgrade Program",
    "target_eligibility_quarter": "NA"
   }
  },
  {
   "type": "Feature",
   "geometry": {
    "type": "Point",
    "coordinates": [
     138.75425325,
     -34.23098091
    ]
   },
   "properties": {
    "name": "LOT 3 MOLINEUX ROAD GILES CORNER 5411",
    "locID": "LOC100079109691",
    "tech": "WIRELESS",
    "upgrade": "NULL_NA",
    "gnaf_pid": "GASA_720493858",
    "ee": true,
    "tech_change_status": "Not Planned",
    "program_type": "Fixed Wireless and Satellite Upgrade Program",
    "target_eligibility_quarter": "NA"
   }
  },
  {
   "type": "Feature",
   "geometry": {
    "type": "Point",
    "coordinates": [
     138.728801,
     -34.223272
    ]
   },
   "properties": {
    "name": "1243 GILES CORNER ROAD GILES CORNER 5411",
    "locID": "LOC000148702730",
    "tech": "WIRELESS",
    "upgrade": "NULL_NA",
    "gnaf_pid": "GASA_721251750",
    "ee": true,
    "tech_change_status": "Not Planned",
    "program_type": "Fixed Wireless and Satellite Upgrade Program",
    "target_eligibility_quarter": "NA"
   }
  }
 ]
}