{
 "type": "FeatureCollection",
 "generated": "2025-06-15T13:56:10.708281",
 "suburb": "GILLES DOWNS",
 "features": [
  {
   "type": "Feature",
   "geometry": {
    "type": "Point",
    "coordinates": [
     136.89374135,
     -32.88267236
    ]
   },
   "properties": {
    "name": "8765 EYRE HIGHWAY GILLES DOWNS 5611",
    "locID": "LOC100071961126",
    "tech": "NULL",
    "upgrade": "NULL_NA",
    "gnaf_pid": "GASA_425710014",
    "ee": false,
    "tech_change_status": "Not Planned"
   }
  }
 ]
}