{
 "type": "FeatureCollection",
 "generated": "2025-06-15T14:38:49.830148",
 "suburb": "GUM CREEK STATION",
 "features": [
  {
   "type": "Feature",
   "geometry": {
    "type": "Point",
    "coordinates": [
     138.72714488,
     -31.16122908
    ]
   },
   "properties": {
    "name": "LOT 367 FLINDERS RANGES WAY GUM CREEK STATION 5730",
    "locID": "LOC000187543643",
    "tech": "NULL",
    "upgrade": "NULL_NA",
    "gnaf_pid": "GASA_425390603",
    "ee": false,
    "tech_change_status": "Not Planned"
   }
  },
  {
   "type": "Feature",
   "geometry": {
    "type": "Point",
    "coordinates": [
     138.65497898,
     -31.1972223
    ]
   },
   "properties": {
    "name": "LOT 368 FLINDERS RANGES WAY GUM CREEK STATION 5730",
    "locID": "LOC000187543643",
    "tech": "NULL",
    "upgrade": "NULL_NA",
    "gnaf_pid": "GASA_425390604",
    "ee": false,
    "tech_change_status": "Not Planned"
   }
  },
  {
   "type": "Feature",
   "geometry": {
    "type": "Point",
    "coordinates": [
     138.67274512,
     -31.20444817
    ]
   },
   "properties": {
    "name": "LOT 369 FLINDERS RANGES WAY GUM CREEK STATION 5730",
    "locID": "LOC000187543643",
    "tech": "NULL",
    "upgrade": "NULL_NA",
    "gnaf_pid": "GASA_425390605",
    "ee": false,
    "tech_change_status": "Not Planned"
   }
  },
  {
   "type": "Feature",
   "geometry": {
    "type": "Point",
    "coordinates": [
     138.69083261,
     -31.18737826
    ]
   },
   "properties": {
    "name": "LOT 372 FLINDERS RANGES WAY GUM CREEK STATION 5730",
    "locID": "LOC000187543643",
    "tech": "NULL",
    "upgrade": "NULL_NA",
    "gnaf_pid": "GASA_425390606",
    "ee": false,
    "tech_change_status": "Not Planned"
   }
  },
  {
   "type": "Feature",
   "geometry": {
    "type": "Point",
    "coordinates": [
     138.66082778,
     -31.2038352
    ]
   },
   "properties": {
    "name": "19493 FLINDERS RANGES WAY GUM CREEK STATION 5730",
    "locID": "LOC000187543643",
    "tech": "NULL",
    "upgrade": "NULL_NA",
    "gnaf_pid": "GASA_425628926",
    "ee": false,
    "tech_change_status": "Not Planned"
   }
  }
 ]
}