{
 "type": "FeatureCollection",
 "generated": "2025-06-15T15:15:12.783216",
 "suburb": "HIGHLAND VALLEY",
 "features": [
  {
   "type": "Feature",
   "geometry": {
    "type": "Point",
    "coordinates": [
     138.92822264,
     -35.18713256
    ]
   },
   "properties": {
    "name": "LOT 1 HIGHLAND VALLEY ROAD HIGHLAND VALLEY 5255",
    "locID": "LOC000107697992",
    "tech": "WIRELESS",
    "upgrade": "NULL_NA",
    "gnaf_pid": "GASA_424179036",
    "ee": true,
    "tech_change_status": "Not Planned",
    "program_type": "Fixed Wireless and Satellite Upgrade Program",
    "target_eligibility_quarter": "NA"
   }
  },
  {
   "type": "Feature",
   "geometry": {
    "type": "Point",
    "coordinates": [
     138.94475872,
     -35.15207396
    ]
   },
   "properties": {
    "name": "LOT 1 RED CREEK ROAD HIGHLAND VALLEY 5255",
    "locID": "LOC000107697992",
    "tech": "WIRELESS",
    "upgrade": "NULL_NA",
    "gnaf_pid": "GASA_424204812",
    "ee": true,
    "tech_change_status": "Not Planned",
    "program_type": "Fixed Wireless and Satellite Upgrade Program",
    "target_eligibility_quarter": "NA"
   }
  },
  {
   "type": "Feature",
   "geometry": {
    "type": "Point",
    "coordinates": [
     138.94908424,
     -35.16003771
    ]
   },
   "properties": {
    "name": "LOT 3 RED CREEK ROAD HIGHLAND VALLEY 5255",
    "locID": "LOC000108382440",
    "tech": "WIRELESS",
    "upgrade": "NULL_NA",
    "gnaf_pid": "GASA_424204813",
    "ee": true,
    "tech_change_status": "Not Planned",
    "program_type": "Fixed Wireless and Satellite Upgrade Program",
    "target_eligibility_quarter": "NA"
   }
  },
  {
   "type": "Feature",
   "geometry": {
    "type": "Point",
    "coordinates": [
     138.92159713,
     -35.16931286
    ]
   },
   "properties": {
    "name": "LOT 52 SCRUBBY HILL ROAD HIGHLAND VALLEY 5255",
    "locID": "LOC000142382049",
    "tech": "WIRELESS",
    "upgrade": "NULL_NA",
    "gnaf_pid": "GASA_424208208",
    "ee": true,
    "tech_change_status": "Not Planned",
    "program_type": "Fixed Wireless and Satellite Upgrade Program",
    "target_eligibility_quarter": "NA"
   }
  },
  {
   "type": "Feature",
   "geometry": {
    "type": "Point",
    "coordinates": [
     138.91557784,
     -35.18978832
    ]
   },
   "properties": {
    "name": "LOT 115 SCRUBBY HILL ROAD HIGHLAND VALLEY 5255",
    "locID": "LOC000130801443",
    "tech": "WIRELESS",
    "upgrade": "NULL_NA",
    "gnaf_pid": "GASA_424565765",
    "ee": true,
    "tech_change_status": "Not Planned",
    "program_type": "Fixed Wireless and Satellite Upgrade Program",
    "target_eligibility_quarter": "NA"
   }
  },
  {
   "type": "Feature",
   "geometry": {
    "type": "Point",
    "coordinates": [
     138.94666153,
     -35.15169816
    ]
   },
   "properties": {
    "name": "LOT 2 RED CREEK ROAD HIGHLAND VALLEY 5255",
    "locID": "LOC000130818714",
    "tech": "WIRELESS",
    "upgrade": "NULL_NA",
    "gnaf_pid": "GASA_424735680",
    "ee": true,
    "tech_change_status": "Not Planned",
    "program_type": "Fixed Wireless and Satellite Upgrade Program",
    "target_eligibility_quarter": "NA"
   }
  },
  {
   "type": "Feature",
   "geometry": {
    "type": "Point",
    "coordinates": [
     138.90305921,
     -35.14715106
    ]
   },
   "properties": {
    "name": "182 ARCHER HILL ROAD HIGHLAND VALLEY 5255",
    "locID": "LOC000130845427",
    "tech": "WIRELESS",
    "upgrade": "NULL_NA",
    "gnaf_pid": "GASA_424954211",
    "ee": true,
    "tech_change_status": "Previous Tech Disconnected",
    "program_type": "Fixed Wireless and Satellite Upgrade Program",
    "target_eligibility_quarter": "NA"
   }
  },
  {
   "type": "Feature",
   "geometry": {
    "type": "Point",
    "coordinates": [
     138.90433,
     -35.148017
    ]
   },
   "properties": {
    "name": "198 ARCHER HILL ROAD HIGHLAND VALLEY 5255",
    "locID": "LOC000130853937",
    "tech": "WIRELESS",
    "upgrade": "NULL_NA",
    "gnaf_pid": "GASA_424954212",
    "ee": true,
    "tech_change_status": "Not Planned",
    "program_type": "Fixed Wireless and Satellite Upgrade Program",
    "target_eligibility_quarter": "NA"
   }
  },
  {
   "type": "Feature",
   "geometry": {
    "type": "Point",
    "coordinates": [
     138.90571479,
     -35.14928795
    ]
   },
   "properties": {
    "name": "216 ARCHER HILL ROAD HIGHLAND VALLEY 5255",
    "locID": "LOC000130797324",
    "tech": "WIRELESS",
    "upgrade": "NULL_NA",
    "gnaf_pid": "GASA_424954213",
    "ee": true,
    "tech_change_status": "Not Planned",
    "program_type": "Fixed Wireless and Satellite Upgrade Program",
    "target_eligibility_quarter": "NA"
   }
  },
  {
   "type": "Feature",
   "geometry": {
    "type": "Point",
    "coordinates": [
     138.906872,
     -35.151408
    ]
   },
   "properties": {
    "name": "242A ARCHER HILL ROAD HIGHLAND VALLEY 5255",
    "locID": "LOC000130806099",
    "tech": "WIRELESS",
    "upgrade": "NULL_NA",
    "gnaf_pid": "GASA_424954214",
    "ee": true,
    "tech_change_status": "Not Planned",
    "program_type": "Fixed Wireless and Satellite Upgrade Program",
    "target_eligibility_quarter": "NA"
   }
  },
  {
   "type": "Feature",
   "geometry": {
    "type": "Point",
    "coordinates": [
     138.906841,
     -35.151365
    ]
   },
   "properties": {
    "name": "242B ARCHER HILL ROAD HIGHLAND VALLEY 5255",
    "locID": "LOC000130806109",
    "tech": "WIRELESS",
    "upgrade": "NULL_NA",
    "gnaf_pid": "GASA_424954215",
    "ee": true,
    "tech_change_status": "Not Planned",
    "program_type": "Fixed Wireless and Satellite Upgrade Program",
    "target_eligibility_quarter": "NA"
   }
  },
  {
   "type": "Feature",
   "geometry": {
    "type": "Point",
    "coordinates": [
     138.908406,
     -35.152445
    ]
   },
   "properties": {
    "name": "260 ARCHER HILL ROAD HIGHLAND VALLEY 5255",
    "locID": "LOC000130810153",
    "tech": "SATELLITE",
    "upgrade": "WIRELESS",
    "gnaf_pid": "GASA_424954216",
    "ee": true,
    "tech_change_status": "Eligible to Order",
    "program_type": "Fixed Wireless and Satellite Upgrade Program",
    "target_eligibility_quarter": "NA"
   }
  },
  {
   "type": "Feature",
   "geometry": {
    "type": "Point",
    "coordinates": [
     138.90853258,
     -35.15238009
    ]
   },
   "properties": {
    "name": "261 ARCHER HILL ROAD HIGHLAND VALLEY 5255",
    "locID": "LOC000130810182",
    "tech": "WIRELESS",
    "upgrade": "NULL_NA",
    "gnaf_pid": "GASA_424954217",
    "ee": true,
    "tech_change_status": "Not Planned",
    "program_type": "Fixed Wireless and Satellite Upgrade Program",
    "target_eligibility_quarter": "NA"
   }
  },
  {
   "type": "Feature",
   "geometry": {
    "type": "Point",
    "coordinates": [
     138.91061992,
     -35.15338054
    ]
   },
   "properties": {
    "name": "283 ARCHER HILL ROAD HIGHLAND VALLEY 5255",
    "locID": "LOC000130814028",
    "tech": "WIRELESS",
    "upgrade": "NULL_NA",
    "gnaf_pid": "GASA_424954218",
    "ee": true,
    "tech_change_status": "Not Planned",
    "program_type": "Fixed Wireless and Satellite Upgrade Program",
    "target_eligibility_quarter": "NA"
   }
  },
  {
   "type": "Feature",
   "geometry": {
    "type": "Point",
    "coordinates": [
     138.91182776,
     -35.15380665
    ]
   },
   "properties": {
    "name": "295 ARCHER HILL ROAD HIGHLAND VALLEY 5255",
    "locID": "LOC000130818463",
    "tech": "WIRELESS",
    "upgrade": "NULL_NA",
    "gnaf_pid": "GASA_424954219",
    "ee": true,
    "tech_change_status": "Not Planned",
    "program_type": "Fixed Wireless and Satellite Upgrade Program",
    "target_eligibility_quarter": "NA"
   }
  },
  {
   "type": "Feature",
   "geometry": {
    "type": "Point",
    "coordinates": [
     138.91304626,
     -35.15434424
    ]
   },
   "properties": {
    "name": "308A ARCHER HILL ROAD HIGHLAND VALLEY 5255",
    "locID": "LOC000130822942",
    "tech": "WIRELESS",
    "upgrade": "NULL_NA",
    "gnaf_pid": "GASA_424954220",
    "ee": true,
    "tech_change_status": "Not Planned",
    "program_type": "Fixed Wireless and Satellite Upgrade Program",
    "target_eligibility_quarter": "NA"
   }
  },
  {
   "type": "Feature",
   "geometry": {
    "type": "Point",
    "coordinates": [
     138.91306515,
     -35.15434885
    ]
   },
   "properties": {
    "name": "308B ARCHER HILL ROAD HIGHLAND VALLEY 5255",
    "locID": "LOC000130822957",
    "tech": "WIRELESS",
    "upgrade": "NULL_NA",
    "gnaf_pid": "GASA_424954221",
    "ee": true,
    "tech_change_status": "Not Planned",
    "program_type": "Fixed Wireless and Satellite Upgrade Program",
    "target_eligibility_quarter": "NA"
   }
  },
  {
   "type": "Feature",
   "geometry": {
    "type": "Point",
    "coordinates": [
     138.91308008,
     -35.15435649
    ]
   },
   "properties": {
    "name": "308C ARCHER HILL ROAD HIGHLAND VALLEY 5255",
    "locID": "LOC000130822961",
    "tech": "SATELLITE",
    "upgrade": "WIRELESS",
    "gnaf_pid": "GASA_424954222",
    "ee": true,
    "tech_change_status": "Eligible to Order",
    "program_type": "Fixed Wireless and Satellite Upgrade Program",
    "target_eligibility_quarter": "NA"
   }
  },
  {
   "type": "Feature",
   "geometry": {
    "type": "Point",
    "coordinates": [
     138.91322579,
     -35.15425802
    ]
   },
   "properties": {
    "name": "309 ARCHER HILL ROAD HIGHLAND VALLEY 5255",
    "locID": "LOC000130822974",
    "tech": "WIRELESS",
    "upgrade": "NULL_NA",
    "gnaf_pid": "GASA_424954223",
    "ee": true,
    "tech_change_status": "Not Planned",
    "program_type": "Fixed Wireless and Satellite Upgrade Program",
    "target_eligibility_quarter": "NA"
   }
  },
  {
   "type": "Feature",
   "geometry": {
    "type": "Point",
    "coordinates": [
     138.91347177,
     -35.15449587
    ]
   },
   "properties": {
    "name": "312 ARCHER HILL ROAD HIGHLAND VALLEY 5255",
    "locID": "LOC000130823094",
    "tech": "WIRELESS",
    "upgrade": "NULL_NA",
    "gnaf_pid": "GASA_424954224",
    "ee": true,
    "tech_change_status": "Not Planned",
    "program_type": "Fixed Wireless and Satellite Upgrade Program",
    "target_eligibility_quarter": "NA"
   }
  },
  {
   "type": "Feature",
   "geometry": {
    "type": "Point",
    "coordinates": [
     138.91549177,
     -35.15528774
    ]
   },
   "properties": {
    "name": "332 ARCHER HILL ROAD HIGHLAND VALLEY 5255",
    "locID": "LOC000130832139",
    "tech": "SATELLITE",
    "upgrade": "NULL_NA",
    "gnaf_pid": "GASA_424954225",
    "ee": true,
    "tech_change_status": "Not Planned"
   }
  },
  {
   "type": "Feature",
   "geometry": {
    "type": "Point",
    "coordinates": [
     138.915512,
     -35.155193
    ]
   },
   "properties": {
    "name": "333 ARCHER HILL ROAD HIGHLAND VALLEY 5255",
    "locID": "LOC000130832156",
    "tech": "SATELLITE",
    "upgrade": "WIRELESS",
    "gnaf_pid": "GASA_424954226",
    "ee": true,
    "tech_change_status": "Eligible to Order",
    "program_type": "Fixed Wireless and Satellite Upgrade Program",
    "target_eligibility_quarter": "NA"
   }
  },
  {
   "type": "Feature",
   "geometry": {
    "type": "Point",
    "coordinates": [
     138.91560689,
     -35.15523852
    ]
   },
   "properties": {
    "name": "335 ARCHER HILL ROAD HIGHLAND VALLEY 5255",
    "locID": "LOC000130832187",
    "tech": "WIRELESS",
    "upgrade": "NULL_NA",
    "gnaf_pid": "GASA_424954227",
    "ee": true,
    "tech_change_status": "Not Planned",
    "program_type": "Fixed Wireless and Satellite Upgrade Program",
    "target_eligibility_quarter": "NA"
   }
  },
  {
   "type": "Feature",
   "geometry": {
    "type": "Point",
    "coordinates": [
     138.91629933,
     -35.15560468
    ]
   },
   "properties": {
    "name": "340 ARCHER HILL ROAD HIGHLAND VALLEY 5255",
    "locID": "LOC000130832253",
    "tech": "SATELLITE",
    "upgrade": "NULL_NA",
    "gnaf_pid": "GASA_424954228",
    "ee": true,
    "tech_change_status": "Not Planned"
   }
  },
  {
   "type": "Feature",
   "geometry": {
    "type": "Point",
    "coordinates": [
     138.91735887,
     -35.15633743
    ]
   },
   "properties": {
    "name": "353 ARCHER HILL ROAD HIGHLAND VALLEY 5255",
    "locID": "LOC000130836693",
    "tech": "WIRELESS",
    "upgrade": "NULL_NA",
    "gnaf_pid": "GASA_424954229",
    "ee": true,
    "tech_change_status": "Not Planned",
    "program_type": "Fixed Wireless and Satellite Upgrade Program",
    "target_eligibility_quarter": "NA"
   }
  },
  {
   "type": "Feature",
   "geometry": {
    "type": "Point",
    "coordinates": [
     138.91856619,
     -35.15734066
    ]
   },
   "properties": {
    "name": "370 ARCHER HILL ROAD HIGHLAND VALLEY 5255",
    "locID": "LOC000130841359",
    "tech": "SATELLITE",
    "upgrade": "NULL_NA",
    "gnaf_pid": "GASA_424954230",
    "ee": true,
    "tech_change_status": "Not Planned"
   }
  },
  {
   "type": "Feature",
   "geometry": {
    "type": "Point",
    "coordinates": [
     138.91876121,
     -35.15724823
    ]
   },
   "properties": {
    "name": "371 ARCHER HILL ROAD HIGHLAND VALLEY 5255",
    "locID": "LOC000130841371",
    "tech": "SATELLITE",
    "upgrade": "WIRELESS",
    "gnaf_pid": "GASA_424954231",
    "ee": true,
    "tech_change_status": "Eligible to Order",
    "program_type": "Fixed Wireless and Satellite Upgrade Program",
    "target_eligibility_quarter": "NA"
   }
  },
  {
   "type": "Feature",
   "geometry": {
    "type": "Point",
    "coordinates": [
     138.918784,
     -35.15735271
    ]
   },
   "properties": {
    "name": "372 ARCHER HILL ROAD HIGHLAND VALLEY 5255",
    "locID": "LOC000130841385",
    "tech": "SATELLITE",
    "upgrade": "NULL_NA",
    "gnaf_pid": "GASA_424954232",
    "ee": true,
    "tech_change_status": "Not Planned"
   }
  },
  {
   "type": "Feature",
   "geometry": {
    "type": "Point",
    "coordinates": [
     138.92092457,
     -35.15713127
    ]
   },
   "properties": {
    "name": "393 ARCHER HILL ROAD HIGHLAND VALLEY 5255",
    "locID": "LOC000130841566",
    "tech": "NULL",
    "upgrade": "NULL_NA",
    "gnaf_pid": "GASA_424954233",
    "ee": true,
    "tech_change_status": "Not Planned"
   }
  },
  {
   "type": "Feature",
   "geometry": {
    "type": "Point",
    "coordinates": [
     138.92645019,
     -35.15787724
    ]
   },
   "properties": {
    "name": "452 ARCHER HILL ROAD HIGHLAND VALLEY 5255",
    "locID": "LOC000130854246",
    "tech": "WIRELESS",
    "upgrade": "NULL_NA",
    "gnaf_pid": "GASA_424954234",
    "ee": true,
    "tech_change_status": "Eligible to Order",
    "program_type": "Fixed Wireless and Satellite Upgrade Program",
    "target_eligibility_quarter": "NA"
   }
  },
  {
   "type": "Feature",
   "geometry": {
    "type": "Point",
    "coordinates": [
     138.92834272,
     -35.15715044
    ]
   },
   "properties": {
    "name": "470 ARCHER HILL ROAD HIGHLAND VALLEY 5255",
    "locID": "LOC000130854383",
    "tech": "SATELLITE",
    "upgrade": "WIRELESS",
    "gnaf_pid": "GASA_424954235",
    "ee": true,
    "tech_change_status": "Eligible to Order",
    "program_type": "Fixed Wireless and Satellite Upgrade Program",
    "target_eligibility_quarter": "NA"
   }
  },
  {
   "type": "Feature",
   "geometry": {
    "type": "Point",
    "coordinates": [
     138.92902326,
     -35.15652554
    ]
   },
   "properties": {
    "name": "479 ARCHER HILL ROAD HIGHLAND VALLEY 5255",
    "locID": "LOC000130790071",
    "tech": "SATELLITE",
    "upgrade": "WIRELESS",
    "gnaf_pid": "GASA_424954236",
    "ee": true,
    "tech_change_status": "Eligible to Order",
    "program_type": "Fixed Wireless and Satellite Upgrade Program",
    "target_eligibility_quarter": "NA"
   }
  },
  {
   "type": "Feature",
   "geometry": {
    "type": "Point",
    "coordinates": [
     138.93163171,
     -35.15531541
    ]
   },
   "properties": {
    "name": "507 ARCHER HILL ROAD HIGHLAND VALLEY 5255",
    "locID": "LOC000130794078",
    "tech": "SATELLITE",
    "upgrade": "WIRELESS",
    "gnaf_pid": "GASA_424954237",
    "ee": true,
    "tech_change_status": "Eligible to Order",
    "program_type": "Fixed Wireless and Satellite Upgrade Program",
    "target_eligibility_quarter": "NA"
   }
  },
  {
   "type": "Feature",
   "geometry": {
    "type": "Point",
    "coordinates": [
     138.9217343,
     -35.21104047
    ]
   },
   "properties": {
    "name": "114 HIGHLAND VALLEY ROAD HIGHLAND VALLEY 5255",
    "locID": "LOC000130801381",
    "tech": "WIRELESS",
    "upgrade": "NULL_NA",
    "gnaf_pid": "GASA_424957121",
    "ee": true,
    "tech_change_status": "Not Planned",
    "program_type": "Fixed Wireless and Satellite Upgrade Program",
    "target_eligibility_quarter": "NA"
   }
  },
  {
   "type": "Feature",
   "geometry": {
    "type": "Point",
    "coordinates": [
     138.91884213,
     -35.20687119
    ]
   },
   "properties": {
    "name": "167 HIGHLAND VALLEY ROAD HIGHLAND VALLEY 5255",
    "locID": "LOC000130836542",
    "tech": "WIRELESS",
    "upgrade": "NULL_NA",
    "gnaf_pid": "GASA_424957122",
    "ee": true,
    "tech_change_status": "Not Planned",
    "program_type": "Fixed Wireless and Satellite Upgrade Program",
    "target_eligibility_quarter": "NA"
   }
  },
  {
   "type": "Feature",
   "geometry": {
    "type": "Point",
    "coordinates": [
     138.91821927,
     -35.20569762
    ]
   },
   "properties": {
    "name": "181 HIGHLAND VALLEY ROAD HIGHLAND VALLEY 5255",
    "locID": "LOC000130845323",
    "tech": "SATELLITE",
    "upgrade": "WIRELESS",
    "gnaf_pid": "GASA_424957123",
    "ee": true,
    "tech_change_status": "Eligible to Order",
    "program_type": "Fixed Wireless and Satellite Upgrade Program",
    "target_eligibility_quarter": "NA"
   }
  },
  {
   "type": "Feature",
   "geometry": {
    "type": "Point",
    "coordinates": [
     138.91897141,
     -35.20509618
    ]
   },
   "properties": {
    "name": "190 HIGHLAND VALLEY ROAD HIGHLAND VALLEY 5255",
    "locID": "LOC000130849791",
    "tech": "WIRELESS",
    "upgrade": "NULL_NA",
    "gnaf_pid": "GASA_424957124",
    "ee": true,
    "tech_change_status": "Not Planned",
    "program_type": "Fixed Wireless and Satellite Upgrade Program",
    "target_eligibility_quarter": "NA"
   }
  },
  {
   "type": "Feature",
   "geometry": {
    "type": "Point",
    "coordinates": [
     138.92005794,
     -35.2031725
    ]
   },
   "properties": {
    "name": "215 HIGHLAND VALLEY ROAD HIGHLAND VALLEY 5255",
    "locID": "LOC000130793995",
    "tech": "SATELLITE",
    "upgrade": "NULL_NA",
    "gnaf_pid": "GASA_424957125",
    "ee": true,
    "tech_change_status": "Not Planned"
   }
  },
  {
   "type": "Feature",
   "geometry": {
    "type": "Point",
    "coordinates": [
     138.92284789,
     -35.19771979
    ]
   },
   "properties": {
    "name": "281 HIGHLAND VALLEY ROAD HIGHLAND VALLEY 5255",
    "locID": "LOC000130813994",
    "tech": "WIRELESS",
    "upgrade": "NULL_NA",
    "gnaf_pid": "GASA_424957126",
    "ee": true,
    "tech_change_status": "Not Planned",
    "program_type": "Fixed Wireless and Satellite Upgrade Program",
    "target_eligibility_quarter": "NA"
   }
  },
  {
   "type": "Feature",
   "geometry": {
    "type": "Point",
    "coordinates": [
     138.92513508,
     -35.1965039
    ]
   },
   "properties": {
    "name": "308 HIGHLAND VALLEY ROAD HIGHLAND VALLEY 5255",
    "locID": "LOC000130822942",
    "tech": "WIRELESS",
    "upgrade": "NULL_NA",
    "gnaf_pid": "GASA_424957127",
    "ee": true,
    "tech_change_status": "Not Planned",
    "program_type": "Fixed Wireless and Satellite Upgrade Program",
    "target_eligibility_quarter": "NA"
   }
  },
  {
   "type": "Feature",
   "geometry": {
    "type": "Point",
    "coordinates": [
     138.92594555,
     -35.19579857
    ]
   },
   "properties": {
    "name": "320 HIGHLAND VALLEY ROAD HIGHLAND VALLEY 5255",
    "locID": "LOC000130827541",
    "tech": "WIRELESS",
    "upgrade": "NULL_NA",
    "gnaf_pid": "GASA_424957128",
    "ee": true,
    "tech_change_status": "Eligible to Order",
    "program_type": "Fixed Wireless and Satellite Upgrade Program",
    "target_eligibility_quarter": "NA"
   }
  },
  {
   "type": "Feature",
   "geometry": {
    "type": "Point",
    "coordinates": [
     138.92594025,
     -35.19536768
    ]
   },
   "properties": {
    "name": "324 HIGHLAND VALLEY ROAD HIGHLAND VALLEY 5255",
    "locID": "LOC000130827594",
    "tech": "WIRELESS",
    "upgrade": "NULL_NA",
    "gnaf_pid": "GASA_424957129",
    "ee": true,
    "tech_change_status": "Not Planned"
   }
  },
  {
   "type": "Feature",
   "geometry": {
    "type": "Point",
    "coordinates": [
     138.93673959,
     -35.13794388
    ]
   },
   "properties": {
    "name": "132 KLENKE ROAD HIGHLAND VALLEY 5255",
    "locID": "LOC000131010444",
    "tech": "WIRELESS",
    "upgrade": "NULL_NA",
    "gnaf_pid": "GASA_424957660",
    "ee": true,
    "tech_change_status": "Not Planned",
    "program_type": "Fixed Wireless and Satellite Upgrade Program",
    "target_eligibility_quarter": "NA"
   }
  },
  {
   "type": "Feature",
   "geometry": {
    "type": "Point",
    "coordinates": [
     138.93297264,
     -35.13958213
    ]
   },
   "properties": {
    "name": "92 KLENKE ROAD HIGHLAND VALLEY 5255",
    "locID": "LOC000131010780",
    "tech": "WIRELESS",
    "upgrade": "NULL_NA",
    "gnaf_pid": "GASA_424957662",
    "ee": true,
    "tech_change_status": "Not Planned",
    "program_type": "Fixed Wireless and Satellite Upgrade Program",
    "target_eligibility_quarter": "NA"
   }
  },
  {
   "type": "Feature",
   "geometry": {
    "type": "Point",
    "coordinates": [
     138.95461355,
     -35.15117115
    ]
   },
   "properties": {
    "name": "590 RED CREEK ROAD HIGHLAND VALLEY 5255",
    "locID": "LOC000130802008",
    "tech": "SATELLITE",
    "upgrade": "NULL_NA",
    "gnaf_pid": "GASA_424960323",
    "ee": true,
    "tech_change_status": "Not Planned"
   }
  },
  {
   "type": "Feature",
   "geometry": {
    "type": "Point",
    "coordinates": [
     138.94513636,
     -35.14974091
    ]
   },
   "properties": {
    "name": "678 RED CREEK ROAD HIGHLAND VALLEY 5255",
    "locID": "LOC000130810475",
    "tech": "SATELLITE",
    "upgrade": "WIRELESS",
    "gnaf_pid": "GASA_424960324",
    "ee": true,
    "tech_change_status": "Eligible to Order",
    "program_type": "Fixed Wireless and Satellite Upgrade Program",
    "target_eligibility_quarter": "NA"
   }
  },
  {
   "type": "Feature",
   "geometry": {
    "type": "Point",
    "coordinates": [
     138.93854193,
     -35.15088297
    ]
   },
   "properties": {
    "name": "745 RED CREEK ROAD HIGHLAND VALLEY 5255",
    "locID": "LOC000130818714",
    "tech": "WIRELESS",
    "upgrade": "NULL_NA",
    "gnaf_pid": "GASA_424960325",
    "ee": true,
    "tech_change_status": "Not Planned",
    "program_type": "Fixed Wireless and Satellite Upgrade Program",
    "target_eligibility_quarter": "NA"
   }
  },
  {
   "type": "Feature",
   "geometry": {
    "type": "Point",
    "coordinates": [
     138.94489758,
     -35.14128142
    ]
   },
   "properties": {
    "name": "121 RIDGETOP ROAD HIGHLAND VALLEY 5255",
    "locID": "LOC000130805901",
    "tech": "WIRELESS",
    "upgrade": "NULL_NA",
    "gnaf_pid": "GASA_424960442",
    "ee": true,
    "tech_change_status": "Not Planned",
    "program_type": "Fixed Wireless and Satellite Upgrade Program",
    "target_eligibility_quarter": "NA"
   }
  },
  {
   "type": "Feature",
   "geometry": {
    "type": "Point",
    "coordinates": [
     138.94547735,
     -35.1408168
    ]
   },
   "properties": {
    "name": "128 RIDGETOP ROAD HIGHLAND VALLEY 5255",
    "locID": "LOC000130809851",
    "tech": "WIRELESS",
    "upgrade": "NULL_NA",
    "gnaf_pid": "GASA_424960443",
    "ee": true,
    "tech_change_status": "Not Planned",
    "program_type": "Fixed Wireless and Satellite Upgrade Program",
    "target_eligibility_quarter": "NA"
   }
  },
  {
   "type": "Feature",
   "geometry": {
    "type": "Point",
    "coordinates": [
     138.94171214,
     -35.14535746
    ]
   },
   "properties": {
    "name": "68 RIDGETOP ROAD HIGHLAND VALLEY 5255",
    "locID": "LOC000130810499",
    "tech": "WIRELESS",
    "upgrade": "NULL_NA",
    "gnaf_pid": "GASA_424960444",
    "ee": true,
    "tech_change_status": "Not Planned",
    "program_type": "Fixed Wireless and Satellite Upgrade Program",
    "target_eligibility_quarter": "NA"
   }
  },
  {
   "type": "Feature",
   "geometry": {
    "type": "Point",
    "coordinates": [
     138.93956549,
     -35.15036558
    ]
   },
   "properties": {
    "name": "8 RIDGETOP ROAD HIGHLAND VALLEY 5255",
    "locID": "LOC000130823189",
    "tech": "WIRELESS",
    "upgrade": "NULL_NA",
    "gnaf_pid": "GASA_424960445",
    "ee": true,
    "tech_change_status": "Not Planned",
    "program_type": "Fixed Wireless and Satellite Upgrade Program",
    "target_eligibility_quarter": "NA"
   }
  },
  {
   "type": "Feature",
   "geometry": {
    "type": "Point",
    "coordinates": [
     138.92841617,
     -35.16830251
    ]
   },
   "properties": {
    "name": "115 SCRUBBY HILL ROAD HIGHLAND VALLEY 5255",
    "locID": "LOC000130801443",
    "tech": "WIRELESS",
    "upgrade": "NULL_NA",
    "gnaf_pid": "GASA_424960726",
    "ee": true,
    "tech_change_status": "Not Planned",
    "program_type": "Fixed Wireless and Satellite Upgrade Program",
    "target_eligibility_quarter": "NA"
   }
  },
  {
   "type": "Feature",
   "geometry": {
    "type": "Point",
    "coordinates": [
     138.92666477,
     -35.17044566
    ]
   },
   "properties": {
    "name": "142 SCRUBBY HILL ROAD HIGHLAND VALLEY 5255",
    "locID": "LOC000130818311",
    "tech": "WIRELESS",
    "upgrade": "NULL_NA",
    "gnaf_pid": "GASA_424960727",
    "ee": true,
    "tech_change_status": "Not Planned",
    "program_type": "Fixed Wireless and Satellite Upgrade Program",
    "target_eligibility_quarter": "NA"
   }
  },
  {
   "type": "Feature",
   "geometry": {
    "type": "Point",
    "coordinates": [
     138.92678086,
     -35.17044748
    ]
   },
   "properties": {
    "name": "143 SCRUBBY HILL ROAD HIGHLAND VALLEY 5255",
    "locID": "LOC000130822534",
    "tech": "WIRELESS",
    "upgrade": "NULL_NA",
    "gnaf_pid": "GASA_424960728",
    "ee": true,
    "tech_change_status": "Not Planned",
    "program_type": "Fixed Wireless and Satellite Upgrade Program",
    "target_eligibility_quarter": "NA"
   }
  },
  {
   "type": "Feature",
   "geometry": {
    "type": "Point",
    "coordinates": [
     138.92568385,
     -35.17338778
    ]
   },
   "properties": {
    "name": "177 SCRUBBY HILL ROAD HIGHLAND VALLEY 5255",
    "locID": "LOC000130841288",
    "tech": "WIRELESS",
    "upgrade": "NULL_NA",
    "gnaf_pid": "GASA_424960729",
    "ee": true,
    "tech_change_status": "Not Planned",
    "program_type": "Fixed Wireless and Satellite Upgrade Program",
    "target_eligibility_quarter": "NA"
   }
  },
  {
   "type": "Feature",
   "geometry": {
    "type": "Point",
    "coordinates": [
     138.9254702,
     -35.17373291
    ]
   },
   "properties": {
    "name": "180 SCRUBBY HILL ROAD HIGHLAND VALLEY 5255",
    "locID": "LOC000130845265",
    "tech": "WIRELESS",
    "upgrade": "NULL_NA",
    "gnaf_pid": "GASA_424960730",
    "ee": true,
    "tech_change_status": "Not Planned",
    "program_type": "Fixed Wireless and Satellite Upgrade Program",
    "target_eligibility_quarter": "NA"
   }
  },
  {
   "type": "Feature",
   "geometry": {
    "type": "Point",
    "coordinates": [
     138.92487114,
     -35.17492589
    ]
   },
   "properties": {
    "name": "195 SCRUBBY HILL ROAD HIGHLAND VALLEY 5255",
    "locID": "LOC000130853916",
    "tech": "WIRELESS",
    "upgrade": "NULL_NA",
    "gnaf_pid": "GASA_424960731",
    "ee": true,
    "tech_change_status": "Not Planned",
    "program_type": "Fixed Wireless and Satellite Upgrade Program",
    "target_eligibility_quarter": "NA"
   }
  },
  {
   "type": "Feature",
   "geometry": {
    "type": "Point",
    "coordinates": [
     138.92442342,
     -35.17526901
    ]
   },
   "properties": {
    "name": "200 SCRUBBY HILL ROAD HIGHLAND VALLEY 5255",
    "locID": "LOC000130789937",
    "tech": "WIRELESS",
    "upgrade": "NULL_NA",
    "gnaf_pid": "GASA_424960732",
    "ee": true,
    "tech_change_status": "Not Planned",
    "program_type": "Fixed Wireless and Satellite Upgrade Program",
    "target_eligibility_quarter": "NA"
   }
  },
  {
   "type": "Feature",
   "geometry": {
    "type": "Point",
    "coordinates": [
     138.93242191,
     -35.16047566
    ]
   },
   "properties": {
    "name": "20 SCRUBBY HILL ROAD HIGHLAND VALLEY 5255",
    "locID": "LOC000130789916",
    "tech": "WIRELESS",
    "upgrade": "NULL_NA",
    "gnaf_pid": "GASA_424960733",
    "ee": true,
    "tech_change_status": "Not Planned",
    "program_type": "Fixed Wireless and Satellite Upgrade Program",
    "target_eligibility_quarter": "NA"
   }
  },
  {
   "type": "Feature",
   "geometry": {
    "type": "Point",
    "coordinates": [
     138.92284431,
     -35.17699156
    ]
   },
   "properties": {
    "name": "224 SCRUBBY HILL ROAD HIGHLAND VALLEY 5255",
    "locID": "LOC000130797561",
    "tech": "WIRELESS",
    "upgrade": "NULL_NA",
    "gnaf_pid": "GASA_424960734",
    "ee": true,
    "tech_change_status": "Not Planned",
    "program_type": "Fixed Wireless and Satellite Upgrade Program",
    "target_eligibility_quarter": "NA"
   }
  },
  {
   "type": "Feature",
   "geometry": {
    "type": "Point",
    "coordinates": [
     138.92268772,
     -35.17726312
    ]
   },
   "properties": {
    "name": "229 SCRUBBY HILL ROAD HIGHLAND VALLEY 5255",
    "locID": "LOC000130801637",
    "tech": "WIRELESS",
    "upgrade": "NULL_NA",
    "gnaf_pid": "GASA_424960735",
    "ee": true,
    "tech_change_status": "Not Planned"
   }
  },
  {
   "type": "Feature",
   "geometry": {
    "type": "Point",
    "coordinates": [
     138.93225686,
     -35.16061974
    ]
   },
   "properties": {
    "name": "22 SCRUBBY HILL ROAD HIGHLAND VALLEY 5255",
    "locID": "LOC000130797503",
    "tech": "WIRELESS",
    "upgrade": "NULL_NA",
    "gnaf_pid": "GASA_424960736",
    "ee": true,
    "tech_change_status": "Not Planned",
    "program_type": "Fixed Wireless and Satellite Upgrade Program",
    "target_eligibility_quarter": "NA"
   }
  },
  {
   "type": "Feature",
   "geometry": {
    "type": "Point",
    "coordinates": [
     138.92152726,
     -35.17803596
    ]
   },
   "properties": {
    "name": "242 SCRUBBY HILL ROAD HIGHLAND VALLEY 5255",
    "locID": "LOC000130806081",
    "tech": "WIRELESS",
    "upgrade": "NULL_NA",
    "gnaf_pid": "GASA_424960737",
    "ee": true,
    "tech_change_status": "Not Planned",
    "program_type": "Fixed Wireless and Satellite Upgrade Program",
    "target_eligibility_quarter": "NA"
   }
  },
  {
   "type": "Feature",
   "geometry": {
    "type": "Point",
    "coordinates": [
     138.92025656,
     -35.17948718
    ]
   },
   "properties": {
    "name": "262 SCRUBBY HILL ROAD HIGHLAND VALLEY 5255",
    "locID": "LOC000130810218",
    "tech": "WIRELESS",
    "upgrade": "NULL_NA",
    "gnaf_pid": "GASA_424960738",
    "ee": true,
    "tech_change_status": "Not Planned",
    "program_type": "Fixed Wireless and Satellite Upgrade Program",
    "target_eligibility_quarter": "NA"
   }
  },
  {
   "type": "Feature",
   "geometry": {
    "type": "Point",
    "coordinates": [
     138.919278,
     -35.18149247
    ]
   },
   "properties": {
    "name": "286 SCRUBBY HILL ROAD HIGHLAND VALLEY 5255",
    "locID": "LOC000130814071",
    "tech": "WIRELESS",
    "upgrade": "NULL_NA",
    "gnaf_pid": "GASA_424960739",
    "ee": true,
    "tech_change_status": "Not Planned",
    "program_type": "Fixed Wireless and Satellite Upgrade Program",
    "target_eligibility_quarter": "NA"
   }
  },
  {
   "type": "Feature",
   "geometry": {
    "type": "Point",
    "coordinates": [
     138.91924448,
     -35.18205339
    ]
   },
   "properties": {
    "name": "292 SCRUBBY HILL ROAD HIGHLAND VALLEY 5255",
    "locID": "LOC000130818437",
    "tech": "WIRELESS",
    "upgrade": "NULL_NA",
    "gnaf_pid": "GASA_424960740",
    "ee": true,
    "tech_change_status": "Not Planned",
    "program_type": "Fixed Wireless and Satellite Upgrade Program",
    "target_eligibility_quarter": "NA"
   }
  },
  {
   "type": "Feature",
   "geometry": {
    "type": "Point",
    "coordinates": [
     138.91934793,
     -35.18205844
    ]
   },
   "properties": {
    "name": "293 SCRUBBY HILL ROAD HIGHLAND VALLEY 5255",
    "locID": "LOC100078830015",
    "tech": "WIRELESS",
    "upgrade": "NULL_NA",
    "gnaf_pid": "GASA_424960741",
    "ee": true,
    "tech_change_status": "Not Planned",
    "program_type": "Fixed Wireless and Satellite Upgrade Program",
    "target_eligibility_quarter": "NA"
   }
  },
  {
   "type": "Feature",
   "geometry": {
    "type": "Point",
    "coordinates": [
     138.91836772,
     -35.18723213
    ]
   },
   "properties": {
    "name": "359 SCRUBBY HILL ROAD HIGHLAND VALLEY 5255",
    "locID": "LOC000130836767",
    "tech": "WIRELESS",
    "upgrade": "NULL_NA",
    "gnaf_pid": "GASA_424960743",
    "ee": true,
    "tech_change_status": "Not Planned",
    "program_type": "Fixed Wireless and Satellite Upgrade Program",
    "target_eligibility_quarter": "NA"
   }
  },
  {
   "type": "Feature",
   "geometry": {
    "type": "Point",
    "coordinates": [
     138.91656695,
     -35.1886872
    ]
   },
   "properties": {
    "name": "384A SCRUBBY HILL ROAD HIGHLAND VALLEY 5255",
    "locID": "LOC000130841495",
    "tech": "SATELLITE",
    "upgrade": "NULL_NA",
    "gnaf_pid": "GASA_424960744",
    "ee": true,
    "tech_change_status": "Not Planned"
   }
  },
  {
   "type": "Feature",
   "geometry": {
    "type": "Point",
    "coordinates": [
     138.92988102,
     -35.16486581
    ]
   },
   "properties": {
    "name": "74 SCRUBBY HILL ROAD HIGHLAND VALLEY 5255",
    "locID": "LOC000130814461",
    "tech": "WIRELESS",
    "upgrade": "NULL_NA",
    "gnaf_pid": "GASA_424960746",
    "ee": true,
    "tech_change_status": "Not Planned",
    "program_type": "Fixed Wireless and Satellite Upgrade Program",
    "target_eligibility_quarter": "NA"
   }
  },
  {
   "type": "Feature",
   "geometry": {
    "type": "Point",
    "coordinates": [
     138.93748326,
     -35.18556129
    ]
   },
   "properties": {
    "name": "529 TINPOT ROAD HIGHLAND VALLEY 5255",
    "locID": "LOC000130794256",
    "tech": "WIRELESS",
    "upgrade": "NULL_NA",
    "gnaf_pid": "GASA_424961541",
    "ee": true,
    "tech_change_status": "Not Planned",
    "program_type": "Fixed Wireless and Satellite Upgrade Program",
    "target_eligibility_quarter": "NA"
   }
  },
  {
   "type": "Feature",
   "geometry": {
    "type": "Point",
    "coordinates": [
     138.9355584,
     -35.18374368
    ]
   },
   "properties": {
    "name": "554 TINPOT ROAD HIGHLAND VALLEY 5255",
    "locID": "LOC000130797808",
    "tech": "WIRELESS",
    "upgrade": "NULL_NA",
    "gnaf_pid": "GASA_424961542",
    "ee": true,
    "tech_change_status": "Not Planned",
    "program_type": "Fixed Wireless and Satellite Upgrade Program",
    "target_eligibility_quarter": "NA"
   }
  },
  {
   "type": "Feature",
   "geometry": {
    "type": "Point",
    "coordinates": [
     138.92497327,
     -35.15704164
    ]
   },
   "properties": {
    "name": "122 VALE ROAD HIGHLAND VALLEY 5255",
    "locID": "LOC000130805986",
    "tech": "SATELLITE",
    "upgrade": "NULL_NA",
    "gnaf_pid": "GASA_424961717",
    "ee": true,
    "tech_change_status": "Not Planned"
   }
  },
  {
   "type": "Feature",
   "geometry": {
    "type": "Point",
    "coordinates": [
     138.9245076,
     -35.15906836
    ]
   },
   "properties": {
    "name": "148 VALE ROAD HIGHLAND VALLEY 5255",
    "locID": "LOC000130822736",
    "tech": "SATELLITE",
    "upgrade": "NULL_NA",
    "gnaf_pid": "GASA_424961718",
    "ee": true,
    "tech_change_status": "Not Planned"
   }
  },
  {
   "type": "Feature",
   "geometry": {
    "type": "Point",
    "coordinates": [
     138.92310072,
     -35.16143537
    ]
   },
   "properties": {
    "name": "177 VALE ROAD HIGHLAND VALLEY 5255",
    "locID": "LOC000130841300",
    "tech": "SATELLITE",
    "upgrade": "NULL_NA",
    "gnaf_pid": "GASA_424961719",
    "ee": true,
    "tech_change_status": "Not Planned"
   }
  },
  {
   "type": "Feature",
   "geometry": {
    "type": "Point",
    "coordinates": [
     138.92218717,
     -35.16225175
    ]
   },
   "properties": {
    "name": "190 VALE ROAD HIGHLAND VALLEY 5255",
    "locID": "LOC000130849801",
    "tech": "SATELLITE",
    "upgrade": "NULL_NA",
    "gnaf_pid": "GASA_424961720",
    "ee": true,
    "tech_change_status": "Not Planned"
   }
  },
  {
   "type": "Feature",
   "geometry": {
    "type": "Point",
    "coordinates": [
     138.92175687,
     -35.16646739
    ]
   },
   "properties": {
    "name": "238 VALE ROAD HIGHLAND VALLEY 5255",
    "locID": "LOC000130801784",
    "tech": "WIRELESS",
    "upgrade": "NULL_NA",
    "gnaf_pid": "GASA_424961721",
    "ee": true,
    "tech_change_status": "Not Planned",
    "program_type": "Fixed Wireless and Satellite Upgrade Program",
    "target_eligibility_quarter": "NA"
   }
  },
  {
   "type": "Feature",
   "geometry": {
    "type": "Point",
    "coordinates": [
     138.92122627,
     -35.16700333
    ]
   },
   "properties": {
    "name": "246 VALE ROAD HIGHLAND VALLEY 5255",
    "locID": "LOC000130806166",
    "tech": "SATELLITE",
    "upgrade": "WIRELESS",
    "gnaf_pid": "GASA_424961722",
    "ee": true,
    "tech_change_status": "Eligible to Order",
    "program_type": "Fixed Wireless and Satellite Upgrade Program",
    "target_eligibility_quarter": "NA"
   }
  },
  {
   "type": "Feature",
   "geometry": {
    "type": "Point",
    "coordinates": [
     138.91926455,
     -35.16884115
    ]
   },
   "properties": {
    "name": "274 VALE ROAD HIGHLAND VALLEY 5255",
    "locID": "LOC000130813918",
    "tech": "WIRELESS",
    "upgrade": "NULL_NA",
    "gnaf_pid": "GASA_424961723",
    "ee": true,
    "tech_change_status": "Not Planned",
    "program_type": "Fixed Wireless and Satellite Upgrade Program",
    "target_eligibility_quarter": "NA"
   }
  },
  {
   "type": "Feature",
   "geometry": {
    "type": "Point",
    "coordinates": [
     138.91988197,
     -35.16976866
    ]
   },
   "properties": {
    "name": "286A VALE ROAD HIGHLAND VALLEY 5255",
    "locID": "LOC000130814085",
    "tech": "SATELLITE",
    "upgrade": "NULL_NA",
    "gnaf_pid": "GASA_424961724",
    "ee": true,
    "tech_change_status": "Not Planned"
   }
  },
  {
   "type": "Feature",
   "geometry": {
    "type": "Point",
    "coordinates": [
     138.91981336,
     -35.17086547
    ]
   },
   "properties": {
    "name": "300 VALE ROAD HIGHLAND VALLEY 5255",
    "locID": "LOC000130822872",
    "tech": "SATELLITE",
    "upgrade": "NULL_NA",
    "gnaf_pid": "GASA_424961725",
    "ee": true,
    "tech_change_status": "Not Planned"
   }
  },
  {
   "type": "Feature",
   "geometry": {
    "type": "Point",
    "coordinates": [
     138.92892081,
     -35.1496932
    ]
   },
   "properties": {
    "name": "31 VALE ROAD HIGHLAND VALLEY 5255",
    "locID": "LOC000130823060",
    "tech": "WIRELESS",
    "upgrade": "NULL_NA",
    "gnaf_pid": "GASA_424961726",
    "ee": true,
    "tech_change_status": "Not Planned",
    "program_type": "Fixed Wireless and Satellite Upgrade Program",
    "target_eligibility_quarter": "NA"
   }
  },
  {
   "type": "Feature",
   "geometry": {
    "type": "Point",
    "coordinates": [
     138.9285401,
     -35.15011674
    ]
   },
   "properties": {
    "name": "38 VALE ROAD HIGHLAND VALLEY 5255",
    "locID": "LOC000130841453",
    "tech": "WIRELESS",
    "upgrade": "NULL_NA",
    "gnaf_pid": "GASA_424961729",
    "ee": true,
    "tech_change_status": "Previous Tech Disconnected",
    "program_type": "Fixed Wireless and Satellite Upgrade Program",
    "target_eligibility_quarter": "NA"
   }
  },
  {
   "type": "Feature",
   "geometry": {
    "type": "Point",
    "coordinates": [
     138.92773834,
     -35.15169896
    ]
   },
   "properties": {
    "name": "57 VALE ROAD HIGHLAND VALLEY 5255",
    "locID": "LOC000130801914",
    "tech": "WIRELESS",
    "upgrade": "NULL_NA",
    "gnaf_pid": "GASA_424961732",
    "ee": true,
    "tech_change_status": "Not Planned",
    "program_type": "Fixed Wireless and Satellite Upgrade Program",
    "target_eligibility_quarter": "NA"
   }
  },
  {
   "type": "Feature",
   "geometry": {
    "type": "Point",
    "coordinates": [
     138.92715137,
     -35.15272595
    ]
   },
   "properties": {
    "name": "69 VALE ROAD HIGHLAND VALLEY 5255",
    "locID": "LOC000130810614",
    "tech": "SATELLITE",
    "upgrade": "WIRELESS",
    "gnaf_pid": "GASA_424961733",
    "ee": true,
    "tech_change_status": "Eligible to Order",
    "program_type": "Fixed Wireless and Satellite Upgrade Program",
    "target_eligibility_quarter": "NA"
   }
  },
  {
   "type": "Feature",
   "geometry": {
    "type": "Point",
    "coordinates": [
     138.92691857,
     -35.15287391
    ]
   },
   "properties": {
    "name": "72 VALE ROAD HIGHLAND VALLEY 5255",
    "locID": "LOC000130814346",
    "tech": "WIRELESS",
    "upgrade": "NULL_NA",
    "gnaf_pid": "GASA_424961734",
    "ee": true,
    "tech_change_status": "Not Planned",
    "program_type": "Fixed Wireless and Satellite Upgrade Program",
    "target_eligibility_quarter": "NA"
   }
  },
  {
   "type": "Feature",
   "geometry": {
    "type": "Point",
    "coordinates": [
     138.92241681,
     -35.14300667
    ]
   },
   "properties": {
    "name": "1006 WELLINGTON ROAD HIGHLAND VALLEY 5255",
    "locID": "LOC000130789679",
    "tech": "WIRELESS",
    "upgrade": "NULL_NA",
    "gnaf_pid": "GASA_424961951",
    "ee": true,
    "tech_change_status": "Not Planned",
    "program_type": "Fixed Wireless and Satellite Upgrade Program",
    "target_eligibility_quarter": "NA"
   }
  },
  {
   "type": "Feature",
   "geometry": {
    "type": "Point",
    "coordinates": [
     138.9249375,
     -35.14484838
    ]
   },
   "properties": {
    "name": "1038 WELLINGTON ROAD HIGHLAND VALLEY 5255",
    "locID": "LOC000130793570",
    "tech": "WIRELESS",
    "upgrade": "NULL_NA",
    "gnaf_pid": "GASA_424961952",
    "ee": true,
    "tech_change_status": "Not Planned",
    "program_type": "Fixed Wireless and Satellite Upgrade Program",
    "target_eligibility_quarter": "NA"
   }
  },
  {
   "type": "Feature",
   "geometry": {
    "type": "Point",
    "coordinates": [
     138.9272072,
     -35.14582808
    ]
   },
   "properties": {
    "name": "1060 WELLINGTON ROAD HIGHLAND VALLEY 5255",
    "locID": "LOC000130796994",
    "tech": "WIRELESS",
    "upgrade": "NULL_NA",
    "gnaf_pid": "GASA_424961953",
    "ee": true,
    "tech_change_status": "Not Planned",
    "program_type": "Fixed Wireless and Satellite Upgrade Program",
    "target_eligibility_quarter": "NA"
   }
  },
  {
   "type": "Feature",
   "geometry": {
    "type": "Point",
    "coordinates": [
     138.92888312,
     -35.14655147
    ]
   },
   "properties": {
    "name": "1078 WELLINGTON ROAD HIGHLAND VALLEY 5255",
    "locID": "LOC000130797056",
    "tech": "WIRELESS",
    "upgrade": "NULL_NA",
    "gnaf_pid": "GASA_424961954",
    "ee": true,
    "tech_change_status": "Not Planned",
    "program_type": "Fixed Wireless and Satellite Upgrade Program",
    "target_eligibility_quarter": "NA"
   }
  },
  {
   "type": "Feature",
   "geometry": {
    "type": "Point",
    "coordinates": [
     138.93256891,
     -35.14802394
    ]
   },
   "properties": {
    "name": "1115 WELLINGTON ROAD HIGHLAND VALLEY 5255",
    "locID": "LOC000130797245",
    "tech": "WIRELESS",
    "upgrade": "NULL_NA",
    "gnaf_pid": "GASA_424961955",
    "ee": true,
    "tech_change_status": "Not Planned",
    "program_type": "Fixed Wireless and Satellite Upgrade Program",
    "target_eligibility_quarter": "NA"
   }
  },
  {
   "type": "Feature",
   "geometry": {
    "type": "Point",
    "coordinates": [
     138.93429499,
     -35.14891406
    ]
   },
   "properties": {
    "name": "1134 WELLINGTON ROAD HIGHLAND VALLEY 5255",
    "locID": "LOC000130801352",
    "tech": "WIRELESS",
    "upgrade": "NULL_NA",
    "gnaf_pid": "GASA_424961956",
    "ee": true,
    "tech_change_status": "Not Planned",
    "program_type": "Fixed Wireless and Satellite Upgrade Program",
    "target_eligibility_quarter": "NA"
   }
  },
  {
   "type": "Feature",
   "geometry": {
    "type": "Point",
    "coordinates": [
     138.93626601,
     -35.14981892
    ]
   },
   "properties": {
    "name": "1155 WELLINGTON ROAD HIGHLAND VALLEY 5255",
    "locID": "LOC000130801462",
    "tech": "WIRELESS",
    "upgrade": "NULL_NA",
    "gnaf_pid": "GASA_424961957",
    "ee": true,
    "tech_change_status": "Not Planned",
    "program_type": "Fixed Wireless and Satellite Upgrade Program",
    "target_eligibility_quarter": "NA"
   }
  },
  {
   "type": "Feature",
   "geometry": {
    "type": "Point",
    "coordinates": [
     138.9355274,
     -35.1559579
    ]
   },
   "properties": {
    "name": "1227 WELLINGTON ROAD HIGHLAND VALLEY 5255",
    "locID": "LOC000130809707",
    "tech": "WIRELESS",
    "upgrade": "NULL_NA",
    "gnaf_pid": "GASA_424961958",
    "ee": true,
    "tech_change_status": "Not Planned",
    "program_type": "Fixed Wireless and Satellite Upgrade Program",
    "target_eligibility_quarter": "NA"
   }
  },
  {
   "type": "Feature",
   "geometry": {
    "type": "Point",
    "coordinates": [
     138.934668,
     -35.157466
    ]
   },
   "properties": {
    "name": "1246 WELLINGTON ROAD HIGHLAND VALLEY 5255",
    "locID": "LOC000130809776",
    "tech": "WIRELESS",
    "upgrade": "NULL_NA",
    "gnaf_pid": "GASA_424961959",
    "ee": true,
    "tech_change_status": "Not Planned",
    "program_type": "Fixed Wireless and Satellite Upgrade Program",
    "target_eligibility_quarter": "NA"
   }
  },
  {
   "type": "Feature",
   "geometry": {
    "type": "Point",
    "coordinates": [
     138.93676921,
     -35.1618359
    ]
   },
   "properties": {
    "name": "1307 WELLINGTON ROAD HIGHLAND VALLEY 5255",
    "locID": "LOC000130813533",
    "tech": "WIRELESS",
    "upgrade": "NULL_NA",
    "gnaf_pid": "GASA_424961960",
    "ee": true,
    "tech_change_status": "Not Planned",
    "program_type": "Fixed Wireless and Satellite Upgrade Program",
    "target_eligibility_quarter": "NA"
   }
  },
  {
   "type": "Feature",
   "geometry": {
    "type": "Point",
    "coordinates": [
     138.94066767,
     -35.16582009
    ]
   },
   "properties": {
    "name": "1366 WELLINGTON ROAD HIGHLAND VALLEY 5255",
    "locID": "LOC000185846416",
    "tech": "WIRELESS",
    "upgrade": "NULL_NA",
    "gnaf_pid": "GASA_424961961",
    "ee": true,
    "tech_change_status": "Eligible to Order",
    "program_type": "Fixed Wireless and Satellite Upgrade Program",
    "target_eligibility_quarter": "NA"
   }
  },
  {
   "type": "Feature",
   "geometry": {
    "type": "Point",
    "coordinates": [
     138.9408147,
     -35.16574175
    ]
   },
   "properties": {
    "name": "1367 WELLINGTON ROAD HIGHLAND VALLEY 5255",
    "locID": "LOC000130813682",
    "tech": "WIRELESS",
    "upgrade": "NULL_NA",
    "gnaf_pid": "GASA_424961962",
    "ee": true,
    "tech_change_status": "Not Planned",
    "program_type": "Fixed Wireless and Satellite Upgrade Program",
    "target_eligibility_quarter": "NA"
   }
  },
  {
   "type": "Feature",
   "geometry": {
    "type": "Point",
    "coordinates": [
     138.943329,
     -35.17139116
    ]
   },
   "properties": {
    "name": "1435 WELLINGTON ROAD HIGHLAND VALLEY 5255",
    "locID": "LOC000130822552",
    "tech": "WIRELESS",
    "upgrade": "NULL_NA",
    "gnaf_pid": "GASA_424961964",
    "ee": true,
    "tech_change_status": "Not Planned",
    "program_type": "Fixed Wireless and Satellite Upgrade Program",
    "target_eligibility_quarter": "NA"
   }
  },
  {
   "type": "Feature",
   "geometry": {
    "type": "Point",
    "coordinates": [
     138.94477124,
     -35.17783298
    ]
   },
   "properties": {
    "name": "1510 WELLINGTON ROAD HIGHLAND VALLEY 5255",
    "locID": "LOC000186433483",
    "tech": "WIRELESS",
    "upgrade": "NULL_NA",
    "gnaf_pid": "GASA_424961965",
    "ee": true,
    "tech_change_status": "Not Planned",
    "program_type": "Fixed Wireless and Satellite Upgrade Program",
    "target_eligibility_quarter": "NA"
   }
  },
  {
   "type": "Feature",
   "geometry": {
    "type": "Point",
    "coordinates": [
     138.92157331,
     -35.14201317
    ]
   },
   "properties": {
    "name": "992 WELLINGTON ROAD HIGHLAND VALLEY 5255",
    "locID": "LOC000130837145",
    "tech": "WIRELESS",
    "upgrade": "NULL_NA",
    "gnaf_pid": "GASA_424961966",
    "ee": true,
    "tech_change_status": "Not Planned",
    "program_type": "Fixed Wireless and Satellite Upgrade Program",
    "target_eligibility_quarter": "NA"
   }
  },
  {
   "type": "Feature",
   "geometry": {
    "type": "Point",
    "coordinates": [
     138.90439673,
     -35.14805872
    ]
   },
   "properties": {
    "name": "200 ARCHER HILL ROAD HIGHLAND VALLEY 5255",
    "locID": "LOC000130789928",
    "tech": "WIRELESS",
    "upgrade": "NULL_NA",
    "gnaf_pid": "GASA_425072505",
    "ee": true,
    "tech_change_status": "Not Planned",
    "program_type": "Fixed Wireless and Satellite Upgrade Program",
    "target_eligibility_quarter": "NA"
   }
  },
  {
   "type": "Feature",
   "geometry": {
    "type": "Point",
    "coordinates": [
     138.90301268,
     -35.14694929
    ]
   },
   "properties": {
    "name": "181 ARCHER HILL ROAD HIGHLAND VALLEY 5255",
    "locID": "LOC100078862157",
    "tech": "WIRELESS",
    "upgrade": "NULL_NA",
    "gnaf_pid": "GASA_425105065",
    "ee": true,
    "tech_change_status": "Not Planned",
    "program_type": "Fixed Wireless and Satellite Upgrade Program",
    "target_eligibility_quarter": "NA"
   }
  },
  {
   "type": "Feature",
   "geometry": {
    "type": "Point",
    "coordinates": [
     138.90449662,
     -35.14802552
    ]
   },
   "properties": {
    "name": "199 ARCHER HILL ROAD HIGHLAND VALLEY 5255",
    "locID": "LOC100078648647",
    "tech": "WIRELESS",
    "upgrade": "NULL_NA",
    "gnaf_pid": "GASA_425105066",
    "ee": true,
    "tech_change_status": "Not Planned",
    "program_type": "Fixed Wireless and Satellite Upgrade Program",
    "target_eligibility_quarter": "NA"
   }
  },
  {
   "type": "Feature",
   "geometry": {
    "type": "Point",
    "coordinates": [
     138.9060533,
     -35.14964636
    ]
   },
   "properties": {
    "name": "219 ARCHER HILL ROAD HIGHLAND VALLEY 5255",
    "locID": "LOC100078648652",
    "tech": "SATELLITE",
    "upgrade": "WIRELESS",
    "gnaf_pid": "GASA_425105067",
    "ee": true,
    "tech_change_status": "Eligible to Order",
    "program_type": "Fixed Wireless and Satellite Upgrade Program",
    "target_eligibility_quarter": "NA"
   }
  },
  {
   "type": "Feature",
   "geometry": {
    "type": "Point",
    "coordinates": [
     138.90608984,
     -35.14969232
    ]
   },
   "properties": {
    "name": "221 ARCHER HILL ROAD HIGHLAND VALLEY 5255",
    "locID": "LOC100078862174",
    "tech": "WIRELESS",
    "upgrade": "NULL_NA",
    "gnaf_pid": "GASA_425105068",
    "ee": true,
    "tech_change_status": "Not Planned",
    "program_type": "Fixed Wireless and Satellite Upgrade Program",
    "target_eligibility_quarter": "NA"
   }
  },
  {
   "type": "Feature",
   "geometry": {
    "type": "Point",
    "coordinates": [
     138.90613211,
     -35.14976961
    ]
   },
   "properties": {
    "name": "223 ARCHER HILL ROAD HIGHLAND VALLEY 5255",
    "locID": "LOC000173805721",
    "tech": "WIRELESS",
    "upgrade": "NULL_NA",
    "gnaf_pid": "GASA_425105069",
    "ee": true,
    "tech_change_status": "Not Planned",
    "program_type": "Fixed Wireless and Satellite Upgrade Program",
    "target_eligibility_quarter": "NA"
   }
  },
  {
   "type": "Feature",
   "geometry": {
    "type": "Point",
    "coordinates": [
     138.90709497,
     -35.15145756
    ]
   },
   "properties": {
    "name": "245 ARCHER HILL ROAD HIGHLAND VALLEY 5255",
    "locID": "LOC000177344070",
    "tech": "WIRELESS",
    "upgrade": "NULL_NA",
    "gnaf_pid": "GASA_425105070",
    "ee": true,
    "tech_change_status": "Not Planned",
    "program_type": "Fixed Wireless and Satellite Upgrade Program",
    "target_eligibility_quarter": "NA"
   }
  },
  {
   "type": "Feature",
   "geometry": {
    "type": "Point",
    "coordinates": [
     138.892426,
     -35.145546
    ]
   },
   "properties": {
    "name": "78 ARCHER HILL ROAD HIGHLAND VALLEY 5255",
    "locID": "LOC000178267025",
    "tech": "WIRELESS",
    "upgrade": "NULL_NA",
    "gnaf_pid": "GASA_425105071",
    "ee": true,
    "tech_change_status": "Not Planned",
    "program_type": "Fixed Wireless and Satellite Upgrade Program",
    "target_eligibility_quarter": "NA"
   }
  },
  {
   "type": "Feature",
   "geometry": {
    "type": "Point",
    "coordinates": [
     138.91178664,
     -35.17038197
    ]
   },
   "properties": {
    "name": "118 ARMADILLO DRIVE HIGHLAND VALLEY 5255",
    "locID": "LOC000150762239",
    "tech": "WIRELESS",
    "upgrade": "NULL_NA",
    "gnaf_pid": "GASA_425105080",
    "ee": true,
    "tech_change_status": "Not Planned",
    "program_type": "Fixed Wireless and Satellite Upgrade Program",
    "target_eligibility_quarter": "NA"
   }
  },
  {
   "type": "Feature",
   "geometry": {
    "type": "Point",
    "coordinates": [
     138.91287569,
     -35.1691264
    ]
   },
   "properties": {
    "name": "136 ARMADILLO DRIVE HIGHLAND VALLEY 5255",
    "locID": "LOC000150762256",
    "tech": "SATELLITE",
    "upgrade": "NULL_NA",
    "gnaf_pid": "GASA_425105081",
    "ee": true,
    "tech_change_status": "Not Planned"
   }
  },
  {
   "type": "Feature",
   "geometry": {
    "type": "Point",
    "coordinates": [
     138.91267583,
     -35.16861888
    ]
   },
   "properties": {
    "name": "142 ARMADILLO DRIVE HIGHLAND VALLEY 5255",
    "locID": "LOC000150762273",
    "tech": "SATELLITE",
    "upgrade": "NULL_NA",
    "gnaf_pid": "GASA_425105082",
    "ee": true,
    "tech_change_status": "Not Planned"
   }
  },
  {
   "type": "Feature",
   "geometry": {
    "type": "Point",
    "coordinates": [
     138.91710542,
     -35.17031098
    ]
   },
   "properties": {
    "name": "30 ARMADILLO DRIVE HIGHLAND VALLEY 5255",
    "locID": "LOC000150762287",
    "tech": "WIRELESS",
    "upgrade": "NULL_NA",
    "gnaf_pid": "GASA_425105083",
    "ee": true,
    "tech_change_status": "Not Planned",
    "program_type": "Fixed Wireless and Satellite Upgrade Program",
    "target_eligibility_quarter": "NA"
   }
  },
  {
   "type": "Feature",
   "geometry": {
    "type": "Point",
    "coordinates": [
     138.91636407,
     -35.17055434
    ]
   },
   "properties": {
    "name": "36 ARMADILLO DRIVE HIGHLAND VALLEY 5255",
    "locID": "LOC000150762294",
    "tech": "WIRELESS",
    "upgrade": "NULL_NA",
    "gnaf_pid": "GASA_425105084",
    "ee": true,
    "tech_change_status": "Not Planned",
    "program_type": "Fixed Wireless and Satellite Upgrade Program",
    "target_eligibility_quarter": "NA"
   }
  },
  {
   "type": "Feature",
   "geometry": {
    "type": "Point",
    "coordinates": [
     138.91495062,
     -35.17113574
    ]
   },
   "properties": {
    "name": "51 ARMADILLO DRIVE HIGHLAND VALLEY 5255",
    "locID": "LOC000150762304",
    "tech": "WIRELESS",
    "upgrade": "NULL_NA",
    "gnaf_pid": "GASA_425105085",
    "ee": true,
    "tech_change_status": "Not Planned",
    "program_type": "Fixed Wireless and Satellite Upgrade Program",
    "target_eligibility_quarter": "NA"
   }
  },
  {
   "type": "Feature",
   "geometry": {
    "type": "Point",
    "coordinates": [
     138.94517485,
     -35.16973582
    ]
   },
   "properties": {
    "name": "36 FALKAI ROAD HIGHLAND VALLEY 5255",
    "locID": "LOC000153218320",
    "tech": "WIRELESS",
    "upgrade": "NULL_NA",
    "gnaf_pid": "GASA_425107372",
    "ee": true,
    "tech_change_status": "Not Planned",
    "program_type": "Fixed Wireless and Satellite Upgrade Program",
    "target_eligibility_quarter": "NA"
   }
  },
  {
   "type": "Feature",
   "geometry": {
    "type": "Point",
    "coordinates": [
     138.92074683,
     -35.18390446
    ]
   },
   "properties": {
    "name": "317 SCRUBBY HILL ROAD HIGHLAND VALLEY 5255",
    "locID": "LOC000150764290",
    "tech": "WIRELESS",
    "upgrade": "NULL_NA",
    "gnaf_pid": "GASA_425111604",
    "ee": true,
    "tech_change_status": "Not Planned",
    "program_type": "Fixed Wireless and Satellite Upgrade Program",
    "target_eligibility_quarter": "NA"
   }
  },
  {
   "type": "Feature",
   "geometry": {
    "type": "Point",
    "coordinates": [
     138.91675184,
     -35.13778092
    ]
   },
   "properties": {
    "name": "9 THRING LANE HIGHLAND VALLEY 5255",
    "locID": "LOC000142385532",
    "tech": "SATELLITE",
    "upgrade": "WIRELESS",
    "gnaf_pid": "GASA_425112815",
    "ee": true,
    "tech_change_status": "Eligible to Order",
    "program_type": "Fixed Wireless and Satellite Upgrade Program",
    "target_eligibility_quarter": "NA"
   }
  },
  {
   "type": "Feature",
   "geometry": {
    "type": "Point",
    "coordinates": [
     138.92185893,
     -35.16314817
    ]
   },
   "properties": {
    "name": "200 VALE ROAD HIGHLAND VALLEY 5255",
    "locID": "LOC000150764476",
    "tech": "NULL",
    "upgrade": "NULL_NA",
    "gnaf_pid": "GASA_425113008",
    "ee": true,
    "tech_change_status": "Not Planned"
   }
  },
  {
   "type": "Feature",
   "geometry": {
    "type": "Point",
    "coordinates": [
     138.91984887,
     -35.17094835
    ]
   },
   "properties": {
    "name": "302A VALE ROAD HIGHLAND VALLEY 5255",
    "locID": "LOC100078123818",
    "tech": "WIRELESS",
    "upgrade": "NULL_NA",
    "gnaf_pid": "GASA_425113009",
    "ee": true,
    "tech_change_status": "Not Planned",
    "program_type": "Fixed Wireless and Satellite Upgrade Program",
    "target_eligibility_quarter": "NA"
   }
  },
  {
   "type": "Feature",
   "geometry": {
    "type": "Point",
    "coordinates": [
     138.91984887,
     -35.17094835
    ]
   },
   "properties": {
    "name": "302B VALE ROAD HIGHLAND VALLEY 5255",
    "locID": "LOC000150764495",
    "tech": "WIRELESS",
    "upgrade": "NULL_NA",
    "gnaf_pid": "GASA_425113010",
    "ee": true,
    "tech_change_status": "Eligible to Order",
    "program_type": "Fixed Wireless and Satellite Upgrade Program",
    "target_eligibility_quarter": "NA"
   }
  },
  {
   "type": "Feature",
   "geometry": {
    "type": "Point",
    "coordinates": [
     138.91984887,
     -35.17094835
    ]
   },
   "properties": {
    "name": "302C VALE ROAD HIGHLAND VALLEY 5255",
    "locID": "LOC000150764495",
    "tech": "WIRELESS",
    "upgrade": "NULL_NA",
    "gnaf_pid": "GASA_425113011",
    "ee": true,
    "tech_change_status": "Eligible to Order",
    "program_type": "Fixed Wireless and Satellite Upgrade Program",
    "target_eligibility_quarter": "NA"
   }
  },
  {
   "type": "Feature",
   "geometry": {
    "type": "Point",
    "coordinates": [
     138.91984887,
     -35.17094835
    ]
   },
   "properties": {
    "name": "302D VALE ROAD HIGHLAND VALLEY 5255",
    "locID": "LOC000150764469",
    "tech": "SATELLITE",
    "upgrade": "NULL_NA",
    "gnaf_pid": "GASA_425113012",
    "ee": true,
    "tech_change_status": "Not Planned"
   }
  },
  {
   "type": "Feature",
   "geometry": {
    "type": "Point",
    "coordinates": [
     138.94254643,
     -35.1696791
    ]
   },
   "properties": {
    "name": "1414 WELLINGTON ROAD HIGHLAND VALLEY 5255",
    "locID": "LOC000185229929",
    "tech": "WIRELESS",
    "upgrade": "NULL_NA",
    "gnaf_pid": "GASA_425194565",
    "ee": true,
    "tech_change_status": "Not Planned",
    "program_type": "Fixed Wireless and Satellite Upgrade Program",
    "target_eligibility_quarter": "NA"
   }
  },
  {
   "type": "Feature",
   "geometry": {
    "type": "Point",
    "coordinates": [
     138.91988197,
     -35.16976866
    ]
   },
   "properties": {
    "name": "286 VALE ROAD HIGHLAND VALLEY 5255",
    "locID": "LOC100073774718",
    "tech": "SATELLITE",
    "upgrade": "NULL_NA",
    "gnaf_pid": "GASA_425358967",
    "ee": true,
    "tech_change_status": "Not Planned"
   }
  },
  {
   "type": "Feature",
   "geometry": {
    "type": "Point",
    "coordinates": [
     138.92269292,
     -35.14337159
    ]
   },
   "properties": {
    "name": "LOT 25 WELLINGTON ROAD HIGHLAND VALLEY 5255",
    "locID": "LOC100078862142",
    "tech": "WIRELESS",
    "upgrade": "NULL_NA",
    "gnaf_pid": "GASA_425395703",
    "ee": true,
    "tech_change_status": "Not Planned",
    "program_type": "Fixed Wireless and Satellite Upgrade Program",
    "target_eligibility_quarter": "NA"
   }
  },
  {
   "type": "Feature",
   "geometry": {
    "type": "Point",
    "coordinates": [
     138.92200107,
     -35.1424843
    ]
   },
   "properties": {
    "name": "1000 WELLINGTON ROAD HIGHLAND VALLEY 5255",
    "locID": "LOC100078862142",
    "tech": "WIRELESS",
    "upgrade": "NULL_NA",
    "gnaf_pid": "GASA_425504643",
    "ee": true,
    "tech_change_status": "Not Planned",
    "program_type": "Fixed Wireless and Satellite Upgrade Program",
    "target_eligibility_quarter": "NA"
   }
  },
  {
   "type": "Feature",
   "geometry": {
    "type": "Point",
    "coordinates": [
     138.93069534,
     -35.14329
    ]
   },
   "properties": {
    "name": "44 KLENKE ROAD HIGHLAND VALLEY 5255",
    "locID": "LOC000130833316",
    "tech": "SATELLITE",
    "upgrade": "WIRELESS",
    "gnaf_pid": "GASA_425717345",
    "ee": true,
    "tech_change_status": "Eligible to Order",
    "program_type": "Fixed Wireless and Satellite Upgrade Program",
    "target_eligibility_quarter": "NA"
   }
  },
  {
   "type": "Feature",
   "geometry": {
    "type": "Point",
    "coordinates": [
     138.90569617,
     -35.14903756
    ]
   },
   "properties": {
    "name": "215 ARCHER HILL ROAD HIGHLAND VALLEY 5255",
    "locID": "LOC100078862161",
    "tech": "WIRELESS",
    "upgrade": "NULL_NA",
    "gnaf_pid": "GASA_425718715",
    "ee": true,
    "tech_change_status": "Not Planned",
    "program_type": "Fixed Wireless and Satellite Upgrade Program",
    "target_eligibility_quarter": "NA"
   }
  },
  {
   "type": "Feature",
   "geometry": {
    "type": "Point",
    "coordinates": [
     138.92366949,
     -35.14423476
    ]
   },
   "properties": {
    "name": "1024 WELLINGTON ROAD HIGHLAND VALLEY 5255",
    "locID": "LOC100078648634",
    "tech": "WIRELESS",
    "upgrade": "NULL_NA",
    "gnaf_pid": "GASA_425725787",
    "ee": true,
    "tech_change_status": "Not Planned",
    "program_type": "Fixed Wireless and Satellite Upgrade Program",
    "target_eligibility_quarter": "NA"
   }
  },
  {
   "type": "Feature",
   "geometry": {
    "type": "Point",
    "coordinates": [
     138.925648,
     -35.173416
    ]
   },
   "properties": {
    "name": "177A SCRUBBY HILL ROAD HIGHLAND VALLEY 5255",
    "locID": "LOC100089531476",
    "tech": "WIRELESS",
    "upgrade": "NULL_NA",
    "gnaf_pid": "GASA_425802818",
    "ee": true,
    "tech_change_status": "Not Planned",
    "program_type": "Fixed Wireless and Satellite Upgrade Program",
    "target_eligibility_quarter": "NA"
   }
  },
  {
   "type": "Feature",
   "geometry": {
    "type": "Point",
    "coordinates": [
     138.92645049,
     -35.15752183
    ]
   },
   "properties": {
    "name": "LOT 94 ARCHER HILL ROAD HIGHLAND VALLEY 5255",
    "locID": "LOC000130845427",
    "tech": "WIRELESS",
    "upgrade": "NULL_NA",
    "gnaf_pid": "GASA_719774981",
    "ee": true,
    "tech_change_status": "Previous Tech Disconnected",
    "program_type": "Fixed Wireless and Satellite Upgrade Program",
    "target_eligibility_quarter": "NA"
   }
  },
  {
   "type": "Feature",
   "geometry": {
    "type": "Point",
    "coordinates": [
     138.896907,
     -35.146015
    ]
   },
   "properties": {
    "name": "120 ARCHER HILL ROAD HIGHLAND VALLEY 5255",
    "locID": "LOC000184039691",
    "tech": "WIRELESS",
    "upgrade": "NULL_NA",
    "gnaf_pid": "GASA_720236979",
    "ee": true,
    "tech_change_status": "Not Planned",
    "program_type": "Fixed Wireless and Satellite Upgrade Program",
    "target_eligibility_quarter": "NA"
   }
  },
  {
   "type": "Feature",
   "geometry": {
    "type": "Point",
    "coordinates": [
     138.929497,
     -35.144572
    ]
   },
   "properties": {
    "name": "28 KLENKE ROAD HIGHLAND VALLEY 5255",
    "locID": "LOC000130814063",
    "tech": "WIRELESS",
    "upgrade": "NULL_NA",
    "gnaf_pid": "GASA_720238155",
    "ee": true,
    "tech_change_status": "Not Planned"
   }
  },
  {
   "type": "Feature",
   "geometry": {
    "type": "Point",
    "coordinates": [
     138.93592774,
     -35.15157216
    ]
   },
   "properties": {
    "name": "LOT 50 WELLINGTON ROAD HIGHLAND VALLEY 5255",
    "locID": "LOC100078862142",
    "tech": "WIRELESS",
    "upgrade": "NULL_NA",
    "gnaf_pid": "GASA_720301431",
    "ee": true,
    "tech_change_status": "Not Planned",
    "program_type": "Fixed Wireless and Satellite Upgrade Program",
    "target_eligibility_quarter": "NA"
   }
  },
  {
   "type": "Feature",
   "geometry": {
    "type": "Point",
    "coordinates": [
     138.907048,
     -35.151508
    ]
   },
   "properties": {
    "name": "244 ARCHER HILL ROAD HIGHLAND VALLEY 5255",
    "locID": "LOC100075400949",
    "tech": "WIRELESS",
    "upgrade": "NULL_NA",
    "gnaf_pid": "GASA_720369212",
    "ee": true,
    "tech_change_status": "Not Planned",
    "program_type": "Fixed Wireless and Satellite Upgrade Program",
    "target_eligibility_quarter": "NA"
   }
  }
 ]
}