{
 "type": "FeatureCollection",
 "generated": "2025-06-15T15:24:26.373914",
 "suburb": "HINCKS",
 "features": [
  {
   "type": "Feature",
   "geometry": {
    "type": "Point",
    "coordinates": [
     135.84152359,
     -33.88846603
    ]
   },
   "properties": {
    "name": "LOT 11 RESERVE ROAD HINCKS 5603",
    "locID": "LOC000114140181",
    "tech": "NULL",
    "upgrade": "NULL_NA",
    "gnaf_pid": "GASA_424328803",
    "ee": false,
    "tech_change_status": "Not Planned"
   }
  },
  {
   "type": "Feature",
   "geometry": {
    "type": "Point",
    "coordinates": [
     136.000741,
     -33.7450824
    ]
   },
   "properties": {
    "name": "LOT 25 WALSH ROAD HINCKS 5603",
    "locID": "LOC000131611769",
    "tech": "SATELLITE",
    "upgrade": "NULL_NA",
    "gnaf_pid": "GASA_424567155",
    "ee": false,
    "tech_change_status": "Not Planned"
   }
  }
 ]
}