{
 "type": "FeatureCollection",
 "generated": "2025-06-15T15:57:32.069883",
 "suburb": "KALAMURINA",
 "features": [
  {
   "type": "Feature",
   "geometry": {
    "type": "Point",
    "coordinates": [
     138.25449248,
     -27.72135763
    ]
   },
   "properties": {
    "name": "5509 KALAMURINA ROAD KALAMURINA 5733",
    "locID": "LOC000150228744",
    "tech": "NULL",
    "upgrade": "NULL_NA",
    "gnaf_pid": "GASA_425721797",
    "ee": false,
    "tech_change_status": "Not Planned"
   }
  }
 ]
}