{
 "type": "FeatureCollection",
 "generated": "2025-06-15T15:57:30.601379",
 "suburb": "KALABITY",
 "features": [
  {
   "type": "Feature",
   "geometry": {
    "type": "Point",
    "coordinates": [
     140.3135932,
     -31.91564823
    ]
   },
   "properties": {
    "name": "2322 KALABITY ROAD KALABITY 5440",
    "locID": "LOC000150228737",
    "tech": "SATELLITE",
    "upgrade": "NULL_NA",
    "gnaf_pid": "GASA_425629265",
    "ee": false,
    "tech_change_status": "Not Planned"
   }
  }
 ]
}