{
 "type": "FeatureCollection",
 "generated": "2025-06-15T16:00:52.638351",
 "suburb": "KALDOONERA",
 "features": [
  {
   "type": "Feature",
   "geometry": {
    "type": "Point",
    "coordinates": [
     134.9445507,
     -32.60315114
    ]
   },
   "properties": {
    "name": "14 EMERALD RISE ROAD KALDOONERA 5655",
    "locID": "LOC000131622474",
    "tech": "NULL",
    "upgrade": "NULL_NA",
    "gnaf_pid": "GASA_424431190",
    "ee": false,
    "tech_change_status": "Not Planned"
   }
  },
  {
   "type": "Feature",
   "geometry": {
    "type": "Point",
    "coordinates": [
     134.9445507,
     -32.60315114
    ]
   },
   "properties": {
    "name": "LOT 93 EMERALD RISE ROAD KALDOONERA 5655",
    "locID": "LOC000131622474",
    "tech": "NULL",
    "upgrade": "NULL_NA",
    "gnaf_pid": "GASA_424431192",
    "ee": false,
    "tech_change_status": "Not Planned"
   }
  },
  {
   "type": "Feature",
   "geometry": {
    "type": "Point",
    "coordinates": [
     134.87120415,
     -32.59010747
    ]
   },
   "properties": {
    "name": "1 KALDOONERA ROAD KALDOONERA 5655",
    "locID": "LOC000131556626",
    "tech": "NULL",
    "upgrade": "NULL_NA",
    "gnaf_pid": "GASA_424431735",
    "ee": false,
    "tech_change_status": "Not Planned"
   }
  },
  {
   "type": "Feature",
   "geometry": {
    "type": "Point",
    "coordinates": [
     134.87120415,
     -32.59010747
    ]
   },
   "properties": {
    "name": "3 KALDOONERA ROAD KALDOONERA 5655",
    "locID": "LOC000160669006",
    "tech": "SATELLITE",
    "upgrade": "NULL_NA",
    "gnaf_pid": "GASA_424431737",
    "ee": false,
    "tech_change_status": "Not Planned"
   }
  },
  {
   "type": "Feature",
   "geometry": {
    "type": "Point",
    "coordinates": [
     134.94735691,
     -32.64666228
    ]
   },
   "properties": {
    "name": "LOT 35 EMERALD RISE ROAD KALDOONERA 5655",
    "locID": "LOC000131622474",
    "tech": "NULL",
    "upgrade": "NULL_NA",
    "gnaf_pid": "GASA_424519648",
    "ee": false,
    "tech_change_status": "Not Planned"
   }
  },
  {
   "type": "Feature",
   "geometry": {
    "type": "Point",
    "coordinates": [
     134.77215943,
     -32.62443285
    ]
   },
   "properties": {
    "name": "356 COTTON ROAD KALDOONERA 5655",
    "locID": "LOC000131561250",
    "tech": "SATELLITE",
    "upgrade": "NULL_NA",
    "gnaf_pid": "GASA_424955769",
    "ee": false,
    "tech_change_status": "Not Planned"
   }
  },
  {
   "type": "Feature",
   "geometry": {
    "type": "Point",
    "coordinates": [
     134.94586519,
     -32.64217045
    ]
   },
   "properties": {
    "name": "1428 EMERALD RISE ROAD KALDOONERA 5655",
    "locID": "LOC000131622474",
    "tech": "NULL",
    "upgrade": "NULL_NA",
    "gnaf_pid": "GASA_424956241",
    "ee": false,
    "tech_change_status": "Not Planned"
   }
  },
  {
   "type": "Feature",
   "geometry": {
    "type": "Point",
    "coordinates": [
     134.94561053,
     -32.64218521
    ]
   },
   "properties": {
    "name": "1429 EMERALD RISE ROAD KALDOONERA 5655",
    "locID": "LOC000131622488",
    "tech": "SATELLITE",
    "upgrade": "NULL_NA",
    "gnaf_pid": "GASA_424956242",
    "ee": false,
    "tech_change_status": "Not Planned"
   }
  },
  {
   "type": "Feature",
   "geometry": {
    "type": "Point",
    "coordinates": [
     134.94469581,
     -32.60470336
    ]
   },
   "properties": {
    "name": "1844 EMERALD RISE ROAD KALDOONERA 5655",
    "locID": "LOC000131556661",
    "tech": "SATELLITE",
    "upgrade": "NULL_NA",
    "gnaf_pid": "GASA_424956243",
    "ee": false,
    "tech_change_status": "Not Planned"
   }
  },
  {
   "type": "Feature",
   "geometry": {
    "type": "Point",
    "coordinates": [
     134.94382075,
     -32.58396474
    ]
   },
   "properties": {
    "name": "2074 EMERALD RISE ROAD KALDOONERA 5655",
    "locID": "LOC000131556730",
    "tech": "SATELLITE",
    "upgrade": "NULL_NA",
    "gnaf_pid": "GASA_424956244",
    "ee": false,
    "tech_change_status": "Not Planned"
   }
  },
  {
   "type": "Feature",
   "geometry": {
    "type": "Point",
    "coordinates": [
     134.86213763,
     -32.56640447
    ]
   },
   "properties": {
    "name": "1560 KALDOONERA ROAD KALDOONERA 5655",
    "locID": "LOC000131556571",
    "tech": "NULL",
    "upgrade": "NULL_NA",
    "gnaf_pid": "GASA_424957441",
    "ee": false,
    "tech_change_status": "Not Planned"
   }
  },
  {
   "type": "Feature",
   "geometry": {
    "type": "Point",
    "coordinates": [
     134.86008472,
     -32.55768758
    ]
   },
   "properties": {
    "name": "1660 KALDOONERA ROAD KALDOONERA 5655",
    "locID": "LOC000131556626",
    "tech": "NULL",
    "upgrade": "NULL_NA",
    "gnaf_pid": "GASA_424957442",
    "ee": false,
    "tech_change_status": "Not Planned"
   }
  },
  {
   "type": "Feature",
   "geometry": {
    "type": "Point",
    "coordinates": [
     134.85410608,
     -32.55008888
    ]
   },
   "properties": {
    "name": "1761 KALDOONERA ROAD KALDOONERA 5655",
    "locID": "LOC000131556642",
    "tech": "NULL",
    "upgrade": "NULL_NA",
    "gnaf_pid": "GASA_424957443",
    "ee": false,
    "tech_change_status": "Not Planned"
   }
  },
  {
   "type": "Feature",
   "geometry": {
    "type": "Point",
    "coordinates": [
     134.85639522,
     -32.53868154
    ]
   },
   "properties": {
    "name": "1898 KALDOONERA ROAD KALDOONERA 5655",
    "locID": "LOC000131556674",
    "tech": "NULL",
    "upgrade": "NULL_NA",
    "gnaf_pid": "GASA_424957444",
    "ee": false,
    "tech_change_status": "Not Planned"
   }
  },
  {
   "type": "Feature",
   "geometry": {
    "type": "Point",
    "coordinates": [
     134.86975975,
     -32.62499192
    ]
   },
   "properties": {
    "name": "893 KALDOONERA ROAD KALDOONERA 5655",
    "locID": "LOC000156498286",
    "tech": "SATELLITE",
    "upgrade": "NULL_NA",
    "gnaf_pid": "GASA_424957445",
    "ee": false,
    "tech_change_status": "Not Planned"
   }
  },
  {
   "type": "Feature",
   "geometry": {
    "type": "Point",
    "coordinates": [
     134.8700556,
     -32.61936394
    ]
   },
   "properties": {
    "name": "954 KALDOONERA ROAD KALDOONERA 5655",
    "locID": "LOC000131569749",
    "tech": "NULL",
    "upgrade": "NULL_NA",
    "gnaf_pid": "GASA_424957446",
    "ee": false,
    "tech_change_status": "Not Planned"
   }
  },
  {
   "type": "Feature",
   "geometry": {
    "type": "Point",
    "coordinates": [
     134.82039602,
     -32.5702684
    ]
   },
   "properties": {
    "name": "623 SCHLINK ROAD KALDOONERA 5655",
    "locID": "LOC000131565465",
    "tech": "NULL",
    "upgrade": "NULL_NA",
    "gnaf_pid": "GASA_424960692",
    "ee": false,
    "tech_change_status": "Not Planned"
   }
  },
  {
   "type": "Feature",
   "geometry": {
    "type": "Point",
    "coordinates": [
     134.87234882,
     -32.63969198
    ]
   },
   "properties": {
    "name": "725 KALDOONERA ROAD KALDOONERA 5655",
    "locID": "LOC000148253592",
    "tech": "NULL",
    "upgrade": "NULL_NA",
    "gnaf_pid": "GASA_425298256",
    "ee": false,
    "tech_change_status": "Not Planned"
   }
  }
 ]
}