{
 "type": "FeatureCollection",
 "generated": "2025-06-15T16:30:43.977496",
 "suburb": "KESWICK TERMINAL",
 "features": [
  {
   "type": "Feature",
   "geometry": {
    "type": "Point",
    "coordinates": [
     138.57835303,
     -34.94122262
    ]
   },
   "properties": {
    "name": "41-45 RICHMOND ROAD KESWICK TERMINAL 5035",
    "locID": "LOC000151516413",
    "tech": "HFC",
    "upgrade": "NULL_NA",
    "gnaf_pid": "GASA_415508649",
    "ee": true
   }
  },
  {
   "type": "Feature",
   "geometry": {
    "type": "Point",
    "coordinates": [
     138.5792349,
     -34.94129065
    ]
   },
   "properties": {
    "name": "33 RICHMOND ROAD KESWICK TERMINAL 5035",
    "locID": "LOC000130054640",
    "tech": "HFC",
    "upgrade": "NULL_NA",
    "gnaf_pid": "GASA_424402109",
    "ee": true
   }
  },
  {
   "type": "Feature",
   "geometry": {
    "type": "Point",
    "coordinates": [
     138.57865826,
     -34.93289836
    ]
   },
   "properties": {
    "name": "155 RAILWAY TERRACE KESWICK TERMINAL 5035",
    "locID": "LOC000041187147",
    "tech": "FTTC",
    "upgrade": "FTTP_SA",
    "gnaf_pid": "GASA_424524317",
    "ee": true,
    "tech_change_status": "Eligible to Order"
   }
  },
  {
   "type": "Feature",
   "geometry": {
    "type": "Point",
    "coordinates": [
     138.57729348,
     -34.93540484
    ]
   },
   "properties": {
    "name": "175 RAILWAY TERRACE KESWICK TERMINAL 5035",
    "locID": "LOC000130031859",
    "tech": "FTTC",
    "upgrade": "FTTP_SA",
    "gnaf_pid": "GASA_424692927",
    "ee": true,
    "tech_change_status": "Eligible to Order"
   }
  },
  {
   "type": "Feature",
   "geometry": {
    "type": "Point",
    "coordinates": [
     138.57899261,
     -34.93871896
    ]
   },
   "properties": {
    "name": "213 RAILWAY TERRACE KESWICK TERMINAL 5035",
    "locID": "LOC000130032070",
    "tech": "FTTC",
    "upgrade": "FTTP_SA",
    "gnaf_pid": "GASA_424904030",
    "ee": true,
    "tech_change_status": "Eligible to Order"
   }
  },
  {
   "type": "Feature",
   "geometry": {
    "type": "Point",
    "coordinates": [
     138.5792349,
     -34.94129065
    ]
   },
   "properties": {
    "name": "UNIT 1, 33 RICHMOND ROAD KESWICK TERMINAL 5035",
    "locID": "LOC000130054655",
    "tech": "HFC",
    "upgrade": "NULL_NA",
    "gnaf_pid": "GASA_424960365",
    "ee": true
   }
  },
  {
   "type": "Feature",
   "geometry": {
    "type": "Point",
    "coordinates": [
     138.5792349,
     -34.94129065
    ]
   },
   "properties": {
    "name": "UNIT 2, 33 RICHMOND ROAD KESWICK TERMINAL 5035",
    "locID": "LOC000130054655",
    "tech": "HFC",
    "upgrade": "NULL_NA",
    "gnaf_pid": "GASA_424960366",
    "ee": true
   }
  },
  {
   "type": "Feature",
   "geometry": {
    "type": "Point",
    "coordinates": [
     138.5792349,
     -34.94129065
    ]
   },
   "properties": {
    "name": "UNIT 3, 33 RICHMOND ROAD KESWICK TERMINAL 5035",
    "locID": "LOC000130054655",
    "tech": "HFC",
    "upgrade": "NULL_NA",
    "gnaf_pid": "GASA_424960367",
    "ee": true
   }
  },
  {
   "type": "Feature",
   "geometry": {
    "type": "Point",
    "coordinates": [
     138.5792349,
     -34.94129065
    ]
   },
   "properties": {
    "name": "UNIT 4, 33 RICHMOND ROAD KESWICK TERMINAL 5035",
    "locID": "LOC000170826820",
    "tech": "HFC",
    "upgrade": "NULL_NA",
    "gnaf_pid": "GASA_424960368",
    "ee": true
   }
  },
  {
   "type": "Feature",
   "geometry": {
    "type": "Point",
    "coordinates": [
     138.57689801,
     -34.93264357
    ]
   },
   "properties": {
    "name": "165 RAILWAY TERRACE KESWICK TERMINAL 5035",
    "locID": "LOC000181179872",
    "tech": "FTTP",
    "upgrade": "NULL_NA",
    "gnaf_pid": "GASA_425356509",
    "ee": true
   }
  },
  {
   "type": "Feature",
   "geometry": {
    "type": "Point",
    "coordinates": [
     138.57744908,
     -34.9363094
    ]
   },
   "properties": {
    "name": "179 RAILWAY TERRACE KESWICK TERMINAL 5035",
    "locID": "LOC000161940286",
    "tech": "FTTC",
    "upgrade": "FTTP_NA",
    "gnaf_pid": "GASA_425394067",
    "ee": true,
    "tech_change_status": "MDU Complex Eligible To Apply"
   }
  },
  {
   "type": "Feature",
   "geometry": {
    "type": "Point",
    "coordinates": [
     138.57762409,
     -34.93734027
    ]
   },
   "properties": {
    "name": "183 RAILWAY TERRACE KESWICK TERMINAL 5035",
    "locID": "LOC000161940293",
    "tech": "FTTP",
    "upgrade": "NULL_NA",
    "gnaf_pid": "GASA_425394068",
    "ee": true
   }
  },
  {
   "type": "Feature",
   "geometry": {
    "type": "Point",
    "coordinates": [
     138.57729348,
     -34.93540484
    ]
   },
   "properties": {
    "name": "177 RAILWAY TERRACE KESWICK TERMINAL 5035",
    "locID": "LOC000161940272",
    "tech": "FTTC",
    "upgrade": "FTTP_SA",
    "gnaf_pid": "GASA_425398054",
    "ee": true,
    "tech_change_status": "Eligible to Order"
   }
  },
  {
   "type": "Feature",
   "geometry": {
    "type": "Point",
    "coordinates": [
     138.57744908,
     -34.9363094
    ]
   },
   "properties": {
    "name": "181 RAILWAY TERRACE KESWICK TERMINAL 5035",
    "locID": "LOC000181179919",
    "tech": "FTTC",
    "upgrade": "FTTP_SA",
    "gnaf_pid": "GASA_425398055",
    "ee": true,
    "tech_change_status": "Eligible to Order"
   }
  },
  {
   "type": "Feature",
   "geometry": {
    "type": "Point",
    "coordinates": [
     138.57762409,
     -34.93734027
    ]
   },
   "properties": {
    "name": "185 RAILWAY TERRACE KESWICK TERMINAL 5035",
    "locID": "LOC000181179935",
    "tech": "FTTC",
    "upgrade": "FTTP_SA",
    "gnaf_pid": "GASA_425398056",
    "ee": true,
    "tech_change_status": "Eligible to Order"
   }
  },
  {
   "type": "Feature",
   "geometry": {
    "type": "Point",
    "coordinates": [
     138.57685672,
     -34.93328455
    ]
   },
   "properties": {
    "name": "167 RAILWAY TERRACE KESWICK TERMINAL 5035",
    "locID": "LOC000161940240",
    "tech": "FTTC",
    "upgrade": "FTTP_SA",
    "gnaf_pid": "GASA_425503426",
    "ee": true,
    "tech_change_status": "Eligible to Order"
   }
  },
  {
   "type": "Feature",
   "geometry": {
    "type": "Point",
    "coordinates": [
     138.58021538,
     -34.93908027
    ]
   },
   "properties": {
    "name": "217 RAILWAY TERRACE KESWICK TERMINAL 5035",
    "locID": "LOC000151533540",
    "tech": "HFC",
    "upgrade": "NULL_NA",
    "gnaf_pid": "GASA_425723959",
    "ee": true
   }
  },
  {
   "type": "Feature",
   "geometry": {
    "type": "Point",
    "coordinates": [
     138.57823351,
     -34.94033261
    ]
   },
   "properties": {
    "name": "219 RAILWAY TERRACE KESWICK TERMINAL 5035",
    "locID": "LOC000151516421",
    "tech": "HFC",
    "upgrade": "NULL_NA",
    "gnaf_pid": "GASA_425723960",
    "ee": true
   }
  },
  {
   "type": "Feature",
   "geometry": {
    "type": "Point",
    "coordinates": [
     138.58098493,
     -34.94067309
    ]
   },
   "properties": {
    "name": "1-25 RICHMOND ROAD KESWICK TERMINAL 5035",
    "locID": "LOC100067697705",
    "tech": "FTTB",
    "upgrade": "NULL_NA",
    "gnaf_pid": "GASA_425724075",
    "ee": true
   }
  },
  {
   "type": "Feature",
   "geometry": {
    "type": "Point",
    "coordinates": [
     138.5814404,
     -34.93712345
    ]
   },
   "properties": {
    "name": "LOT 13 RICHMOND ROAD KESWICK TERMINAL 5035",
    "locID": "LOC000149523749",
    "tech": "FTTN",
    "upgrade": "NULL_NA",
    "gnaf_pid": "GASA_425724079",
    "ee": true,
    "tech_change_status": "Not Planned"
   }
  },
  {
   "type": "Feature",
   "geometry": {
    "type": "Point",
    "coordinates": [
     138.58040863,
     -34.93199667
    ]
   },
   "properties": {
    "name": "11 SIR DONALD BRADMAN DRIVE KESWICK TERMINAL 5035",
    "locID": "LOC000149523346",
    "tech": "FTTN",
    "upgrade": "NULL_NA",
    "gnaf_pid": "GASA_425724592",
    "ee": true,
    "tech_change_status": "Not Planned"
   }
  },
  {
   "type": "Feature",
   "geometry": {
    "type": "Point",
    "coordinates": [
     138.5792349,
     -34.94129065
    ]
   },
   "properties": {
    "name": "UNIT 5, 33 RICHMOND ROAD KESWICK TERMINAL 5035",
    "locID": "LOC000170826831",
    "tech": "HFC",
    "upgrade": "NULL_NA",
    "gnaf_pid": "GASA_719048089",
    "ee": true
   }
  },
  {
   "type": "Feature",
   "geometry": {
    "type": "Point",
    "coordinates": [
     138.57717456,
     -34.93401031
    ]
   },
   "properties": {
    "name": "LOT 14 RAILWAY TERRACE KESWICK TERMINAL 5035",
    "locID": "LOC000013417360",
    "tech": "HFC",
    "upgrade": "NULL_NA",
    "gnaf_pid": "GASA_720236532",
    "ee": true
   }
  },
  {
   "type": "Feature",
   "geometry": {
    "type": "Point",
    "coordinates": [
     138.57877277,
     -34.93798905
    ]
   },
   "properties": {
    "name": "205 RAILWAY TERRACE KESWICK TERMINAL 5035",
    "locID": "LOC000186785478",
    "tech": "FTTP",
    "upgrade": "NULL_NA",
    "gnaf_pid": "GASA_720301920",
    "ee": true
   }
  },
  {
   "type": "Feature",
   "geometry": {
    "type": "Point",
    "coordinates": [
     138.57945342,
     -34.9404845
    ]
   },
   "properties": {
    "name": "33-37 RICHMOND ROAD KESWICK TERMINAL 5035",
    "locID": "LOC000130054640",
    "tech": "HFC",
    "upgrade": "NULL_NA",
    "gnaf_pid": "GASA_720722562",
    "ee": true
   }
  }
 ]
}