{
 "type": "FeatureCollection",
 "generated": "2025-06-15T17:06:02.315148",
 "suburb": "LAKE TORRENS STATION",
 "features": [
  {
   "type": "Feature",
   "geometry": {
    "type": "Point",
    "coordinates": [
     138.053505,
     -31.639448
    ]
   },
   "properties": {
    "name": "3240 LAKE TORRENS HOMESTEAD ROAD LAKE TORRENS STATION 5713",
    "locID": "LOC000150231130",
    "tech": "NULL",
    "upgrade": "NULL_NA",
    "gnaf_pid": "GASA_425629400",
    "ee": false,
    "tech_change_status": "Not Planned"
   }
  }
 ]
}