{
 "type": "FeatureCollection",
 "generated": "2025-06-15T17:05:22.051569",
 "suburb": "LAKE ALEXANDRINA",
 "features": [
  {
   "type": "Feature",
   "geometry": {
    "type": "Point",
    "coordinates": [
     139.18131163,
     -35.33396536
    ]
   },
   "properties": {
    "name": "LOT 1406 WEST CREEK ROAD LAKE ALEXANDRINA 5259",
    "locID": "LOC000113009891",
    "tech": "SATELLITE",
    "upgrade": "WIRELESS",
    "gnaf_pid": "GASA_720300201",
    "ee": true,
    "tech_change_status": "Eligible to Order",
    "program_type": "Fixed Wireless and Satellite Upgrade Program",
    "target_eligibility_quarter": "NA"
   }
  },
  {
   "type": "Feature",
   "geometry": {
    "type": "Point",
    "coordinates": [
     139.20037889,
     -35.33058053
    ]
   },
   "properties": {
    "name": "LOT 1286 WEST CREEK ROAD LAKE ALEXANDRINA 5259",
    "locID": "LOC000113009891",
    "tech": "SATELLITE",
    "upgrade": "WIRELESS",
    "gnaf_pid": "GASA_720300362",
    "ee": true,
    "tech_change_status": "Eligible to Order",
    "program_type": "Fixed Wireless and Satellite Upgrade Program",
    "target_eligibility_quarter": "NA"
   }
  }
 ]
}