{
 "type": "FeatureCollection",
 "generated": "2025-06-15T17:32:03.591299",
 "suburb": "LOCKES CLAYPAN",
 "features": [
  {
   "type": "Feature",
   "geometry": {
    "type": "Point",
    "coordinates": [
     135.124259,
     -32.4971
    ]
   },
   "properties": {
    "name": "2127 LOCKES CLAYPAN ROAD LOCKES CLAYPAN 5655",
    "locID": "LOC100071955494",
    "tech": "NULL",
    "upgrade": "NULL_NA",
    "gnaf_pid": "GASA_720072502",
    "ee": false,
    "tech_change_status": "Not Planned"
   }
  }
 ]
}