{
 "type": "FeatureCollection",
 "generated": "2025-06-15T18:34:28.947459",
 "suburb": "MARREE",
 "features": [
  {
   "type": "Feature",
   "geometry": {
    "type": "Point",
    "coordinates": [
     138.0633943,
     -29.64821388
    ]
   },
   "properties": {
    "name": "LOT 4 HIGH STREET MARREE 5733",
    "locID": "LOC000184593825",
    "tech": "NULL",
    "upgrade": "NULL_NA",
    "gnaf_pid": "GASA_414974414",
    "ee": false,
    "tech_change_status": "Not Planned"
   }
  },
  {
   "type": "Feature",
   "geometry": {
    "type": "Point",
    "coordinates": [
     138.05988937,
     -29.64813607
    ]
   },
   "properties": {
    "name": "LOT 55 CALLANNA TERRACE MARREE 5733",
    "locID": "LOC000150235398",
    "tech": "NULL",
    "upgrade": "NULL_NA",
    "gnaf_pid": "GASA_415708515",
    "ee": false,
    "tech_change_status": "Not Planned"
   }
  },
  {
   "type": "Feature",
   "geometry": {
    "type": "Point",
    "coordinates": [
     138.0660257,
     -29.64497692
    ]
   },
   "properties": {
    "name": "LOT 270 FOURTH STREET MARREE 5733",
    "locID": "LOC000107566518",
    "tech": "NULL",
    "upgrade": "NULL_NA",
    "gnaf_pid": "GASA_415720135",
    "ee": false,
    "tech_change_status": "Not Planned"
   }
  },
  {
   "type": "Feature",
   "geometry": {
    "type": "Point",
    "coordinates": [
     138.06205516,
     -29.64805526
    ]
   },
   "properties": {
    "name": "LOT 343 SIXTH STREET MARREE 5733",
    "locID": "LOC000110112579",
    "tech": "NULL",
    "upgrade": "NULL_NA",
    "gnaf_pid": "GASA_415720136",
    "ee": false,
    "tech_change_status": "Not Planned"
   }
  },
  {
   "type": "Feature",
   "geometry": {
    "type": "Point",
    "coordinates": [
     138.06412347,
     -29.64902185
    ]
   },
   "properties": {
    "name": "LOT 349 SECOND STREET MARREE 5733",
    "locID": "LOC000047965344",
    "tech": "SATELLITE",
    "upgrade": "NULL_NA",
    "gnaf_pid": "GASA_415737384",
    "ee": false,
    "tech_change_status": "Not Planned"
   }
  },
  {
   "type": "Feature",
   "geometry": {
    "type": "Point",
    "coordinates": [
     138.06333633,
     -29.64877805
    ]
   },
   "properties": {
    "name": "124 SECOND STREET MARREE 5733",
    "locID": "LOC000132000508",
    "tech": "NULL",
    "upgrade": "NULL_NA",
    "gnaf_pid": "GASA_416126561",
    "ee": false,
    "tech_change_status": "Not Planned"
   }
  },
  {
   "type": "Feature",
   "geometry": {
    "type": "Point",
    "coordinates": [
     138.06333633,
     -29.64877805
    ]
   },
   "properties": {
    "name": "2 SECOND STREET MARREE 5733",
    "locID": "LOC000047965344",
    "tech": "SATELLITE",
    "upgrade": "NULL_NA",
    "gnaf_pid": "GASA_421962990",
    "ee": false,
    "tech_change_status": "Not Planned"
   }
  },
  {
   "type": "Feature",
   "geometry": {
    "type": "Point",
    "coordinates": [
     138.06333633,
     -29.64877805
    ]
   },
   "properties": {
    "name": "115 SECOND STREET MARREE 5733",
    "locID": "LOC000113786393",
    "tech": "SATELLITE",
    "upgrade": "NULL_NA",
    "gnaf_pid": "GASA_423433270",
    "ee": false,
    "tech_change_status": "Not Planned"
   }
  },
  {
   "type": "Feature",
   "geometry": {
    "type": "Point",
    "coordinates": [
     138.0636956,
     -29.64644932
    ]
   },
   "properties": {
    "name": "63 SIXTH STREET MARREE 5733",
    "locID": "LOC000110112579",
    "tech": "NULL",
    "upgrade": "NULL_NA",
    "gnaf_pid": "GASA_423433482",
    "ee": false,
    "tech_change_status": "Not Planned"
   }
  },
  {
   "type": "Feature",
   "geometry": {
    "type": "Point",
    "coordinates": [
     138.06157333,
     -29.64989486
    ]
   },
   "properties": {
    "name": "LOT 13 BOORLOO TERRACE MARREE 5733",
    "locID": "LOC000132000531",
    "tech": "SATELLITE",
    "upgrade": "NULL_NA",
    "gnaf_pid": "GASA_424157913",
    "ee": false,
    "tech_change_status": "Not Planned"
   }
  },
  {
   "type": "Feature",
   "geometry": {
    "type": "Point",
    "coordinates": [
     138.06172896,
     -29.65001423
    ]
   },
   "properties": {
    "name": "LOT 14 BOORLOO TERRACE MARREE 5733",
    "locID": "LOC000108091293",
    "tech": "SATELLITE",
    "upgrade": "NULL_NA",
    "gnaf_pid": "GASA_424157914",
    "ee": false,
    "tech_change_status": "Not Planned"
   }
  },
  {
   "type": "Feature",
   "geometry": {
    "type": "Point",
    "coordinates": [
     138.06211432,
     -29.65031522
    ]
   },
   "properties": {
    "name": "LOT 15 BOORLOO TERRACE MARREE 5733",
    "locID": "LOC000132000565",
    "tech": "NULL",
    "upgrade": "NULL_NA",
    "gnaf_pid": "GASA_424157915",
    "ee": false,
    "tech_change_status": "Not Planned"
   }
  },
  {
   "type": "Feature",
   "geometry": {
    "type": "Point",
    "coordinates": [
     138.0624251,
     -29.65055579
    ]
   },
   "properties": {
    "name": "LOT 17 BOORLOO TERRACE MARREE 5733",
    "locID": "LOC000158534038",
    "tech": "SATELLITE",
    "upgrade": "NULL_NA",
    "gnaf_pid": "GASA_424157917",
    "ee": false,
    "tech_change_status": "Not Planned"
   }
  },
  {
   "type": "Feature",
   "geometry": {
    "type": "Point",
    "coordinates": [
     138.06258175,
     -29.65067615
    ]
   },
   "properties": {
    "name": "LOT 18 BOORLOO TERRACE MARREE 5733",
    "locID": "LOC000132000583",
    "tech": "NULL",
    "upgrade": "NULL_NA",
    "gnaf_pid": "GASA_424157918",
    "ee": false,
    "tech_change_status": "Not Planned"
   }
  },
  {
   "type": "Feature",
   "geometry": {
    "type": "Point",
    "coordinates": [
     138.06273579,
     -29.65079598
    ]
   },
   "properties": {
    "name": "LOT 19 BOORLOO TERRACE MARREE 5733",
    "locID": "LOC000158534038",
    "tech": "SATELLITE",
    "upgrade": "NULL_NA",
    "gnaf_pid": "GASA_424157919",
    "ee": false,
    "tech_change_status": "Not Planned"
   }
  },
  {
   "type": "Feature",
   "geometry": {
    "type": "Point",
    "coordinates": [
     138.06105208,
     -29.65644433
    ]
   },
   "properties": {
    "name": "LOT 1 BOORLOO TERRACE MARREE 5733",
    "locID": "LOC000132000583",
    "tech": "NULL",
    "upgrade": "NULL_NA",
    "gnaf_pid": "GASA_424157920",
    "ee": false,
    "tech_change_status": "Not Planned"
   }
  },
  {
   "type": "Feature",
   "geometry": {
    "type": "Point",
    "coordinates": [
     138.06289037,
     -29.65091582
    ]
   },
   "properties": {
    "name": "LOT 20 BOORLOO TERRACE MARREE 5733",
    "locID": "LOC000158534038",
    "tech": "SATELLITE",
    "upgrade": "NULL_NA",
    "gnaf_pid": "GASA_424157921",
    "ee": false,
    "tech_change_status": "Not Planned"
   }
  },
  {
   "type": "Feature",
   "geometry": {
    "type": "Point",
    "coordinates": [
     138.06164593,
     -29.65044066
    ]
   },
   "properties": {
    "name": "LOT 23 BOORLOO TERRACE MARREE 5733",
    "locID": "LOC000158534038",
    "tech": "SATELLITE",
    "upgrade": "NULL_NA",
    "gnaf_pid": "GASA_424157924",
    "ee": false,
    "tech_change_status": "Not Planned"
   }
  },
  {
   "type": "Feature",
   "geometry": {
    "type": "Point",
    "coordinates": [
     138.06390188,
     -29.65170306
    ]
   },
   "properties": {
    "name": "LOT 24 BOORLOO TERRACE MARREE 5733",
    "locID": "LOC000158534038",
    "tech": "SATELLITE",
    "upgrade": "NULL_NA",
    "gnaf_pid": "GASA_424157925",
    "ee": false,
    "tech_change_status": "Not Planned"
   }
  },
  {
   "type": "Feature",
   "geometry": {
    "type": "Point",
    "coordinates": [
     138.0642906,
     -29.65200456
    ]
   },
   "properties": {
    "name": "LOT 28 BOORLOO TERRACE MARREE 5733",
    "locID": "LOC000158534038",
    "tech": "SATELLITE",
    "upgrade": "NULL_NA",
    "gnaf_pid": "GASA_424157926",
    "ee": false,
    "tech_change_status": "Not Planned"
   }
  },
  {
   "type": "Feature",
   "geometry": {
    "type": "Point",
    "coordinates": [
     138.05970776,
     -29.64844969
    ]
   },
   "properties": {
    "name": "LOT 2 BOORLOO TERRACE MARREE 5733",
    "locID": "LOC000132000531",
    "tech": "SATELLITE",
    "upgrade": "NULL_NA",
    "gnaf_pid": "GASA_424157927",
    "ee": false,
    "tech_change_status": "Not Planned"
   }
  },
  {
   "type": "Feature",
   "geometry": {
    "type": "Point",
    "coordinates": [
     138.05986318,
     -29.64856951
    ]
   },
   "properties": {
    "name": "LOT 3 BOORLOO TERRACE MARREE 5733",
    "locID": "LOC000158534038",
    "tech": "SATELLITE",
    "upgrade": "NULL_NA",
    "gnaf_pid": "GASA_424157928",
    "ee": false,
    "tech_change_status": "Not Planned"
   }
  },
  {
   "type": "Feature",
   "geometry": {
    "type": "Point",
    "coordinates": [
     138.06001873,
     -29.64869001
    ]
   },
   "properties": {
    "name": "LOT 4 BOORLOO TERRACE MARREE 5733",
    "locID": "LOC000158534038",
    "tech": "SATELLITE",
    "upgrade": "NULL_NA",
    "gnaf_pid": "GASA_424157929",
    "ee": false,
    "tech_change_status": "Not Planned"
   }
  },
  {
   "type": "Feature",
   "geometry": {
    "type": "Point",
    "coordinates": [
     138.06164593,
     -29.65044066
    ]
   },
   "properties": {
    "name": "LOT 5 BOORLOO TERRACE MARREE 5733",
    "locID": "LOC000109530013",
    "tech": "SATELLITE",
    "upgrade": "NULL_NA",
    "gnaf_pid": "GASA_424157930",
    "ee": false,
    "tech_change_status": "Not Planned"
   }
  },
  {
   "type": "Feature",
   "geometry": {
    "type": "Point",
    "coordinates": [
     138.06032896,
     -29.64893048
    ]
   },
   "properties": {
    "name": "LOT 6 BOORLOO TERRACE MARREE 5733",
    "locID": "LOC000158534038",
    "tech": "SATELLITE",
    "upgrade": "NULL_NA",
    "gnaf_pid": "GASA_424157931",
    "ee": false,
    "tech_change_status": "Not Planned"
   }
  },
  {
   "type": "Feature",
   "geometry": {
    "type": "Point",
    "coordinates": [
     138.06048522,
     -29.64905167
    ]
   },
   "properties": {
    "name": "LOT 7 BOORLOO TERRACE MARREE 5733",
    "locID": "LOC000158534038",
    "tech": "SATELLITE",
    "upgrade": "NULL_NA",
    "gnaf_pid": "GASA_424157932",
    "ee": false,
    "tech_change_status": "Not Planned"
   }
  },
  {
   "type": "Feature",
   "geometry": {
    "type": "Point",
    "coordinates": [
     138.060719,
     -29.64731857
    ]
   },
   "properties": {
    "name": "LOT 111 CALLANNA TERRACE MARREE 5733",
    "locID": "LOC000150235398",
    "tech": "NULL",
    "upgrade": "NULL_NA",
    "gnaf_pid": "GASA_424160460",
    "ee": false,
    "tech_change_status": "Not Planned"
   }
  },
  {
   "type": "Feature",
   "geometry": {
    "type": "Point",
    "coordinates": [
     138.06089013,
     -29.64714999
    ]
   },
   "properties": {
    "name": "LOT 112 CALLANNA TERRACE MARREE 5733",
    "locID": "LOC000150235398",
    "tech": "NULL",
    "upgrade": "NULL_NA",
    "gnaf_pid": "GASA_424160461",
    "ee": false,
    "tech_change_status": "Not Planned"
   }
  },
  {
   "type": "Feature",
   "geometry": {
    "type": "Point",
    "coordinates": [
     138.06120137,
     -29.64684667
    ]
   },
   "properties": {
    "name": "LOT 113 CALLANNA TERRACE MARREE 5733",
    "locID": "LOC000150235398",
    "tech": "NULL",
    "upgrade": "NULL_NA",
    "gnaf_pid": "GASA_424160462",
    "ee": false,
    "tech_change_status": "Not Planned"
   }
  },
  {
   "type": "Feature",
   "geometry": {
    "type": "Point",
    "coordinates": [
     138.06137442,
     -29.64667641
    ]
   },
   "properties": {
    "name": "LOT 114 CALLANNA TERRACE MARREE 5733",
    "locID": "LOC000150235398",
    "tech": "NULL",
    "upgrade": "NULL_NA",
    "gnaf_pid": "GASA_424160463",
    "ee": false,
    "tech_change_status": "Not Planned"
   }
  },
  {
   "type": "Feature",
   "geometry": {
    "type": "Point",
    "coordinates": [
     138.06420589,
     -29.64416572
    ]
   },
   "properties": {
    "name": "LOT 225 CALLANNA TERRACE MARREE 5733",
    "locID": "LOC000150235398",
    "tech": "NULL",
    "upgrade": "NULL_NA",
    "gnaf_pid": "GASA_424160464",
    "ee": false,
    "tech_change_status": "Not Planned"
   }
  },
  {
   "type": "Feature",
   "geometry": {
    "type": "Point",
    "coordinates": [
     138.06439608,
     -29.64370746
    ]
   },
   "properties": {
    "name": "LOT 279 CALLANNA TERRACE MARREE 5733",
    "locID": "LOC000150235398",
    "tech": "NULL",
    "upgrade": "NULL_NA",
    "gnaf_pid": "GASA_424160465",
    "ee": false,
    "tech_change_status": "Not Planned"
   }
  },
  {
   "type": "Feature",
   "geometry": {
    "type": "Point",
    "coordinates": [
     138.06488076,
     -29.6432323
    ]
   },
   "properties": {
    "name": "LOT 281 CALLANNA TERRACE MARREE 5733",
    "locID": "LOC000150235398",
    "tech": "NULL",
    "upgrade": "NULL_NA",
    "gnaf_pid": "GASA_424160466",
    "ee": false,
    "tech_change_status": "Not Planned"
   }
  },
  {
   "type": "Feature",
   "geometry": {
    "type": "Point",
    "coordinates": [
     138.06054651,
     -29.64748736
    ]
   },
   "properties": {
    "name": "LOT 58 CALLANNA TERRACE MARREE 5733",
    "locID": "LOC000150235398",
    "tech": "NULL",
    "upgrade": "NULL_NA",
    "gnaf_pid": "GASA_424160469",
    "ee": false,
    "tech_change_status": "Not Planned"
   }
  },
  {
   "type": "Feature",
   "geometry": {
    "type": "Point",
    "coordinates": [
     138.06308005,
     -29.65045687
    ]
   },
   "properties": {
    "name": "LOT 38 FIRST STREET MARREE 5733",
    "locID": "LOC000132008820",
    "tech": "SATELLITE",
    "upgrade": "NULL_NA",
    "gnaf_pid": "GASA_424171042",
    "ee": false,
    "tech_change_status": "Not Planned"
   }
  },
  {
   "type": "Feature",
   "geometry": {
    "type": "Point",
    "coordinates": [
     138.06334577,
     -29.65023856
    ]
   },
   "properties": {
    "name": "LOT 46 FIRST STREET MARREE 5733",
    "locID": "LOC000142366082",
    "tech": "SATELLITE",
    "upgrade": "NULL_NA",
    "gnaf_pid": "GASA_424171045",
    "ee": false,
    "tech_change_status": "Not Planned"
   }
  },
  {
   "type": "Feature",
   "geometry": {
    "type": "Point",
    "coordinates": [
     138.06020826,
     -29.64823005
    ]
   },
   "properties": {
    "name": "LOT 54 FIRST STREET MARREE 5733",
    "locID": "LOC000132008877",
    "tech": "SATELLITE",
    "upgrade": "NULL_NA",
    "gnaf_pid": "GASA_424171048",
    "ee": false,
    "tech_change_status": "Not Planned"
   }
  },
  {
   "type": "Feature",
   "geometry": {
    "type": "Point",
    "coordinates": [
     138.06193427,
     -29.64871841
    ]
   },
   "properties": {
    "name": "LOT 66 FIRST STREET MARREE 5733",
    "locID": "LOC000132008906",
    "tech": "SATELLITE",
    "upgrade": "NULL_NA",
    "gnaf_pid": "GASA_424171052",
    "ee": false,
    "tech_change_status": "Not Planned"
   }
  },
  {
   "type": "Feature",
   "geometry": {
    "type": "Point",
    "coordinates": [
     138.0622434,
     -29.64895861
    ]
   },
   "properties": {
    "name": "LOT 68 FIRST STREET MARREE 5733",
    "locID": "LOC000110188515",
    "tech": "SATELLITE",
    "upgrade": "NULL_NA",
    "gnaf_pid": "GASA_424171054",
    "ee": false,
    "tech_change_status": "Not Planned"
   }
  },
  {
   "type": "Feature",
   "geometry": {
    "type": "Point",
    "coordinates": [
     138.06356465,
     -29.64998298
    ]
   },
   "properties": {
    "name": "LOT 75 FIRST STREET MARREE 5733",
    "locID": "LOC000132008923",
    "tech": "NULL",
    "upgrade": "NULL_NA",
    "gnaf_pid": "GASA_424171056",
    "ee": false,
    "tech_change_status": "Not Planned"
   }
  },
  {
   "type": "Feature",
   "geometry": {
    "type": "Point",
    "coordinates": [
     138.06858324,
     -29.64696605
    ]
   },
   "properties": {
    "name": "LOT 255 FOURTH STREET MARREE 5733",
    "locID": "LOC000107566518",
    "tech": "NULL",
    "upgrade": "NULL_NA",
    "gnaf_pid": "GASA_424172267",
    "ee": false,
    "tech_change_status": "Not Planned"
   }
  },
  {
   "type": "Feature",
   "geometry": {
    "type": "Point",
    "coordinates": [
     138.06749969,
     -29.64611988
    ]
   },
   "properties": {
    "name": "LOT 262 FOURTH STREET MARREE 5733",
    "locID": "LOC000107566518",
    "tech": "NULL",
    "upgrade": "NULL_NA",
    "gnaf_pid": "GASA_424172268",
    "ee": false,
    "tech_change_status": "Not Planned"
   }
  },
  {
   "type": "Feature",
   "geometry": {
    "type": "Point",
    "coordinates": [
     138.06587069,
     -29.64485572
    ]
   },
   "properties": {
    "name": "LOT 271 FOURTH STREET MARREE 5733",
    "locID": "LOC000108624132",
    "tech": "NULL",
    "upgrade": "NULL_NA",
    "gnaf_pid": "GASA_424172270",
    "ee": false,
    "tech_change_status": "Not Planned"
   }
  },
  {
   "type": "Feature",
   "geometry": {
    "type": "Point",
    "coordinates": [
     138.06478449,
     -29.64401005
    ]
   },
   "properties": {
    "name": "LOT 276 FOURTH STREET MARREE 5733",
    "locID": "LOC000107566518",
    "tech": "NULL",
    "upgrade": "NULL_NA",
    "gnaf_pid": "GASA_424172271",
    "ee": false,
    "tech_change_status": "Not Planned"
   }
  },
  {
   "type": "Feature",
   "geometry": {
    "type": "Point",
    "coordinates": [
     138.06511414,
     -29.64341433
    ]
   },
   "properties": {
    "name": "LOT 283 FOURTH STREET MARREE 5733",
    "locID": "LOC000107566518",
    "tech": "NULL",
    "upgrade": "NULL_NA",
    "gnaf_pid": "GASA_424172272",
    "ee": false,
    "tech_change_status": "Not Planned"
   }
  },
  {
   "type": "Feature",
   "geometry": {
    "type": "Point",
    "coordinates": [
     138.06527143,
     -29.64353547
    ]
   },
   "properties": {
    "name": "LOT 284 FOURTH STREET MARREE 5733",
    "locID": "LOC000107566518",
    "tech": "NULL",
    "upgrade": "NULL_NA",
    "gnaf_pid": "GASA_424172273",
    "ee": false,
    "tech_change_status": "Not Planned"
   }
  },
  {
   "type": "Feature",
   "geometry": {
    "type": "Point",
    "coordinates": [
     138.06542683,
     -29.64365697
    ]
   },
   "properties": {
    "name": "LOT 285 FOURTH STREET MARREE 5733",
    "locID": "LOC000107566518",
    "tech": "NULL",
    "upgrade": "NULL_NA",
    "gnaf_pid": "GASA_424172274",
    "ee": false,
    "tech_change_status": "Not Planned"
   }
  },
  {
   "type": "Feature",
   "geometry": {
    "type": "Point",
    "coordinates": [
     138.06635402,
     -29.64438194
    ]
   },
   "properties": {
    "name": "LOT 290 FOURTH STREET MARREE 5733",
    "locID": "LOC000107566518",
    "tech": "NULL",
    "upgrade": "NULL_NA",
    "gnaf_pid": "GASA_424172275",
    "ee": false,
    "tech_change_status": "Not Planned"
   }
  },
  {
   "type": "Feature",
   "geometry": {
    "type": "Point",
    "coordinates": [
     138.06658672,
     -29.64456285
    ]
   },
   "properties": {
    "name": "LOT 291 FOURTH STREET MARREE 5733",
    "locID": "LOC000107566518",
    "tech": "NULL",
    "upgrade": "NULL_NA",
    "gnaf_pid": "GASA_424172276",
    "ee": false,
    "tech_change_status": "Not Planned"
   }
  },
  {
   "type": "Feature",
   "geometry": {
    "type": "Point",
    "coordinates": [
     138.06782764,
     -29.64552506
    ]
   },
   "properties": {
    "name": "LOT 297 FOURTH STREET MARREE 5733",
    "locID": "LOC000107566518",
    "tech": "NULL",
    "upgrade": "NULL_NA",
    "gnaf_pid": "GASA_424172277",
    "ee": false,
    "tech_change_status": "Not Planned"
   }
  },
  {
   "type": "Feature",
   "geometry": {
    "type": "Point",
    "coordinates": [
     138.06906722,
     -29.64649154
    ]
   },
   "properties": {
    "name": "LOT 304 FOURTH STREET MARREE 5733",
    "locID": "LOC000107566518",
    "tech": "NULL",
    "upgrade": "NULL_NA",
    "gnaf_pid": "GASA_424172278",
    "ee": false,
    "tech_change_status": "Not Planned"
   }
  },
  {
   "type": "Feature",
   "geometry": {
    "type": "Point",
    "coordinates": [
     138.06375902,
     -29.64883416
    ]
   },
   "properties": {
    "name": "LOT 127 HIGH STREET MARREE 5733",
    "locID": "LOC000132012839",
    "tech": "SATELLITE",
    "upgrade": "NULL_NA",
    "gnaf_pid": "GASA_424178801",
    "ee": false,
    "tech_change_status": "Not Planned"
   }
  },
  {
   "type": "Feature",
   "geometry": {
    "type": "Point",
    "coordinates": [
     138.06357764,
     -29.64816742
    ]
   },
   "properties": {
    "name": "LOT 2 HIGH STREET MARREE 5733",
    "locID": "LOC000142832580",
    "tech": "SATELLITE",
    "upgrade": "NULL_NA",
    "gnaf_pid": "GASA_424178812",
    "ee": false,
    "tech_change_status": "Not Planned"
   }
  },
  {
   "type": "Feature",
   "geometry": {
    "type": "Point",
    "coordinates": [
     138.0626236,
     -29.64995218
    ]
   },
   "properties": {
    "name": "LOT 42 HIGH STREET MARREE 5733",
    "locID": "LOC000114575671",
    "tech": "SATELLITE",
    "upgrade": "NULL_NA",
    "gnaf_pid": "GASA_424178815",
    "ee": false,
    "tech_change_status": "Not Planned"
   }
  },
  {
   "type": "Feature",
   "geometry": {
    "type": "Point",
    "coordinates": [
     138.06243391,
     -29.64849882
    ]
   },
   "properties": {
    "name": "LOT 102 SECOND STREET MARREE 5733",
    "locID": "LOC000109216810",
    "tech": "NULL",
    "upgrade": "NULL_NA",
    "gnaf_pid": "GASA_424208725",
    "ee": false,
    "tech_change_status": "Not Planned"
   }
  },
  {
   "type": "Feature",
   "geometry": {
    "type": "Point",
    "coordinates": [
     138.06152023,
     -29.64694211
    ]
   },
   "properties": {
    "name": "LOT 115 SECOND STREET MARREE 5733",
    "locID": "LOC000113786393",
    "tech": "SATELLITE",
    "upgrade": "NULL_NA",
    "gnaf_pid": "GASA_424208728",
    "ee": false,
    "tech_change_status": "Not Planned"
   }
  },
  {
   "type": "Feature",
   "geometry": {
    "type": "Point",
    "coordinates": [
     138.06291615,
     -29.64802399
    ]
   },
   "properties": {
    "name": "LOT 123 SECOND STREET MARREE 5733",
    "locID": "LOC000110140347",
    "tech": "NULL",
    "upgrade": "NULL_NA",
    "gnaf_pid": "GASA_424208731",
    "ee": false,
    "tech_change_status": "Not Planned"
   }
  },
  {
   "type": "Feature",
   "geometry": {
    "type": "Point",
    "coordinates": [
     138.06149351,
     -29.64792194
    ]
   },
   "properties": {
    "name": "LOT 106 SIXTH STREET MARREE 5733",
    "locID": "LOC000109379037",
    "tech": "NULL",
    "upgrade": "NULL_NA",
    "gnaf_pid": "GASA_424210084",
    "ee": false,
    "tech_change_status": "Not Planned"
   }
  },
  {
   "type": "Feature",
   "geometry": {
    "type": "Point",
    "coordinates": [
     138.0647204,
     -29.64557256
    ]
   },
   "properties": {
    "name": "LOT 216 SIXTH STREET MARREE 5733",
    "locID": "LOC000132024462",
    "tech": "NULL",
    "upgrade": "NULL_NA",
    "gnaf_pid": "GASA_424210088",
    "ee": false,
    "tech_change_status": "Not Planned"
   }
  },
  {
   "type": "Feature",
   "geometry": {
    "type": "Point",
    "coordinates": [
     138.06489531,
     -29.6454024
    ]
   },
   "properties": {
    "name": "LOT 217 SIXTH STREET MARREE 5733",
    "locID": "LOC000110112579",
    "tech": "NULL",
    "upgrade": "NULL_NA",
    "gnaf_pid": "GASA_424210089",
    "ee": false,
    "tech_change_status": "Not Planned"
   }
  },
  {
   "type": "Feature",
   "geometry": {
    "type": "Point",
    "coordinates": [
     138.06426456,
     -29.64506464
    ]
   },
   "properties": {
    "name": "LOT 218 SIXTH STREET MARREE 5733",
    "locID": "LOC000110112579",
    "tech": "NULL",
    "upgrade": "NULL_NA",
    "gnaf_pid": "GASA_424210090",
    "ee": false,
    "tech_change_status": "Not Planned"
   }
  },
  {
   "type": "Feature",
   "geometry": {
    "type": "Point",
    "coordinates": [
     138.06474035,
     -29.64473293
    ]
   },
   "properties": {
    "name": "LOT 230 SIXTH STREET MARREE 5733",
    "locID": "LOC000110112579",
    "tech": "NULL",
    "upgrade": "NULL_NA",
    "gnaf_pid": "GASA_424210091",
    "ee": false,
    "tech_change_status": "Not Planned"
   }
  },
  {
   "type": "Feature",
   "geometry": {
    "type": "Point",
    "coordinates": [
     138.06563794,
     -29.64467422
    ]
   },
   "properties": {
    "name": "LOT 272 SIXTH STREET MARREE 5733",
    "locID": "LOC000110112579",
    "tech": "NULL",
    "upgrade": "NULL_NA",
    "gnaf_pid": "GASA_424210093",
    "ee": false,
    "tech_change_status": "Not Planned"
   }
  },
  {
   "type": "Feature",
   "geometry": {
    "type": "Point",
    "coordinates": [
     138.06557157,
     -29.64392254
    ]
   },
   "properties": {
    "name": "LOT 286 SIXTH STREET MARREE 5733",
    "locID": "LOC000110112579",
    "tech": "NULL",
    "upgrade": "NULL_NA",
    "gnaf_pid": "GASA_424210094",
    "ee": false,
    "tech_change_status": "Not Planned"
   }
  },
  {
   "type": "Feature",
   "geometry": {
    "type": "Point",
    "coordinates": [
     138.0657433,
     -29.64375336
    ]
   },
   "properties": {
    "name": "LOT 287 SIXTH STREET MARREE 5733",
    "locID": "LOC000110112579",
    "tech": "NULL",
    "upgrade": "NULL_NA",
    "gnaf_pid": "GASA_424210095",
    "ee": false,
    "tech_change_status": "Not Planned"
   }
  },
  {
   "type": "Feature",
   "geometry": {
    "type": "Point",
    "coordinates": [
     138.0662915,
     -29.6440324
    ]
   },
   "properties": {
    "name": "LOT 288 SIXTH STREET MARREE 5733",
    "locID": "LOC000110112579",
    "tech": "NULL",
    "upgrade": "NULL_NA",
    "gnaf_pid": "GASA_424210096",
    "ee": false,
    "tech_change_status": "Not Planned"
   }
  },
  {
   "type": "Feature",
   "geometry": {
    "type": "Point",
    "coordinates": [
     138.06132121,
     -29.64809039
    ]
   },
   "properties": {
    "name": "LOT 63 SIXTH STREET MARREE 5733",
    "locID": "LOC000110112579",
    "tech": "NULL",
    "upgrade": "NULL_NA",
    "gnaf_pid": "GASA_424210100",
    "ee": false,
    "tech_change_status": "Not Planned"
   }
  },
  {
   "type": "Feature",
   "geometry": {
    "type": "Point",
    "coordinates": [
     138.0665166,
     -29.64681418
    ]
   },
   "properties": {
    "name": "LOT 207 THIRD STREET MARREE 5733",
    "locID": "LOC000179927428",
    "tech": "SATELLITE",
    "upgrade": "NULL_NA",
    "gnaf_pid": "GASA_424215308",
    "ee": false,
    "tech_change_status": "Not Planned"
   }
  },
  {
   "type": "Feature",
   "geometry": {
    "type": "Point",
    "coordinates": [
     138.06176117,
     -29.64943494
    ]
   },
   "properties": {
    "name": "LOT 45 FIRST STREET MARREE 5733",
    "locID": "LOC000142364804",
    "tech": "SATELLITE",
    "upgrade": "NULL_NA",
    "gnaf_pid": "GASA_424224611",
    "ee": false,
    "tech_change_status": "Not Planned"
   }
  },
  {
   "type": "Feature",
   "geometry": {
    "type": "Point",
    "coordinates": [
     138.06099882,
     -29.64915721
    ]
   },
   "properties": {
    "name": "LOT 10 BOORLOO TERRACE MARREE 5733",
    "locID": "LOC000158534038",
    "tech": "SATELLITE",
    "upgrade": "NULL_NA",
    "gnaf_pid": "GASA_424290595",
    "ee": false,
    "tech_change_status": "Not Planned"
   }
  },
  {
   "type": "Feature",
   "geometry": {
    "type": "Point",
    "coordinates": [
     138.06351202,
     -29.65140142
    ]
   },
   "properties": {
    "name": "LOT 135 BOORLOO TERRACE MARREE 5733",
    "locID": "LOC000158534038",
    "tech": "SATELLITE",
    "upgrade": "NULL_NA",
    "gnaf_pid": "GASA_424290596",
    "ee": false,
    "tech_change_status": "Not Planned"
   }
  },
  {
   "type": "Feature",
   "geometry": {
    "type": "Point",
    "coordinates": [
     138.06226955,
     -29.65043409
    ]
   },
   "properties": {
    "name": "LOT 138 BOORLOO TERRACE MARREE 5733",
    "locID": "LOC000158534038",
    "tech": "SATELLITE",
    "upgrade": "NULL_NA",
    "gnaf_pid": "GASA_424290597",
    "ee": false,
    "tech_change_status": "Not Planned"
   }
  },
  {
   "type": "Feature",
   "geometry": {
    "type": "Point",
    "coordinates": [
     138.06037372,
     -29.64765847
    ]
   },
   "properties": {
    "name": "LOT 109 CALLANNA TERRACE MARREE 5733",
    "locID": "LOC000150235398",
    "tech": "NULL",
    "upgrade": "NULL_NA",
    "gnaf_pid": "GASA_424292823",
    "ee": false,
    "tech_change_status": "Not Planned"
   }
  },
  {
   "type": "Feature",
   "geometry": {
    "type": "Point",
    "coordinates": [
     138.06006134,
     -29.64796682
    ]
   },
   "properties": {
    "name": "LOT 39 CALLANNA TERRACE MARREE 5733",
    "locID": "LOC000150235398",
    "tech": "NULL",
    "upgrade": "NULL_NA",
    "gnaf_pid": "GASA_424292824",
    "ee": false,
    "tech_change_status": "Not Planned"
   }
  },
  {
   "type": "Feature",
   "geometry": {
    "type": "Point",
    "coordinates": [
     138.06618116,
     -29.645098
    ]
   },
   "properties": {
    "name": "LOT 267 FOURTH STREET MARREE 5733",
    "locID": "LOC000107566518",
    "tech": "NULL",
    "upgrade": "NULL_NA",
    "gnaf_pid": "GASA_424302032",
    "ee": false,
    "tech_change_status": "Not Planned"
   }
  },
  {
   "type": "Feature",
   "geometry": {
    "type": "Point",
    "coordinates": [
     138.06665616,
     -29.64844058
    ]
   },
   "properties": {
    "name": "LOT 10 RAILWAY TERRACE NORTH MARREE 5733",
    "locID": "LOC000132017213",
    "tech": "NULL",
    "upgrade": "NULL_NA",
    "gnaf_pid": "GASA_424328078",
    "ee": false,
    "tech_change_status": "Not Planned"
   }
  },
  {
   "type": "Feature",
   "geometry": {
    "type": "Point",
    "coordinates": [
     138.06302962,
     -29.64578219
    ]
   },
   "properties": {
    "name": "LOT 1 RAILWAY TERRACE NORTH MARREE 5733",
    "locID": "LOC000132017213",
    "tech": "NULL",
    "upgrade": "NULL_NA",
    "gnaf_pid": "GASA_424328094",
    "ee": false,
    "tech_change_status": "Not Planned"
   }
  },
  {
   "type": "Feature",
   "geometry": {
    "type": "Point",
    "coordinates": [
     138.06724545,
     -29.64934048
    ]
   },
   "properties": {
    "name": "LOT 3 RAILWAY TERRACE NORTH MARREE 5733",
    "locID": "LOC000132017213",
    "tech": "NULL",
    "upgrade": "NULL_NA",
    "gnaf_pid": "GASA_424328099",
    "ee": false,
    "tech_change_status": "Not Planned"
   }
  },
  {
   "type": "Feature",
   "geometry": {
    "type": "Point",
    "coordinates": [
     138.06475863,
     -29.64691768
    ]
   },
   "properties": {
    "name": "LOT 4 RAILWAY TERRACE NORTH MARREE 5733",
    "locID": "LOC000132017213",
    "tech": "NULL",
    "upgrade": "NULL_NA",
    "gnaf_pid": "GASA_424328100",
    "ee": false,
    "tech_change_status": "Not Planned"
   }
  },
  {
   "type": "Feature",
   "geometry": {
    "type": "Point",
    "coordinates": [
     138.06522953,
     -29.64728461
    ]
   },
   "properties": {
    "name": "LOT 5 RAILWAY TERRACE NORTH MARREE 5733",
    "locID": "LOC000142367821",
    "tech": "SATELLITE",
    "upgrade": "NULL_NA",
    "gnaf_pid": "GASA_424328101",
    "ee": false,
    "tech_change_status": "Not Planned"
   }
  },
  {
   "type": "Feature",
   "geometry": {
    "type": "Point",
    "coordinates": [
     138.06549858,
     -29.64749068
    ]
   },
   "properties": {
    "name": "LOT 6 RAILWAY TERRACE NORTH MARREE 5733",
    "locID": "LOC000132017213",
    "tech": "NULL",
    "upgrade": "NULL_NA",
    "gnaf_pid": "GASA_424328102",
    "ee": false,
    "tech_change_status": "Not Planned"
   }
  },
  {
   "type": "Feature",
   "geometry": {
    "type": "Point",
    "coordinates": [
     138.06566162,
     -29.64761741
    ]
   },
   "properties": {
    "name": "LOT 7 RAILWAY TERRACE NORTH MARREE 5733",
    "locID": "LOC000132017213",
    "tech": "NULL",
    "upgrade": "NULL_NA",
    "gnaf_pid": "GASA_424328103",
    "ee": false,
    "tech_change_status": "Not Planned"
   }
  },
  {
   "type": "Feature",
   "geometry": {
    "type": "Point",
    "coordinates": [
     138.0658671,
     -29.64777964
    ]
   },
   "properties": {
    "name": "LOT 8 RAILWAY TERRACE NORTH MARREE 5733",
    "locID": "LOC000142367821",
    "tech": "SATELLITE",
    "upgrade": "NULL_NA",
    "gnaf_pid": "GASA_424328104",
    "ee": false,
    "tech_change_status": "Not Planned"
   }
  },
  {
   "type": "Feature",
   "geometry": {
    "type": "Point",
    "coordinates": [
     138.06359441,
     -29.64788079
    ]
   },
   "properties": {
    "name": "LOT 5 RAILWAY TERRACE SOUTH MARREE 5733",
    "locID": "LOC000142367821",
    "tech": "SATELLITE",
    "upgrade": "NULL_NA",
    "gnaf_pid": "GASA_424328128",
    "ee": false,
    "tech_change_status": "Not Planned"
   }
  },
  {
   "type": "Feature",
   "geometry": {
    "type": "Point",
    "coordinates": [
     138.06508578,
     -29.64439572
    ]
   },
   "properties": {
    "name": "LOT 231 SIXTH STREET MARREE 5733",
    "locID": "LOC000110112579",
    "tech": "NULL",
    "upgrade": "NULL_NA",
    "gnaf_pid": "GASA_424332475",
    "ee": false,
    "tech_change_status": "Not Planned"
   }
  },
  {
   "type": "Feature",
   "geometry": {
    "type": "Point",
    "coordinates": [
     138.06529134,
     -29.645012
    ]
   },
   "properties": {
    "name": "LOT 233 SIXTH STREET MARREE 5733",
    "locID": "LOC000110112579",
    "tech": "NULL",
    "upgrade": "NULL_NA",
    "gnaf_pid": "GASA_424332476",
    "ee": false,
    "tech_change_status": "Not Planned"
   }
  },
  {
   "type": "Feature",
   "geometry": {
    "type": "Point",
    "coordinates": [
     138.06493887,
     -29.64899888
    ]
   },
   "properties": {
    "name": "LOT 200 RAILWAY TERRACE SOUTH MARREE 5733",
    "locID": "LOC000132017369",
    "tech": "SATELLITE",
    "upgrade": "NULL_NA",
    "gnaf_pid": "GASA_424401497",
    "ee": false,
    "tech_change_status": "Not Planned"
   }
  },
  {
   "type": "Feature",
   "geometry": {
    "type": "Point",
    "coordinates": [
     138.06419525,
     -29.64792509
    ]
   },
   "properties": {
    "name": "42 HIGH STREET MARREE 5733",
    "locID": "LOC000114575671",
    "tech": "SATELLITE",
    "upgrade": "NULL_NA",
    "gnaf_pid": "GASA_424694516",
    "ee": false,
    "tech_change_status": "Not Planned"
   }
  },
  {
   "type": "Feature",
   "geometry": {
    "type": "Point",
    "coordinates": [
     138.05477081,
     -29.65392572
    ]
   },
   "properties": {
    "name": "LOT 63 BOORLOO TERRACE MARREE 5733",
    "locID": "LOC000158534038",
    "tech": "SATELLITE",
    "upgrade": "NULL_NA",
    "gnaf_pid": "GASA_425581142",
    "ee": false,
    "tech_change_status": "Not Planned"
   }
  },
  {
   "type": "Feature",
   "geometry": {
    "type": "Point",
    "coordinates": [
     138.06004592,
     -29.64669262
    ]
   },
   "properties": {
    "name": "LOT 484 CALLANNA TERRACE MARREE 5733",
    "locID": "LOC000150235398",
    "tech": "NULL",
    "upgrade": "NULL_NA",
    "gnaf_pid": "GASA_425581256",
    "ee": false,
    "tech_change_status": "Not Planned"
   }
  },
  {
   "type": "Feature",
   "geometry": {
    "type": "Point",
    "coordinates": [
     138.07254627,
     -29.64807261
    ]
   },
   "properties": {
    "name": "LOT 501 RAILWAY TERRACE NORTH MARREE 5733",
    "locID": "LOC000132017213",
    "tech": "NULL",
    "upgrade": "NULL_NA",
    "gnaf_pid": "GASA_425583568",
    "ee": false,
    "tech_change_status": "Not Planned"
   }
  },
  {
   "type": "Feature",
   "geometry": {
    "type": "Point",
    "coordinates": [
     138.073577,
     -29.65235995
    ]
   },
   "properties": {
    "name": "LOT 505 THE OUTBACK HIGHWAY MARREE 5733",
    "locID": "LOC000150235380",
    "tech": "SATELLITE",
    "upgrade": "NULL_NA",
    "gnaf_pid": "GASA_425584275",
    "ee": false,
    "tech_change_status": "Not Planned"
   }
  },
  {
   "type": "Feature",
   "geometry": {
    "type": "Point",
    "coordinates": [
     138.06127382,
     -29.65071677
    ]
   },
   "properties": {
    "name": "LOT 985 BOORLOO TERRACE MARREE 5733",
    "locID": "LOC000158534038",
    "tech": "SATELLITE",
    "upgrade": "NULL_NA",
    "gnaf_pid": "GASA_425719225",
    "ee": false,
    "tech_change_status": "Not Planned"
   }
  },
  {
   "type": "Feature",
   "geometry": {
    "type": "Point",
    "coordinates": [
     138.05902564,
     -29.6473352
    ]
   },
   "properties": {
    "name": "LOT 700 CALLANNA TERRACE MARREE 5733",
    "locID": "LOC000150235398",
    "tech": "NULL",
    "upgrade": "NULL_NA",
    "gnaf_pid": "GASA_425719597",
    "ee": false,
    "tech_change_status": "Not Planned"
   }
  },
  {
   "type": "Feature",
   "geometry": {
    "type": "Point",
    "coordinates": [
     138.0514787,
     -29.65459101
    ]
   },
   "properties": {
    "name": "LOT 986 BOORLOO TERRACE MARREE 5733",
    "locID": "LOC000158534038",
    "tech": "SATELLITE",
    "upgrade": "NULL_NA",
    "gnaf_pid": "GASA_719776136",
    "ee": false,
    "tech_change_status": "Not Planned"
   }
  },
  {
   "type": "Feature",
   "geometry": {
    "type": "Point",
    "coordinates": [
     138.06307242,
     -29.64814651
    ]
   },
   "properties": {
    "name": "LOT 124 SECOND STREET MARREE 5733",
    "locID": "LOC000132000508",
    "tech": "NULL",
    "upgrade": "NULL_NA",
    "gnaf_pid": "GASA_720186660",
    "ee": false,
    "tech_change_status": "Not Planned"
   }
  },
  {
   "type": "Feature",
   "geometry": {
    "type": "Point",
    "coordinates": [
     138.17105081,
     -29.8801529
    ]
   },
   "properties": {
    "name": "LOT 1 THE OUTBACK HIGHWAY MARREE 5733",
    "locID": "LOC000148990792",
    "tech": "SATELLITE",
    "upgrade": "NULL_NA",
    "gnaf_pid": "GASA_721273974",
    "ee": false,
    "tech_change_status": "Not Planned"
   }
  },
  {
   "type": "Feature",
   "geometry": {
    "type": "Point",
    "coordinates": [
     138.06783987,
     -29.64848193
    ]
   },
   "properties": {
    "name": "LOT 11 RAILWAY TERRACE NORTH MARREE 5733",
    "locID": "LOC000132017213",
    "tech": "NULL",
    "upgrade": "NULL_NA",
    "gnaf_pid": "GASA_721304714",
    "ee": false,
    "tech_change_status": "Not Planned"
   }
  }
 ]
}