{
 "type": "FeatureCollection",
 "generated": "2025-06-15T19:10:38.386973",
 "suburb": "MINBURRA STATION",
 "features": [
  {
   "type": "Feature",
   "geometry": {
    "type": "Point",
    "coordinates": [
     139.06162108,
     -32.35753307
    ]
   },
   "properties": {
    "name": "LOT 489 BARATTA ROAD MINBURRA STATION 5431",
    "locID": "LOC000182755846",
    "tech": "SATELLITE",
    "upgrade": "NULL_NA",
    "gnaf_pid": "GASA_720187548",
    "ee": false,
    "tech_change_status": "Not Planned"
   }
  }
 ]
}