{
 "type": "FeatureCollection",
 "generated": "2025-06-15T20:04:02.588845",
 "suburb": "MOUNT OBSERVATION",
 "features": [
  {
   "type": "Feature",
   "geometry": {
    "type": "Point",
    "coordinates": [
     138.73893758,
     -35.34594022
    ]
   },
   "properties": {
    "name": "2069 BULL CREEK ROAD MOUNT OBSERVATION 5255",
    "locID": "LOC000130394743",
    "tech": "WIRELESS",
    "upgrade": "NULL_NA",
    "gnaf_pid": "GASA_424955100",
    "ee": true,
    "tech_change_status": "Not Planned",
    "program_type": "Fixed Wireless and Satellite Upgrade Program",
    "target_eligibility_quarter": "NA"
   }
  },
  {
   "type": "Feature",
   "geometry": {
    "type": "Point",
    "coordinates": [
     138.76599529,
     -35.35590308
    ]
   },
   "properties": {
    "name": "295A BRAESIDE ROAD MOUNT OBSERVATION 5255",
    "locID": "LOC000153099073",
    "tech": "WIRELESS",
    "upgrade": "NULL_NA",
    "gnaf_pid": "GASA_425105818",
    "ee": true,
    "tech_change_status": "Not Planned",
    "program_type": "Fixed Wireless and Satellite Upgrade Program",
    "target_eligibility_quarter": "NA"
   }
  },
  {
   "type": "Feature",
   "geometry": {
    "type": "Point",
    "coordinates": [
     138.76111944,
     -35.35489311
    ]
   },
   "properties": {
    "name": "295B BRAESIDE ROAD MOUNT OBSERVATION 5255",
    "locID": "LOC100086336214",
    "tech": "WIRELESS",
    "upgrade": "NULL_NA",
    "gnaf_pid": "GASA_425105819",
    "ee": true,
    "tech_change_status": "Not Planned",
    "program_type": "Fixed Wireless and Satellite Upgrade Program",
    "target_eligibility_quarter": "NA"
   }
  },
  {
   "type": "Feature",
   "geometry": {
    "type": "Point",
    "coordinates": [
     138.73540299,
     -35.3503087
    ]
   },
   "properties": {
    "name": "2127A BULL CREEK ROAD MOUNT OBSERVATION 5255",
    "locID": "LOC000150238320",
    "tech": "WIRELESS",
    "upgrade": "NULL_NA",
    "gnaf_pid": "GASA_425105971",
    "ee": true,
    "tech_change_status": "Not Planned",
    "program_type": "Fixed Wireless and Satellite Upgrade Program",
    "target_eligibility_quarter": "NA"
   }
  },
  {
   "type": "Feature",
   "geometry": {
    "type": "Point",
    "coordinates": [
     138.74999861,
     -35.35376678
    ]
   },
   "properties": {
    "name": "2127C BULL CREEK ROAD MOUNT OBSERVATION 5255",
    "locID": "LOC000152650316",
    "tech": "SATELLITE",
    "upgrade": "WIRELESS",
    "gnaf_pid": "GASA_425105973",
    "ee": true,
    "tech_change_status": "Eligible to Order",
    "program_type": "Fixed Wireless and Satellite Upgrade Program",
    "target_eligibility_quarter": "NA"
   }
  },
  {
   "type": "Feature",
   "geometry": {
    "type": "Point",
    "coordinates": [
     138.7354,
     -35.350296
    ]
   },
   "properties": {
    "name": "2127 BULL CREEK ROAD MOUNT OBSERVATION 5255",
    "locID": "LOC000183674894",
    "tech": "WIRELESS",
    "upgrade": "NULL_NA",
    "gnaf_pid": "GASA_425353105",
    "ee": true,
    "tech_change_status": "Not Planned",
    "program_type": "Fixed Wireless and Satellite Upgrade Program",
    "target_eligibility_quarter": "NA"
   }
  },
  {
   "type": "Feature",
   "geometry": {
    "type": "Point",
    "coordinates": [
     138.74828331,
     -35.34245451
    ]
   },
   "properties": {
    "name": "LOT 1 BULL CREEK ROAD MOUNT OBSERVATION 5255",
    "locID": "LOC000110383556",
    "tech": "WIRELESS",
    "upgrade": "NULL_NA",
    "gnaf_pid": "GASA_425719502",
    "ee": true,
    "tech_change_status": "Not Planned",
    "program_type": "Fixed Wireless and Satellite Upgrade Program",
    "target_eligibility_quarter": "NA"
   }
  },
  {
   "type": "Feature",
   "geometry": {
    "type": "Point",
    "coordinates": [
     138.75411502,
     -35.33432216
    ]
   },
   "properties": {
    "name": "LOT 92 BULL CREEK ROAD MOUNT OBSERVATION 5255",
    "locID": "LOC000130394743",
    "tech": "WIRELESS",
    "upgrade": "NULL_NA",
    "gnaf_pid": "GASA_719776199",
    "ee": true,
    "tech_change_status": "Not Planned",
    "program_type": "Fixed Wireless and Satellite Upgrade Program",
    "target_eligibility_quarter": "NA"
   }
  },
  {
   "type": "Feature",
   "geometry": {
    "type": "Point",
    "coordinates": [
     138.75079905,
     -35.35384839
    ]
   },
   "properties": {
    "name": "LOT 534 BULL CREEK ROAD MOUNT OBSERVATION 5255",
    "locID": "LOC000130394743",
    "tech": "WIRELESS",
    "upgrade": "NULL_NA",
    "gnaf_pid": "GASA_719776675",
    "ee": true,
    "tech_change_status": "Not Planned",
    "program_type": "Fixed Wireless and Satellite Upgrade Program",
    "target_eligibility_quarter": "NA"
   }
  },
  {
   "type": "Feature",
   "geometry": {
    "type": "Point",
    "coordinates": [
     138.75684776,
     -35.34890966
    ]
   },
   "properties": {
    "name": "LOT 6 BULL CREEK ROAD MOUNT OBSERVATION 5255",
    "locID": "LOC000110383556",
    "tech": "WIRELESS",
    "upgrade": "NULL_NA",
    "gnaf_pid": "GASA_719777351",
    "ee": true,
    "tech_change_status": "Not Planned",
    "program_type": "Fixed Wireless and Satellite Upgrade Program",
    "target_eligibility_quarter": "NA"
   }
  },
  {
   "type": "Feature",
   "geometry": {
    "type": "Point",
    "coordinates": [
     138.777741,
     -35.358428
    ]
   },
   "properties": {
    "name": "295D BRAESIDE ROAD MOUNT OBSERVATION 5255",
    "locID": "LOC000153099073",
    "tech": "WIRELESS",
    "upgrade": "NULL_NA",
    "gnaf_pid": "GASA_720415395",
    "ee": true,
    "tech_change_status": "Not Planned",
    "program_type": "Fixed Wireless and Satellite Upgrade Program",
    "target_eligibility_quarter": "NA"
   }
  }
 ]
}