{
 "type": "FeatureCollection",
 "generated": "2025-06-15T19:53:31.106734",
 "suburb": "MOUNT BENSON",
 "features": [
  {
   "type": "Feature",
   "geometry": {
    "type": "Point",
    "coordinates": [
     139.77375378,
     -37.05144097
    ]
   },
   "properties": {
    "name": "LOT 10 LINGS ROAD MOUNT BENSON 5275",
    "locID": "LOC000116271114",
    "tech": "NULL",
    "upgrade": "NULL_NA",
    "gnaf_pid": "GASA_424112358",
    "ee": true,
    "tech_change_status": "Not Planned"
   }
  },
  {
   "type": "Feature",
   "geometry": {
    "type": "Point",
    "coordinates": [
     139.7711624,
     -37.04693377
    ]
   },
   "properties": {
    "name": "LOT 1 LINGS ROAD MOUNT BENSON 5275",
    "locID": "LOC000116271114",
    "tech": "NULL",
    "upgrade": "NULL_NA",
    "gnaf_pid": "GASA_424186489",
    "ee": true,
    "tech_change_status": "Not Planned"
   }
  },
  {
   "type": "Feature",
   "geometry": {
    "type": "Point",
    "coordinates": [
     139.77206759,
     -37.04703811
    ]
   },
   "properties": {
    "name": "LOT 2 LINGS ROAD MOUNT BENSON 5275",
    "locID": "LOC000116271114",
    "tech": "NULL",
    "upgrade": "NULL_NA",
    "gnaf_pid": "GASA_424186490",
    "ee": true,
    "tech_change_status": "Not Planned"
   }
  },
  {
   "type": "Feature",
   "geometry": {
    "type": "Point",
    "coordinates": [
     139.77303268,
     -37.04724947
    ]
   },
   "properties": {
    "name": "LOT 3 LINGS ROAD MOUNT BENSON 5275",
    "locID": "LOC000116271114",
    "tech": "NULL",
    "upgrade": "NULL_NA",
    "gnaf_pid": "GASA_424186491",
    "ee": true,
    "tech_change_status": "Not Planned"
   }
  },
  {
   "type": "Feature",
   "geometry": {
    "type": "Point",
    "coordinates": [
     139.77418207,
     -37.04751243
    ]
   },
   "properties": {
    "name": "LOT 4 LINGS ROAD MOUNT BENSON 5275",
    "locID": "LOC000116271114",
    "tech": "NULL",
    "upgrade": "NULL_NA",
    "gnaf_pid": "GASA_424186492",
    "ee": true,
    "tech_change_status": "Not Planned"
   }
  },
  {
   "type": "Feature",
   "geometry": {
    "type": "Point",
    "coordinates": [
     139.77539639,
     -37.04777692
    ]
   },
   "properties": {
    "name": "LOT 5 LINGS ROAD MOUNT BENSON 5275",
    "locID": "LOC000116271114",
    "tech": "NULL",
    "upgrade": "NULL_NA",
    "gnaf_pid": "GASA_424186493",
    "ee": true,
    "tech_change_status": "Not Planned"
   }
  },
  {
   "type": "Feature",
   "geometry": {
    "type": "Point",
    "coordinates": [
     139.77672936,
     -37.04793451
    ]
   },
   "properties": {
    "name": "LOT 6 LINGS ROAD MOUNT BENSON 5275",
    "locID": "LOC000116271114",
    "tech": "NULL",
    "upgrade": "NULL_NA",
    "gnaf_pid": "GASA_424186494",
    "ee": true,
    "tech_change_status": "Not Planned"
   }
  },
  {
   "type": "Feature",
   "geometry": {
    "type": "Point",
    "coordinates": [
     139.77389307,
     -37.04968226
    ]
   },
   "properties": {
    "name": "LOT 7 LINGS ROAD MOUNT BENSON 5275",
    "locID": "LOC000116271114",
    "tech": "NULL",
    "upgrade": "NULL_NA",
    "gnaf_pid": "GASA_424186495",
    "ee": true,
    "tech_change_status": "Not Planned"
   }
  },
  {
   "type": "Feature",
   "geometry": {
    "type": "Point",
    "coordinates": [
     139.77384687,
     -37.05026828
    ]
   },
   "properties": {
    "name": "LOT 8 LINGS ROAD MOUNT BENSON 5275",
    "locID": "LOC000116271114",
    "tech": "NULL",
    "upgrade": "NULL_NA",
    "gnaf_pid": "GASA_424186496",
    "ee": true,
    "tech_change_status": "Not Planned"
   }
  },
  {
   "type": "Feature",
   "geometry": {
    "type": "Point",
    "coordinates": [
     139.77380023,
     -37.05085452
    ]
   },
   "properties": {
    "name": "LOT 9 LINGS ROAD MOUNT BENSON 5275",
    "locID": "LOC000116271114",
    "tech": "NULL",
    "upgrade": "NULL_NA",
    "gnaf_pid": "GASA_424186497",
    "ee": true,
    "tech_change_status": "Not Planned"
   }
  },
  {
   "type": "Feature",
   "geometry": {
    "type": "Point",
    "coordinates": [
     139.82658229,
     -37.07739575
    ]
   },
   "properties": {
    "name": "LOT 498 BAGDAD ROAD MOUNT BENSON 5275",
    "locID": "LOC000116267218",
    "tech": "SATELLITE",
    "upgrade": "NULL_NA",
    "gnaf_pid": "GASA_424288010",
    "ee": true,
    "tech_change_status": "Not Planned"
   }
  },
  {
   "type": "Feature",
   "geometry": {
    "type": "Point",
    "coordinates": [
     139.83540687,
     -37.06387764
    ]
   },
   "properties": {
    "name": "LOT 559 BAGDAD ROAD MOUNT BENSON 5275",
    "locID": "LOC000116267218",
    "tech": "SATELLITE",
    "upgrade": "NULL_NA",
    "gnaf_pid": "GASA_424288011",
    "ee": true,
    "tech_change_status": "Not Planned"
   }
  },
  {
   "type": "Feature",
   "geometry": {
    "type": "Point",
    "coordinates": [
     139.83933989,
     -37.07734892
    ]
   },
   "properties": {
    "name": "LOT 145 LONG ISLAND ROAD MOUNT BENSON 5275",
    "locID": "LOC000116276655",
    "tech": "NULL",
    "upgrade": "NULL_NA",
    "gnaf_pid": "GASA_424313865",
    "ee": true,
    "tech_change_status": "Not Planned"
   }
  },
  {
   "type": "Feature",
   "geometry": {
    "type": "Point",
    "coordinates": [
     139.82741828,
     -37.09320486
    ]
   },
   "properties": {
    "name": "LOT 249 LONG ISLAND ROAD MOUNT BENSON 5275",
    "locID": "LOC000116276655",
    "tech": "NULL",
    "upgrade": "NULL_NA",
    "gnaf_pid": "GASA_424313866",
    "ee": true,
    "tech_change_status": "Not Planned"
   }
  },
  {
   "type": "Feature",
   "geometry": {
    "type": "Point",
    "coordinates": [
     139.99119579,
     -37.15605213
    ]
   },
   "properties": {
    "name": "LOT 10 OLD NARACOORTE ROAD MOUNT BENSON 5275",
    "locID": "LOC000116267315",
    "tech": "NULL",
    "upgrade": "NULL_NA",
    "gnaf_pid": "GASA_424322959",
    "ee": true,
    "tech_change_status": "Not Planned"
   }
  },
  {
   "type": "Feature",
   "geometry": {
    "type": "Point",
    "coordinates": [
     139.8432863,
     -37.13076455
    ]
   },
   "properties": {
    "name": "LOT 246 SHAMROCK ROAD MOUNT BENSON 5275",
    "locID": "LOC000116275694",
    "tech": "SATELLITE",
    "upgrade": "NULL_NA",
    "gnaf_pid": "GASA_424331919",
    "ee": true,
    "tech_change_status": "Not Planned"
   }
  },
  {
   "type": "Feature",
   "geometry": {
    "type": "Point",
    "coordinates": [
     139.83293013,
     -37.12237426
    ]
   },
   "properties": {
    "name": "LOT 458 SHAMROCK ROAD MOUNT BENSON 5275",
    "locID": "LOC000116275694",
    "tech": "SATELLITE",
    "upgrade": "NULL_NA",
    "gnaf_pid": "GASA_424331922",
    "ee": true,
    "tech_change_status": "Not Planned"
   }
  },
  {
   "type": "Feature",
   "geometry": {
    "type": "Point",
    "coordinates": [
     139.91412227,
     -37.15196898
    ]
   },
   "properties": {
    "name": "LOT 89 OLD NARACOORTE ROAD MOUNT BENSON 5275",
    "locID": "LOC000116267315",
    "tech": "NULL",
    "upgrade": "NULL_NA",
    "gnaf_pid": "GASA_424398417",
    "ee": true,
    "tech_change_status": "Not Planned"
   }
  },
  {
   "type": "Feature",
   "geometry": {
    "type": "Point",
    "coordinates": [
     139.95883886,
     -37.15577199
    ]
   },
   "properties": {
    "name": "LOT 103 OLD NARACOORTE ROAD MOUNT BENSON 5275",
    "locID": "LOC000116267315",
    "tech": "NULL",
    "upgrade": "NULL_NA",
    "gnaf_pid": "GASA_424428234",
    "ee": true,
    "tech_change_status": "Not Planned"
   }
  },
  {
   "type": "Feature",
   "geometry": {
    "type": "Point",
    "coordinates": [
     139.81216237,
     -37.13702801
    ]
   },
   "properties": {
    "name": "LOT 1 SOUTHERN PORTS HIGHWAY MOUNT BENSON 5275",
    "locID": "LOC000131206131",
    "tech": "NULL",
    "upgrade": "NULL_NA",
    "gnaf_pid": "GASA_424432870",
    "ee": true,
    "tech_change_status": "Not Planned"
   }
  },
  {
   "type": "Feature",
   "geometry": {
    "type": "Point",
    "coordinates": [
     139.81113081,
     -37.14138374
    ]
   },
   "properties": {
    "name": "LOT 2 SOUTHERN PORTS HIGHWAY MOUNT BENSON 5275",
    "locID": "LOC000116282954",
    "tech": "NULL",
    "upgrade": "NULL_NA",
    "gnaf_pid": "GASA_424432873",
    "ee": true,
    "tech_change_status": "Not Planned"
   }
  },
  {
   "type": "Feature",
   "geometry": {
    "type": "Point",
    "coordinates": [
     139.92313533,
     -37.10058619
    ]
   },
   "properties": {
    "name": "LOT 100 OLD NARACOORTE ROAD MOUNT BENSON 5275",
    "locID": "LOC000116267315",
    "tech": "NULL",
    "upgrade": "NULL_NA",
    "gnaf_pid": "GASA_424523517",
    "ee": true,
    "tech_change_status": "Not Planned"
   }
  },
  {
   "type": "Feature",
   "geometry": {
    "type": "Point",
    "coordinates": [
     139.94551937,
     -37.11948438
    ]
   },
   "properties": {
    "name": "LOT 101 OLD NARACOORTE ROAD MOUNT BENSON 5275",
    "locID": "LOC000116267315",
    "tech": "NULL",
    "upgrade": "NULL_NA",
    "gnaf_pid": "GASA_424523518",
    "ee": true,
    "tech_change_status": "Not Planned"
   }
  },
  {
   "type": "Feature",
   "geometry": {
    "type": "Point",
    "coordinates": [
     139.95158558,
     -37.14041977
    ]
   },
   "properties": {
    "name": "LOT 102 OLD NARACOORTE ROAD MOUNT BENSON 5275",
    "locID": "LOC000116267315",
    "tech": "NULL",
    "upgrade": "NULL_NA",
    "gnaf_pid": "GASA_424523519",
    "ee": true,
    "tech_change_status": "Not Planned"
   }
  },
  {
   "type": "Feature",
   "geometry": {
    "type": "Point",
    "coordinates": [
     139.93915015,
     -37.17731589
    ]
   },
   "properties": {
    "name": "LOT 173 OLD NARACOORTE ROAD MOUNT BENSON 5275",
    "locID": "LOC000116267315",
    "tech": "NULL",
    "upgrade": "NULL_NA",
    "gnaf_pid": "GASA_424563944",
    "ee": true,
    "tech_change_status": "Not Planned"
   }
  },
  {
   "type": "Feature",
   "geometry": {
    "type": "Point",
    "coordinates": [
     139.82463171,
     -37.0363334
    ]
   },
   "properties": {
    "name": "LOT 160 MURRA UP ROAD MOUNT BENSON 5275",
    "locID": "LOC000150237576",
    "tech": "NULL",
    "upgrade": "NULL_NA",
    "gnaf_pid": "GASA_424642996",
    "ee": true,
    "tech_change_status": "Not Planned"
   }
  },
  {
   "type": "Feature",
   "geometry": {
    "type": "Point",
    "coordinates": [
     139.83257136,
     -37.05761784
    ]
   },
   "properties": {
    "name": "LOT 239 MURRA UP ROAD MOUNT BENSON 5275",
    "locID": "LOC000150237576",
    "tech": "NULL",
    "upgrade": "NULL_NA",
    "gnaf_pid": "GASA_424642997",
    "ee": true,
    "tech_change_status": "Not Planned"
   }
  },
  {
   "type": "Feature",
   "geometry": {
    "type": "Point",
    "coordinates": [
     139.81819873,
     -37.13880042
    ]
   },
   "properties": {
    "name": "LOT 112 SOUTHERN PORTS HIGHWAY MOUNT BENSON 5275",
    "locID": "LOC000116282954",
    "tech": "NULL",
    "upgrade": "NULL_NA",
    "gnaf_pid": "GASA_424828039",
    "ee": true,
    "tech_change_status": "Not Planned"
   }
  },
  {
   "type": "Feature",
   "geometry": {
    "type": "Point",
    "coordinates": [
     139.82425002,
     -37.14178645
    ]
   },
   "properties": {
    "name": "LOT 11 SOUTHERN PORTS HIGHWAY MOUNT BENSON 5275",
    "locID": "LOC000145255532",
    "tech": "FTTN",
    "upgrade": "FTTP_NA",
    "gnaf_pid": "GASA_424828040",
    "ee": true,
    "tech_change_status": "Planned",
    "program_type": "On-Demand N2P SDU/MDU Simple"
   }
  },
  {
   "type": "Feature",
   "geometry": {
    "type": "Point",
    "coordinates": [
     139.80173227,
     -37.045409
    ]
   },
   "properties": {
    "name": "LOT 237 SOUTHERN PORTS HIGHWAY MOUNT BENSON 5275",
    "locID": "LOC000116282954",
    "tech": "NULL",
    "upgrade": "NULL_NA",
    "gnaf_pid": "GASA_424828046",
    "ee": true,
    "tech_change_status": "Not Planned"
   }
  },
  {
   "type": "Feature",
   "geometry": {
    "type": "Point",
    "coordinates": [
     139.81688991,
     -37.09878481
    ]
   },
   "properties": {
    "name": "LOT 359 SOUTHERN PORTS HIGHWAY MOUNT BENSON 5275",
    "locID": "LOC000116282954",
    "tech": "NULL",
    "upgrade": "NULL_NA",
    "gnaf_pid": "GASA_424828051",
    "ee": true,
    "tech_change_status": "Not Planned"
   }
  },
  {
   "type": "Feature",
   "geometry": {
    "type": "Point",
    "coordinates": [
     139.8180396,
     -37.11406032
    ]
   },
   "properties": {
    "name": "LOT 460 SOUTHERN PORTS HIGHWAY MOUNT BENSON 5275",
    "locID": "LOC000116282954",
    "tech": "NULL",
    "upgrade": "NULL_NA",
    "gnaf_pid": "GASA_424828055",
    "ee": true,
    "tech_change_status": "Not Planned"
   }
  },
  {
   "type": "Feature",
   "geometry": {
    "type": "Point",
    "coordinates": [
     139.80528161,
     -37.0518727
    ]
   },
   "properties": {
    "name": "LOT 494 SOUTHERN PORTS HIGHWAY MOUNT BENSON 5275",
    "locID": "LOC000116281863",
    "tech": "NULL",
    "upgrade": "NULL_NA",
    "gnaf_pid": "GASA_424828057",
    "ee": true,
    "tech_change_status": "Not Planned"
   }
  },
  {
   "type": "Feature",
   "geometry": {
    "type": "Point",
    "coordinates": [
     139.80661667,
     -37.15105023
    ]
   },
   "properties": {
    "name": "LOT 4 SOUTHERN PORTS HIGHWAY MOUNT BENSON 5275",
    "locID": "LOC000116281863",
    "tech": "NULL",
    "upgrade": "NULL_NA",
    "gnaf_pid": "GASA_424828059",
    "ee": true,
    "tech_change_status": "Not Planned"
   }
  },
  {
   "type": "Feature",
   "geometry": {
    "type": "Point",
    "coordinates": [
     139.826914,
     -37.069537
    ]
   },
   "properties": {
    "name": "185 BAGDAD ROAD MOUNT BENSON 5275",
    "locID": "LOC000116267218",
    "tech": "SATELLITE",
    "upgrade": "NULL_NA",
    "gnaf_pid": "GASA_424833216",
    "ee": true,
    "tech_change_status": "Not Planned"
   }
  },
  {
   "type": "Feature",
   "geometry": {
    "type": "Point",
    "coordinates": [
     139.79174948,
     -37.07117277
    ]
   },
   "properties": {
    "name": "109 BOATSWAIN POINT ROAD MOUNT BENSON 5275",
    "locID": "LOC000116274846",
    "tech": "NULL",
    "upgrade": "NULL_NA",
    "gnaf_pid": "GASA_424833461",
    "ee": true,
    "tech_change_status": "Not Planned"
   }
  },
  {
   "type": "Feature",
   "geometry": {
    "type": "Point",
    "coordinates": [
     139.78431816,
     -37.07119232
    ]
   },
   "properties": {
    "name": "175 BOATSWAIN POINT ROAD MOUNT BENSON 5275",
    "locID": "LOC000116266125",
    "tech": "NULL",
    "upgrade": "NULL_NA",
    "gnaf_pid": "GASA_424833462",
    "ee": true,
    "tech_change_status": "Not Planned"
   }
  },
  {
   "type": "Feature",
   "geometry": {
    "type": "Point",
    "coordinates": [
     139.77041976,
     -37.07047152
    ]
   },
   "properties": {
    "name": "301 BOATSWAIN POINT ROAD MOUNT BENSON 5275",
    "locID": "LOC000116282965",
    "tech": "SATELLITE",
    "upgrade": "NULL_NA",
    "gnaf_pid": "GASA_424833463",
    "ee": true,
    "tech_change_status": "Not Planned"
   }
  },
  {
   "type": "Feature",
   "geometry": {
    "type": "Point",
    "coordinates": [
     139.87712488,
     -37.06903349
    ]
   },
   "properties": {
    "name": "89 BOYONG ROAD MOUNT BENSON 5275",
    "locID": "LOC000116275930",
    "tech": "SATELLITE",
    "upgrade": "NULL_NA",
    "gnaf_pid": "GASA_424833564",
    "ee": true,
    "tech_change_status": "Not Planned"
   }
  },
  {
   "type": "Feature",
   "geometry": {
    "type": "Point",
    "coordinates": [
     139.902681,
     -37.070118
    ]
   },
   "properties": {
    "name": "128 CORMACK LANE MOUNT BENSON 5275",
    "locID": "LOC000116269523",
    "tech": "NULL",
    "upgrade": "NULL_NA",
    "gnaf_pid": "GASA_424834247",
    "ee": true,
    "tech_change_status": "Not Planned"
   }
  },
  {
   "type": "Feature",
   "geometry": {
    "type": "Point",
    "coordinates": [
     140.00808268,
     -37.16343469
    ]
   },
   "properties": {
    "name": "253 COWANS ROAD MOUNT BENSON 5275",
    "locID": "LOC000116275832",
    "tech": "SATELLITE",
    "upgrade": "NULL_NA",
    "gnaf_pid": "GASA_424834284",
    "ee": true,
    "tech_change_status": "Not Planned"
   }
  },
  {
   "type": "Feature",
   "geometry": {
    "type": "Point",
    "coordinates": [
     139.94718662,
     -37.05714871
    ]
   },
   "properties": {
    "name": "1020 DAIRY RANGE ROAD MOUNT BENSON 5275",
    "locID": "LOC000116271122",
    "tech": "NULL",
    "upgrade": "NULL_NA",
    "gnaf_pid": "GASA_424834358",
    "ee": true,
    "tech_change_status": "Not Planned"
   }
  },
  {
   "type": "Feature",
   "geometry": {
    "type": "Point",
    "coordinates": [
     139.84882382,
     -37.06193476
    ]
   },
   "properties": {
    "name": "120 DAIRY RANGE ROAD MOUNT BENSON 5275",
    "locID": "LOC000116276324",
    "tech": "NULL",
    "upgrade": "NULL_NA",
    "gnaf_pid": "GASA_424834359",
    "ee": true,
    "tech_change_status": "Not Planned"
   }
  },
  {
   "type": "Feature",
   "geometry": {
    "type": "Point",
    "coordinates": [
     139.84886,
     -37.06193
    ]
   },
   "properties": {
    "name": "122 DAIRY RANGE ROAD MOUNT BENSON 5275",
    "locID": "LOC000116276382",
    "tech": "NULL",
    "upgrade": "NULL_NA",
    "gnaf_pid": "GASA_424834360",
    "ee": true,
    "tech_change_status": "Not Planned"
   }
  },
  {
   "type": "Feature",
   "geometry": {
    "type": "Point",
    "coordinates": [
     139.84211342,
     -37.06124512
    ]
   },
   "properties": {
    "name": "59 DAIRY RANGE ROAD MOUNT BENSON 5275",
    "locID": "LOC000116282043",
    "tech": "SATELLITE",
    "upgrade": "NULL_NA",
    "gnaf_pid": "GASA_424834361",
    "ee": true,
    "tech_change_status": "Not Planned"
   }
  },
  {
   "type": "Feature",
   "geometry": {
    "type": "Point",
    "coordinates": [
     139.92547042,
     -37.05547104
    ]
   },
   "properties": {
    "name": "808 DAIRY RANGE ROAD MOUNT BENSON 5275",
    "locID": "LOC000116270802",
    "tech": "SATELLITE",
    "upgrade": "NULL_NA",
    "gnaf_pid": "GASA_424834362",
    "ee": true,
    "tech_change_status": "Not Planned"
   }
  },
  {
   "type": "Feature",
   "geometry": {
    "type": "Point",
    "coordinates": [
     139.94444044,
     -37.05595857
    ]
   },
   "properties": {
    "name": "993 DAIRY RANGE ROAD MOUNT BENSON 5275",
    "locID": "LOC000116277113",
    "tech": "NULL",
    "upgrade": "NULL_NA",
    "gnaf_pid": "GASA_424834363",
    "ee": true,
    "tech_change_status": "Not Planned"
   }
  },
  {
   "type": "Feature",
   "geometry": {
    "type": "Point",
    "coordinates": [
     139.9044944,
     -37.03290275
    ]
   },
   "properties": {
    "name": "120 DRABSCH HD LINE ROAD MOUNT BENSON 5275",
    "locID": "LOC000116276330",
    "tech": "NULL",
    "upgrade": "NULL_NA",
    "gnaf_pid": "GASA_424834542",
    "ee": true,
    "tech_change_status": "Not Planned"
   }
  },
  {
   "type": "Feature",
   "geometry": {
    "type": "Point",
    "coordinates": [
     139.81649933,
     -37.08143312
    ]
   },
   "properties": {
    "name": "36 ENGELHART LANE MOUNT BENSON 5275",
    "locID": "LOC000116270326",
    "tech": "NULL",
    "upgrade": "NULL_NA",
    "gnaf_pid": "GASA_424834720",
    "ee": true,
    "tech_change_status": "Not Planned"
   }
  },
  {
   "type": "Feature",
   "geometry": {
    "type": "Point",
    "coordinates": [
     139.74862249,
     -37.03484804
    ]
   },
   "properties": {
    "name": "20 FLETCHERS LANE MOUNT BENSON 5275",
    "locID": "LOC000116271413",
    "tech": "NULL",
    "upgrade": "NULL_NA",
    "gnaf_pid": "GASA_424834910",
    "ee": true,
    "tech_change_status": "Not Planned"
   }
  },
  {
   "type": "Feature",
   "geometry": {
    "type": "Point",
    "coordinates": [
     139.7454944,
     -37.0346979
    ]
   },
   "properties": {
    "name": "48 FLETCHERS LANE MOUNT BENSON 5275",
    "locID": "LOC000116276779",
    "tech": "NULL",
    "upgrade": "NULL_NA",
    "gnaf_pid": "GASA_424834911",
    "ee": true,
    "tech_change_status": "Not Planned"
   }
  },
  {
   "type": "Feature",
   "geometry": {
    "type": "Point",
    "coordinates": [
     139.84142363,
     -37.04320595
    ]
   },
   "properties": {
    "name": "64 FLINTS ROAD MOUNT BENSON 5275",
    "locID": "LOC000116265489",
    "tech": "NULL",
    "upgrade": "NULL_NA",
    "gnaf_pid": "GASA_424834951",
    "ee": true,
    "tech_change_status": "Not Planned"
   }
  },
  {
   "type": "Feature",
   "geometry": {
    "type": "Point",
    "coordinates": [
     139.7595839,
     -37.03961588
    ]
   },
   "properties": {
    "name": "102 LINGS ROAD MOUNT BENSON 5275",
    "locID": "LOC000116271114",
    "tech": "NULL",
    "upgrade": "NULL_NA",
    "gnaf_pid": "GASA_424836088",
    "ee": true,
    "tech_change_status": "Not Planned"
   }
  },
  {
   "type": "Feature",
   "geometry": {
    "type": "Point",
    "coordinates": [
     139.8384598,
     -37.08554691
    ]
   },
   "properties": {
    "name": "232 LONG ISLAND ROAD MOUNT BENSON 5275",
    "locID": "LOC000116276655",
    "tech": "NULL",
    "upgrade": "NULL_NA",
    "gnaf_pid": "GASA_424836141",
    "ee": true,
    "tech_change_status": "Not Planned"
   }
  },
  {
   "type": "Feature",
   "geometry": {
    "type": "Point",
    "coordinates": [
     139.86137954,
     -37.11876239
    ]
   },
   "properties": {
    "name": "719 LONG ISLAND ROAD MOUNT BENSON 5275",
    "locID": "LOC000116266691",
    "tech": "NULL",
    "upgrade": "NULL_NA",
    "gnaf_pid": "GASA_424836142",
    "ee": true,
    "tech_change_status": "Not Planned"
   }
  },
  {
   "type": "Feature",
   "geometry": {
    "type": "Point",
    "coordinates": [
     139.98350276,
     -37.15202525
    ]
   },
   "properties": {
    "name": "1535 OLD NARACOORTE ROAD MOUNT BENSON 5275",
    "locID": "LOC000116281546",
    "tech": "NULL",
    "upgrade": "NULL_NA",
    "gnaf_pid": "GASA_424837087",
    "ee": true,
    "tech_change_status": "Not Planned"
   }
  },
  {
   "type": "Feature",
   "geometry": {
    "type": "Point",
    "coordinates": [
     140.01461161,
     -37.13282515
    ]
   },
   "properties": {
    "name": "1884 OLD NARACOORTE ROAD MOUNT BENSON 5275",
    "locID": "LOC000116267315",
    "tech": "NULL",
    "upgrade": "NULL_NA",
    "gnaf_pid": "GASA_424837088",
    "ee": true,
    "tech_change_status": "Not Planned"
   }
  },
  {
   "type": "Feature",
   "geometry": {
    "type": "Point",
    "coordinates": [
     139.92416313,
     -37.17620577
    ]
   },
   "properties": {
    "name": "855 OLD NARACOORTE ROAD MOUNT BENSON 5275",
    "locID": "LOC000116271926",
    "tech": "NULL",
    "upgrade": "NULL_NA",
    "gnaf_pid": "GASA_424837091",
    "ee": true,
    "tech_change_status": "Not Planned"
   }
  },
  {
   "type": "Feature",
   "geometry": {
    "type": "Point",
    "coordinates": [
     139.794432,
     -37.150869
    ]
   },
   "properties": {
    "name": "115 RIVIERA DRIVE MOUNT BENSON 5275",
    "locID": "LOC000116274931",
    "tech": "NULL",
    "upgrade": "NULL_NA",
    "gnaf_pid": "GASA_424837941",
    "ee": true,
    "tech_change_status": "Not Planned"
   }
  },
  {
   "type": "Feature",
   "geometry": {
    "type": "Point",
    "coordinates": [
     139.7980012,
     -37.1353009
    ]
   },
   "properties": {
    "name": "292 RIVIERA DRIVE MOUNT BENSON 5275",
    "locID": "LOC000116281939",
    "tech": "NULL",
    "upgrade": "NULL_NA",
    "gnaf_pid": "GASA_424837945",
    "ee": true,
    "tech_change_status": "Not Planned"
   }
  },
  {
   "type": "Feature",
   "geometry": {
    "type": "Point",
    "coordinates": [
     139.797897,
     -37.134404
    ]
   },
   "properties": {
    "name": "301 RIVIERA DRIVE MOUNT BENSON 5275",
    "locID": "LOC000116282977",
    "tech": "NULL",
    "upgrade": "NULL_NA",
    "gnaf_pid": "GASA_424837946",
    "ee": true,
    "tech_change_status": "Not Planned"
   }
  },
  {
   "type": "Feature",
   "geometry": {
    "type": "Point",
    "coordinates": [
     139.81082384,
     -37.15188256
    ]
   },
   "properties": {
    "name": "10 SANDY LANE MOUNT BENSON 5275",
    "locID": "LOC000116271082",
    "tech": "NULL",
    "upgrade": "NULL_NA",
    "gnaf_pid": "GASA_424838165",
    "ee": true,
    "tech_change_status": "Not Planned"
   }
  },
  {
   "type": "Feature",
   "geometry": {
    "type": "Point",
    "coordinates": [
     139.81081575,
     -37.15191298
    ]
   },
   "properties": {
    "name": "12 SANDY LANE MOUNT BENSON 5275",
    "locID": "LOC000116276311",
    "tech": "SATELLITE",
    "upgrade": "NULL_NA",
    "gnaf_pid": "GASA_424838166",
    "ee": true,
    "tech_change_status": "Not Planned"
   }
  },
  {
   "type": "Feature",
   "geometry": {
    "type": "Point",
    "coordinates": [
     139.81402125,
     -37.10820315
    ]
   },
   "properties": {
    "name": "11 SHAMROCK ROAD MOUNT BENSON 5275",
    "locID": "LOC000116274867",
    "tech": "SATELLITE",
    "upgrade": "NULL_NA",
    "gnaf_pid": "GASA_424838320",
    "ee": true,
    "tech_change_status": "Not Planned"
   }
  },
  {
   "type": "Feature",
   "geometry": {
    "type": "Point",
    "coordinates": [
     139.8567458,
     -37.12684102
    ]
   },
   "properties": {
    "name": "455 SHAMROCK ROAD MOUNT BENSON 5275",
    "locID": "LOC000116275694",
    "tech": "SATELLITE",
    "upgrade": "NULL_NA",
    "gnaf_pid": "GASA_424838321",
    "ee": true,
    "tech_change_status": "Not Planned"
   }
  },
  {
   "type": "Feature",
   "geometry": {
    "type": "Point",
    "coordinates": [
     139.74318195,
     -37.06440417
    ]
   },
   "properties": {
    "name": "47 SNEATH ROAD MOUNT BENSON 5275",
    "locID": "LOC000150237569",
    "tech": "NULL",
    "upgrade": "NULL_NA",
    "gnaf_pid": "GASA_424838416",
    "ee": true,
    "tech_change_status": "Not Planned"
   }
  },
  {
   "type": "Feature",
   "geometry": {
    "type": "Point",
    "coordinates": [
     139.80101039,
     -37.03581158
    ]
   },
   "properties": {
    "name": "2449 SOUTHERN PORTS HIGHWAY MOUNT BENSON 5275",
    "locID": "LOC000116277726",
    "tech": "NULL",
    "upgrade": "NULL_NA",
    "gnaf_pid": "GASA_424838493",
    "ee": true,
    "tech_change_status": "Not Planned"
   }
  },
  {
   "type": "Feature",
   "geometry": {
    "type": "Point",
    "coordinates": [
     139.80119088,
     -37.0435924
    ]
   },
   "properties": {
    "name": "2534 SOUTHERN PORTS HIGHWAY MOUNT BENSON 5275",
    "locID": "LOC000116277757",
    "tech": "NULL",
    "upgrade": "NULL_NA",
    "gnaf_pid": "GASA_424838494",
    "ee": true,
    "tech_change_status": "Not Planned"
   }
  },
  {
   "type": "Feature",
   "geometry": {
    "type": "Point",
    "coordinates": [
     139.80125664,
     -37.04544943
    ]
   },
   "properties": {
    "name": "2555 SOUTHERN PORTS HIGHWAY MOUNT BENSON 5275",
    "locID": "LOC000116277774",
    "tech": "SATELLITE",
    "upgrade": "NULL_NA",
    "gnaf_pid": "GASA_424838496",
    "ee": true,
    "tech_change_status": "Not Planned"
   }
  },
  {
   "type": "Feature",
   "geometry": {
    "type": "Point",
    "coordinates": [
     139.79982453,
     -37.05941908
    ]
   },
   "properties": {
    "name": "2711 SOUTHERN PORTS HIGHWAY MOUNT BENSON 5275",
    "locID": "LOC000116281788",
    "tech": "NULL",
    "upgrade": "NULL_NA",
    "gnaf_pid": "GASA_424838497",
    "ee": true,
    "tech_change_status": "Not Planned"
   }
  },
  {
   "type": "Feature",
   "geometry": {
    "type": "Point",
    "coordinates": [
     139.79988663,
     -37.06882795
    ]
   },
   "properties": {
    "name": "2818 SOUTHERN PORTS HIGHWAY MOUNT BENSON 5275",
    "locID": "LOC000116281863",
    "tech": "NULL",
    "upgrade": "NULL_NA",
    "gnaf_pid": "GASA_424838498",
    "ee": true,
    "tech_change_status": "Not Planned"
   }
  },
  {
   "type": "Feature",
   "geometry": {
    "type": "Point",
    "coordinates": [
     139.80732808,
     -37.07485291
    ]
   },
   "properties": {
    "name": "2913 SOUTHERN PORTS HIGHWAY MOUNT BENSON 5275",
    "locID": "LOC000116281918",
    "tech": "NULL",
    "upgrade": "NULL_NA",
    "gnaf_pid": "GASA_424838500",
    "ee": true,
    "tech_change_status": "Not Planned"
   }
  },
  {
   "type": "Feature",
   "geometry": {
    "type": "Point",
    "coordinates": [
     139.81245592,
     -37.08176181
    ]
   },
   "properties": {
    "name": "3006 SOUTHERN PORTS HIGHWAY MOUNT BENSON 5275",
    "locID": "LOC000116282954",
    "tech": "NULL",
    "upgrade": "NULL_NA",
    "gnaf_pid": "GASA_424838501",
    "ee": true,
    "tech_change_status": "Not Planned"
   }
  },
  {
   "type": "Feature",
   "geometry": {
    "type": "Point",
    "coordinates": [
     139.80954933,
     -37.08559523
    ]
   },
   "properties": {
    "name": "3058 SOUTHERN PORTS HIGHWAY MOUNT BENSON 5275",
    "locID": "LOC000116282996",
    "tech": "SATELLITE",
    "upgrade": "NULL_NA",
    "gnaf_pid": "GASA_424838502",
    "ee": true,
    "tech_change_status": "Not Planned"
   }
  },
  {
   "type": "Feature",
   "geometry": {
    "type": "Point",
    "coordinates": [
     139.80963305,
     -37.08569897
    ]
   },
   "properties": {
    "name": "3059 SOUTHERN PORTS HIGHWAY MOUNT BENSON 5275",
    "locID": "LOC000116283009",
    "tech": "NULL",
    "upgrade": "NULL_NA",
    "gnaf_pid": "GASA_424838503",
    "ee": true,
    "tech_change_status": "Not Planned"
   }
  },
  {
   "type": "Feature",
   "geometry": {
    "type": "Point",
    "coordinates": [
     139.80838322,
     -37.08693592
    ]
   },
   "properties": {
    "name": "3076 SOUTHERN PORTS HIGHWAY MOUNT BENSON 5275",
    "locID": "LOC000116265093",
    "tech": "SATELLITE",
    "upgrade": "NULL_NA",
    "gnaf_pid": "GASA_424838504",
    "ee": true,
    "tech_change_status": "Not Planned"
   }
  },
  {
   "type": "Feature",
   "geometry": {
    "type": "Point",
    "coordinates": [
     139.80595418,
     -37.08989888
    ]
   },
   "properties": {
    "name": "3116 SOUTHERN PORTS HIGHWAY MOUNT BENSON 5275",
    "locID": "LOC000116265119",
    "tech": "NULL",
    "upgrade": "NULL_NA",
    "gnaf_pid": "GASA_424838505",
    "ee": true,
    "tech_change_status": "Not Planned"
   }
  },
  {
   "type": "Feature",
   "geometry": {
    "type": "Point",
    "coordinates": [
     139.80514126,
     -37.09387711
    ]
   },
   "properties": {
    "name": "3160 SOUTHERN PORTS HIGHWAY MOUNT BENSON 5275",
    "locID": "LOC000116265135",
    "tech": "NULL",
    "upgrade": "NULL_NA",
    "gnaf_pid": "GASA_424838506",
    "ee": true,
    "tech_change_status": "Not Planned"
   }
  },
  {
   "type": "Feature",
   "geometry": {
    "type": "Point",
    "coordinates": [
     139.81162856,
     -37.10440603
    ]
   },
   "properties": {
    "name": "3292 SOUTHERN PORTS HIGHWAY MOUNT BENSON 5275",
    "locID": "LOC000116265220",
    "tech": "NULL",
    "upgrade": "NULL_NA",
    "gnaf_pid": "GASA_424838507",
    "ee": true,
    "tech_change_status": "Not Planned"
   }
  },
  {
   "type": "Feature",
   "geometry": {
    "type": "Point",
    "coordinates": [
     139.81631566,
     -37.12034236
    ]
   },
   "properties": {
    "name": "3474 SOUTHERN PORTS HIGHWAY MOUNT BENSON 5275",
    "locID": "LOC000116266314",
    "tech": "NULL",
    "upgrade": "NULL_NA",
    "gnaf_pid": "GASA_424838508",
    "ee": true,
    "tech_change_status": "Not Planned"
   }
  },
  {
   "type": "Feature",
   "geometry": {
    "type": "Point",
    "coordinates": [
     139.81710166,
     -37.12560411
    ]
   },
   "properties": {
    "name": "3533 SOUTHERN PORTS HIGHWAY MOUNT BENSON 5275",
    "locID": "LOC000116266379",
    "tech": "NULL",
    "upgrade": "NULL_NA",
    "gnaf_pid": "GASA_424838509",
    "ee": true,
    "tech_change_status": "Not Planned"
   }
  },
  {
   "type": "Feature",
   "geometry": {
    "type": "Point",
    "coordinates": [
     139.81715529,
     -37.12646298
    ]
   },
   "properties": {
    "name": "3541 SOUTHERN PORTS HIGHWAY MOUNT BENSON 5275",
    "locID": "LOC000116266380",
    "tech": "NULL",
    "upgrade": "NULL_NA",
    "gnaf_pid": "GASA_424838510",
    "ee": true,
    "tech_change_status": "Not Planned"
   }
  },
  {
   "type": "Feature",
   "geometry": {
    "type": "Point",
    "coordinates": [
     139.81329682,
     -37.14617609
    ]
   },
   "properties": {
    "name": "3766 SOUTHERN PORTS HIGHWAY MOUNT BENSON 5275",
    "locID": "LOC000116270388",
    "tech": "NULL",
    "upgrade": "NULL_NA",
    "gnaf_pid": "GASA_424838511",
    "ee": true,
    "tech_change_status": "Not Planned"
   }
  },
  {
   "type": "Feature",
   "geometry": {
    "type": "Point",
    "coordinates": [
     139.81101653,
     -37.15073334
    ]
   },
   "properties": {
    "name": "3819 SOUTHERN PORTS HIGHWAY MOUNT BENSON 5275",
    "locID": "LOC000116270422",
    "tech": "NULL",
    "upgrade": "NULL_NA",
    "gnaf_pid": "GASA_424838512",
    "ee": true,
    "tech_change_status": "Not Planned"
   }
  },
  {
   "type": "Feature",
   "geometry": {
    "type": "Point",
    "coordinates": [
     139.81087086,
     -37.08098557
    ]
   },
   "properties": {
    "name": "16 VEARING ROAD MOUNT BENSON 5275",
    "locID": "LOC000116282559",
    "tech": "NULL",
    "upgrade": "NULL_NA",
    "gnaf_pid": "GASA_424839297",
    "ee": true,
    "tech_change_status": "Not Planned"
   }
  },
  {
   "type": "Feature",
   "geometry": {
    "type": "Point",
    "coordinates": [
     139.81085892,
     -37.08100864
    ]
   },
   "properties": {
    "name": "17 VEARING ROAD MOUNT BENSON 5275",
    "locID": "LOC000116266071",
    "tech": "NULL",
    "upgrade": "NULL_NA",
    "gnaf_pid": "GASA_424839298",
    "ee": true,
    "tech_change_status": "Not Planned"
   }
  },
  {
   "type": "Feature",
   "geometry": {
    "type": "Point",
    "coordinates": [
     139.77382967,
     -37.05344209
    ]
   },
   "properties": {
    "name": "LOT 1 WRIGHTS BAY ROAD MOUNT BENSON 5275",
    "locID": "LOC000131243957",
    "tech": "NULL",
    "upgrade": "NULL_NA",
    "gnaf_pid": "GASA_425070868",
    "ee": true,
    "tech_change_status": "Not Planned"
   }
  },
  {
   "type": "Feature",
   "geometry": {
    "type": "Point",
    "coordinates": [
     139.81759714,
     -37.15188892
    ]
   },
   "properties": {
    "name": "65 NUNGA-MIA ROAD MOUNT BENSON 5275",
    "locID": "LOC000131248543",
    "tech": "SATELLITE",
    "upgrade": "NULL_NA",
    "gnaf_pid": "GASA_425075188",
    "ee": true,
    "tech_change_status": "Not Planned"
   }
  },
  {
   "type": "Feature",
   "geometry": {
    "type": "Point",
    "coordinates": [
     139.76499612,
     -37.04366333
    ]
   },
   "properties": {
    "name": "329 WRIGHTS BAY ROAD MOUNT BENSON 5275",
    "locID": "LOC000131222669",
    "tech": "NULL",
    "upgrade": "NULL_NA",
    "gnaf_pid": "GASA_425076717",
    "ee": true,
    "tech_change_status": "Not Planned"
   }
  },
  {
   "type": "Feature",
   "geometry": {
    "type": "Point",
    "coordinates": [
     139.76302257,
     -37.04342267
    ]
   },
   "properties": {
    "name": "346 WRIGHTS BAY ROAD MOUNT BENSON 5275",
    "locID": "LOC000131226701",
    "tech": "NULL",
    "upgrade": "NULL_NA",
    "gnaf_pid": "GASA_425076718",
    "ee": true,
    "tech_change_status": "Not Planned"
   }
  },
  {
   "type": "Feature",
   "geometry": {
    "type": "Point",
    "coordinates": [
     139.74221,
     -37.042206
    ]
   },
   "properties": {
    "name": "532 WRIGHTS BAY ROAD MOUNT BENSON 5275",
    "locID": "LOC000131243957",
    "tech": "NULL",
    "upgrade": "NULL_NA",
    "gnaf_pid": "GASA_425076719",
    "ee": true,
    "tech_change_status": "Not Planned"
   }
  },
  {
   "type": "Feature",
   "geometry": {
    "type": "Point",
    "coordinates": [
     139.83610249,
     -37.04288917
    ]
   },
   "properties": {
    "name": "247 MURRA UP ROAD MOUNT BENSON 5275",
    "locID": "LOC000150237576",
    "tech": "NULL",
    "upgrade": "NULL_NA",
    "gnaf_pid": "GASA_425191237",
    "ee": true,
    "tech_change_status": "Not Planned"
   }
  },
  {
   "type": "Feature",
   "geometry": {
    "type": "Point",
    "coordinates": [
     139.75297614,
     -37.05750021
    ]
   },
   "properties": {
    "name": "44 LONGBOTTOM ROAD MOUNT BENSON 5275",
    "locID": "LOC000150237582",
    "tech": "NULL",
    "upgrade": "NULL_NA",
    "gnaf_pid": "GASA_425355230",
    "ee": true,
    "tech_change_status": "Not Planned"
   }
  },
  {
   "type": "Feature",
   "geometry": {
    "type": "Point",
    "coordinates": [
     139.748828,
     -37.05652
    ]
   },
   "properties": {
    "name": "91 LONGBOTTOM ROAD MOUNT BENSON 5275",
    "locID": "LOC000150237595",
    "tech": "NULL",
    "upgrade": "NULL_NA",
    "gnaf_pid": "GASA_425355232",
    "ee": true,
    "tech_change_status": "Not Planned"
   }
  },
  {
   "type": "Feature",
   "geometry": {
    "type": "Point",
    "coordinates": [
     139.78264946,
     -37.08800176
    ]
   },
   "properties": {
    "name": "LOT 360 SOUTHERN PORTS HIGHWAY MOUNT BENSON 5275",
    "locID": "LOC000116282954",
    "tech": "NULL",
    "upgrade": "NULL_NA",
    "gnaf_pid": "GASA_425394731",
    "ee": true,
    "tech_change_status": "Not Planned"
   }
  },
  {
   "type": "Feature",
   "geometry": {
    "type": "Point",
    "coordinates": [
     139.79908578,
     -37.07974521
    ]
   },
   "properties": {
    "name": "LOT 466 SOUTHERN PORTS HIGHWAY MOUNT BENSON 5275",
    "locID": "LOC000116281863",
    "tech": "NULL",
    "upgrade": "NULL_NA",
    "gnaf_pid": "GASA_425394732",
    "ee": true,
    "tech_change_status": "Not Planned"
   }
  },
  {
   "type": "Feature",
   "geometry": {
    "type": "Point",
    "coordinates": [
     139.78400987,
     -37.09695855
    ]
   },
   "properties": {
    "name": "LOT 575 SOUTHERN PORTS HIGHWAY MOUNT BENSON 5275",
    "locID": "LOC000116281863",
    "tech": "NULL",
    "upgrade": "NULL_NA",
    "gnaf_pid": "GASA_425394733",
    "ee": true,
    "tech_change_status": "Not Planned"
   }
  },
  {
   "type": "Feature",
   "geometry": {
    "type": "Point",
    "coordinates": [
     139.88764761,
     -37.04025058
    ]
   },
   "properties": {
    "name": "880 COSSACKS WATERHOLE ROAD MOUNT BENSON 5275",
    "locID": "LOC000148407327",
    "tech": "SATELLITE",
    "upgrade": "NULL_NA",
    "gnaf_pid": "GASA_425501028",
    "ee": true,
    "tech_change_status": "Not Planned"
   }
  },
  {
   "type": "Feature",
   "geometry": {
    "type": "Point",
    "coordinates": [
     139.81687341,
     -37.12393502
    ]
   },
   "properties": {
    "name": "3515 SOUTHERN PORTS HIGHWAY MOUNT BENSON 5275",
    "locID": "LOC000150237613",
    "tech": "NULL",
    "upgrade": "NULL_NA",
    "gnaf_pid": "GASA_425503973",
    "ee": true,
    "tech_change_status": "Not Planned"
   }
  },
  {
   "type": "Feature",
   "geometry": {
    "type": "Point",
    "coordinates": [
     139.74326748,
     -37.06433102
    ]
   },
   "properties": {
    "name": "48 SNEATH ROAD MOUNT BENSON 5275",
    "locID": "LOC000150237621",
    "tech": "NULL",
    "upgrade": "NULL_NA",
    "gnaf_pid": "GASA_425630372",
    "ee": true,
    "tech_change_status": "Not Planned"
   }
  },
  {
   "type": "Feature",
   "geometry": {
    "type": "Point",
    "coordinates": [
     139.88615311,
     -37.05328109
    ]
   },
   "properties": {
    "name": "LOT 102 DAIRY RANGE ROAD MOUNT BENSON 5275",
    "locID": "LOC000116271122",
    "tech": "NULL",
    "upgrade": "NULL_NA",
    "gnaf_pid": "GASA_425709482",
    "ee": true,
    "tech_change_status": "Not Planned"
   }
  },
  {
   "type": "Feature",
   "geometry": {
    "type": "Point",
    "coordinates": [
     139.76466366,
     -37.04935154
    ]
   },
   "properties": {
    "name": "LOT 21 LINGS ROAD MOUNT BENSON 5275",
    "locID": "LOC000116271114",
    "tech": "NULL",
    "upgrade": "NULL_NA",
    "gnaf_pid": "GASA_425711883",
    "ee": true,
    "tech_change_status": "Not Planned"
   }
  },
  {
   "type": "Feature",
   "geometry": {
    "type": "Point",
    "coordinates": [
     139.76479408,
     -37.05645419
    ]
   },
   "properties": {
    "name": "LOT 23 LINGS ROAD MOUNT BENSON 5275",
    "locID": "LOC000116271114",
    "tech": "NULL",
    "upgrade": "NULL_NA",
    "gnaf_pid": "GASA_425711885",
    "ee": true,
    "tech_change_status": "Not Planned"
   }
  },
  {
   "type": "Feature",
   "geometry": {
    "type": "Point",
    "coordinates": [
     139.74049333,
     -37.06039859
    ]
   },
   "properties": {
    "name": "LOT 579 SNEATH ROAD MOUNT BENSON 5275",
    "locID": "LOC000150217565",
    "tech": "NULL",
    "upgrade": "NULL_NA",
    "gnaf_pid": "GASA_425714535",
    "ee": true,
    "tech_change_status": "Not Planned"
   }
  },
  {
   "type": "Feature",
   "geometry": {
    "type": "Point",
    "coordinates": [
     139.79378296,
     -37.11332875
    ]
   },
   "properties": {
    "name": "LOT 574 SOUTHERN PORTS HIGHWAY MOUNT BENSON 5275",
    "locID": "LOC000116282954",
    "tech": "NULL",
    "upgrade": "NULL_NA",
    "gnaf_pid": "GASA_425714609",
    "ee": true,
    "tech_change_status": "Not Planned"
   }
  },
  {
   "type": "Feature",
   "geometry": {
    "type": "Point",
    "coordinates": [
     139.91696455,
     -37.11702995
    ]
   },
   "properties": {
    "name": "LOT 107 OLD NARACOORTE ROAD MOUNT BENSON 5275",
    "locID": "LOC000116267315",
    "tech": "NULL",
    "upgrade": "NULL_NA",
    "gnaf_pid": "GASA_425723191",
    "ee": true,
    "tech_change_status": "Not Planned"
   }
  },
  {
   "type": "Feature",
   "geometry": {
    "type": "Point",
    "coordinates": [
     139.92621325,
     -37.16687291
    ]
   },
   "properties": {
    "name": "LOT 108 OLD NARACOORTE ROAD MOUNT BENSON 5275",
    "locID": "LOC000116267315",
    "tech": "NULL",
    "upgrade": "NULL_NA",
    "gnaf_pid": "GASA_425723192",
    "ee": true,
    "tech_change_status": "Not Planned"
   }
  },
  {
   "type": "Feature",
   "geometry": {
    "type": "Point",
    "coordinates": [
     139.80917948,
     -37.14609266
    ]
   },
   "properties": {
    "name": "LOT 3 SOUTHERN PORTS HIGHWAY MOUNT BENSON 5275",
    "locID": "LOC000131205218",
    "tech": "FTTN",
    "upgrade": "FTTP_NA",
    "gnaf_pid": "GASA_719859226",
    "ee": true,
    "tech_change_status": "Planned",
    "program_type": "On-Demand N2P SDU/MDU Simple"
   }
  },
  {
   "type": "Feature",
   "geometry": {
    "type": "Point",
    "coordinates": [
     139.821212,
     -37.138053
    ]
   },
   "properties": {
    "name": "46 ROYS LANE MOUNT BENSON 5275",
    "locID": "LOC100081468107",
    "tech": "NULL",
    "upgrade": "NULL_NA",
    "gnaf_pid": "GASA_719860193",
    "ee": true,
    "tech_change_status": "Not Planned"
   }
  },
  {
   "type": "Feature",
   "geometry": {
    "type": "Point",
    "coordinates": [
     139.818691,
     -37.137807
    ]
   },
   "properties": {
    "name": "21 ROYS LANE MOUNT BENSON 5275",
    "locID": "LOC100072030668",
    "tech": "NULL",
    "upgrade": "NULL_NA",
    "gnaf_pid": "GASA_719862769",
    "ee": true,
    "tech_change_status": "Not Planned"
   }
  },
  {
   "type": "Feature",
   "geometry": {
    "type": "Point",
    "coordinates": [
     139.80164941,
     -37.14396902
    ]
   },
   "properties": {
    "name": "LOT 5 RIVIERA DRIVE MOUNT BENSON 5275",
    "locID": "LOC000116281939",
    "tech": "NULL",
    "upgrade": "NULL_NA",
    "gnaf_pid": "GASA_719864236",
    "ee": true,
    "tech_change_status": "Not Planned"
   }
  },
  {
   "type": "Feature",
   "geometry": {
    "type": "Point",
    "coordinates": [
     140.02870064,
     -37.10708008
    ]
   },
   "properties": {
    "name": "2005 OLD NARACOORTE ROAD MOUNT BENSON 5275",
    "locID": "LOC000148396291",
    "tech": "NULL",
    "upgrade": "NULL_NA",
    "gnaf_pid": "GASA_720189335",
    "ee": true,
    "tech_change_status": "Not Planned"
   }
  },
  {
   "type": "Feature",
   "geometry": {
    "type": "Point",
    "coordinates": [
     139.7412359,
     -37.0588692
    ]
   },
   "properties": {
    "name": "LOT 371 LONGBOTTOM ROAD MOUNT BENSON 5275",
    "locID": "LOC000150237582",
    "tech": "NULL",
    "upgrade": "NULL_NA",
    "gnaf_pid": "GASA_720191397",
    "ee": true,
    "tech_change_status": "Not Planned"
   }
  },
  {
   "type": "Feature",
   "geometry": {
    "type": "Point",
    "coordinates": [
     139.811418,
     -37.03307478
    ]
   },
   "properties": {
    "name": "LOT 558 SOUTHERN PORTS HIGHWAY MOUNT BENSON 5275",
    "locID": "LOC000116282954",
    "tech": "NULL",
    "upgrade": "NULL_NA",
    "gnaf_pid": "GASA_720238234",
    "ee": true,
    "tech_change_status": "Not Planned"
   }
  },
  {
   "type": "Feature",
   "geometry": {
    "type": "Point",
    "coordinates": [
     139.911489,
     -37.17625789
    ]
   },
   "properties": {
    "name": "LOT 20 OLD NARACOORTE ROAD MOUNT BENSON 5275",
    "locID": "LOC000116267315",
    "tech": "NULL",
    "upgrade": "NULL_NA",
    "gnaf_pid": "GASA_720369230",
    "ee": true,
    "tech_change_status": "Not Planned"
   }
  }
 ]
}