{
 "type": "FeatureCollection",
 "generated": "2025-06-15T20:08:40.663259",
 "suburb": "MOUNT SCHANK",
 "features": [
  {
   "type": "Feature",
   "geometry": {
    "type": "Point",
    "coordinates": [
     140.74092265,
     -37.93966089
    ]
   },
   "properties": {
    "name": "LOT 678 TREVOR CLARKE DRIVE MOUNT SCHANK 5291",
    "locID": "LOC000116286283",
    "tech": "WIRELESS",
    "upgrade": "NULL_NA",
    "gnaf_pid": "GASA_415511311",
    "ee": true,
    "tech_change_status": "Not Planned",
    "program_type": "Fixed Wireless and Satellite Upgrade Program",
    "target_eligibility_quarter": "NA"
   }
  },
  {
   "type": "Feature",
   "geometry": {
    "type": "Point",
    "coordinates": [
     140.67074451,
     -37.93196104
    ]
   },
   "properties": {
    "name": "LOT 2 MOUNT SALT ROAD MOUNT SCHANK 5291",
    "locID": "LOC000116302349",
    "tech": "WIRELESS",
    "upgrade": "NULL_NA",
    "gnaf_pid": "GASA_424150066",
    "ee": true,
    "tech_change_status": "Not Planned",
    "program_type": "Fixed Wireless and Satellite Upgrade Program",
    "target_eligibility_quarter": "NA"
   }
  },
  {
   "type": "Feature",
   "geometry": {
    "type": "Point",
    "coordinates": [
     140.77497155,
     -37.93840361
    ]
   },
   "properties": {
    "name": "LOT 3 LASLETT ROAD MOUNT SCHANK 5291",
    "locID": "LOC000116287407",
    "tech": "WIRELESS",
    "upgrade": "NULL_NA",
    "gnaf_pid": "GASA_424150738",
    "ee": true,
    "tech_change_status": "Not Planned",
    "program_type": "Fixed Wireless and Satellite Upgrade Program",
    "target_eligibility_quarter": "NA"
   }
  },
  {
   "type": "Feature",
   "geometry": {
    "type": "Point",
    "coordinates": [
     140.61526279,
     -37.92487126
    ]
   },
   "properties": {
    "name": "LOT 1 MOUNT SALT ROAD MOUNT SCHANK 5291",
    "locID": "LOC000185423423",
    "tech": "WIRELESS",
    "upgrade": "NULL_NA",
    "gnaf_pid": "GASA_424150780",
    "ee": true,
    "tech_change_status": "Not Planned",
    "program_type": "Fixed Wireless and Satellite Upgrade Program",
    "target_eligibility_quarter": "NA"
   }
  },
  {
   "type": "Feature",
   "geometry": {
    "type": "Point",
    "coordinates": [
     140.78744183,
     -37.9347192
    ]
   },
   "properties": {
    "name": "LOT 11 GLENELG RIVER ROAD MOUNT SCHANK 5291",
    "locID": "LOC000116286399",
    "tech": "WIRELESS",
    "upgrade": "NULL_NA",
    "gnaf_pid": "GASA_424174182",
    "ee": true,
    "tech_change_status": "Not Planned",
    "program_type": "Fixed Wireless and Satellite Upgrade Program",
    "target_eligibility_quarter": "NA"
   }
  },
  {
   "type": "Feature",
   "geometry": {
    "type": "Point",
    "coordinates": [
     140.7739337,
     -37.91935317
    ]
   },
   "properties": {
    "name": "LOT 1 GLENELG RIVER ROAD MOUNT SCHANK 5291",
    "locID": "LOC000116286399",
    "tech": "WIRELESS",
    "upgrade": "NULL_NA",
    "gnaf_pid": "GASA_424174183",
    "ee": true,
    "tech_change_status": "Not Planned",
    "program_type": "Fixed Wireless and Satellite Upgrade Program",
    "target_eligibility_quarter": "NA"
   }
  },
  {
   "type": "Feature",
   "geometry": {
    "type": "Point",
    "coordinates": [
     140.66620877,
     -37.93926778
    ]
   },
   "properties": {
    "name": "LOT 4 MCLEANS ROAD MOUNT SCHANK 5291",
    "locID": "LOC000116286644",
    "tech": "WIRELESS",
    "upgrade": "NULL_NA",
    "gnaf_pid": "GASA_424191198",
    "ee": true,
    "tech_change_status": "Not Planned",
    "program_type": "Fixed Wireless and Satellite Upgrade Program",
    "target_eligibility_quarter": "NA"
   }
  },
  {
   "type": "Feature",
   "geometry": {
    "type": "Point",
    "coordinates": [
     140.72985077,
     -37.94640201
    ]
   },
   "properties": {
    "name": "LOT 18 POST OFFICE ROAD MOUNT SCHANK 5291",
    "locID": "LOC000116300393",
    "tech": "WIRELESS",
    "upgrade": "NULL_NA",
    "gnaf_pid": "GASA_424202181",
    "ee": true,
    "tech_change_status": "Not Planned",
    "program_type": "Fixed Wireless and Satellite Upgrade Program",
    "target_eligibility_quarter": "NA"
   }
  },
  {
   "type": "Feature",
   "geometry": {
    "type": "Point",
    "coordinates": [
     140.61776971,
     -37.90340251
    ]
   },
   "properties": {
    "name": "LOT 2 SISTERS ROAD MOUNT SCHANK 5291",
    "locID": "LOC000114547472",
    "tech": "WIRELESS",
    "upgrade": "NULL_NA",
    "gnaf_pid": "GASA_424210032",
    "ee": true,
    "tech_change_status": "Not Planned",
    "program_type": "Fixed Wireless and Satellite Upgrade Program",
    "target_eligibility_quarter": "NA"
   }
  },
  {
   "type": "Feature",
   "geometry": {
    "type": "Point",
    "coordinates": [
     140.74257856,
     -37.93963403
    ]
   },
   "properties": {
    "name": "LOT 679 TREVOR CLARKE DRIVE MOUNT SCHANK 5291",
    "locID": "LOC000116286283",
    "tech": "WIRELESS",
    "upgrade": "NULL_NA",
    "gnaf_pid": "GASA_424216598",
    "ee": true,
    "tech_change_status": "Not Planned",
    "program_type": "Fixed Wireless and Satellite Upgrade Program",
    "target_eligibility_quarter": "NA"
   }
  },
  {
   "type": "Feature",
   "geometry": {
    "type": "Point",
    "coordinates": [
     140.73723515,
     -37.94093708
    ]
   },
   "properties": {
    "name": "LOT 688 MOUNTAIN PATH ROAD MOUNT SCHANK 5291",
    "locID": "LOC000116284706",
    "tech": "WIRELESS",
    "upgrade": "NULL_NA",
    "gnaf_pid": "GASA_424319804",
    "ee": true,
    "tech_change_status": "Not Planned",
    "program_type": "Fixed Wireless and Satellite Upgrade Program",
    "target_eligibility_quarter": "NA"
   }
  },
  {
   "type": "Feature",
   "geometry": {
    "type": "Point",
    "coordinates": [
     140.7447141,
     -37.97906782
    ]
   },
   "properties": {
    "name": "LOT 2 SETTLERS ROAD MOUNT SCHANK 5291",
    "locID": "LOC000116271007",
    "tech": "WIRELESS",
    "upgrade": "NULL_NA",
    "gnaf_pid": "GASA_424565889",
    "ee": true,
    "tech_change_status": "Not Planned",
    "program_type": "Fixed Wireless and Satellite Upgrade Program",
    "target_eligibility_quarter": "NA"
   }
  },
  {
   "type": "Feature",
   "geometry": {
    "type": "Point",
    "coordinates": [
     140.72431897,
     -37.8986435
    ]
   },
   "properties": {
    "name": "127 SISTERS ROAD MOUNT SCHANK 5291",
    "locID": "LOC000114625024",
    "tech": "WIRELESS",
    "upgrade": "NULL_NA",
    "gnaf_pid": "GASA_424814671",
    "ee": true,
    "tech_change_status": "Not Planned",
    "program_type": "Fixed Wireless and Satellite Upgrade Program",
    "target_eligibility_quarter": "NA"
   }
  },
  {
   "type": "Feature",
   "geometry": {
    "type": "Point",
    "coordinates": [
     140.73537466,
     -37.89856303
    ]
   },
   "properties": {
    "name": "29 SISTERS ROAD MOUNT SCHANK 5291",
    "locID": "LOC000114547472",
    "tech": "WIRELESS",
    "upgrade": "NULL_NA",
    "gnaf_pid": "GASA_424814672",
    "ee": true,
    "tech_change_status": "Not Planned",
    "program_type": "Fixed Wireless and Satellite Upgrade Program",
    "target_eligibility_quarter": "NA"
   }
  },
  {
   "type": "Feature",
   "geometry": {
    "type": "Point",
    "coordinates": [
     140.69817904,
     -37.8988511
    ]
   },
   "properties": {
    "name": "357 SISTERS ROAD MOUNT SCHANK 5291",
    "locID": "LOC000114825241",
    "tech": "WIRELESS",
    "upgrade": "NULL_NA",
    "gnaf_pid": "GASA_424814673",
    "ee": true,
    "tech_change_status": "Not Planned",
    "program_type": "Fixed Wireless and Satellite Upgrade Program",
    "target_eligibility_quarter": "NA"
   }
  },
  {
   "type": "Feature",
   "geometry": {
    "type": "Point",
    "coordinates": [
     140.69520005,
     -37.89887044
    ]
   },
   "properties": {
    "name": "383 SISTERS ROAD MOUNT SCHANK 5291",
    "locID": "LOC000114037371",
    "tech": "WIRELESS",
    "upgrade": "NULL_NA",
    "gnaf_pid": "GASA_424814674",
    "ee": true,
    "tech_change_status": "Not Planned",
    "program_type": "Fixed Wireless and Satellite Upgrade Program",
    "target_eligibility_quarter": "NA"
   }
  },
  {
   "type": "Feature",
   "geometry": {
    "type": "Point",
    "coordinates": [
     140.69102779,
     -37.89892086
    ]
   },
   "properties": {
    "name": "419 SISTERS ROAD MOUNT SCHANK 5291",
    "locID": "LOC000114613971",
    "tech": "WIRELESS",
    "upgrade": "NULL_NA",
    "gnaf_pid": "GASA_424814675",
    "ee": true,
    "tech_change_status": "Not Planned",
    "program_type": "Fixed Wireless and Satellite Upgrade Program",
    "target_eligibility_quarter": "NA"
   }
  },
  {
   "type": "Feature",
   "geometry": {
    "type": "Point",
    "coordinates": [
     140.64278246,
     -37.96540419
    ]
   },
   "properties": {
    "name": "230 ALDRIDGE ROAD MOUNT SCHANK 5291",
    "locID": "LOC000116293002",
    "tech": "WIRELESS",
    "upgrade": "NULL_NA",
    "gnaf_pid": "GASA_424816769",
    "ee": true,
    "tech_change_status": "Not Planned",
    "program_type": "Fixed Wireless and Satellite Upgrade Program",
    "target_eligibility_quarter": "NA"
   }
  },
  {
   "type": "Feature",
   "geometry": {
    "type": "Point",
    "coordinates": [
     140.64292412,
     -37.96776274
    ]
   },
   "properties": {
    "name": "255 ALDRIDGE ROAD MOUNT SCHANK 5291",
    "locID": "LOC000116290908",
    "tech": "WIRELESS",
    "upgrade": "NULL_NA",
    "gnaf_pid": "GASA_424816770",
    "ee": true,
    "tech_change_status": "Not Planned",
    "program_type": "Fixed Wireless and Satellite Upgrade Program",
    "target_eligibility_quarter": "NA"
   }
  },
  {
   "type": "Feature",
   "geometry": {
    "type": "Point",
    "coordinates": [
     140.64321263,
     -37.9477268
    ]
   },
   "properties": {
    "name": "32 ALDRIDGE ROAD MOUNT SCHANK 5291",
    "locID": "LOC000116292360",
    "tech": "WIRELESS",
    "upgrade": "NULL_NA",
    "gnaf_pid": "GASA_424816771",
    "ee": true,
    "tech_change_status": "Not Planned",
    "program_type": "Fixed Wireless and Satellite Upgrade Program",
    "target_eligibility_quarter": "NA"
   }
  },
  {
   "type": "Feature",
   "geometry": {
    "type": "Point",
    "coordinates": [
     140.64475198,
     -37.98588957
    ]
   },
   "properties": {
    "name": "460 ALDRIDGE ROAD MOUNT SCHANK 5291",
    "locID": "LOC000116287891",
    "tech": "WIRELESS",
    "upgrade": "NULL_NA",
    "gnaf_pid": "GASA_424816772",
    "ee": true,
    "tech_change_status": "Not Planned",
    "program_type": "Fixed Wireless and Satellite Upgrade Program",
    "target_eligibility_quarter": "NA"
   }
  },
  {
   "type": "Feature",
   "geometry": {
    "type": "Point",
    "coordinates": [
     140.72099114,
     -37.92783957
    ]
   },
   "properties": {
    "name": "14 BELLUM LANE MOUNT SCHANK 5291",
    "locID": "LOC000116295916",
    "tech": "WIRELESS",
    "upgrade": "NULL_NA",
    "gnaf_pid": "GASA_424817479",
    "ee": true,
    "tech_change_status": "Not Planned",
    "program_type": "Fixed Wireless and Satellite Upgrade Program",
    "target_eligibility_quarter": "NA"
   }
  },
  {
   "type": "Feature",
   "geometry": {
    "type": "Point",
    "coordinates": [
     140.72266306,
     -37.95709846
    ]
   },
   "properties": {
    "name": "24 BUTTONS ROAD MOUNT SCHANK 5291",
    "locID": "LOC000116300863",
    "tech": "WIRELESS",
    "upgrade": "NULL_NA",
    "gnaf_pid": "GASA_424818231",
    "ee": true,
    "tech_change_status": "Not Planned",
    "program_type": "Fixed Wireless and Satellite Upgrade Program",
    "target_eligibility_quarter": "NA"
   }
  },
  {
   "type": "Feature",
   "geometry": {
    "type": "Point",
    "coordinates": [
     140.60988586,
     -37.94594767
    ]
   },
   "properties": {
    "name": "207 CONCANNON ROAD MOUNT SCHANK 5291",
    "locID": "LOC000116295554",
    "tech": "WIRELESS",
    "upgrade": "NULL_NA",
    "gnaf_pid": "GASA_424819133",
    "ee": true,
    "tech_change_status": "Not Planned",
    "program_type": "Fixed Wireless and Satellite Upgrade Program",
    "target_eligibility_quarter": "NA"
   }
  },
  {
   "type": "Feature",
   "geometry": {
    "type": "Point",
    "coordinates": [
     140.76878726,
     -37.94310243
    ]
   },
   "properties": {
    "name": "11 ELLIS ROAD MOUNT SCHANK 5291",
    "locID": "LOC000116276143",
    "tech": "WIRELESS",
    "upgrade": "NULL_NA",
    "gnaf_pid": "GASA_424820126",
    "ee": true,
    "tech_change_status": "Not Planned",
    "program_type": "Fixed Wireless and Satellite Upgrade Program",
    "target_eligibility_quarter": "NA"
   }
  },
  {
   "type": "Feature",
   "geometry": {
    "type": "Point",
    "coordinates": [
     140.76895766,
     -37.95922162
    ]
   },
   "properties": {
    "name": "191 ELLIS ROAD MOUNT SCHANK 5291",
    "locID": "LOC000116301476",
    "tech": "WIRELESS",
    "upgrade": "NULL_NA",
    "gnaf_pid": "GASA_424820127",
    "ee": true,
    "tech_change_status": "Not Planned",
    "program_type": "Fixed Wireless and Satellite Upgrade Program",
    "target_eligibility_quarter": "NA"
   }
  },
  {
   "type": "Feature",
   "geometry": {
    "type": "Point",
    "coordinates": [
     140.76909195,
     -37.96679615
    ]
   },
   "properties": {
    "name": "275 ELLIS ROAD MOUNT SCHANK 5291",
    "locID": "LOC000116301261",
    "tech": "WIRELESS",
    "upgrade": "NULL_NA",
    "gnaf_pid": "GASA_424820128",
    "ee": true,
    "tech_change_status": "Not Planned",
    "program_type": "Fixed Wireless and Satellite Upgrade Program",
    "target_eligibility_quarter": "NA"
   }
  },
  {
   "type": "Feature",
   "geometry": {
    "type": "Point",
    "coordinates": [
     140.76921039,
     -37.97395309
    ]
   },
   "properties": {
    "name": "353 ELLIS ROAD MOUNT SCHANK 5291",
    "locID": "LOC000116302809",
    "tech": "WIRELESS",
    "upgrade": "NULL_NA",
    "gnaf_pid": "GASA_424820129",
    "ee": true,
    "tech_change_status": "Not Planned",
    "program_type": "Fixed Wireless and Satellite Upgrade Program",
    "target_eligibility_quarter": "NA"
   }
  },
  {
   "type": "Feature",
   "geometry": {
    "type": "Point",
    "coordinates": [
     140.76883514,
     -37.94932173
    ]
   },
   "properties": {
    "name": "81 ELLIS ROAD MOUNT SCHANK 5291",
    "locID": "LOC000116288765",
    "tech": "WIRELESS",
    "upgrade": "NULL_NA",
    "gnaf_pid": "GASA_424820130",
    "ee": true,
    "tech_change_status": "Not Planned",
    "program_type": "Fixed Wireless and Satellite Upgrade Program",
    "target_eligibility_quarter": "NA"
   }
  },
  {
   "type": "Feature",
   "geometry": {
    "type": "Point",
    "coordinates": [
     140.78778584,
     -37.9112242
    ]
   },
   "properties": {
    "name": "876 GLENELG RIVER ROAD MOUNT SCHANK 5291",
    "locID": "LOC000131101076",
    "tech": "WIRELESS",
    "upgrade": "NULL_NA",
    "gnaf_pid": "GASA_424820881",
    "ee": true,
    "tech_change_status": "Not Planned",
    "program_type": "Fixed Wireless and Satellite Upgrade Program",
    "target_eligibility_quarter": "NA"
   }
  },
  {
   "type": "Feature",
   "geometry": {
    "type": "Point",
    "coordinates": [
     140.6092555,
     -37.90069596
    ]
   },
   "properties": {
    "name": "569 GUMS ROAD MOUNT SCHANK 5291",
    "locID": "LOC000116288063",
    "tech": "WIRELESS",
    "upgrade": "NULL_NA",
    "gnaf_pid": "GASA_424821234",
    "ee": true,
    "tech_change_status": "Not Planned",
    "program_type": "Fixed Wireless and Satellite Upgrade Program",
    "target_eligibility_quarter": "NA"
   }
  },
  {
   "type": "Feature",
   "geometry": {
    "type": "Point",
    "coordinates": [
     140.60947491,
     -37.91608227
    ]
   },
   "properties": {
    "name": "741 GUMS ROAD MOUNT SCHANK 5291",
    "locID": "LOC000131087612",
    "tech": "WIRELESS",
    "upgrade": "NULL_NA",
    "gnaf_pid": "GASA_424821235",
    "ee": true,
    "tech_change_status": "Not Planned",
    "program_type": "Fixed Wireless and Satellite Upgrade Program",
    "target_eligibility_quarter": "NA"
   }
  },
  {
   "type": "Feature",
   "geometry": {
    "type": "Point",
    "coordinates": [
     140.60948461,
     -37.91696992
    ]
   },
   "properties": {
    "name": "751 GUMS ROAD MOUNT SCHANK 5291",
    "locID": "LOC000116298892",
    "tech": "WIRELESS",
    "upgrade": "NULL_NA",
    "gnaf_pid": "GASA_424821236",
    "ee": true,
    "tech_change_status": "Not Planned",
    "program_type": "Fixed Wireless and Satellite Upgrade Program",
    "target_eligibility_quarter": "NA"
   }
  },
  {
   "type": "Feature",
   "geometry": {
    "type": "Point",
    "coordinates": [
     140.66379449,
     -37.92369966
    ]
   },
   "properties": {
    "name": "51 HODGES ROAD MOUNT SCHANK 5291",
    "locID": "LOC000116296891",
    "tech": "WIRELESS",
    "upgrade": "NULL_NA",
    "gnaf_pid": "GASA_424821606",
    "ee": true,
    "tech_change_status": "Not Planned",
    "program_type": "Fixed Wireless and Satellite Upgrade Program",
    "target_eligibility_quarter": "NA"
   }
  },
  {
   "type": "Feature",
   "geometry": {
    "type": "Point",
    "coordinates": [
     140.74959072,
     -37.9768416
    ]
   },
   "properties": {
    "name": "61 HOWARDS ROAD MOUNT SCHANK 5291",
    "locID": "LOC000116298546",
    "tech": "WIRELESS",
    "upgrade": "NULL_NA",
    "gnaf_pid": "GASA_424821783",
    "ee": false,
    "tech_change_status": "Not Planned",
    "program_type": "Fixed Wireless and Satellite Upgrade Program",
    "target_eligibility_quarter": "NA"
   }
  },
  {
   "type": "Feature",
   "geometry": {
    "type": "Point",
    "coordinates": [
     140.64929364,
     -37.95789855
    ]
   },
   "properties": {
    "name": "59 JONES LANE MOUNT SCHANK 5291",
    "locID": "LOC000116293353",
    "tech": "WIRELESS",
    "upgrade": "NULL_NA",
    "gnaf_pid": "GASA_424822430",
    "ee": true,
    "tech_change_status": "Not Planned",
    "program_type": "Fixed Wireless and Satellite Upgrade Program",
    "target_eligibility_quarter": "NA"
   }
  },
  {
   "type": "Feature",
   "geometry": {
    "type": "Point",
    "coordinates": [
     140.76909568,
     -37.94215601
    ]
   },
   "properties": {
    "name": "319 LASLETT ROAD MOUNT SCHANK 5291",
    "locID": "LOC000116292341",
    "tech": "WIRELESS",
    "upgrade": "NULL_NA",
    "gnaf_pid": "GASA_424823076",
    "ee": true,
    "tech_change_status": "Not Planned",
    "program_type": "Fixed Wireless and Satellite Upgrade Program",
    "target_eligibility_quarter": "NA"
   }
  },
  {
   "type": "Feature",
   "geometry": {
    "type": "Point",
    "coordinates": [
     140.76413654,
     -37.9422081
    ]
   },
   "properties": {
    "name": "363 LASLETT ROAD MOUNT SCHANK 5291",
    "locID": "LOC000116287407",
    "tech": "WIRELESS",
    "upgrade": "NULL_NA",
    "gnaf_pid": "GASA_424823077",
    "ee": true,
    "tech_change_status": "Not Planned",
    "program_type": "Fixed Wireless and Satellite Upgrade Program",
    "target_eligibility_quarter": "NA"
   }
  },
  {
   "type": "Feature",
   "geometry": {
    "type": "Point",
    "coordinates": [
     140.75797404,
     -37.94216487
    ]
   },
   "properties": {
    "name": "416 LASLETT ROAD MOUNT SCHANK 5291",
    "locID": "LOC000116298047",
    "tech": "WIRELESS",
    "upgrade": "NULL_NA",
    "gnaf_pid": "GASA_424823078",
    "ee": true,
    "tech_change_status": "Not Planned",
    "program_type": "Fixed Wireless and Satellite Upgrade Program",
    "target_eligibility_quarter": "NA"
   }
  },
  {
   "type": "Feature",
   "geometry": {
    "type": "Point",
    "coordinates": [
     140.70710576,
     -37.94260207
    ]
   },
   "properties": {
    "name": "113 MCLEANS ROAD MOUNT SCHANK 5291",
    "locID": "LOC000116280105",
    "tech": "WIRELESS",
    "upgrade": "NULL_NA",
    "gnaf_pid": "GASA_424823947",
    "ee": true,
    "tech_change_status": "Not Planned",
    "program_type": "Fixed Wireless and Satellite Upgrade Program",
    "target_eligibility_quarter": "NA"
   }
  },
  {
   "type": "Feature",
   "geometry": {
    "type": "Point",
    "coordinates": [
     140.66909634,
     -37.94294312
    ]
   },
   "properties": {
    "name": "447 MCLEANS ROAD MOUNT SCHANK 5291",
    "locID": "LOC000116286644",
    "tech": "WIRELESS",
    "upgrade": "NULL_NA",
    "gnaf_pid": "GASA_424823949",
    "ee": true,
    "tech_change_status": "Not Planned",
    "program_type": "Fixed Wireless and Satellite Upgrade Program",
    "target_eligibility_quarter": "NA"
   }
  },
  {
   "type": "Feature",
   "geometry": {
    "type": "Point",
    "coordinates": [
     140.65537331,
     -37.94378899
    ]
   },
   "properties": {
    "name": "567 MCLEANS ROAD MOUNT SCHANK 5291",
    "locID": "LOC000116287046",
    "tech": "WIRELESS",
    "upgrade": "NULL_NA",
    "gnaf_pid": "GASA_424823950",
    "ee": true,
    "tech_change_status": "Not Planned",
    "program_type": "Fixed Wireless and Satellite Upgrade Program",
    "target_eligibility_quarter": "NA"
   }
  },
  {
   "type": "Feature",
   "geometry": {
    "type": "Point",
    "coordinates": [
     140.65229194,
     -37.943829
    ]
   },
   "properties": {
    "name": "595 MCLEANS ROAD MOUNT SCHANK 5291",
    "locID": "LOC000116293444",
    "tech": "WIRELESS",
    "upgrade": "NULL_NA",
    "gnaf_pid": "GASA_424823951",
    "ee": true,
    "tech_change_status": "Not Planned",
    "program_type": "Fixed Wireless and Satellite Upgrade Program",
    "target_eligibility_quarter": "NA"
   }
  },
  {
   "type": "Feature",
   "geometry": {
    "type": "Point",
    "coordinates": [
     140.6500218,
     -37.9438468
    ]
   },
   "properties": {
    "name": "615 MCLEANS ROAD MOUNT SCHANK 5291",
    "locID": "LOC000116302543",
    "tech": "WIRELESS",
    "upgrade": "NULL_NA",
    "gnaf_pid": "GASA_424823952",
    "ee": true,
    "tech_change_status": "Not Planned",
    "program_type": "Fixed Wireless and Satellite Upgrade Program",
    "target_eligibility_quarter": "NA"
   }
  },
  {
   "type": "Feature",
   "geometry": {
    "type": "Point",
    "coordinates": [
     140.64722399,
     -37.94415124
    ]
   },
   "properties": {
    "name": "640 MCLEANS ROAD MOUNT SCHANK 5291",
    "locID": "LOC000116303792",
    "tech": "WIRELESS",
    "upgrade": "NULL_NA",
    "gnaf_pid": "GASA_424823953",
    "ee": true,
    "tech_change_status": "Not Planned",
    "program_type": "Fixed Wireless and Satellite Upgrade Program",
    "target_eligibility_quarter": "NA"
   }
  },
  {
   "type": "Feature",
   "geometry": {
    "type": "Point",
    "coordinates": [
     140.61852728,
     -37.94300964
    ]
   },
   "properties": {
    "name": "893 MCLEANS ROAD MOUNT SCHANK 5291",
    "locID": "LOC000116298121",
    "tech": "WIRELESS",
    "upgrade": "NULL_NA",
    "gnaf_pid": "GASA_424823954",
    "ee": true,
    "tech_change_status": "Not Planned",
    "program_type": "Fixed Wireless and Satellite Upgrade Program",
    "target_eligibility_quarter": "NA"
   }
  },
  {
   "type": "Feature",
   "geometry": {
    "type": "Point",
    "coordinates": [
     140.7062499,
     -37.92785202
    ]
   },
   "properties": {
    "name": "116 MOUNT SALT ROAD MOUNT SCHANK 5291",
    "locID": "LOC000131120111",
    "tech": "WIRELESS",
    "upgrade": "NULL_NA",
    "gnaf_pid": "GASA_424824432",
    "ee": true,
    "tech_change_status": "Not Planned",
    "program_type": "Fixed Wireless and Satellite Upgrade Program",
    "target_eligibility_quarter": "NA"
   }
  },
  {
   "type": "Feature",
   "geometry": {
    "type": "Point",
    "coordinates": [
     140.69462796,
     -37.92808131
    ]
   },
   "properties": {
    "name": "219 MOUNT SALT ROAD MOUNT SCHANK 5291",
    "locID": "LOC000116286462",
    "tech": "WIRELESS",
    "upgrade": "NULL_NA",
    "gnaf_pid": "GASA_424824433",
    "ee": true,
    "tech_change_status": "Not Planned",
    "program_type": "Fixed Wireless and Satellite Upgrade Program",
    "target_eligibility_quarter": "NA"
   }
  },
  {
   "type": "Feature",
   "geometry": {
    "type": "Point",
    "coordinates": [
     140.69104417,
     -37.9280108
    ]
   },
   "properties": {
    "name": "250 MOUNT SALT ROAD MOUNT SCHANK 5291",
    "locID": "LOC000177258603",
    "tech": "WIRELESS",
    "upgrade": "NULL_NA",
    "gnaf_pid": "GASA_424824434",
    "ee": true,
    "tech_change_status": "Not Planned",
    "program_type": "Fixed Wireless and Satellite Upgrade Program",
    "target_eligibility_quarter": "NA"
   }
  },
  {
   "type": "Feature",
   "geometry": {
    "type": "Point",
    "coordinates": [
     140.71629251,
     -37.92777102
    ]
   },
   "properties": {
    "name": "28 MOUNT SALT ROAD MOUNT SCHANK 5291",
    "locID": "LOC000116302349",
    "tech": "WIRELESS",
    "upgrade": "NULL_NA",
    "gnaf_pid": "GASA_424824435",
    "ee": true,
    "tech_change_status": "Not Planned",
    "program_type": "Fixed Wireless and Satellite Upgrade Program",
    "target_eligibility_quarter": "NA"
   }
  },
  {
   "type": "Feature",
   "geometry": {
    "type": "Point",
    "coordinates": [
     140.67348057,
     -37.92816064
    ]
   },
   "properties": {
    "name": "404 MOUNT SALT ROAD MOUNT SCHANK 5291",
    "locID": "LOC000116297905",
    "tech": "WIRELESS",
    "upgrade": "NULL_NA",
    "gnaf_pid": "GASA_424824437",
    "ee": true,
    "tech_change_status": "Not Planned",
    "program_type": "Fixed Wireless and Satellite Upgrade Program",
    "target_eligibility_quarter": "NA"
   }
  },
  {
   "type": "Feature",
   "geometry": {
    "type": "Point",
    "coordinates": [
     140.65412608,
     -37.9292742
    ]
   },
   "properties": {
    "name": "576 MOUNT SALT ROAD MOUNT SCHANK 5291",
    "locID": "LOC000116288160",
    "tech": "SATELLITE",
    "upgrade": "NULL_NA",
    "gnaf_pid": "GASA_424824438",
    "ee": true,
    "tech_change_status": "Not Planned"
   }
  },
  {
   "type": "Feature",
   "geometry": {
    "type": "Point",
    "coordinates": [
     140.6525181,
     -37.92944353
    ]
   },
   "properties": {
    "name": "590 MOUNT SALT ROAD MOUNT SCHANK 5291",
    "locID": "LOC000116293400",
    "tech": "WIRELESS",
    "upgrade": "NULL_NA",
    "gnaf_pid": "GASA_424824439",
    "ee": true,
    "tech_change_status": "Not Planned",
    "program_type": "Fixed Wireless and Satellite Upgrade Program",
    "target_eligibility_quarter": "NA"
   }
  },
  {
   "type": "Feature",
   "geometry": {
    "type": "Point",
    "coordinates": [
     140.712077,
     -37.927919
    ]
   },
   "properties": {
    "name": "65 MOUNT SALT ROAD MOUNT SCHANK 5291",
    "locID": "LOC000116287274",
    "tech": "WIRELESS",
    "upgrade": "NULL_NA",
    "gnaf_pid": "GASA_424824440",
    "ee": true,
    "tech_change_status": "Not Planned",
    "program_type": "Fixed Wireless and Satellite Upgrade Program",
    "target_eligibility_quarter": "NA"
   }
  },
  {
   "type": "Feature",
   "geometry": {
    "type": "Point",
    "coordinates": [
     140.640106,
     -37.930051
    ]
   },
   "properties": {
    "name": "699 MOUNT SALT ROAD MOUNT SCHANK 5291",
    "locID": "LOC000116292612",
    "tech": "WIRELESS",
    "upgrade": "NULL_NA",
    "gnaf_pid": "GASA_424824442",
    "ee": true,
    "tech_change_status": "Not Planned",
    "program_type": "Fixed Wireless and Satellite Upgrade Program",
    "target_eligibility_quarter": "NA"
   }
  },
  {
   "type": "Feature",
   "geometry": {
    "type": "Point",
    "coordinates": [
     140.63344076,
     -37.92938367
    ]
   },
   "properties": {
    "name": "758 MOUNT SALT ROAD MOUNT SCHANK 5291",
    "locID": "LOC000116298918",
    "tech": "SATELLITE",
    "upgrade": "NULL_NA",
    "gnaf_pid": "GASA_424824444",
    "ee": true,
    "tech_change_status": "Not Planned"
   }
  },
  {
   "type": "Feature",
   "geometry": {
    "type": "Point",
    "coordinates": [
     140.73281868,
     -37.93350094
    ]
   },
   "properties": {
    "name": "153 MOUNTAIN PATH ROAD MOUNT SCHANK 5291",
    "locID": "LOC000116284706",
    "tech": "WIRELESS",
    "upgrade": "NULL_NA",
    "gnaf_pid": "GASA_424824460",
    "ee": true,
    "tech_change_status": "Not Planned",
    "program_type": "Fixed Wireless and Satellite Upgrade Program",
    "target_eligibility_quarter": "NA"
   }
  },
  {
   "type": "Feature",
   "geometry": {
    "type": "Point",
    "coordinates": [
     140.7313111,
     -37.94618816
    ]
   },
   "properties": {
    "name": "4 MOUNTAIN PATH ROAD MOUNT SCHANK 5291",
    "locID": "LOC000116296794",
    "tech": "WIRELESS",
    "upgrade": "NULL_NA",
    "gnaf_pid": "GASA_424824461",
    "ee": true,
    "tech_change_status": "Not Planned",
    "program_type": "Fixed Wireless and Satellite Upgrade Program",
    "target_eligibility_quarter": "NA"
   }
  },
  {
   "type": "Feature",
   "geometry": {
    "type": "Point",
    "coordinates": [
     140.729901,
     -37.940064
    ]
   },
   "properties": {
    "name": "74 MOUNTAIN PATH ROAD MOUNT SCHANK 5291",
    "locID": "LOC000116298788",
    "tech": "WIRELESS",
    "upgrade": "NULL_NA",
    "gnaf_pid": "GASA_424824462",
    "ee": true,
    "tech_change_status": "Not Planned",
    "program_type": "Fixed Wireless and Satellite Upgrade Program",
    "target_eligibility_quarter": "NA"
   }
  },
  {
   "type": "Feature",
   "geometry": {
    "type": "Point",
    "coordinates": [
     140.7303327,
     -37.93933084
    ]
   },
   "properties": {
    "name": "84 MOUNTAIN PATH ROAD MOUNT SCHANK 5291",
    "locID": "LOC000116292957",
    "tech": "WIRELESS",
    "upgrade": "NULL_NA",
    "gnaf_pid": "GASA_424824463",
    "ee": true,
    "tech_change_status": "Not Planned",
    "program_type": "Fixed Wireless and Satellite Upgrade Program",
    "target_eligibility_quarter": "NA"
   }
  },
  {
   "type": "Feature",
   "geometry": {
    "type": "Point",
    "coordinates": [
     140.73072826,
     -37.93861291
    ]
   },
   "properties": {
    "name": "92 MOUNTAIN PATH ROAD MOUNT SCHANK 5291",
    "locID": "LOC000116303217",
    "tech": "SATELLITE",
    "upgrade": "NULL_NA",
    "gnaf_pid": "GASA_424824464",
    "ee": true,
    "tech_change_status": "Not Planned"
   }
  },
  {
   "type": "Feature",
   "geometry": {
    "type": "Point",
    "coordinates": [
     140.70524288,
     -37.98653396
    ]
   },
   "properties": {
    "name": "134 OLD BOUNDARY ROAD MOUNT SCHANK 5291",
    "locID": "LOC000116275396",
    "tech": "WIRELESS",
    "upgrade": "NULL_NA",
    "gnaf_pid": "GASA_424825044",
    "ee": true,
    "tech_change_status": "Not Planned",
    "program_type": "Fixed Wireless and Satellite Upgrade Program",
    "target_eligibility_quarter": "NA"
   }
  },
  {
   "type": "Feature",
   "geometry": {
    "type": "Point",
    "coordinates": [
     140.70392938,
     -37.98655677
    ]
   },
   "properties": {
    "name": "144 OLD BOUNDARY ROAD MOUNT SCHANK 5291",
    "locID": "LOC000116300006",
    "tech": "WIRELESS",
    "upgrade": "NULL_NA",
    "gnaf_pid": "GASA_424825045",
    "ee": true,
    "tech_change_status": "Not Planned",
    "program_type": "Fixed Wireless and Satellite Upgrade Program",
    "target_eligibility_quarter": "NA"
   }
  },
  {
   "type": "Feature",
   "geometry": {
    "type": "Point",
    "coordinates": [
     140.69645689,
     -37.98663737
    ]
   },
   "properties": {
    "name": "210 OLD BOUNDARY ROAD MOUNT SCHANK 5291",
    "locID": "LOC000116296702",
    "tech": "WIRELESS",
    "upgrade": "NULL_NA",
    "gnaf_pid": "GASA_424825046",
    "ee": true,
    "tech_change_status": "Not Planned",
    "program_type": "Fixed Wireless and Satellite Upgrade Program",
    "target_eligibility_quarter": "NA"
   }
  },
  {
   "type": "Feature",
   "geometry": {
    "type": "Point",
    "coordinates": [
     140.69469246,
     -37.98665934
    ]
   },
   "properties": {
    "name": "226 OLD BOUNDARY ROAD MOUNT SCHANK 5291",
    "locID": "LOC000116299602",
    "tech": "WIRELESS",
    "upgrade": "NULL_NA",
    "gnaf_pid": "GASA_424825047",
    "ee": true,
    "tech_change_status": "Not Planned",
    "program_type": "Fixed Wireless and Satellite Upgrade Program",
    "target_eligibility_quarter": "NA"
   }
  },
  {
   "type": "Feature",
   "geometry": {
    "type": "Point",
    "coordinates": [
     140.67760515,
     -37.9868183
    ]
   },
   "properties": {
    "name": "376 OLD BOUNDARY ROAD MOUNT SCHANK 5291",
    "locID": "LOC000116287521",
    "tech": "WIRELESS",
    "upgrade": "NULL_NA",
    "gnaf_pid": "GASA_424825049",
    "ee": true,
    "tech_change_status": "Not Planned",
    "program_type": "Fixed Wireless and Satellite Upgrade Program",
    "target_eligibility_quarter": "NA"
   }
  },
  {
   "type": "Feature",
   "geometry": {
    "type": "Point",
    "coordinates": [
     140.66933876,
     -37.98690204
    ]
   },
   "properties": {
    "name": "448 OLD BOUNDARY ROAD MOUNT SCHANK 5291",
    "locID": "LOC000110038842",
    "tech": "WIRELESS",
    "upgrade": "NULL_NA",
    "gnaf_pid": "GASA_424825052",
    "ee": true,
    "tech_change_status": "Not Planned",
    "program_type": "Fixed Wireless and Satellite Upgrade Program",
    "target_eligibility_quarter": "NA"
   }
  },
  {
   "type": "Feature",
   "geometry": {
    "type": "Point",
    "coordinates": [
     140.658311,
     -37.987016
    ]
   },
   "properties": {
    "name": "546 OLD BOUNDARY ROAD MOUNT SCHANK 5291",
    "locID": "LOC000116302100",
    "tech": "WIRELESS",
    "upgrade": "NULL_NA",
    "gnaf_pid": "GASA_424825054",
    "ee": true,
    "tech_change_status": "Not Planned",
    "program_type": "Fixed Wireless and Satellite Upgrade Program",
    "target_eligibility_quarter": "NA"
   }
  },
  {
   "type": "Feature",
   "geometry": {
    "type": "Point",
    "coordinates": [
     140.61506051,
     -37.98739423
    ]
   },
   "properties": {
    "name": "926 OLD BOUNDARY ROAD MOUNT SCHANK 5291",
    "locID": "LOC000116303229",
    "tech": "WIRELESS",
    "upgrade": "NULL_NA",
    "gnaf_pid": "GASA_424825059",
    "ee": true,
    "tech_change_status": "Not Planned",
    "program_type": "Fixed Wireless and Satellite Upgrade Program",
    "target_eligibility_quarter": "NA"
   }
  },
  {
   "type": "Feature",
   "geometry": {
    "type": "Point",
    "coordinates": [
     140.73235207,
     -37.94663259
    ]
   },
   "properties": {
    "name": "121 POST OFFICE ROAD MOUNT SCHANK 5291",
    "locID": "LOC000116264910",
    "tech": "WIRELESS",
    "upgrade": "NULL_NA",
    "gnaf_pid": "GASA_424826175",
    "ee": true,
    "tech_change_status": "Not Planned",
    "program_type": "Fixed Wireless and Satellite Upgrade Program",
    "target_eligibility_quarter": "NA"
   }
  },
  {
   "type": "Feature",
   "geometry": {
    "type": "Point",
    "coordinates": [
     140.73417584,
     -37.94702894
    ]
   },
   "properties": {
    "name": "137 POST OFFICE ROAD MOUNT SCHANK 5291",
    "locID": "LOC000116276526",
    "tech": "WIRELESS",
    "upgrade": "NULL_NA",
    "gnaf_pid": "GASA_424826176",
    "ee": true,
    "tech_change_status": "Not Planned",
    "program_type": "Fixed Wireless and Satellite Upgrade Program",
    "target_eligibility_quarter": "NA"
   }
  },
  {
   "type": "Feature",
   "geometry": {
    "type": "Point",
    "coordinates": [
     140.73624665,
     -37.94745944
    ]
   },
   "properties": {
    "name": "155 POST OFFICE ROAD MOUNT SCHANK 5291",
    "locID": "LOC000116284752",
    "tech": "WIRELESS",
    "upgrade": "NULL_NA",
    "gnaf_pid": "GASA_424826177",
    "ee": true,
    "tech_change_status": "Not Planned",
    "program_type": "Fixed Wireless and Satellite Upgrade Program",
    "target_eligibility_quarter": "NA"
   }
  },
  {
   "type": "Feature",
   "geometry": {
    "type": "Point",
    "coordinates": [
     140.73968841,
     -37.94819428
    ]
   },
   "properties": {
    "name": "187 POST OFFICE ROAD MOUNT SCHANK 5291",
    "locID": "LOC000116300393",
    "tech": "WIRELESS",
    "upgrade": "NULL_NA",
    "gnaf_pid": "GASA_424826178",
    "ee": true,
    "tech_change_status": "Not Planned",
    "program_type": "Fixed Wireless and Satellite Upgrade Program",
    "target_eligibility_quarter": "NA"
   }
  },
  {
   "type": "Feature",
   "geometry": {
    "type": "Point",
    "coordinates": [
     140.72050744,
     -37.94270232
    ]
   },
   "properties": {
    "name": "8 POST OFFICE ROAD MOUNT SCHANK 5291",
    "locID": "LOC000116287675",
    "tech": "WIRELESS",
    "upgrade": "NULL_NA",
    "gnaf_pid": "GASA_424826179",
    "ee": true,
    "tech_change_status": "Not Planned",
    "program_type": "Fixed Wireless and Satellite Upgrade Program",
    "target_eligibility_quarter": "NA"
   }
  },
  {
   "type": "Feature",
   "geometry": {
    "type": "Point",
    "coordinates": [
     140.72940078,
     -37.94587479
    ]
   },
   "properties": {
    "name": "94 POST OFFICE ROAD MOUNT SCHANK 5291",
    "locID": "LOC000116304284",
    "tech": "WIRELESS",
    "upgrade": "NULL_NA",
    "gnaf_pid": "GASA_424826180",
    "ee": true,
    "tech_change_status": "Not Planned",
    "program_type": "Fixed Wireless and Satellite Upgrade Program",
    "target_eligibility_quarter": "NA"
   }
  },
  {
   "type": "Feature",
   "geometry": {
    "type": "Point",
    "coordinates": [
     140.73503846,
     -37.91091235
    ]
   },
   "properties": {
    "name": "22096 RIDDOCH HIGHWAY MOUNT SCHANK 5291",
    "locID": "LOC000116295826",
    "tech": "WIRELESS",
    "upgrade": "NULL_NA",
    "gnaf_pid": "GASA_424826997",
    "ee": true,
    "tech_change_status": "Not Planned",
    "program_type": "Fixed Wireless and Satellite Upgrade Program",
    "target_eligibility_quarter": "NA"
   }
  },
  {
   "type": "Feature",
   "geometry": {
    "type": "Point",
    "coordinates": [
     140.7306798,
     -37.91605795
    ]
   },
   "properties": {
    "name": "22167 RIDDOCH HIGHWAY MOUNT SCHANK 5291",
    "locID": "LOC000116295857",
    "tech": "WIRELESS",
    "upgrade": "NULL_NA",
    "gnaf_pid": "GASA_424826998",
    "ee": true,
    "tech_change_status": "Not Planned",
    "program_type": "Fixed Wireless and Satellite Upgrade Program",
    "target_eligibility_quarter": "NA"
   }
  },
  {
   "type": "Feature",
   "geometry": {
    "type": "Point",
    "coordinates": [
     140.72938107,
     -37.91707972
    ]
   },
   "properties": {
    "name": "22182 RIDDOCH HIGHWAY MOUNT SCHANK 5291",
    "locID": "LOC000116295861",
    "tech": "WIRELESS",
    "upgrade": "NULL_NA",
    "gnaf_pid": "GASA_424826999",
    "ee": true,
    "tech_change_status": "Not Planned",
    "program_type": "Fixed Wireless and Satellite Upgrade Program",
    "target_eligibility_quarter": "NA"
   }
  },
  {
   "type": "Feature",
   "geometry": {
    "type": "Point",
    "coordinates": [
     140.72757158,
     -37.91882482
    ]
   },
   "properties": {
    "name": "22208 RIDDOCH HIGHWAY MOUNT SCHANK 5291",
    "locID": "LOC000116295874",
    "tech": "WIRELESS",
    "upgrade": "NULL_NA",
    "gnaf_pid": "GASA_424827000",
    "ee": true,
    "tech_change_status": "Not Planned",
    "program_type": "Fixed Wireless and Satellite Upgrade Program",
    "target_eligibility_quarter": "NA"
   }
  },
  {
   "type": "Feature",
   "geometry": {
    "type": "Point",
    "coordinates": [
     140.71947224,
     -37.92856561
    ]
   },
   "properties": {
    "name": "22339 RIDDOCH HIGHWAY MOUNT SCHANK 5291",
    "locID": "LOC000116299464",
    "tech": "WIRELESS",
    "upgrade": "NULL_NA",
    "gnaf_pid": "GASA_424827001",
    "ee": true,
    "tech_change_status": "Not Planned",
    "program_type": "Fixed Wireless and Satellite Upgrade Program",
    "target_eligibility_quarter": "NA"
   }
  },
  {
   "type": "Feature",
   "geometry": {
    "type": "Point",
    "coordinates": [
     140.71959528,
     -37.93866829
    ]
   },
   "properties": {
    "name": "22452 RIDDOCH HIGHWAY MOUNT SCHANK 5291",
    "locID": "LOC000116299515",
    "tech": "WIRELESS",
    "upgrade": "NULL_NA",
    "gnaf_pid": "GASA_424827004",
    "ee": true,
    "tech_change_status": "Not Planned",
    "program_type": "Fixed Wireless and Satellite Upgrade Program",
    "target_eligibility_quarter": "NA"
   }
  },
  {
   "type": "Feature",
   "geometry": {
    "type": "Point",
    "coordinates": [
     140.7197874,
     -37.94693854
    ]
   },
   "properties": {
    "name": "22544 RIDDOCH HIGHWAY MOUNT SCHANK 5291",
    "locID": "LOC000116299558",
    "tech": "WIRELESS",
    "upgrade": "NULL_NA",
    "gnaf_pid": "GASA_424827006",
    "ee": true,
    "tech_change_status": "Not Planned",
    "program_type": "Fixed Wireless and Satellite Upgrade Program",
    "target_eligibility_quarter": "NA"
   }
  },
  {
   "type": "Feature",
   "geometry": {
    "type": "Point",
    "coordinates": [
     140.72005931,
     -37.95331574
    ]
   },
   "properties": {
    "name": "22615 RIDDOCH HIGHWAY MOUNT SCHANK 5291",
    "locID": "LOC000116299618",
    "tech": "WIRELESS",
    "upgrade": "NULL_NA",
    "gnaf_pid": "GASA_424827008",
    "ee": true,
    "tech_change_status": "Not Planned",
    "program_type": "Fixed Wireless and Satellite Upgrade Program",
    "target_eligibility_quarter": "NA"
   }
  },
  {
   "type": "Feature",
   "geometry": {
    "type": "Point",
    "coordinates": [
     140.72000962,
     -37.95988767
    ]
   },
   "properties": {
    "name": "22688 RIDDOCH HIGHWAY MOUNT SCHANK 5291",
    "locID": "LOC000131120423",
    "tech": "WIRELESS",
    "upgrade": "NULL_NA",
    "gnaf_pid": "GASA_424827009",
    "ee": true,
    "tech_change_status": "Not Planned",
    "program_type": "Fixed Wireless and Satellite Upgrade Program",
    "target_eligibility_quarter": "NA"
   }
  },
  {
   "type": "Feature",
   "geometry": {
    "type": "Point",
    "coordinates": [
     140.72027235,
     -37.96606945
    ]
   },
   "properties": {
    "name": "22755 RIDDOCH HIGHWAY MOUNT SCHANK 5291",
    "locID": "LOC000116299641",
    "tech": "WIRELESS",
    "upgrade": "NULL_NA",
    "gnaf_pid": "GASA_424827010",
    "ee": true,
    "tech_change_status": "Not Planned",
    "program_type": "Fixed Wireless and Satellite Upgrade Program",
    "target_eligibility_quarter": "NA"
   }
  },
  {
   "type": "Feature",
   "geometry": {
    "type": "Point",
    "coordinates": [
     140.72017413,
     -37.97008198
    ]
   },
   "properties": {
    "name": "22800 RIDDOCH HIGHWAY MOUNT SCHANK 5291",
    "locID": "LOC000116298372",
    "tech": "WIRELESS",
    "upgrade": "NULL_NA",
    "gnaf_pid": "GASA_424827011",
    "ee": true,
    "tech_change_status": "Not Planned",
    "program_type": "Fixed Wireless and Satellite Upgrade Program",
    "target_eligibility_quarter": "NA"
   }
  },
  {
   "type": "Feature",
   "geometry": {
    "type": "Point",
    "coordinates": [
     140.72041552,
     -37.97348892
    ]
   },
   "properties": {
    "name": "22839 RIDDOCH HIGHWAY MOUNT SCHANK 5291",
    "locID": "LOC000116298393",
    "tech": "WIRELESS",
    "upgrade": "NULL_NA",
    "gnaf_pid": "GASA_424827012",
    "ee": true,
    "tech_change_status": "Not Planned",
    "program_type": "Fixed Wireless and Satellite Upgrade Program",
    "target_eligibility_quarter": "NA"
   }
  },
  {
   "type": "Feature",
   "geometry": {
    "type": "Point",
    "coordinates": [
     140.73209811,
     -37.97170038
    ]
   },
   "properties": {
    "name": "104 SETTLERS ROAD MOUNT SCHANK 5291",
    "locID": "LOC000116271007",
    "tech": "WIRELESS",
    "upgrade": "NULL_NA",
    "gnaf_pid": "GASA_424827648",
    "ee": true,
    "tech_change_status": "Not Planned",
    "program_type": "Fixed Wireless and Satellite Upgrade Program",
    "target_eligibility_quarter": "NA"
   }
  },
  {
   "type": "Feature",
   "geometry": {
    "type": "Point",
    "coordinates": [
     140.74346318,
     -37.97157158
    ]
   },
   "properties": {
    "name": "204 SETTLERS ROAD MOUNT SCHANK 5291",
    "locID": "LOC000116291457",
    "tech": "WIRELESS",
    "upgrade": "NULL_NA",
    "gnaf_pid": "GASA_424827649",
    "ee": true,
    "tech_change_status": "Not Planned",
    "program_type": "Fixed Wireless and Satellite Upgrade Program",
    "target_eligibility_quarter": "NA"
   }
  },
  {
   "type": "Feature",
   "geometry": {
    "type": "Point",
    "coordinates": [
     140.76663436,
     -37.97132988
    ]
   },
   "properties": {
    "name": "408 SETTLERS ROAD MOUNT SCHANK 5291",
    "locID": "LOC000116297951",
    "tech": "WIRELESS",
    "upgrade": "NULL_NA",
    "gnaf_pid": "GASA_424827650",
    "ee": true,
    "tech_change_status": "Not Planned",
    "program_type": "Fixed Wireless and Satellite Upgrade Program",
    "target_eligibility_quarter": "NA"
   }
  },
  {
   "type": "Feature",
   "geometry": {
    "type": "Point",
    "coordinates": [
     140.71981539,
     -37.91410273
    ]
   },
   "properties": {
    "name": "150 SWAFFERS ROAD MOUNT SCHANK 5291",
    "locID": "LOC000116301177",
    "tech": "WIRELESS",
    "upgrade": "NULL_NA",
    "gnaf_pid": "GASA_424828563",
    "ee": true,
    "tech_change_status": "Not Planned",
    "program_type": "Fixed Wireless and Satellite Upgrade Program",
    "target_eligibility_quarter": "NA"
   }
  },
  {
   "type": "Feature",
   "geometry": {
    "type": "Point",
    "coordinates": [
     140.719178,
     -37.9127669
    ]
   },
   "properties": {
    "name": "167 SWAFFERS ROAD MOUNT SCHANK 5291",
    "locID": "LOC000116290004",
    "tech": "SATELLITE",
    "upgrade": "NULL_NA",
    "gnaf_pid": "GASA_424828564",
    "ee": true,
    "tech_change_status": "Not Planned"
   }
  },
  {
   "type": "Feature",
   "geometry": {
    "type": "Point",
    "coordinates": [
     140.71841816,
     -37.91048415
    ]
   },
   "properties": {
    "name": "193 SWAFFERS ROAD MOUNT SCHANK 5291",
    "locID": "LOC000116285025",
    "tech": "WIRELESS",
    "upgrade": "NULL_NA",
    "gnaf_pid": "GASA_424828565",
    "ee": true,
    "tech_change_status": "Not Planned",
    "program_type": "Fixed Wireless and Satellite Upgrade Program",
    "target_eligibility_quarter": "NA"
   }
  },
  {
   "type": "Feature",
   "geometry": {
    "type": "Point",
    "coordinates": [
     140.71744152,
     -37.90838402
    ]
   },
   "properties": {
    "name": "217 SWAFFERS ROAD MOUNT SCHANK 5291",
    "locID": "LOC000116285428",
    "tech": "WIRELESS",
    "upgrade": "NULL_NA",
    "gnaf_pid": "GASA_424828566",
    "ee": true,
    "tech_change_status": "Not Planned",
    "program_type": "Fixed Wireless and Satellite Upgrade Program",
    "target_eligibility_quarter": "NA"
   }
  },
  {
   "type": "Feature",
   "geometry": {
    "type": "Point",
    "coordinates": [
     140.71736709,
     -37.90743959
    ]
   },
   "properties": {
    "name": "228 SWAFFERS ROAD MOUNT SCHANK 5291",
    "locID": "LOC000116298364",
    "tech": "WIRELESS",
    "upgrade": "NULL_NA",
    "gnaf_pid": "GASA_424828567",
    "ee": true,
    "tech_change_status": "Not Planned",
    "program_type": "Fixed Wireless and Satellite Upgrade Program",
    "target_eligibility_quarter": "NA"
   }
  },
  {
   "type": "Feature",
   "geometry": {
    "type": "Point",
    "coordinates": [
     140.77882564,
     -37.98571536
    ]
   },
   "properties": {
    "name": "83 TELFORDS ROAD MOUNT SCHANK 5291",
    "locID": "LOC000116292903",
    "tech": "WIRELESS",
    "upgrade": "NULL_NA",
    "gnaf_pid": "GASA_424828810",
    "ee": true,
    "tech_change_status": "Not Planned",
    "program_type": "Fixed Wireless and Satellite Upgrade Program",
    "target_eligibility_quarter": "NA"
   }
  },
  {
   "type": "Feature",
   "geometry": {
    "type": "Point",
    "coordinates": [
     140.74184732,
     -37.93797792
    ]
   },
   "properties": {
    "name": "116 TREVOR CLARKE DRIVE MOUNT SCHANK 5291",
    "locID": "LOC000116281317",
    "tech": "WIRELESS",
    "upgrade": "NULL_NA",
    "gnaf_pid": "GASA_424829095",
    "ee": true,
    "tech_change_status": "Not Planned",
    "program_type": "Fixed Wireless and Satellite Upgrade Program",
    "target_eligibility_quarter": "NA"
   }
  },
  {
   "type": "Feature",
   "geometry": {
    "type": "Point",
    "coordinates": [
     140.74186297,
     -37.94306125
    ]
   },
   "properties": {
    "name": "172 TREVOR CLARKE DRIVE MOUNT SCHANK 5291",
    "locID": "LOC000116291173",
    "tech": "WIRELESS",
    "upgrade": "NULL_NA",
    "gnaf_pid": "GASA_424829096",
    "ee": true,
    "tech_change_status": "Not Planned",
    "program_type": "Fixed Wireless and Satellite Upgrade Program",
    "target_eligibility_quarter": "NA"
   }
  },
  {
   "type": "Feature",
   "geometry": {
    "type": "Point",
    "coordinates": [
     140.74195039,
     -37.94477683
    ]
   },
   "properties": {
    "name": "190 TREVOR CLARKE DRIVE MOUNT SCHANK 5291",
    "locID": "LOC000116301453",
    "tech": "WIRELESS",
    "upgrade": "NULL_NA",
    "gnaf_pid": "GASA_424829097",
    "ee": true,
    "tech_change_status": "Not Planned",
    "program_type": "Fixed Wireless and Satellite Upgrade Program",
    "target_eligibility_quarter": "NA"
   }
  },
  {
   "type": "Feature",
   "geometry": {
    "type": "Point",
    "coordinates": [
     140.73263942,
     -37.9356009
    ]
   },
   "properties": {
    "name": "2 TREVOR CLARKE DRIVE MOUNT SCHANK 5291",
    "locID": "LOC000116286283",
    "tech": "WIRELESS",
    "upgrade": "NULL_NA",
    "gnaf_pid": "GASA_424829098",
    "ee": true,
    "tech_change_status": "Not Planned",
    "program_type": "Fixed Wireless and Satellite Upgrade Program",
    "target_eligibility_quarter": "NA"
   }
  },
  {
   "type": "Feature",
   "geometry": {
    "type": "Point",
    "coordinates": [
     140.73569173,
     -37.9352331
    ]
   },
   "properties": {
    "name": "30 TREVOR CLARKE DRIVE MOUNT SCHANK 5291",
    "locID": "LOC000116287196",
    "tech": "WIRELESS",
    "upgrade": "NULL_NA",
    "gnaf_pid": "GASA_424829099",
    "ee": true,
    "tech_change_status": "Not Planned",
    "program_type": "Fixed Wireless and Satellite Upgrade Program",
    "target_eligibility_quarter": "NA"
   }
  },
  {
   "type": "Feature",
   "geometry": {
    "type": "Point",
    "coordinates": [
     140.74110787,
     -37.93517038
    ]
   },
   "properties": {
    "name": "78 TREVOR CLARKE DRIVE MOUNT SCHANK 5291",
    "locID": "LOC000116302969",
    "tech": "WIRELESS",
    "upgrade": "NULL_NA",
    "gnaf_pid": "GASA_424829100",
    "ee": true,
    "tech_change_status": "Not Planned",
    "program_type": "Fixed Wireless and Satellite Upgrade Program",
    "target_eligibility_quarter": "NA"
   }
  },
  {
   "type": "Feature",
   "geometry": {
    "type": "Point",
    "coordinates": [
     140.79088989,
     -37.91193082
    ]
   },
   "properties": {
    "name": "28 WHITES FLAT ROAD MOUNT SCHANK 5291",
    "locID": "LOC000116302396",
    "tech": "WIRELESS",
    "upgrade": "NULL_NA",
    "gnaf_pid": "GASA_424829798",
    "ee": true,
    "tech_change_status": "Not Planned",
    "program_type": "Fixed Wireless and Satellite Upgrade Program",
    "target_eligibility_quarter": "NA"
   }
  },
  {
   "type": "Feature",
   "geometry": {
    "type": "Point",
    "coordinates": [
     140.62532747,
     -37.94015298
    ]
   },
   "properties": {
    "name": "127 WRIGHTS ROAD MOUNT SCHANK 5291",
    "locID": "LOC000116270096",
    "tech": "WIRELESS",
    "upgrade": "NULL_NA",
    "gnaf_pid": "GASA_424830133",
    "ee": true,
    "tech_change_status": "Not Planned",
    "program_type": "Fixed Wireless and Satellite Upgrade Program",
    "target_eligibility_quarter": "NA"
   }
  },
  {
   "type": "Feature",
   "geometry": {
    "type": "Point",
    "coordinates": [
     140.62488884,
     -37.94258913
    ]
   },
   "properties": {
    "name": "156 WRIGHTS ROAD MOUNT SCHANK 5291",
    "locID": "LOC000116284775",
    "tech": "WIRELESS",
    "upgrade": "NULL_NA",
    "gnaf_pid": "GASA_424830134",
    "ee": true,
    "tech_change_status": "Not Planned",
    "program_type": "Fixed Wireless and Satellite Upgrade Program",
    "target_eligibility_quarter": "NA"
   }
  },
  {
   "type": "Feature",
   "geometry": {
    "type": "Point",
    "coordinates": [
     140.62551009,
     -37.93508379
    ]
   },
   "properties": {
    "name": "71 WRIGHTS ROAD MOUNT SCHANK 5291",
    "locID": "LOC000116293722",
    "tech": "WIRELESS",
    "upgrade": "NULL_NA",
    "gnaf_pid": "GASA_424830135",
    "ee": true,
    "tech_change_status": "Not Planned",
    "program_type": "Fixed Wireless and Satellite Upgrade Program",
    "target_eligibility_quarter": "NA"
   }
  },
  {
   "type": "Feature",
   "geometry": {
    "type": "Point",
    "coordinates": [
     140.67381016,
     -37.89904119
    ]
   },
   "properties": {
    "name": "1 SISTERS ROAD MOUNT SCHANK 5291",
    "locID": "LOC000114625024",
    "tech": "WIRELESS",
    "upgrade": "NULL_NA",
    "gnaf_pid": "GASA_424925688",
    "ee": true,
    "tech_change_status": "Not Planned",
    "program_type": "Fixed Wireless and Satellite Upgrade Program",
    "target_eligibility_quarter": "NA"
   }
  },
  {
   "type": "Feature",
   "geometry": {
    "type": "Point",
    "coordinates": [
     140.62667222,
     -37.92840921
    ]
   },
   "properties": {
    "name": "5 DIGGERS LANE MOUNT SCHANK 5291",
    "locID": "LOC000131114319",
    "tech": "WIRELESS",
    "upgrade": "NULL_NA",
    "gnaf_pid": "GASA_425062782",
    "ee": true,
    "tech_change_status": "Not Planned",
    "program_type": "Fixed Wireless and Satellite Upgrade Program",
    "target_eligibility_quarter": "NA"
   }
  },
  {
   "type": "Feature",
   "geometry": {
    "type": "Point",
    "coordinates": [
     140.76940361,
     -37.91134483
    ]
   },
   "properties": {
    "name": "2 RABBITERS ROAD MOUNT SCHANK 5291",
    "locID": "LOC100079393305",
    "tech": "WIRELESS",
    "upgrade": "NULL_NA",
    "gnaf_pid": "GASA_425192441",
    "ee": true,
    "tech_change_status": "Not Planned",
    "program_type": "Fixed Wireless and Satellite Upgrade Program",
    "target_eligibility_quarter": "NA"
   }
  },
  {
   "type": "Feature",
   "geometry": {
    "type": "Point",
    "coordinates": [
     140.68280964,
     -37.94495273
    ]
   },
   "properties": {
    "name": "513 STOCK ROUTE ROAD MOUNT SCHANK 5291",
    "locID": "LOC000116296955",
    "tech": "WIRELESS",
    "upgrade": "NULL_NA",
    "gnaf_pid": "GASA_425452424",
    "ee": true,
    "tech_change_status": "Not Planned",
    "program_type": "Fixed Wireless and Satellite Upgrade Program",
    "target_eligibility_quarter": "NA"
   }
  },
  {
   "type": "Feature",
   "geometry": {
    "type": "Point",
    "coordinates": [
     140.68271243,
     -37.94498503
    ]
   },
   "properties": {
    "name": "514 STOCK ROUTE ROAD MOUNT SCHANK 5291",
    "locID": "LOC000116296964",
    "tech": "WIRELESS",
    "upgrade": "NULL_NA",
    "gnaf_pid": "GASA_425452425",
    "ee": true,
    "tech_change_status": "Not Planned",
    "program_type": "Fixed Wireless and Satellite Upgrade Program",
    "target_eligibility_quarter": "NA"
   }
  },
  {
   "type": "Feature",
   "geometry": {
    "type": "Point",
    "coordinates": [
     140.68286048,
     -37.95549147
    ]
   },
   "properties": {
    "name": "632 STOCK ROUTE ROAD MOUNT SCHANK 5291",
    "locID": "LOC000116303700",
    "tech": "WIRELESS",
    "upgrade": "NULL_NA",
    "gnaf_pid": "GASA_425452426",
    "ee": true,
    "tech_change_status": "Not Planned",
    "program_type": "Fixed Wireless and Satellite Upgrade Program",
    "target_eligibility_quarter": "NA"
   }
  },
  {
   "type": "Feature",
   "geometry": {
    "type": "Point",
    "coordinates": [
     140.68301331,
     -37.9584299
    ]
   },
   "properties": {
    "name": "663 STOCK ROUTE ROAD MOUNT SCHANK 5291",
    "locID": "LOC000116287359",
    "tech": "WIRELESS",
    "upgrade": "NULL_NA",
    "gnaf_pid": "GASA_425452427",
    "ee": true,
    "tech_change_status": "Not Planned",
    "program_type": "Fixed Wireless and Satellite Upgrade Program",
    "target_eligibility_quarter": "NA"
   }
  },
  {
   "type": "Feature",
   "geometry": {
    "type": "Point",
    "coordinates": [
     140.68291872,
     -37.96026178
    ]
   },
   "properties": {
    "name": "684 STOCK ROUTE ROAD MOUNT SCHANK 5291",
    "locID": "LOC000131083939",
    "tech": "WIRELESS",
    "upgrade": "NULL_NA",
    "gnaf_pid": "GASA_425452428",
    "ee": true,
    "tech_change_status": "Not Planned",
    "program_type": "Fixed Wireless and Satellite Upgrade Program",
    "target_eligibility_quarter": "NA"
   }
  },
  {
   "type": "Feature",
   "geometry": {
    "type": "Point",
    "coordinates": [
     140.6830423,
     -37.96886903
    ]
   },
   "properties": {
    "name": "780 STOCK ROUTE ROAD MOUNT SCHANK 5291",
    "locID": "LOC000116303989",
    "tech": "WIRELESS",
    "upgrade": "NULL_NA",
    "gnaf_pid": "GASA_425452429",
    "ee": true,
    "tech_change_status": "Not Planned",
    "program_type": "Fixed Wireless and Satellite Upgrade Program",
    "target_eligibility_quarter": "NA"
   }
  },
  {
   "type": "Feature",
   "geometry": {
    "type": "Point",
    "coordinates": [
     140.68336852,
     -37.98271697
    ]
   },
   "properties": {
    "name": "933 STOCK ROUTE ROAD MOUNT SCHANK 5291",
    "locID": "LOC000116303264",
    "tech": "WIRELESS",
    "upgrade": "NULL_NA",
    "gnaf_pid": "GASA_425452432",
    "ee": true,
    "tech_change_status": "Not Planned",
    "program_type": "Fixed Wireless and Satellite Upgrade Program",
    "target_eligibility_quarter": "NA"
   }
  },
  {
   "type": "Feature",
   "geometry": {
    "type": "Point",
    "coordinates": [
     140.68333715,
     -37.98606741
    ]
   },
   "properties": {
    "name": "970 STOCK ROUTE ROAD MOUNT SCHANK 5291",
    "locID": "LOC000116304416",
    "tech": "WIRELESS",
    "upgrade": "NULL_NA",
    "gnaf_pid": "GASA_425452433",
    "ee": true,
    "tech_change_status": "Not Planned",
    "program_type": "Fixed Wireless and Satellite Upgrade Program",
    "target_eligibility_quarter": "NA"
   }
  },
  {
   "type": "Feature",
   "geometry": {
    "type": "Point",
    "coordinates": [
     140.67777832,
     -37.93552471
    ]
   },
   "properties": {
    "name": "LOT 5 STOCK ROUTE ROAD MOUNT SCHANK 5291",
    "locID": "LOC000143523803",
    "tech": "WIRELESS",
    "upgrade": "NULL_NA",
    "gnaf_pid": "GASA_425452436",
    "ee": true,
    "tech_change_status": "Not Planned",
    "program_type": "Fixed Wireless and Satellite Upgrade Program",
    "target_eligibility_quarter": "NA"
   }
  },
  {
   "type": "Feature",
   "geometry": {
    "type": "Point",
    "coordinates": [
     140.66408019,
     -37.94485801
    ]
   },
   "properties": {
    "name": "184 DOMANS ROAD MOUNT SCHANK 5291",
    "locID": "LOC100072041961",
    "tech": "WIRELESS",
    "upgrade": "NULL_NA",
    "gnaf_pid": "GASA_425720262",
    "ee": true,
    "tech_change_status": "Not Planned",
    "program_type": "Fixed Wireless and Satellite Upgrade Program",
    "target_eligibility_quarter": "NA"
   }
  },
  {
   "type": "Feature",
   "geometry": {
    "type": "Point",
    "coordinates": [
     140.61781749,
     -37.93344201
    ]
   },
   "properties": {
    "name": "LOT 732 WRIGHTS ROAD MOUNT SCHANK 5291",
    "locID": "LOC000116293722",
    "tech": "WIRELESS",
    "upgrade": "NULL_NA",
    "gnaf_pid": "GASA_425726042",
    "ee": true,
    "tech_change_status": "Not Planned",
    "program_type": "Fixed Wireless and Satellite Upgrade Program",
    "target_eligibility_quarter": "NA"
   }
  },
  {
   "type": "Feature",
   "geometry": {
    "type": "Point",
    "coordinates": [
     140.6428147,
     -37.9677386
    ]
   },
   "properties": {
    "name": "258 ALDRIDGE ROAD MOUNT SCHANK 5291",
    "locID": "LOC100073149951",
    "tech": "WIRELESS",
    "upgrade": "NULL_NA",
    "gnaf_pid": "GASA_719253098",
    "ee": true,
    "tech_change_status": "Not Planned",
    "program_type": "Fixed Wireless and Satellite Upgrade Program",
    "target_eligibility_quarter": "NA"
   }
  },
  {
   "type": "Feature",
   "geometry": {
    "type": "Point",
    "coordinates": [
     140.72988683,
     -37.94111527
    ]
   },
   "properties": {
    "name": "LOT 4 MOUNTAIN PATH ROAD MOUNT SCHANK 5291",
    "locID": "LOC000116296794",
    "tech": "WIRELESS",
    "upgrade": "NULL_NA",
    "gnaf_pid": "GASA_719396558",
    "ee": true,
    "tech_change_status": "Not Planned",
    "program_type": "Fixed Wireless and Satellite Upgrade Program",
    "target_eligibility_quarter": "NA"
   }
  },
  {
   "type": "Feature",
   "geometry": {
    "type": "Point",
    "coordinates": [
     140.73279521,
     -37.94307792
    ]
   },
   "properties": {
    "name": "LOT 1 MOUNTAIN PATH ROAD MOUNT SCHANK 5291",
    "locID": "LOC100078913253",
    "tech": "WIRELESS",
    "upgrade": "NULL_NA",
    "gnaf_pid": "GASA_719451312",
    "ee": true,
    "tech_change_status": "Not Planned",
    "program_type": "Fixed Wireless and Satellite Upgrade Program",
    "target_eligibility_quarter": "NA"
   }
  },
  {
   "type": "Feature",
   "geometry": {
    "type": "Point",
    "coordinates": [
     140.738394,
     -37.947985
    ]
   },
   "properties": {
    "name": "177 POST OFFICE ROAD MOUNT SCHANK 5291",
    "locID": "LOC000131098569",
    "tech": "WIRELESS",
    "upgrade": "NULL_NA",
    "gnaf_pid": "GASA_720237923",
    "ee": true,
    "tech_change_status": "Not Planned",
    "program_type": "Fixed Wireless and Satellite Upgrade Program",
    "target_eligibility_quarter": "NA"
   }
  },
  {
   "type": "Feature",
   "geometry": {
    "type": "Point",
    "coordinates": [
     140.70568,
     -37.942606
    ]
   },
   "properties": {
    "name": "125 MCLEANS ROAD MOUNT SCHANK 5291",
    "locID": "LOC100083385253",
    "tech": "WIRELESS",
    "upgrade": "NULL_NA",
    "gnaf_pid": "GASA_721252154",
    "ee": true,
    "tech_change_status": "Not Planned",
    "program_type": "Fixed Wireless and Satellite Upgrade Program",
    "target_eligibility_quarter": "NA"
   }
  },
  {
   "type": "Feature",
   "geometry": {
    "type": "Point",
    "coordinates": [
     140.729755,
     -37.9403
    ]
   },
   "properties": {
    "name": "70 MOUNTAIN PATH ROAD MOUNT SCHANK 5291",
    "locID": "LOC100078913253",
    "tech": "WIRELESS",
    "upgrade": "NULL_NA",
    "gnaf_pid": "GASA_721277587",
    "ee": true,
    "tech_change_status": "Not Planned",
    "program_type": "Fixed Wireless and Satellite Upgrade Program",
    "target_eligibility_quarter": "NA"
   }
  }
 ]
}