{
 "type": "FeatureCollection",
 "generated": "2025-06-15T19:58:35.443228",
 "suburb": "MOUNT EBA",
 "features": [
  {
   "type": "Feature",
   "geometry": {
    "type": "Point",
    "coordinates": [
     135.66697867,
     -30.18061474
    ]
   },
   "properties": {
    "name": "20031 BILLA KALINA ROAD MOUNT EBA 5720",
    "locID": "LOC000148245715",
    "tech": "NULL",
    "upgrade": "NULL_NA",
    "gnaf_pid": "GASA_425628471",
    "ee": false,
    "tech_change_status": "Not Planned"
   }
  },
  {
   "type": "Feature",
   "geometry": {
    "type": "Point",
    "coordinates": [
     135.26818705,
     -30.251031
    ]
   },
   "properties": {
    "name": "LOT 1 STUART HIGHWAY MOUNT EBA 5720",
    "locID": "LOC000119002107",
    "tech": "SATELLITE",
    "upgrade": "NULL_NA",
    "gnaf_pid": "GASA_425725029",
    "ee": false,
    "tech_change_status": "Not Planned"
   }
  }
 ]
}