{
 "type": "FeatureCollection",
 "generated": "2025-06-15T20:00:37.144219",
 "suburb": "MOUNT JOY",
 "features": [
  {
   "type": "Feature",
   "geometry": {
    "type": "Point",
    "coordinates": [
     135.11194648,
     -33.48612838
    ]
   },
   "properties": {
    "name": "2012 ROCKY VALLEY ROAD MOUNT JOY 5670",
    "locID": "LOC000131728483",
    "tech": "NULL",
    "upgrade": "NULL_NA",
    "gnaf_pid": "GASA_424925555",
    "ee": false,
    "tech_change_status": "Not Planned"
   }
  }
 ]
}