{
 "type": "FeatureCollection",
 "generated": "2025-06-15T20:03:33.735088",
 "suburb": "MOUNT MCINTYRE",
 "features": [
  {
   "type": "Feature",
   "geometry": {
    "type": "Point",
    "coordinates": [
     140.54346909,
     -37.56483778
    ]
   },
   "properties": {
    "name": "272 CRUSHER ROAD MOUNT MCINTYRE 5279",
    "locID": "LOC000131232500",
    "tech": "WIRELESS",
    "upgrade": "NULL_NA",
    "gnaf_pid": "GASA_424955857",
    "ee": true,
    "tech_change_status": "Not Planned",
    "program_type": "Fixed Wireless and Satellite Upgrade Program",
    "target_eligibility_quarter": "NA"
   }
  },
  {
   "type": "Feature",
   "geometry": {
    "type": "Point",
    "coordinates": [
     140.54082829,
     -37.5423217
    ]
   },
   "properties": {
    "name": "1 MCCOURTS ROAD MOUNT MCINTYRE 5279",
    "locID": "LOC000131197777",
    "tech": "SATELLITE",
    "upgrade": "NULL_NA",
    "gnaf_pid": "GASA_424958592",
    "ee": true,
    "tech_change_status": "Not Planned"
   }
  },
  {
   "type": "Feature",
   "geometry": {
    "type": "Point",
    "coordinates": [
     140.51580447,
     -37.52052341
    ]
   },
   "properties": {
    "name": "1688 MOUNT BURR ROAD MOUNT MCINTYRE 5279",
    "locID": "LOC000131258402",
    "tech": "NULL",
    "upgrade": "NULL_NA",
    "gnaf_pid": "GASA_424958891",
    "ee": true,
    "tech_change_status": "Not Planned"
   }
  },
  {
   "type": "Feature",
   "geometry": {
    "type": "Point",
    "coordinates": [
     140.51748193,
     -37.53786009
    ]
   },
   "properties": {
    "name": "171 MOUNT MCINTYRE ROAD MOUNT MCINTYRE 5279",
    "locID": "LOC000131258635",
    "tech": "NULL",
    "upgrade": "NULL_NA",
    "gnaf_pid": "GASA_424958990",
    "ee": true,
    "tech_change_status": "Not Planned"
   }
  },
  {
   "type": "Feature",
   "geometry": {
    "type": "Point",
    "coordinates": [
     140.52516005,
     -37.53983679
    ]
   },
   "properties": {
    "name": "241 MOUNT MCINTYRE ROAD MOUNT MCINTYRE 5279",
    "locID": "LOC000131223979",
    "tech": "SATELLITE",
    "upgrade": "NULL_NA",
    "gnaf_pid": "GASA_424958991",
    "ee": true,
    "tech_change_status": "Not Planned"
   }
  },
  {
   "type": "Feature",
   "geometry": {
    "type": "Point",
    "coordinates": [
     140.52569229,
     -37.54006702
    ]
   },
   "properties": {
    "name": "248 MOUNT MCINTYRE ROAD MOUNT MCINTYRE 5279",
    "locID": "LOC000131224053",
    "tech": "NULL",
    "upgrade": "NULL_NA",
    "gnaf_pid": "GASA_424958992",
    "ee": true,
    "tech_change_status": "Not Planned"
   }
  },
  {
   "type": "Feature",
   "geometry": {
    "type": "Point",
    "coordinates": [
     140.53016728,
     -37.54098272
    ]
   },
   "properties": {
    "name": "287 MOUNT MCINTYRE ROAD MOUNT MCINTYRE 5279",
    "locID": "LOC000131236853",
    "tech": "NULL",
    "upgrade": "NULL_NA",
    "gnaf_pid": "GASA_424958993",
    "ee": true,
    "tech_change_status": "Not Planned"
   }
  },
  {
   "type": "Feature",
   "geometry": {
    "type": "Point",
    "coordinates": [
     140.50239982,
     -37.53409207
    ]
   },
   "properties": {
    "name": "31 MOUNT MCINTYRE ROAD MOUNT MCINTYRE 5279",
    "locID": "LOC000131245461",
    "tech": "SATELLITE",
    "upgrade": "NULL_NA",
    "gnaf_pid": "GASA_424958994",
    "ee": true,
    "tech_change_status": "Not Planned"
   }
  },
  {
   "type": "Feature",
   "geometry": {
    "type": "Point",
    "coordinates": [
     140.53492709,
     -37.54173723
    ]
   },
   "properties": {
    "name": "330 MOUNT MCINTYRE ROAD MOUNT MCINTYRE 5279",
    "locID": "LOC000131249973",
    "tech": "NULL",
    "upgrade": "NULL_NA",
    "gnaf_pid": "GASA_424958995",
    "ee": true,
    "tech_change_status": "Not Planned"
   }
  },
  {
   "type": "Feature",
   "geometry": {
    "type": "Point",
    "coordinates": [
     140.54084484,
     -37.54252849
    ]
   },
   "properties": {
    "name": "384 MOUNT MCINTYRE ROAD MOUNT MCINTYRE 5279",
    "locID": "LOC000131258833",
    "tech": "NULL",
    "upgrade": "NULL_NA",
    "gnaf_pid": "GASA_424958996",
    "ee": true,
    "tech_change_status": "Not Planned"
   }
  },
  {
   "type": "Feature",
   "geometry": {
    "type": "Point",
    "coordinates": [
     140.54337325,
     -37.54277743
    ]
   },
   "properties": {
    "name": "407 MOUNT MCINTYRE ROAD MOUNT MCINTYRE 5279",
    "locID": "LOC000131262955",
    "tech": "NULL",
    "upgrade": "NULL_NA",
    "gnaf_pid": "GASA_424958997",
    "ee": true,
    "tech_change_status": "Not Planned"
   }
  },
  {
   "type": "Feature",
   "geometry": {
    "type": "Point",
    "coordinates": [
     140.55202021,
     -37.54318365
    ]
   },
   "properties": {
    "name": "483 MOUNT MCINTYRE ROAD MOUNT MCINTYRE 5279",
    "locID": "LOC000131207064",
    "tech": "SATELLITE",
    "upgrade": "NULL_NA",
    "gnaf_pid": "GASA_424958999",
    "ee": true,
    "tech_change_status": "Not Planned"
   }
  },
  {
   "type": "Feature",
   "geometry": {
    "type": "Point",
    "coordinates": [
     140.58762622,
     -37.55061134
    ]
   },
   "properties": {
    "name": "818 MOUNT MCINTYRE ROAD MOUNT MCINTYRE 5279",
    "locID": "LOC000179310247",
    "tech": "SATELLITE",
    "upgrade": "NULL_NA",
    "gnaf_pid": "GASA_424959000",
    "ee": true,
    "tech_change_status": "Not Planned"
   }
  },
  {
   "type": "Feature",
   "geometry": {
    "type": "Point",
    "coordinates": [
     140.59805243,
     -37.55323815
    ]
   },
   "properties": {
    "name": "916 MOUNT MCINTYRE ROAD MOUNT MCINTYRE 5279",
    "locID": "LOC000131259069",
    "tech": "SATELLITE",
    "upgrade": "NULL_NA",
    "gnaf_pid": "GASA_424959001",
    "ee": true,
    "tech_change_status": "Not Planned"
   }
  },
  {
   "type": "Feature",
   "geometry": {
    "type": "Point",
    "coordinates": [
     140.50920953,
     -37.53580676
    ]
   },
   "properties": {
    "name": "93 MOUNT MCINTYRE ROAD MOUNT MCINTYRE 5279",
    "locID": "LOC000131259146",
    "tech": "SATELLITE",
    "upgrade": "NULL_NA",
    "gnaf_pid": "GASA_424959002",
    "ee": true,
    "tech_change_status": "Not Planned"
   }
  },
  {
   "type": "Feature",
   "geometry": {
    "type": "Point",
    "coordinates": [
     140.53012826,
     -37.52023921
    ]
   },
   "properties": {
    "name": "612 REEDY CREEK ROAD MOUNT MCINTYRE 5279",
    "locID": "LOC000131224432",
    "tech": "NULL",
    "upgrade": "NULL_NA",
    "gnaf_pid": "GASA_424960340",
    "ee": true,
    "tech_change_status": "Not Planned"
   }
  },
  {
   "type": "Feature",
   "geometry": {
    "type": "Point",
    "coordinates": [
     140.55799734,
     -37.57657781
    ]
   },
   "properties": {
    "name": "137 SPORERS LANE MOUNT MCINTYRE 5279",
    "locID": "LOC000131240836",
    "tech": "SATELLITE",
    "upgrade": "NULL_NA",
    "gnaf_pid": "GASA_424961151",
    "ee": true,
    "tech_change_status": "Not Planned"
   }
  },
  {
   "type": "Feature",
   "geometry": {
    "type": "Point",
    "coordinates": [
     140.60931564,
     -37.56267
    ]
   },
   "properties": {
    "name": "126 SUNNYMEADE ROAD MOUNT MCINTYRE 5279",
    "locID": "LOC000131232309",
    "tech": "WIRELESS",
    "upgrade": "NULL_NA",
    "gnaf_pid": "GASA_424961315",
    "ee": true,
    "tech_change_status": "Not Planned",
    "program_type": "Fixed Wireless and Satellite Upgrade Program",
    "target_eligibility_quarter": "NA"
   }
  },
  {
   "type": "Feature",
   "geometry": {
    "type": "Point",
    "coordinates": [
     140.58881678,
     -37.59022268
    ]
   },
   "properties": {
    "name": "506 SUNNYMEADE ROAD MOUNT MCINTYRE 5279",
    "locID": "LOC000131211244",
    "tech": "WIRELESS",
    "upgrade": "NULL_NA",
    "gnaf_pid": "GASA_424961316",
    "ee": true,
    "tech_change_status": "Not Planned",
    "program_type": "Fixed Wireless and Satellite Upgrade Program",
    "target_eligibility_quarter": "NA"
   }
  },
  {
   "type": "Feature",
   "geometry": {
    "type": "Point",
    "coordinates": [
     140.51768062,
     -37.52537485
    ]
   },
   "properties": {
    "name": "LOT 200 MOUNT BURR ROAD MOUNT MCINTYRE 5279",
    "locID": "LOC000185209826",
    "tech": "NULL",
    "upgrade": "NULL_NA",
    "gnaf_pid": "GASA_425109889",
    "ee": true,
    "tech_change_status": "Not Planned"
   }
  },
  {
   "type": "Feature",
   "geometry": {
    "type": "Point",
    "coordinates": [
     140.5110125,
     -37.55893987
    ]
   },
   "properties": {
    "name": "LOT 116 OVERLAND TRACK MOUNT MCINTYRE 5279",
    "locID": "LOC000131087007",
    "tech": "WIRELESS",
    "upgrade": "NULL_NA",
    "gnaf_pid": "GASA_425110468",
    "ee": true,
    "tech_change_status": "Not Planned",
    "program_type": "Fixed Wireless and Satellite Upgrade Program",
    "target_eligibility_quarter": "NA"
   }
  },
  {
   "type": "Feature",
   "geometry": {
    "type": "Point",
    "coordinates": [
     140.53435845,
     -37.54156193
    ]
   },
   "properties": {
    "name": "325 MOUNT MCINTYRE ROAD MOUNT MCINTYRE 5279",
    "locID": "LOC000154760735",
    "tech": "SATELLITE",
    "upgrade": "NULL_NA",
    "gnaf_pid": "GASA_425191182",
    "ee": true,
    "tech_change_status": "Not Planned"
   }
  },
  {
   "type": "Feature",
   "geometry": {
    "type": "Point",
    "coordinates": [
     140.48919554,
     -37.54415745
    ]
   },
   "properties": {
    "name": "LOT 129 MOUNT BURR ROAD MOUNT MCINTYRE 5279",
    "locID": "LOC000185209826",
    "tech": "NULL",
    "upgrade": "NULL_NA",
    "gnaf_pid": "GASA_425355716",
    "ee": true,
    "tech_change_status": "Not Planned"
   }
  },
  {
   "type": "Feature",
   "geometry": {
    "type": "Point",
    "coordinates": [
     140.50025708,
     -37.55452693
    ]
   },
   "properties": {
    "name": "LOT 128 OVERLAND TRACK MOUNT MCINTYRE 5279",
    "locID": "LOC000131087007",
    "tech": "WIRELESS",
    "upgrade": "NULL_NA",
    "gnaf_pid": "GASA_425355987",
    "ee": true,
    "tech_change_status": "Not Planned",
    "program_type": "Fixed Wireless and Satellite Upgrade Program",
    "target_eligibility_quarter": "NA"
   }
  },
  {
   "type": "Feature",
   "geometry": {
    "type": "Point",
    "coordinates": [
     140.52581055,
     -37.5726516
    ]
   },
   "properties": {
    "name": "LOT 132 OVERLAND TRACK MOUNT MCINTYRE 5279",
    "locID": "LOC000131087007",
    "tech": "WIRELESS",
    "upgrade": "NULL_NA",
    "gnaf_pid": "GASA_425355989",
    "ee": true,
    "tech_change_status": "Not Planned",
    "program_type": "Fixed Wireless and Satellite Upgrade Program",
    "target_eligibility_quarter": "NA"
   }
  },
  {
   "type": "Feature",
   "geometry": {
    "type": "Point",
    "coordinates": [
     140.5153165,
     -37.59239752
    ]
   },
   "properties": {
    "name": "LOT 136 OVERLAND TRACK MOUNT MCINTYRE 5279",
    "locID": "LOC000131087007",
    "tech": "WIRELESS",
    "upgrade": "NULL_NA",
    "gnaf_pid": "GASA_425355991",
    "ee": true,
    "tech_change_status": "Not Planned",
    "program_type": "Fixed Wireless and Satellite Upgrade Program",
    "target_eligibility_quarter": "NA"
   }
  },
  {
   "type": "Feature",
   "geometry": {
    "type": "Point",
    "coordinates": [
     140.52194912,
     -37.55278141
    ]
   },
   "properties": {
    "name": "LOT 1 OVERLAND TRACK MOUNT MCINTYRE 5279",
    "locID": "LOC000131087007",
    "tech": "WIRELESS",
    "upgrade": "NULL_NA",
    "gnaf_pid": "GASA_425393399",
    "ee": true,
    "tech_change_status": "Not Planned",
    "program_type": "Fixed Wireless and Satellite Upgrade Program",
    "target_eligibility_quarter": "NA"
   }
  },
  {
   "type": "Feature",
   "geometry": {
    "type": "Point",
    "coordinates": [
     140.50742544,
     -37.53500378
    ]
   },
   "properties": {
    "name": "LOT 1 MOUNT MCINTYRE ROAD MOUNT MCINTYRE 5279",
    "locID": "LOC100072033840",
    "tech": "NULL",
    "upgrade": "NULL_NA",
    "gnaf_pid": "GASA_425712784",
    "ee": true,
    "tech_change_status": "Not Planned"
   }
  },
  {
   "type": "Feature",
   "geometry": {
    "type": "Point",
    "coordinates": [
     140.60416831,
     -37.50477566
    ]
   },
   "properties": {
    "name": "640 GRANEYS LANE MOUNT MCINTYRE 5279",
    "locID": "LOC100087422444",
    "tech": "WIRELESS",
    "upgrade": "NULL_NA",
    "gnaf_pid": "GASA_425845628",
    "ee": true,
    "tech_change_status": "Not Planned",
    "program_type": "Fixed Wireless and Satellite Upgrade Program",
    "target_eligibility_quarter": "NA"
   }
  },
  {
   "type": "Feature",
   "geometry": {
    "type": "Point",
    "coordinates": [
     140.55168159,
     -37.50897769
    ]
   },
   "properties": {
    "name": "LOT 42 GRANEYS LANE MOUNT MCINTYRE 5279",
    "locID": "LOC100072032947",
    "tech": "WIRELESS",
    "upgrade": "NULL_NA",
    "gnaf_pid": "GASA_425845633",
    "ee": true,
    "tech_change_status": "Not Planned",
    "program_type": "Fixed Wireless and Satellite Upgrade Program",
    "target_eligibility_quarter": "NA"
   }
  },
  {
   "type": "Feature",
   "geometry": {
    "type": "Point",
    "coordinates": [
     140.58735357,
     -37.54891525
    ]
   },
   "properties": {
    "name": "17 HENNESEY LANE MOUNT MCINTYRE 5279",
    "locID": "LOC100072035564",
    "tech": "WIRELESS",
    "upgrade": "NULL_NA",
    "gnaf_pid": "GASA_425845870",
    "ee": true,
    "tech_change_status": "Not Planned",
    "program_type": "Fixed Wireless and Satellite Upgrade Program",
    "target_eligibility_quarter": "NA"
   }
  },
  {
   "type": "Feature",
   "geometry": {
    "type": "Point",
    "coordinates": [
     140.58942512,
     -37.54512129
    ]
   },
   "properties": {
    "name": "67 HENNESEY LANE MOUNT MCINTYRE 5279",
    "locID": "LOC000131228901",
    "tech": "WIRELESS",
    "upgrade": "NULL_NA",
    "gnaf_pid": "GASA_425845871",
    "ee": true,
    "tech_change_status": "Not Planned",
    "program_type": "Fixed Wireless and Satellite Upgrade Program",
    "target_eligibility_quarter": "NA"
   }
  },
  {
   "type": "Feature",
   "geometry": {
    "type": "Point",
    "coordinates": [
     140.60976526,
     -37.52561137
    ]
   },
   "properties": {
    "name": "1860 MANGA ROAD MOUNT MCINTYRE 5279",
    "locID": "LOC100072033341",
    "tech": "WIRELESS",
    "upgrade": "NULL_NA",
    "gnaf_pid": "GASA_425846860",
    "ee": true,
    "tech_change_status": "Not Planned",
    "program_type": "Fixed Wireless and Satellite Upgrade Program",
    "target_eligibility_quarter": "NA"
   }
  },
  {
   "type": "Feature",
   "geometry": {
    "type": "Point",
    "coordinates": [
     140.58440811,
     -37.58281641
    ]
   },
   "properties": {
    "name": "LOT 182 MANGA ROAD MOUNT MCINTYRE 5279",
    "locID": "LOC000150252853",
    "tech": "SATELLITE",
    "upgrade": "NULL_NA",
    "gnaf_pid": "GASA_425846862",
    "ee": true,
    "tech_change_status": "Not Planned"
   }
  },
  {
   "type": "Feature",
   "geometry": {
    "type": "Point",
    "coordinates": [
     140.606782,
     -37.54129901
    ]
   },
   "properties": {
    "name": "LOT 1 MANGA ROAD MOUNT MCINTYRE 5279",
    "locID": "LOC000150252853",
    "tech": "SATELLITE",
    "upgrade": "NULL_NA",
    "gnaf_pid": "GASA_425846863",
    "ee": true,
    "tech_change_status": "Not Planned"
   }
  },
  {
   "type": "Feature",
   "geometry": {
    "type": "Point",
    "coordinates": [
     140.60764475,
     -37.47905372
    ]
   },
   "properties": {
    "name": "LOT 256 MANGA ROAD MOUNT MCINTYRE 5279",
    "locID": "LOC100072033341",
    "tech": "WIRELESS",
    "upgrade": "NULL_NA",
    "gnaf_pid": "GASA_425846864",
    "ee": true,
    "tech_change_status": "Not Planned",
    "program_type": "Fixed Wireless and Satellite Upgrade Program",
    "target_eligibility_quarter": "NA"
   }
  },
  {
   "type": "Feature",
   "geometry": {
    "type": "Point",
    "coordinates": [
     140.60388305,
     -37.48815141
    ]
   },
   "properties": {
    "name": "LOT 51 MANGA ROAD MOUNT MCINTYRE 5279",
    "locID": "LOC000150252853",
    "tech": "SATELLITE",
    "upgrade": "NULL_NA",
    "gnaf_pid": "GASA_425846865",
    "ee": true,
    "tech_change_status": "Not Planned"
   }
  },
  {
   "type": "Feature",
   "geometry": {
    "type": "Point",
    "coordinates": [
     140.6100776,
     -37.53221538
    ]
   },
   "properties": {
    "name": "LOT 569 MANGA ROAD MOUNT MCINTYRE 5279",
    "locID": "LOC100072033341",
    "tech": "WIRELESS",
    "upgrade": "NULL_NA",
    "gnaf_pid": "GASA_425846866",
    "ee": true,
    "tech_change_status": "Not Planned",
    "program_type": "Fixed Wireless and Satellite Upgrade Program",
    "target_eligibility_quarter": "NA"
   }
  },
  {
   "type": "Feature",
   "geometry": {
    "type": "Point",
    "coordinates": [
     140.5635583,
     -37.53019974
    ]
   },
   "properties": {
    "name": "244 MCCOURTS ROAD MOUNT MCINTYRE 5279",
    "locID": "LOC100072033478",
    "tech": "WIRELESS",
    "upgrade": "NULL_NA",
    "gnaf_pid": "GASA_425846992",
    "ee": true,
    "tech_change_status": "Not Planned",
    "program_type": "Fixed Wireless and Satellite Upgrade Program",
    "target_eligibility_quarter": "NA"
   }
  },
  {
   "type": "Feature",
   "geometry": {
    "type": "Point",
    "coordinates": [
     140.55576185,
     -37.52991814
    ]
   },
   "properties": {
    "name": "LOT 168 MCCOURTS ROAD MOUNT MCINTYRE 5279",
    "locID": "LOC000131197777",
    "tech": "SATELLITE",
    "upgrade": "NULL_NA",
    "gnaf_pid": "GASA_425846993",
    "ee": true,
    "tech_change_status": "Not Planned"
   }
  },
  {
   "type": "Feature",
   "geometry": {
    "type": "Point",
    "coordinates": [
     140.55844954,
     -37.53745002
    ]
   },
   "properties": {
    "name": "LOT 171 MCCOURTS ROAD MOUNT MCINTYRE 5279",
    "locID": "LOC100072033840",
    "tech": "NULL",
    "upgrade": "NULL_NA",
    "gnaf_pid": "GASA_425846994",
    "ee": true,
    "tech_change_status": "Not Planned"
   }
  },
  {
   "type": "Feature",
   "geometry": {
    "type": "Point",
    "coordinates": [
     140.53069821,
     -37.50806181
    ]
   },
   "properties": {
    "name": "1880 MOUNT BURR ROAD MOUNT MCINTYRE 5279",
    "locID": "LOC000185209826",
    "tech": "NULL",
    "upgrade": "NULL_NA",
    "gnaf_pid": "GASA_425847144",
    "ee": true,
    "tech_change_status": "Not Planned"
   }
  },
  {
   "type": "Feature",
   "geometry": {
    "type": "Point",
    "coordinates": [
     140.55151922,
     -37.48611157
    ]
   },
   "properties": {
    "name": "2186 MOUNT BURR ROAD MOUNT MCINTYRE 5279",
    "locID": "LOC000131215192",
    "tech": "WIRELESS",
    "upgrade": "NULL_NA",
    "gnaf_pid": "GASA_425847145",
    "ee": true,
    "tech_change_status": "Not Planned",
    "program_type": "Fixed Wireless and Satellite Upgrade Program",
    "target_eligibility_quarter": "NA"
   }
  },
  {
   "type": "Feature",
   "geometry": {
    "type": "Point",
    "coordinates": [
     140.57684914,
     -37.48616098
    ]
   },
   "properties": {
    "name": "LOT 185 MOUNT BURR ROAD MOUNT MCINTYRE 5279",
    "locID": "LOC000185209826",
    "tech": "NULL",
    "upgrade": "NULL_NA",
    "gnaf_pid": "GASA_425847146",
    "ee": true,
    "tech_change_status": "Not Planned"
   }
  },
  {
   "type": "Feature",
   "geometry": {
    "type": "Point",
    "coordinates": [
     140.60162572,
     -37.47112015
    ]
   },
   "properties": {
    "name": "LOT 56 MOUNT BURR ROAD MOUNT MCINTYRE 5279",
    "locID": "LOC000185209826",
    "tech": "NULL",
    "upgrade": "NULL_NA",
    "gnaf_pid": "GASA_425847148",
    "ee": true,
    "tech_change_status": "Not Planned"
   }
  },
  {
   "type": "Feature",
   "geometry": {
    "type": "Point",
    "coordinates": [
     140.59355155,
     -37.5517648
    ]
   },
   "properties": {
    "name": "873 MOUNT MCINTYRE ROAD MOUNT MCINTYRE 5279",
    "locID": "LOC100072035691",
    "tech": "WIRELESS",
    "upgrade": "NULL_NA",
    "gnaf_pid": "GASA_425847155",
    "ee": true,
    "tech_change_status": "Not Planned",
    "program_type": "Fixed Wireless and Satellite Upgrade Program",
    "target_eligibility_quarter": "NA"
   }
  },
  {
   "type": "Feature",
   "geometry": {
    "type": "Point",
    "coordinates": [
     140.58115075,
     -37.54471437
    ]
   },
   "properties": {
    "name": "LOT 29 MOUNT MCINTYRE ROAD MOUNT MCINTYRE 5279",
    "locID": "LOC000131245461",
    "tech": "SATELLITE",
    "upgrade": "NULL_NA",
    "gnaf_pid": "GASA_425847158",
    "ee": true,
    "tech_change_status": "Not Planned"
   }
  },
  {
   "type": "Feature",
   "geometry": {
    "type": "Point",
    "coordinates": [
     140.58477914,
     -37.48533458
    ]
   },
   "properties": {
    "name": "160 MULES LANE MOUNT MCINTYRE 5279",
    "locID": "LOC100072032780",
    "tech": "NULL",
    "upgrade": "NULL_NA",
    "gnaf_pid": "GASA_425847201",
    "ee": true,
    "tech_change_status": "Not Planned"
   }
  },
  {
   "type": "Feature",
   "geometry": {
    "type": "Point",
    "coordinates": [
     140.58255913,
     -37.49095076
    ]
   },
   "properties": {
    "name": "225 MULES LANE MOUNT MCINTYRE 5279",
    "locID": "LOC000154091421",
    "tech": "WIRELESS",
    "upgrade": "NULL_NA",
    "gnaf_pid": "GASA_425847202",
    "ee": true,
    "tech_change_status": "Not Planned",
    "program_type": "Fixed Wireless and Satellite Upgrade Program",
    "target_eligibility_quarter": "NA"
   }
  },
  {
   "type": "Feature",
   "geometry": {
    "type": "Point",
    "coordinates": [
     140.58297578,
     -37.49268347
    ]
   },
   "properties": {
    "name": "245 MULES LANE MOUNT MCINTYRE 5279",
    "locID": "LOC100072032854",
    "tech": "WIRELESS",
    "upgrade": "NULL_NA",
    "gnaf_pid": "GASA_425847203",
    "ee": true,
    "tech_change_status": "Not Planned",
    "program_type": "Fixed Wireless and Satellite Upgrade Program",
    "target_eligibility_quarter": "NA"
   }
  },
  {
   "type": "Feature",
   "geometry": {
    "type": "Point",
    "coordinates": [
     140.58662382,
     -37.4798919
    ]
   },
   "properties": {
    "name": "97 MULES LANE MOUNT MCINTYRE 5279",
    "locID": "LOC000131263156",
    "tech": "SATELLITE",
    "upgrade": "NULL_NA",
    "gnaf_pid": "GASA_425847205",
    "ee": true,
    "tech_change_status": "Not Planned"
   }
  },
  {
   "type": "Feature",
   "geometry": {
    "type": "Point",
    "coordinates": [
     140.53144931,
     -37.52400885
    ]
   },
   "properties": {
    "name": "656 REEDY CREEK ROAD MOUNT MCINTYRE 5279",
    "locID": "LOC100072033216",
    "tech": "NULL",
    "upgrade": "NULL_NA",
    "gnaf_pid": "GASA_425848033",
    "ee": true,
    "tech_change_status": "Not Planned"
   }
  },
  {
   "type": "Feature",
   "geometry": {
    "type": "Point",
    "coordinates": [
     140.54134165,
     -37.51110924
    ]
   },
   "properties": {
    "name": "LOT 161 MOUNT BURR ROAD MOUNT MCINTYRE 5279",
    "locID": "LOC000185209826",
    "tech": "NULL",
    "upgrade": "NULL_NA",
    "gnaf_pid": "GASA_719859566",
    "ee": true,
    "tech_change_status": "Not Planned"
   }
  },
  {
   "type": "Feature",
   "geometry": {
    "type": "Point",
    "coordinates": [
     140.53709065,
     -37.53323966
    ]
   },
   "properties": {
    "name": "LOT 156 REEDY CREEK ROAD MOUNT MCINTYRE 5279",
    "locID": "LOC100072033484",
    "tech": "NULL",
    "upgrade": "NULL_NA",
    "gnaf_pid": "GASA_719965782",
    "ee": true,
    "tech_change_status": "Not Planned"
   }
  },
  {
   "type": "Feature",
   "geometry": {
    "type": "Point",
    "coordinates": [
     140.53349144,
     -37.55221174
    ]
   },
   "properties": {
    "name": "LOT 8 MOUNT MCINTYRE ROAD MOUNT MCINTYRE 5279",
    "locID": "LOC000131245461",
    "tech": "SATELLITE",
    "upgrade": "NULL_NA",
    "gnaf_pid": "GASA_719966646",
    "ee": true,
    "tech_change_status": "Not Planned"
   }
  },
  {
   "type": "Feature",
   "geometry": {
    "type": "Point",
    "coordinates": [
     140.56611803,
     -37.60691528
    ]
   },
   "properties": {
    "name": "LOT 2 SUNNYMEADE ROAD MOUNT MCINTYRE 5279",
    "locID": "LOC000131232309",
    "tech": "WIRELESS",
    "upgrade": "NULL_NA",
    "gnaf_pid": "GASA_720074344",
    "ee": true,
    "tech_change_status": "Not Planned",
    "program_type": "Fixed Wireless and Satellite Upgrade Program",
    "target_eligibility_quarter": "NA"
   }
  }
 ]
}