{
 "type": "FeatureCollection",
 "generated": "2025-06-15T19:52:27.851747",
 "suburb": "MOUNT BARRY",
 "features": [
  {
   "type": "Feature",
   "geometry": {
    "type": "Point",
    "coordinates": [
     134.85846047,
     -28.27299102
    ]
   },
   "properties": {
    "name": "9706 KEMPE ROAD MOUNT BARRY 5723",
    "locID": "LOC000143022424",
    "tech": "NULL",
    "upgrade": "NULL_NA",
    "gnaf_pid": "GASA_425629294",
    "ee": false,
    "tech_change_status": "Not Planned"
   }
  }
 ]
}