{
 "type": "FeatureCollection",
 "generated": "2025-06-15T20:09:05.445290",
 "suburb": "MOUNT TEMPLETON",
 "features": [
  {
   "type": "Feature",
   "geometry": {
    "type": "Point",
    "coordinates": [
     138.33123415,
     -34.00895589
    ]
   },
   "properties": {
    "name": "65 LOWER TEMPLETON ROAD MOUNT TEMPLETON 5461",
    "locID": "LOC000187486542",
    "tech": "WIRELESS",
    "upgrade": "NULL_NA",
    "gnaf_pid": "GASA_424144427",
    "ee": true,
    "tech_change_status": "Not Planned",
    "program_type": "Fixed Wireless and Satellite Upgrade Program",
    "target_eligibility_quarter": "NA"
   }
  },
  {
   "type": "Feature",
   "geometry": {
    "type": "Point",
    "coordinates": [
     138.32531509,
     -34.04770194
    ]
   },
   "properties": {
    "name": "LOT 6 LOWER TEMPLETON ROAD MOUNT TEMPLETON 5461",
    "locID": "LOC000187486542",
    "tech": "WIRELESS",
    "upgrade": "NULL_NA",
    "gnaf_pid": "GASA_424144428",
    "ee": true,
    "tech_change_status": "Not Planned",
    "program_type": "Fixed Wireless and Satellite Upgrade Program",
    "target_eligibility_quarter": "NA"
   }
  },
  {
   "type": "Feature",
   "geometry": {
    "type": "Point",
    "coordinates": [
     138.36254764,
     -34.04898949
    ]
   },
   "properties": {
    "name": "LOT 166 WATCHMAN EXCHANGE ROAD MOUNT TEMPLETON 5461",
    "locID": "LOC100079008108",
    "tech": "WIRELESS",
    "upgrade": "NULL_NA",
    "gnaf_pid": "GASA_424567199",
    "ee": true,
    "tech_change_status": "Not Planned",
    "program_type": "Fixed Wireless and Satellite Upgrade Program",
    "target_eligibility_quarter": "NA"
   }
  },
  {
   "type": "Feature",
   "geometry": {
    "type": "Point",
    "coordinates": [
     138.348702,
     -34.012215
    ]
   },
   "properties": {
    "name": "228 GLEESON ROAD MOUNT TEMPLETON 5461",
    "locID": "LOC000148246595",
    "tech": "SATELLITE",
    "upgrade": "NULL_NA",
    "gnaf_pid": "GASA_425107835",
    "ee": true,
    "tech_change_status": "Not Planned"
   }
  },
  {
   "type": "Feature",
   "geometry": {
    "type": "Point",
    "coordinates": [
     138.31682862,
     -34.01241502
    ]
   },
   "properties": {
    "name": "523 GLEESON ROAD MOUNT TEMPLETON 5461",
    "locID": "LOC000150238331",
    "tech": "WIRELESS",
    "upgrade": "NULL_NA",
    "gnaf_pid": "GASA_425107836",
    "ee": true,
    "tech_change_status": "Not Planned",
    "program_type": "Fixed Wireless and Satellite Upgrade Program",
    "target_eligibility_quarter": "NA"
   }
  },
  {
   "type": "Feature",
   "geometry": {
    "type": "Point",
    "coordinates": [
     138.31571592,
     -34.01241671
    ]
   },
   "properties": {
    "name": "533 GLEESON ROAD MOUNT TEMPLETON 5461",
    "locID": "LOC000150238349",
    "tech": "WIRELESS",
    "upgrade": "NULL_NA",
    "gnaf_pid": "GASA_425107837",
    "ee": true,
    "tech_change_status": "Not Planned",
    "program_type": "Fixed Wireless and Satellite Upgrade Program",
    "target_eligibility_quarter": "NA"
   }
  },
  {
   "type": "Feature",
   "geometry": {
    "type": "Point",
    "coordinates": [
     138.30168908,
     -34.01236388
    ]
   },
   "properties": {
    "name": "661 GLEESON ROAD MOUNT TEMPLETON 5461",
    "locID": "LOC000150238354",
    "tech": "WIRELESS",
    "upgrade": "NULL_NA",
    "gnaf_pid": "GASA_425107838",
    "ee": true,
    "tech_change_status": "Not Planned",
    "program_type": "Fixed Wireless and Satellite Upgrade Program",
    "target_eligibility_quarter": "NA"
   }
  },
  {
   "type": "Feature",
   "geometry": {
    "type": "Point",
    "coordinates": [
     138.29817691,
     -34.01921872
    ]
   },
   "properties": {
    "name": "LOT 1 GLEESON ROAD MOUNT TEMPLETON 5461",
    "locID": "LOC000150238365",
    "tech": "WIRELESS",
    "upgrade": "NULL_NA",
    "gnaf_pid": "GASA_425107839",
    "ee": true,
    "tech_change_status": "Not Planned",
    "program_type": "Fixed Wireless and Satellite Upgrade Program",
    "target_eligibility_quarter": "NA"
   }
  },
  {
   "type": "Feature",
   "geometry": {
    "type": "Point",
    "coordinates": [
     138.30540585,
     -34.03295143
    ]
   },
   "properties": {
    "name": "109 HIGGS ROAD MOUNT TEMPLETON 5461",
    "locID": "LOC100079008022",
    "tech": "WIRELESS",
    "upgrade": "NULL_NA",
    "gnaf_pid": "GASA_425108305",
    "ee": true,
    "tech_change_status": "Not Planned",
    "program_type": "Fixed Wireless and Satellite Upgrade Program",
    "target_eligibility_quarter": "NA"
   }
  },
  {
   "type": "Feature",
   "geometry": {
    "type": "Point",
    "coordinates": [
     138.32943528,
     -34.02605161
    ]
   },
   "properties": {
    "name": "666 LOWER TEMPLETON ROAD MOUNT TEMPLETON 5461",
    "locID": "LOC000148396145",
    "tech": "NULL",
    "upgrade": "NULL_NA",
    "gnaf_pid": "GASA_425109267",
    "ee": true,
    "tech_change_status": "Not Planned"
   }
  },
  {
   "type": "Feature",
   "geometry": {
    "type": "Point",
    "coordinates": [
     138.33287489,
     -34.00493072
    ]
   },
   "properties": {
    "name": "913 LOWER TEMPLETON ROAD MOUNT TEMPLETON 5461",
    "locID": "LOC000148255215",
    "tech": "SATELLITE",
    "upgrade": "NULL_NA",
    "gnaf_pid": "GASA_425109268",
    "ee": true,
    "tech_change_status": "Not Planned"
   }
  },
  {
   "type": "Feature",
   "geometry": {
    "type": "Point",
    "coordinates": [
     138.33863053,
     -34.03276377
    ]
   },
   "properties": {
    "name": "199 O'HARA ROAD MOUNT TEMPLETON 5461",
    "locID": "LOC000148396243",
    "tech": "SATELLITE",
    "upgrade": "NULL_NA",
    "gnaf_pid": "GASA_425110304",
    "ee": true,
    "tech_change_status": "Not Planned"
   }
  },
  {
   "type": "Feature",
   "geometry": {
    "type": "Point",
    "coordinates": [
     138.362781,
     -34.0333498
    ]
   },
   "properties": {
    "name": "421 O'HARA ROAD MOUNT TEMPLETON 5461",
    "locID": "LOC000148249848",
    "tech": "SATELLITE",
    "upgrade": "NULL_NA",
    "gnaf_pid": "GASA_425110305",
    "ee": true,
    "tech_change_status": "Not Planned"
   }
  },
  {
   "type": "Feature",
   "geometry": {
    "type": "Point",
    "coordinates": [
     138.31760928,
     -33.99076297
    ]
   },
   "properties": {
    "name": "36 PHYLLIS ROAD MOUNT TEMPLETON 5461",
    "locID": "LOC000148248971",
    "tech": "WIRELESS",
    "upgrade": "NULL_NA",
    "gnaf_pid": "GASA_425110713",
    "ee": true,
    "tech_change_status": "Not Planned",
    "program_type": "Fixed Wireless and Satellite Upgrade Program",
    "target_eligibility_quarter": "NA"
   }
  },
  {
   "type": "Feature",
   "geometry": {
    "type": "Point",
    "coordinates": [
     138.31430201,
     -33.99081355
    ]
   },
   "properties": {
    "name": "4 PHYLLIS ROAD MOUNT TEMPLETON 5461",
    "locID": "LOC000148249560",
    "tech": "WIRELESS",
    "upgrade": "NULL_NA",
    "gnaf_pid": "GASA_425110714",
    "ee": true,
    "tech_change_status": "Not Planned",
    "program_type": "Fixed Wireless and Satellite Upgrade Program",
    "target_eligibility_quarter": "NA"
   }
  },
  {
   "type": "Feature",
   "geometry": {
    "type": "Point",
    "coordinates": [
     138.31736255,
     -34.05191694
    ]
   },
   "properties": {
    "name": "1404 TEMPLETON ROAD MOUNT TEMPLETON 5461",
    "locID": "LOC000150238377",
    "tech": "WIRELESS",
    "upgrade": "NULL_NA",
    "gnaf_pid": "GASA_425112636",
    "ee": true,
    "tech_change_status": "Not Planned",
    "program_type": "Fixed Wireless and Satellite Upgrade Program",
    "target_eligibility_quarter": "NA"
   }
  },
  {
   "type": "Feature",
   "geometry": {
    "type": "Point",
    "coordinates": [
     138.31737854,
     -34.04489773
    ]
   },
   "properties": {
    "name": "1480 TEMPLETON ROAD MOUNT TEMPLETON 5461",
    "locID": "LOC000150238383",
    "tech": "SATELLITE",
    "upgrade": "NULL_NA",
    "gnaf_pid": "GASA_425112637",
    "ee": true,
    "tech_change_status": "Not Planned"
   }
  },
  {
   "type": "Feature",
   "geometry": {
    "type": "Point",
    "coordinates": [
     138.31736035,
     -34.03740324
    ]
   },
   "properties": {
    "name": "1564 TEMPLETON ROAD MOUNT TEMPLETON 5461",
    "locID": "LOC000150238401",
    "tech": "WIRELESS",
    "upgrade": "NULL_NA",
    "gnaf_pid": "GASA_425112639",
    "ee": true,
    "tech_change_status": "Not Planned",
    "program_type": "Fixed Wireless and Satellite Upgrade Program",
    "target_eligibility_quarter": "NA"
   }
  },
  {
   "type": "Feature",
   "geometry": {
    "type": "Point",
    "coordinates": [
     138.31734102,
     -34.03353691
    ]
   },
   "properties": {
    "name": "1606 TEMPLETON ROAD MOUNT TEMPLETON 5461",
    "locID": "LOC000150238429",
    "tech": "WIRELESS",
    "upgrade": "NULL_NA",
    "gnaf_pid": "GASA_425112641",
    "ee": true,
    "tech_change_status": "Not Planned",
    "program_type": "Fixed Wireless and Satellite Upgrade Program",
    "target_eligibility_quarter": "NA"
   }
  },
  {
   "type": "Feature",
   "geometry": {
    "type": "Point",
    "coordinates": [
     138.3171531,
     -34.01402528
    ]
   },
   "properties": {
    "name": "1823 TEMPLETON ROAD MOUNT TEMPLETON 5461",
    "locID": "LOC000150238438",
    "tech": "SATELLITE",
    "upgrade": "WIRELESS",
    "gnaf_pid": "GASA_425112643",
    "ee": true,
    "tech_change_status": "Eligible to Order",
    "program_type": "Fixed Wireless and Satellite Upgrade Program",
    "target_eligibility_quarter": "NA"
   }
  },
  {
   "type": "Feature",
   "geometry": {
    "type": "Point",
    "coordinates": [
     138.31715631,
     -34.0259628
    ]
   },
   "properties": {
    "name": "1691 TEMPLETON ROAD MOUNT TEMPLETON 5461",
    "locID": "LOC000154461021",
    "tech": "WIRELESS",
    "upgrade": "NULL_NA",
    "gnaf_pid": "GASA_425194005",
    "ee": true,
    "tech_change_status": "Not Planned",
    "program_type": "Fixed Wireless and Satellite Upgrade Program",
    "target_eligibility_quarter": "NA"
   }
  },
  {
   "type": "Feature",
   "geometry": {
    "type": "Point",
    "coordinates": [
     138.3448626,
     -33.98818328
    ]
   },
   "properties": {
    "name": "LOT 320 LOWER TEMPLETON ROAD MOUNT TEMPLETON 5461",
    "locID": "LOC000187486542",
    "tech": "WIRELESS",
    "upgrade": "NULL_NA",
    "gnaf_pid": "GASA_425392241",
    "ee": true,
    "tech_change_status": "Not Planned",
    "program_type": "Fixed Wireless and Satellite Upgrade Program",
    "target_eligibility_quarter": "NA"
   }
  },
  {
   "type": "Feature",
   "geometry": {
    "type": "Point",
    "coordinates": [
     138.32510342,
     -34.04967966
    ]
   },
   "properties": {
    "name": "LOT 7 LOWER TEMPLETON ROAD MOUNT TEMPLETON 5461",
    "locID": "LOC000187486542",
    "tech": "WIRELESS",
    "upgrade": "NULL_NA",
    "gnaf_pid": "GASA_425392243",
    "ee": true,
    "tech_change_status": "Not Planned",
    "program_type": "Fixed Wireless and Satellite Upgrade Program",
    "target_eligibility_quarter": "NA"
   }
  }
 ]
}