{
 "type": "FeatureCollection",
 "generated": "2025-06-15T20:13:11.352089",
 "suburb": "MUNDALLIO",
 "features": [
  {
   "type": "Feature",
   "geometry": {
    "type": "Point",
    "coordinates": [
     137.88155339,
     -32.42344211
    ]
   },
   "properties": {
    "name": "LOT 1066 WARRAKIMBO ROAD MUNDALLIO 5700",
    "locID": "LOC000150252029",
    "tech": "SATELLITE",
    "upgrade": "NULL_NA",
    "gnaf_pid": "GASA_719859917",
    "ee": true,
    "tech_change_status": "Not Planned"
   }
  },
  {
   "type": "Feature",
   "geometry": {
    "type": "Point",
    "coordinates": [
     137.89045465,
     -32.45891193
    ]
   },
   "properties": {
    "name": "LOT 1043 WARRAKIMBO ROAD MUNDALLIO 5700",
    "locID": "LOC000150252029",
    "tech": "SATELLITE",
    "upgrade": "NULL_NA",
    "gnaf_pid": "GASA_719864278",
    "ee": true,
    "tech_change_status": "Not Planned"
   }
  },
  {
   "type": "Feature",
   "geometry": {
    "type": "Point",
    "coordinates": [
     137.84485611,
     -32.48936958
    ]
   },
   "properties": {
    "name": "LOT 1023 WARRAKIMBO ROAD MUNDALLIO 5700",
    "locID": "LOC000150252029",
    "tech": "SATELLITE",
    "upgrade": "NULL_NA",
    "gnaf_pid": "GASA_721273880",
    "ee": true,
    "tech_change_status": "Not Planned"
   }
  }
 ]
}