{
 "type": "FeatureCollection",
 "generated": "2025-06-15T20:13:20.175924",
 "suburb": "MUNDIC CREEK",
 "features": [
  {
   "type": "Feature",
   "geometry": {
    "type": "Point",
    "coordinates": [
     140.79872508,
     -34.20226694
    ]
   },
   "properties": {
    "name": "LOT 11 STURT HIGHWAY MUNDIC CREEK 5340",
    "locID": "LOC000116293877",
    "tech": "WIRELESS",
    "upgrade": "NULL_NA",
    "gnaf_pid": "GASA_424014688",
    "ee": true,
    "tech_change_status": "Not Planned",
    "program_type": "Fixed Wireless and Satellite Upgrade Program",
    "target_eligibility_quarter": "NA"
   }
  },
  {
   "type": "Feature",
   "geometry": {
    "type": "Point",
    "coordinates": [
     140.8216527,
     -34.23012485
    ]
   },
   "properties": {
    "name": "LOT 101 STURT HIGHWAY MUNDIC CREEK 5340",
    "locID": "LOC000116293877",
    "tech": "WIRELESS",
    "upgrade": "NULL_NA",
    "gnaf_pid": "GASA_424213125",
    "ee": true,
    "tech_change_status": "Not Planned",
    "program_type": "Fixed Wireless and Satellite Upgrade Program",
    "target_eligibility_quarter": "NA"
   }
  },
  {
   "type": "Feature",
   "geometry": {
    "type": "Point",
    "coordinates": [
     140.80198863,
     -34.19459815
    ]
   },
   "properties": {
    "name": "LOT 13 STURT HIGHWAY MUNDIC CREEK 5340",
    "locID": "LOC000116293877",
    "tech": "WIRELESS",
    "upgrade": "NULL_NA",
    "gnaf_pid": "GASA_424213127",
    "ee": true,
    "tech_change_status": "Not Planned",
    "program_type": "Fixed Wireless and Satellite Upgrade Program",
    "target_eligibility_quarter": "NA"
   }
  },
  {
   "type": "Feature",
   "geometry": {
    "type": "Point",
    "coordinates": [
     140.80398964,
     -34.19639011
    ]
   },
   "properties": {
    "name": "LOT 2 STURT HIGHWAY MUNDIC CREEK 5340",
    "locID": "LOC000116289873",
    "tech": "WIRELESS",
    "upgrade": "NULL_NA",
    "gnaf_pid": "GASA_424228902",
    "ee": true,
    "tech_change_status": "Not Planned",
    "program_type": "Fixed Wireless and Satellite Upgrade Program",
    "target_eligibility_quarter": "NA"
   }
  },
  {
   "type": "Feature",
   "geometry": {
    "type": "Point",
    "coordinates": [
     140.80647669,
     -34.1972449
    ]
   },
   "properties": {
    "name": "LOT 100 STURT HIGHWAY MUNDIC CREEK 5340",
    "locID": "LOC000116293877",
    "tech": "WIRELESS",
    "upgrade": "NULL_NA",
    "gnaf_pid": "GASA_424334697",
    "ee": true,
    "tech_change_status": "Not Planned",
    "program_type": "Fixed Wireless and Satellite Upgrade Program",
    "target_eligibility_quarter": "NA"
   }
  },
  {
   "type": "Feature",
   "geometry": {
    "type": "Point",
    "coordinates": [
     140.76623502,
     -34.20852652
    ]
   },
   "properties": {
    "name": "238 MUNDIC CREEK ROAD MUNDIC CREEK 5340",
    "locID": "LOC000116295050",
    "tech": "WIRELESS",
    "upgrade": "NULL_NA",
    "gnaf_pid": "GASA_424824499",
    "ee": true,
    "tech_change_status": "Not Planned",
    "program_type": "Fixed Wireless and Satellite Upgrade Program",
    "target_eligibility_quarter": "NA"
   }
  },
  {
   "type": "Feature",
   "geometry": {
    "type": "Point",
    "coordinates": [
     140.80325159,
     -34.18705928
    ]
   },
   "properties": {
    "name": "21122 STURT HIGHWAY MUNDIC CREEK 5340",
    "locID": "LOC100079389081",
    "tech": "WIRELESS",
    "upgrade": "NULL_NA",
    "gnaf_pid": "GASA_424828451",
    "ee": true,
    "tech_change_status": "Not Planned",
    "program_type": "Fixed Wireless and Satellite Upgrade Program",
    "target_eligibility_quarter": "NA"
   }
  },
  {
   "type": "Feature",
   "geometry": {
    "type": "Point",
    "coordinates": [
     140.8044735,
     -34.18734489
    ]
   },
   "properties": {
    "name": "21132 STURT HIGHWAY MUNDIC CREEK 5340",
    "locID": "LOC000116293849",
    "tech": "WIRELESS",
    "upgrade": "NULL_NA",
    "gnaf_pid": "GASA_424828452",
    "ee": true,
    "tech_change_status": "Not Planned",
    "program_type": "Fixed Wireless and Satellite Upgrade Program",
    "target_eligibility_quarter": "NA"
   }
  },
  {
   "type": "Feature",
   "geometry": {
    "type": "Point",
    "coordinates": [
     140.80453421,
     -34.18736314
    ]
   },
   "properties": {
    "name": "21134 STURT HIGHWAY MUNDIC CREEK 5340",
    "locID": "LOC000116293854",
    "tech": "WIRELESS",
    "upgrade": "NULL_NA",
    "gnaf_pid": "GASA_424828453",
    "ee": true,
    "tech_change_status": "Not Planned",
    "program_type": "Fixed Wireless and Satellite Upgrade Program",
    "target_eligibility_quarter": "NA"
   }
  },
  {
   "type": "Feature",
   "geometry": {
    "type": "Point",
    "coordinates": [
     140.8070931,
     -34.18822963
    ]
   },
   "properties": {
    "name": "21160 STURT HIGHWAY MUNDIC CREEK 5340",
    "locID": "LOC000116293865",
    "tech": "WIRELESS",
    "upgrade": "NULL_NA",
    "gnaf_pid": "GASA_424828454",
    "ee": true,
    "tech_change_status": "Not Planned",
    "program_type": "Fixed Wireless and Satellite Upgrade Program",
    "target_eligibility_quarter": "NA"
   }
  },
  {
   "type": "Feature",
   "geometry": {
    "type": "Point",
    "coordinates": [
     140.807327,
     -34.188341
    ]
   },
   "properties": {
    "name": "21162 STURT HIGHWAY MUNDIC CREEK 5340",
    "locID": "LOC000116293877",
    "tech": "WIRELESS",
    "upgrade": "NULL_NA",
    "gnaf_pid": "GASA_424828455",
    "ee": true,
    "tech_change_status": "Not Planned",
    "program_type": "Fixed Wireless and Satellite Upgrade Program",
    "target_eligibility_quarter": "NA"
   }
  },
  {
   "type": "Feature",
   "geometry": {
    "type": "Point",
    "coordinates": [
     140.81041178,
     -34.19016634
    ]
   },
   "properties": {
    "name": "21196 STURT HIGHWAY MUNDIC CREEK 5340",
    "locID": "LOC000116293883",
    "tech": "WIRELESS",
    "upgrade": "NULL_NA",
    "gnaf_pid": "GASA_424828456",
    "ee": true,
    "tech_change_status": "Not Planned",
    "program_type": "Fixed Wireless and Satellite Upgrade Program",
    "target_eligibility_quarter": "NA"
   }
  },
  {
   "type": "Feature",
   "geometry": {
    "type": "Point",
    "coordinates": [
     140.81145294,
     -34.19105751
    ]
   },
   "properties": {
    "name": "21210 STURT HIGHWAY MUNDIC CREEK 5340",
    "locID": "LOC000116293896",
    "tech": "WIRELESS",
    "upgrade": "NULL_NA",
    "gnaf_pid": "GASA_424828457",
    "ee": true,
    "tech_change_status": "Not Planned",
    "program_type": "Fixed Wireless and Satellite Upgrade Program",
    "target_eligibility_quarter": "NA"
   }
  },
  {
   "type": "Feature",
   "geometry": {
    "type": "Point",
    "coordinates": [
     140.81186969,
     -34.19144755
    ]
   },
   "properties": {
    "name": "21216 STURT HIGHWAY MUNDIC CREEK 5340",
    "locID": "LOC000116293906",
    "tech": "WIRELESS",
    "upgrade": "NULL_NA",
    "gnaf_pid": "GASA_424828458",
    "ee": true,
    "tech_change_status": "Not Planned",
    "program_type": "Fixed Wireless and Satellite Upgrade Program",
    "target_eligibility_quarter": "NA"
   }
  },
  {
   "type": "Feature",
   "geometry": {
    "type": "Point",
    "coordinates": [
     140.815313,
     -34.198242
    ]
   },
   "properties": {
    "name": "21300 STURT HIGHWAY MUNDIC CREEK 5340",
    "locID": "LOC000116293923",
    "tech": "WIRELESS",
    "upgrade": "NULL_NA",
    "gnaf_pid": "GASA_424828460",
    "ee": true,
    "tech_change_status": "Not Planned",
    "program_type": "Fixed Wireless and Satellite Upgrade Program",
    "target_eligibility_quarter": "NA"
   }
  },
  {
   "type": "Feature",
   "geometry": {
    "type": "Point",
    "coordinates": [
     140.8153457,
     -34.19860833
    ]
   },
   "properties": {
    "name": "21304 STURT HIGHWAY MUNDIC CREEK 5340",
    "locID": "LOC000116293934",
    "tech": "WIRELESS",
    "upgrade": "NULL_NA",
    "gnaf_pid": "GASA_424828461",
    "ee": true,
    "tech_change_status": "Not Planned",
    "program_type": "Fixed Wireless and Satellite Upgrade Program",
    "target_eligibility_quarter": "NA"
   }
  },
  {
   "type": "Feature",
   "geometry": {
    "type": "Point",
    "coordinates": [
     140.81524697,
     -34.20138348
    ]
   },
   "properties": {
    "name": "21336 STURT HIGHWAY MUNDIC CREEK 5340",
    "locID": "LOC000116294943",
    "tech": "WIRELESS",
    "upgrade": "NULL_NA",
    "gnaf_pid": "GASA_424828462",
    "ee": true,
    "tech_change_status": "Not Planned",
    "program_type": "Fixed Wireless and Satellite Upgrade Program",
    "target_eligibility_quarter": "NA"
   }
  },
  {
   "type": "Feature",
   "geometry": {
    "type": "Point",
    "coordinates": [
     140.813968,
     -34.205464
    ]
   },
   "properties": {
    "name": "21382 STURT HIGHWAY MUNDIC CREEK 5340",
    "locID": "LOC000116294958",
    "tech": "WIRELESS",
    "upgrade": "NULL_NA",
    "gnaf_pid": "GASA_424828463",
    "ee": true,
    "tech_change_status": "Not Planned",
    "program_type": "Fixed Wireless and Satellite Upgrade Program",
    "target_eligibility_quarter": "NA"
   }
  },
  {
   "type": "Feature",
   "geometry": {
    "type": "Point",
    "coordinates": [
     140.81155627,
     -34.21856139
    ]
   },
   "properties": {
    "name": "21532 STURT HIGHWAY MUNDIC CREEK 5340",
    "locID": "LOC000131047209",
    "tech": "WIRELESS",
    "upgrade": "NULL_NA",
    "gnaf_pid": "GASA_424828465",
    "ee": true,
    "tech_change_status": "Not Planned",
    "program_type": "Fixed Wireless and Satellite Upgrade Program",
    "target_eligibility_quarter": "NA"
   }
  },
  {
   "type": "Feature",
   "geometry": {
    "type": "Point",
    "coordinates": [
     140.81292776,
     -34.22125506
    ]
   },
   "properties": {
    "name": "21564A STURT HIGHWAY MUNDIC CREEK 5340",
    "locID": "LOC000116294962",
    "tech": "WIRELESS",
    "upgrade": "NULL_NA",
    "gnaf_pid": "GASA_424828468",
    "ee": true,
    "tech_change_status": "Not Planned",
    "program_type": "Fixed Wireless and Satellite Upgrade Program",
    "target_eligibility_quarter": "NA"
   }
  },
  {
   "type": "Feature",
   "geometry": {
    "type": "Point",
    "coordinates": [
     140.81293284,
     -34.22126779
    ]
   },
   "properties": {
    "name": "21564B STURT HIGHWAY MUNDIC CREEK 5340",
    "locID": "LOC000116294970",
    "tech": "WIRELESS",
    "upgrade": "NULL_NA",
    "gnaf_pid": "GASA_424828469",
    "ee": true,
    "tech_change_status": "Not Planned",
    "program_type": "Fixed Wireless and Satellite Upgrade Program",
    "target_eligibility_quarter": "NA"
   }
  },
  {
   "type": "Feature",
   "geometry": {
    "type": "Point",
    "coordinates": [
     140.77654512,
     -34.20072245
    ]
   },
   "properties": {
    "name": "LOT 57 MUNDIC CREEK ROAD MUNDIC CREEK 5340",
    "locID": "LOC000116295050",
    "tech": "WIRELESS",
    "upgrade": "NULL_NA",
    "gnaf_pid": "GASA_425191227",
    "ee": true,
    "tech_change_status": "Not Planned",
    "program_type": "Fixed Wireless and Satellite Upgrade Program",
    "target_eligibility_quarter": "NA"
   }
  },
  {
   "type": "Feature",
   "geometry": {
    "type": "Point",
    "coordinates": [
     140.82676732,
     -34.23579395
    ]
   },
   "properties": {
    "name": "LOT 305 STURT HIGHWAY MUNDIC CREEK 5340",
    "locID": "LOC000116293877",
    "tech": "WIRELESS",
    "upgrade": "NULL_NA",
    "gnaf_pid": "GASA_425193823",
    "ee": true,
    "tech_change_status": "Not Planned",
    "program_type": "Fixed Wireless and Satellite Upgrade Program",
    "target_eligibility_quarter": "NA"
   }
  },
  {
   "type": "Feature",
   "geometry": {
    "type": "Point",
    "coordinates": [
     140.78424639,
     -34.21895387
    ]
   },
   "properties": {
    "name": "LOT 5 STURT HIGHWAY MUNDIC CREEK 5340",
    "locID": "LOC000116293877",
    "tech": "WIRELESS",
    "upgrade": "NULL_NA",
    "gnaf_pid": "GASA_425193824",
    "ee": true,
    "tech_change_status": "Not Planned",
    "program_type": "Fixed Wireless and Satellite Upgrade Program",
    "target_eligibility_quarter": "NA"
   }
  },
  {
   "type": "Feature",
   "geometry": {
    "type": "Point",
    "coordinates": [
     140.80541804,
     -34.19866531
    ]
   },
   "properties": {
    "name": "LOT 90 STURT HIGHWAY MUNDIC CREEK 5340",
    "locID": "LOC000116293877",
    "tech": "WIRELESS",
    "upgrade": "NULL_NA",
    "gnaf_pid": "GASA_425630457",
    "ee": true,
    "tech_change_status": "Not Planned",
    "program_type": "Fixed Wireless and Satellite Upgrade Program",
    "target_eligibility_quarter": "NA"
   }
  },
  {
   "type": "Feature",
   "geometry": {
    "type": "Point",
    "coordinates": [
     140.77883893,
     -34.19733449
    ]
   },
   "properties": {
    "name": "LOT 84 MUNDIC CREEK ROAD MUNDIC CREEK 5340",
    "locID": "LOC000116295050",
    "tech": "WIRELESS",
    "upgrade": "NULL_NA",
    "gnaf_pid": "GASA_425722840",
    "ee": true,
    "tech_change_status": "Not Planned",
    "program_type": "Fixed Wireless and Satellite Upgrade Program",
    "target_eligibility_quarter": "NA"
   }
  },
  {
   "type": "Feature",
   "geometry": {
    "type": "Point",
    "coordinates": [
     140.80486422,
     -34.20347402
    ]
   },
   "properties": {
    "name": "LOT 44 STURT HIGHWAY MUNDIC CREEK 5340",
    "locID": "LOC000116293877",
    "tech": "WIRELESS",
    "upgrade": "NULL_NA",
    "gnaf_pid": "GASA_719513889",
    "ee": true,
    "tech_change_status": "Not Planned",
    "program_type": "Fixed Wireless and Satellite Upgrade Program",
    "target_eligibility_quarter": "NA"
   }
  },
  {
   "type": "Feature",
   "geometry": {
    "type": "Point",
    "coordinates": [
     140.80815491,
     -34.19734189
    ]
   },
   "properties": {
    "name": "LOT 40 STURT HIGHWAY MUNDIC CREEK 5340",
    "locID": "LOC000116293877",
    "tech": "WIRELESS",
    "upgrade": "NULL_NA",
    "gnaf_pid": "GASA_719518659",
    "ee": true,
    "tech_change_status": "Not Planned",
    "program_type": "Fixed Wireless and Satellite Upgrade Program",
    "target_eligibility_quarter": "NA"
   }
  },
  {
   "type": "Feature",
   "geometry": {
    "type": "Point",
    "coordinates": [
     140.80648082,
     -34.19308405
    ]
   },
   "properties": {
    "name": "LOT 16 STURT HIGHWAY MUNDIC CREEK 5340",
    "locID": "LOC000144946682",
    "tech": "FTTN",
    "upgrade": "NULL_NA",
    "gnaf_pid": "GASA_719777111",
    "ee": true,
    "tech_change_status": "Not Planned"
   }
  },
  {
   "type": "Feature",
   "geometry": {
    "type": "Point",
    "coordinates": [
     140.76228375,
     -34.20960893
    ]
   },
   "properties": {
    "name": "LOT 41 MUNDIC CREEK ROAD MUNDIC CREEK 5340",
    "locID": "LOC000116295050",
    "tech": "WIRELESS",
    "upgrade": "NULL_NA",
    "gnaf_pid": "GASA_720185690",
    "ee": true,
    "tech_change_status": "Not Planned",
    "program_type": "Fixed Wireless and Satellite Upgrade Program",
    "target_eligibility_quarter": "NA"
   }
  },
  {
   "type": "Feature",
   "geometry": {
    "type": "Point",
    "coordinates": [
     140.77087155,
     -34.20527528
    ]
   },
   "properties": {
    "name": "LOT 40 MUNDIC CREEK ROAD MUNDIC CREEK 5340",
    "locID": "LOC000116295050",
    "tech": "WIRELESS",
    "upgrade": "NULL_NA",
    "gnaf_pid": "GASA_720188600",
    "ee": true,
    "tech_change_status": "Not Planned",
    "program_type": "Fixed Wireless and Satellite Upgrade Program",
    "target_eligibility_quarter": "NA"
   }
  }
 ]
}