{
 "type": "FeatureCollection",
 "generated": "2025-06-15T20:45:18.329069",
 "suburb": "NANGKITA",
 "features": [
  {
   "type": "Feature",
   "geometry": {
    "type": "Point",
    "coordinates": [
     138.65324067,
     -35.34118189
    ]
   },
   "properties": {
    "name": "LOT 1 NANGKITA ROAD NANGKITA 5210",
    "locID": "LOC000109719744",
    "tech": "NULL",
    "upgrade": "NULL_NA",
    "gnaf_pid": "GASA_424150080",
    "ee": true,
    "tech_change_status": "Not Planned"
   }
  },
  {
   "type": "Feature",
   "geometry": {
    "type": "Point",
    "coordinates": [
     138.72135876,
     -35.34856394
    ]
   },
   "properties": {
    "name": "LOT 2 NANGKITA ROAD NANGKITA 5210",
    "locID": "LOC000108241404",
    "tech": "WIRELESS",
    "upgrade": "NULL_NA",
    "gnaf_pid": "GASA_424194741",
    "ee": true,
    "tech_change_status": "Not Planned",
    "program_type": "Fixed Wireless and Satellite Upgrade Program",
    "target_eligibility_quarter": "NA"
   }
  },
  {
   "type": "Feature",
   "geometry": {
    "type": "Point",
    "coordinates": [
     138.64780586,
     -35.35041943
    ]
   },
   "properties": {
    "name": "LOT 51 NANGKITA ROAD NANGKITA 5210",
    "locID": "LOC100056394272",
    "tech": "WIRELESS",
    "upgrade": "NULL_NA",
    "gnaf_pid": "GASA_424194747",
    "ee": true,
    "tech_change_status": "Not Planned",
    "program_type": "Fixed Wireless and Satellite Upgrade Program",
    "target_eligibility_quarter": "NA"
   }
  },
  {
   "type": "Feature",
   "geometry": {
    "type": "Point",
    "coordinates": [
     138.68806121,
     -35.32763885
    ]
   },
   "properties": {
    "name": "LOT 1 RIDGE ROAD NANGKITA 5210",
    "locID": "LOC000109719744",
    "tech": "NULL",
    "upgrade": "NULL_NA",
    "gnaf_pid": "GASA_424205638",
    "ee": true,
    "tech_change_status": "Not Planned"
   }
  },
  {
   "type": "Feature",
   "geometry": {
    "type": "Point",
    "coordinates": [
     138.6490046,
     -35.34433225
    ]
   },
   "properties": {
    "name": "290 NANGKITA ROAD NANGKITA 5210",
    "locID": "LOC000017107202",
    "tech": "NULL",
    "upgrade": "NULL_NA",
    "gnaf_pid": "GASA_424320552",
    "ee": true,
    "tech_change_status": "Not Planned"
   }
  },
  {
   "type": "Feature",
   "geometry": {
    "type": "Point",
    "coordinates": [
     138.68747335,
     -35.34687958
    ]
   },
   "properties": {
    "name": "LOT 428 NANGKITA ROAD NANGKITA 5210",
    "locID": "LOC000130633168",
    "tech": "SATELLITE",
    "upgrade": "NULL_NA",
    "gnaf_pid": "GASA_424320559",
    "ee": true,
    "tech_change_status": "Not Planned"
   }
  },
  {
   "type": "Feature",
   "geometry": {
    "type": "Point",
    "coordinates": [
     138.6848264,
     -35.34677223
    ]
   },
   "properties": {
    "name": "LOT 433 NANGKITA ROAD NANGKITA 5210",
    "locID": "LOC000130658911",
    "tech": "NULL",
    "upgrade": "NULL_NA",
    "gnaf_pid": "GASA_424320560",
    "ee": true,
    "tech_change_status": "Not Planned"
   }
  },
  {
   "type": "Feature",
   "geometry": {
    "type": "Point",
    "coordinates": [
     138.69604336,
     -35.32456228
    ]
   },
   "properties": {
    "name": "LOT 1969 RIDGE ROAD NANGKITA 5210",
    "locID": "LOC000130655572",
    "tech": "NULL",
    "upgrade": "NULL_NA",
    "gnaf_pid": "GASA_424329168",
    "ee": true,
    "tech_change_status": "Not Planned"
   }
  },
  {
   "type": "Feature",
   "geometry": {
    "type": "Point",
    "coordinates": [
     138.65935308,
     -35.32362601
    ]
   },
   "properties": {
    "name": "LOT 50 ENTERPRISE ROAD NANGKITA 5210",
    "locID": "LOC000130680118",
    "tech": "NULL",
    "upgrade": "NULL_NA",
    "gnaf_pid": "GASA_424948439",
    "ee": true,
    "tech_change_status": "Not Planned"
   }
  },
  {
   "type": "Feature",
   "geometry": {
    "type": "Point",
    "coordinates": [
     138.6415838,
     -35.3324218
    ]
   },
   "properties": {
    "name": "407 BAHLOO GLEN ROAD NANGKITA 5210",
    "locID": "LOC000130676597",
    "tech": "SATELLITE",
    "upgrade": "NULL_NA",
    "gnaf_pid": "GASA_424954351",
    "ee": true,
    "tech_change_status": "Not Planned"
   }
  },
  {
   "type": "Feature",
   "geometry": {
    "type": "Point",
    "coordinates": [
     138.64369039,
     -35.33262766
    ]
   },
   "properties": {
    "name": "426 BAHLOO GLEN ROAD NANGKITA 5210",
    "locID": "LOC000130676699",
    "tech": "WIRELESS",
    "upgrade": "NULL_NA",
    "gnaf_pid": "GASA_424954352",
    "ee": true,
    "tech_change_status": "Not Planned",
    "program_type": "Fixed Wireless and Satellite Upgrade Program",
    "target_eligibility_quarter": "NA"
   }
  },
  {
   "type": "Feature",
   "geometry": {
    "type": "Point",
    "coordinates": [
     138.64803085,
     -35.33416525
    ]
   },
   "properties": {
    "name": "470 BAHLOO GLEN ROAD NANGKITA 5210",
    "locID": "LOC000130680102",
    "tech": "SATELLITE",
    "upgrade": "NULL_NA",
    "gnaf_pid": "GASA_424954354",
    "ee": true,
    "tech_change_status": "Not Planned"
   }
  },
  {
   "type": "Feature",
   "geometry": {
    "type": "Point",
    "coordinates": [
     138.65215435,
     -35.33498685
    ]
   },
   "properties": {
    "name": "509 BAHLOO GLEN ROAD NANGKITA 5210",
    "locID": "LOC000130680276",
    "tech": "SATELLITE",
    "upgrade": "WIRELESS",
    "gnaf_pid": "GASA_424954355",
    "ee": true,
    "tech_change_status": "Eligible to Order",
    "program_type": "Fixed Wireless and Satellite Upgrade Program",
    "target_eligibility_quarter": "NA"
   }
  },
  {
   "type": "Feature",
   "geometry": {
    "type": "Point",
    "coordinates": [
     138.65459172,
     -35.33516681
    ]
   },
   "properties": {
    "name": "532 BAHLOO GLEN ROAD NANGKITA 5210",
    "locID": "LOC000130683486",
    "tech": "WIRELESS",
    "upgrade": "NULL_NA",
    "gnaf_pid": "GASA_424954356",
    "ee": true,
    "tech_change_status": "Not Planned",
    "program_type": "Fixed Wireless and Satellite Upgrade Program",
    "target_eligibility_quarter": "NA"
   }
  },
  {
   "type": "Feature",
   "geometry": {
    "type": "Point",
    "coordinates": [
     138.71332418,
     -35.34306736
    ]
   },
   "properties": {
    "name": "112 GRIGGS ROAD NANGKITA 5210",
    "locID": "LOC000130651512",
    "tech": "WIRELESS",
    "upgrade": "NULL_NA",
    "gnaf_pid": "GASA_424956905",
    "ee": true,
    "tech_change_status": "Not Planned",
    "program_type": "Fixed Wireless and Satellite Upgrade Program",
    "target_eligibility_quarter": "NA"
   }
  },
  {
   "type": "Feature",
   "geometry": {
    "type": "Point",
    "coordinates": [
     138.71002449,
     -35.35093408
    ]
   },
   "properties": {
    "name": "20 GRIGGS ROAD NANGKITA 5210",
    "locID": "LOC000130659034",
    "tech": "WIRELESS",
    "upgrade": "NULL_NA",
    "gnaf_pid": "GASA_424956906",
    "ee": true,
    "tech_change_status": "Not Planned",
    "program_type": "Fixed Wireless and Satellite Upgrade Program",
    "target_eligibility_quarter": "NA"
   }
  },
  {
   "type": "Feature",
   "geometry": {
    "type": "Point",
    "coordinates": [
     138.70934662,
     -35.35230653
    ]
   },
   "properties": {
    "name": "5 GRIGGS ROAD NANGKITA 5210",
    "locID": "LOC000130680224",
    "tech": "NULL",
    "upgrade": "NULL_NA",
    "gnaf_pid": "GASA_424956907",
    "ee": true,
    "tech_change_status": "Not Planned"
   }
  },
  {
   "type": "Feature",
   "geometry": {
    "type": "Point",
    "coordinates": [
     138.69622309,
     -35.34220117
    ]
   },
   "properties": {
    "name": "183 HEIFER LANE NANGKITA 5210",
    "locID": "LOC000130658907",
    "tech": "WIRELESS",
    "upgrade": "NULL_NA",
    "gnaf_pid": "GASA_424957068",
    "ee": true,
    "tech_change_status": "Not Planned",
    "program_type": "Fixed Wireless and Satellite Upgrade Program",
    "target_eligibility_quarter": "NA"
   }
  },
  {
   "type": "Feature",
   "geometry": {
    "type": "Point",
    "coordinates": [
     138.68299086,
     -35.33498667
    ]
   },
   "properties": {
    "name": "34 HEIFER LANE NANGKITA 5210",
    "locID": "LOC000130672715",
    "tech": "WIRELESS",
    "upgrade": "NULL_NA",
    "gnaf_pid": "GASA_424957069",
    "ee": true,
    "tech_change_status": "Not Planned",
    "program_type": "Fixed Wireless and Satellite Upgrade Program",
    "target_eligibility_quarter": "NA"
   }
  },
  {
   "type": "Feature",
   "geometry": {
    "type": "Point",
    "coordinates": [
     138.7197266,
     -35.35696821
    ]
   },
   "properties": {
    "name": "1021 NANGKITA ROAD NANGKITA 5210",
    "locID": "LOC000130648170",
    "tech": "NULL",
    "upgrade": "NULL_NA",
    "gnaf_pid": "GASA_424959127",
    "ee": true,
    "tech_change_status": "Not Planned"
   }
  },
  {
   "type": "Feature",
   "geometry": {
    "type": "Point",
    "coordinates": [
     138.63952331,
     -35.34843398
    ]
   },
   "properties": {
    "name": "186 NANGKITA ROAD NANGKITA 5210",
    "locID": "LOC000130658911",
    "tech": "NULL",
    "upgrade": "NULL_NA",
    "gnaf_pid": "GASA_424959129",
    "ee": true,
    "tech_change_status": "Not Planned"
   }
  },
  {
   "type": "Feature",
   "geometry": {
    "type": "Point",
    "coordinates": [
     138.64035283,
     -35.34823682
    ]
   },
   "properties": {
    "name": "195 NANGKITA ROAD NANGKITA 5210",
    "locID": "LOC000130658948",
    "tech": "NULL",
    "upgrade": "NULL_NA",
    "gnaf_pid": "GASA_424959130",
    "ee": true,
    "tech_change_status": "Not Planned"
   }
  },
  {
   "type": "Feature",
   "geometry": {
    "type": "Point",
    "coordinates": [
     138.6435731,
     -35.34806255
    ]
   },
   "properties": {
    "name": "224 NANGKITA ROAD NANGKITA 5210",
    "locID": "LOC000130662468",
    "tech": "NULL",
    "upgrade": "NULL_NA",
    "gnaf_pid": "GASA_424959131",
    "ee": true,
    "tech_change_status": "Not Planned"
   }
  },
  {
   "type": "Feature",
   "geometry": {
    "type": "Point",
    "coordinates": [
     138.64370829,
     -35.34786299
    ]
   },
   "properties": {
    "name": "225 NANGKITA ROAD NANGKITA 5210",
    "locID": "LOC000130662481",
    "tech": "NULL",
    "upgrade": "NULL_NA",
    "gnaf_pid": "GASA_424959132",
    "ee": true,
    "tech_change_status": "Not Planned"
   }
  },
  {
   "type": "Feature",
   "geometry": {
    "type": "Point",
    "coordinates": [
     138.64395324,
     -35.34792635
    ]
   },
   "properties": {
    "name": "228 NANGKITA ROAD NANGKITA 5210",
    "locID": "LOC000130662565",
    "tech": "NULL",
    "upgrade": "NULL_NA",
    "gnaf_pid": "GASA_424959133",
    "ee": true,
    "tech_change_status": "Not Planned"
   }
  },
  {
   "type": "Feature",
   "geometry": {
    "type": "Point",
    "coordinates": [
     138.64571235,
     -35.34725987
    ]
   },
   "properties": {
    "name": "244 NANGKITA ROAD NANGKITA 5210",
    "locID": "LOC000130666069",
    "tech": "NULL",
    "upgrade": "NULL_NA",
    "gnaf_pid": "GASA_424959134",
    "ee": true,
    "tech_change_status": "Not Planned"
   }
  },
  {
   "type": "Feature",
   "geometry": {
    "type": "Point",
    "coordinates": [
     138.6474048,
     -35.34609314
    ]
   },
   "properties": {
    "name": "264 NANGKITA ROAD NANGKITA 5210",
    "locID": "LOC000130666216",
    "tech": "NULL",
    "upgrade": "NULL_NA",
    "gnaf_pid": "GASA_424959135",
    "ee": true,
    "tech_change_status": "Not Planned"
   }
  },
  {
   "type": "Feature",
   "geometry": {
    "type": "Point",
    "coordinates": [
     138.64788386,
     -35.34555504
    ]
   },
   "properties": {
    "name": "272 NANGKITA ROAD NANGKITA 5210",
    "locID": "LOC000130666271",
    "tech": "NULL",
    "upgrade": "NULL_NA",
    "gnaf_pid": "GASA_424959136",
    "ee": true,
    "tech_change_status": "Not Planned"
   }
  },
  {
   "type": "Feature",
   "geometry": {
    "type": "Point",
    "coordinates": [
     138.6486431,
     -35.34455771
    ]
   },
   "properties": {
    "name": "285 NANGKITA ROAD NANGKITA 5210",
    "locID": "LOC000130669457",
    "tech": "SATELLITE",
    "upgrade": "NULL_NA",
    "gnaf_pid": "GASA_424959137",
    "ee": true,
    "tech_change_status": "Not Planned"
   }
  },
  {
   "type": "Feature",
   "geometry": {
    "type": "Point",
    "coordinates": [
     138.64929929,
     -35.34392023
    ]
   },
   "properties": {
    "name": "294 NANGKITA ROAD NANGKITA 5210",
    "locID": "LOC000130669490",
    "tech": "NULL",
    "upgrade": "NULL_NA",
    "gnaf_pid": "GASA_424959138",
    "ee": true,
    "tech_change_status": "Not Planned"
   }
  },
  {
   "type": "Feature",
   "geometry": {
    "type": "Point",
    "coordinates": [
     138.65058747,
     -35.34170369
    ]
   },
   "properties": {
    "name": "322 NANGKITA ROAD NANGKITA 5210",
    "locID": "LOC000130672620",
    "tech": "SATELLITE",
    "upgrade": "NULL_NA",
    "gnaf_pid": "GASA_424959139",
    "ee": true,
    "tech_change_status": "Not Planned"
   }
  },
  {
   "type": "Feature",
   "geometry": {
    "type": "Point",
    "coordinates": [
     138.65048706,
     -35.34160865
    ]
   },
   "properties": {
    "name": "323 NANGKITA ROAD NANGKITA 5210",
    "locID": "LOC000130672631",
    "tech": "SATELLITE",
    "upgrade": "NULL_NA",
    "gnaf_pid": "GASA_424959140",
    "ee": true,
    "tech_change_status": "Not Planned"
   }
  },
  {
   "type": "Feature",
   "geometry": {
    "type": "Point",
    "coordinates": [
     138.6511582,
     -35.34105849
    ]
   },
   "properties": {
    "name": "331 NANGKITA ROAD NANGKITA 5210",
    "locID": "LOC000130672654",
    "tech": "NULL",
    "upgrade": "NULL_NA",
    "gnaf_pid": "GASA_424959141",
    "ee": true,
    "tech_change_status": "Not Planned"
   }
  },
  {
   "type": "Feature",
   "geometry": {
    "type": "Point",
    "coordinates": [
     138.65158336,
     -35.34079866
    ]
   },
   "properties": {
    "name": "335 NANGKITA ROAD NANGKITA 5210",
    "locID": "LOC000130672677",
    "tech": "NULL",
    "upgrade": "NULL_NA",
    "gnaf_pid": "GASA_424959142",
    "ee": true,
    "tech_change_status": "Not Planned"
   }
  },
  {
   "type": "Feature",
   "geometry": {
    "type": "Point",
    "coordinates": [
     138.65401505,
     -35.3400261
    ]
   },
   "properties": {
    "name": "359 NANGKITA ROAD NANGKITA 5210",
    "locID": "LOC000130672770",
    "tech": "SATELLITE",
    "upgrade": "NULL_NA",
    "gnaf_pid": "GASA_424959144",
    "ee": true,
    "tech_change_status": "Not Planned"
   }
  },
  {
   "type": "Feature",
   "geometry": {
    "type": "Point",
    "coordinates": [
     138.65458008,
     -35.34000165
    ]
   },
   "properties": {
    "name": "364 NANGKITA ROAD NANGKITA 5210",
    "locID": "LOC000130672801",
    "tech": "NULL",
    "upgrade": "NULL_NA",
    "gnaf_pid": "GASA_424959145",
    "ee": true,
    "tech_change_status": "Not Planned"
   }
  },
  {
   "type": "Feature",
   "geometry": {
    "type": "Point",
    "coordinates": [
     138.6547669,
     -35.33996003
    ]
   },
   "properties": {
    "name": "366 NANGKITA ROAD NANGKITA 5210",
    "locID": "LOC000130672817",
    "tech": "NULL",
    "upgrade": "NULL_NA",
    "gnaf_pid": "GASA_424959146",
    "ee": true,
    "tech_change_status": "Not Planned"
   }
  },
  {
   "type": "Feature",
   "geometry": {
    "type": "Point",
    "coordinates": [
     138.66076606,
     -35.33876223
    ]
   },
   "properties": {
    "name": "423 NANGKITA ROAD NANGKITA 5210",
    "locID": "LOC000130676681",
    "tech": "WIRELESS",
    "upgrade": "NULL_NA",
    "gnaf_pid": "GASA_424959147",
    "ee": true,
    "tech_change_status": "Not Planned",
    "program_type": "Fixed Wireless and Satellite Upgrade Program",
    "target_eligibility_quarter": "NA"
   }
  },
  {
   "type": "Feature",
   "geometry": {
    "type": "Point",
    "coordinates": [
     138.66330689,
     -35.34063248
    ]
   },
   "properties": {
    "name": "455 NANGKITA ROAD NANGKITA 5210",
    "locID": "LOC100079011465",
    "tech": "SATELLITE",
    "upgrade": "NULL_NA",
    "gnaf_pid": "GASA_424959148",
    "ee": true,
    "tech_change_status": "Not Planned"
   }
  },
  {
   "type": "Feature",
   "geometry": {
    "type": "Point",
    "coordinates": [
     138.6686469,
     -35.34376507
    ]
   },
   "properties": {
    "name": "529 NANGKITA ROAD NANGKITA 5210",
    "locID": "LOC000130680322",
    "tech": "NULL",
    "upgrade": "NULL_NA",
    "gnaf_pid": "GASA_424959149",
    "ee": true,
    "tech_change_status": "Not Planned"
   }
  },
  {
   "type": "Feature",
   "geometry": {
    "type": "Point",
    "coordinates": [
     138.67173516,
     -35.34417431
    ]
   },
   "properties": {
    "name": "558 NANGKITA ROAD NANGKITA 5210",
    "locID": "LOC000130683543",
    "tech": "NULL",
    "upgrade": "NULL_NA",
    "gnaf_pid": "GASA_424959150",
    "ee": true,
    "tech_change_status": "Not Planned"
   }
  },
  {
   "type": "Feature",
   "geometry": {
    "type": "Point",
    "coordinates": [
     138.67327128,
     -35.34452815
    ]
   },
   "properties": {
    "name": "573 NANGKITA ROAD NANGKITA 5210",
    "locID": "LOC000130683589",
    "tech": "SATELLITE",
    "upgrade": "NULL_NA",
    "gnaf_pid": "GASA_424959151",
    "ee": true,
    "tech_change_status": "Not Planned"
   }
  },
  {
   "type": "Feature",
   "geometry": {
    "type": "Point",
    "coordinates": [
     138.67480109,
     -35.34512442
    ]
   },
   "properties": {
    "name": "588 NANGKITA ROAD NANGKITA 5210",
    "locID": "LOC000130683625",
    "tech": "NULL",
    "upgrade": "NULL_NA",
    "gnaf_pid": "GASA_424959152",
    "ee": true,
    "tech_change_status": "Not Planned"
   }
  },
  {
   "type": "Feature",
   "geometry": {
    "type": "Point",
    "coordinates": [
     138.67513112,
     -35.34524375
    ]
   },
   "properties": {
    "name": "592 NANGKITA ROAD NANGKITA 5210",
    "locID": "LOC000130683641",
    "tech": "SATELLITE",
    "upgrade": "NULL_NA",
    "gnaf_pid": "GASA_424959153",
    "ee": true,
    "tech_change_status": "Not Planned"
   }
  },
  {
   "type": "Feature",
   "geometry": {
    "type": "Point",
    "coordinates": [
     138.67683595,
     -35.34562094
    ]
   },
   "properties": {
    "name": "607 NANGKITA ROAD NANGKITA 5210",
    "locID": "LOC000130683723",
    "tech": "NULL",
    "upgrade": "NULL_NA",
    "gnaf_pid": "GASA_424959154",
    "ee": true,
    "tech_change_status": "Not Planned"
   }
  },
  {
   "type": "Feature",
   "geometry": {
    "type": "Point",
    "coordinates": [
     138.68126206,
     -35.34676114
    ]
   },
   "properties": {
    "name": "650 NANGKITA ROAD NANGKITA 5210",
    "locID": "LOC000130629525",
    "tech": "NULL",
    "upgrade": "NULL_NA",
    "gnaf_pid": "GASA_424959156",
    "ee": true,
    "tech_change_status": "Not Planned"
   }
  },
  {
   "type": "Feature",
   "geometry": {
    "type": "Point",
    "coordinates": [
     138.68190816,
     -35.34660458
    ]
   },
   "properties": {
    "name": "657 NANGKITA ROAD NANGKITA 5210",
    "locID": "LOC000130629539",
    "tech": "NULL",
    "upgrade": "NULL_NA",
    "gnaf_pid": "GASA_424959157",
    "ee": true,
    "tech_change_status": "Not Planned"
   }
  },
  {
   "type": "Feature",
   "geometry": {
    "type": "Point",
    "coordinates": [
     138.68257715,
     -35.34657166
    ]
   },
   "properties": {
    "name": "663 NANGKITA ROAD NANGKITA 5210",
    "locID": "LOC000130629541",
    "tech": "SATELLITE",
    "upgrade": "NULL_NA",
    "gnaf_pid": "GASA_424959158",
    "ee": true,
    "tech_change_status": "Not Planned"
   }
  },
  {
   "type": "Feature",
   "geometry": {
    "type": "Point",
    "coordinates": [
     138.68284507,
     -35.3466892
    ]
   },
   "properties": {
    "name": "664 NANGKITA ROAD NANGKITA 5210",
    "locID": "LOC000130629556",
    "tech": "NULL",
    "upgrade": "NULL_NA",
    "gnaf_pid": "GASA_424959159",
    "ee": true,
    "tech_change_status": "Not Planned"
   }
  },
  {
   "type": "Feature",
   "geometry": {
    "type": "Point",
    "coordinates": [
     138.683495,
     -35.346662
    ]
   },
   "properties": {
    "name": "671 NANGKITA ROAD NANGKITA 5210",
    "locID": "LOC000130629616",
    "tech": "SATELLITE",
    "upgrade": "NULL_NA",
    "gnaf_pid": "GASA_424959160",
    "ee": true,
    "tech_change_status": "Not Planned"
   }
  },
  {
   "type": "Feature",
   "geometry": {
    "type": "Point",
    "coordinates": [
     138.68508953,
     -35.3470495
    ]
   },
   "properties": {
    "name": "686 NANGKITA ROAD NANGKITA 5210",
    "locID": "LOC000130629663",
    "tech": "SATELLITE",
    "upgrade": "NULL_NA",
    "gnaf_pid": "GASA_424959161",
    "ee": true,
    "tech_change_status": "Not Planned"
   }
  },
  {
   "type": "Feature",
   "geometry": {
    "type": "Point",
    "coordinates": [
     138.68610072,
     -35.34709129
    ]
   },
   "properties": {
    "name": "695 NANGKITA ROAD NANGKITA 5210",
    "locID": "LOC000130629685",
    "tech": "SATELLITE",
    "upgrade": "NULL_NA",
    "gnaf_pid": "GASA_424959162",
    "ee": true,
    "tech_change_status": "Not Planned"
   }
  },
  {
   "type": "Feature",
   "geometry": {
    "type": "Point",
    "coordinates": [
     138.68684285,
     -35.34734623
    ]
   },
   "properties": {
    "name": "702 NANGKITA ROAD NANGKITA 5210",
    "locID": "LOC000130629784",
    "tech": "NULL",
    "upgrade": "NULL_NA",
    "gnaf_pid": "GASA_424959163",
    "ee": true,
    "tech_change_status": "Not Planned"
   }
  },
  {
   "type": "Feature",
   "geometry": {
    "type": "Point",
    "coordinates": [
     138.68790662,
     -35.34741603
    ]
   },
   "properties": {
    "name": "713 NANGKITA ROAD NANGKITA 5210",
    "locID": "LOC000130629807",
    "tech": "NULL",
    "upgrade": "NULL_NA",
    "gnaf_pid": "GASA_424959164",
    "ee": true,
    "tech_change_status": "Not Planned"
   }
  },
  {
   "type": "Feature",
   "geometry": {
    "type": "Point",
    "coordinates": [
     138.69012876,
     -35.34788527
    ]
   },
   "properties": {
    "name": "733 NANGKITA ROAD NANGKITA 5210",
    "locID": "LOC000130633083",
    "tech": "SATELLITE",
    "upgrade": "NULL_NA",
    "gnaf_pid": "GASA_424959165",
    "ee": true,
    "tech_change_status": "Not Planned"
   }
  },
  {
   "type": "Feature",
   "geometry": {
    "type": "Point",
    "coordinates": [
     138.69046283,
     -35.34797207
    ]
   },
   "properties": {
    "name": "735 NANGKITA ROAD NANGKITA 5210",
    "locID": "LOC000130633106",
    "tech": "NULL",
    "upgrade": "NULL_NA",
    "gnaf_pid": "GASA_424959166",
    "ee": true,
    "tech_change_status": "Not Planned"
   }
  },
  {
   "type": "Feature",
   "geometry": {
    "type": "Point",
    "coordinates": [
     138.69092499,
     -35.34806132
    ]
   },
   "properties": {
    "name": "741 NANGKITA ROAD NANGKITA 5210",
    "locID": "LOC000130633110",
    "tech": "NULL",
    "upgrade": "NULL_NA",
    "gnaf_pid": "GASA_424959167",
    "ee": true,
    "tech_change_status": "Not Planned"
   }
  },
  {
   "type": "Feature",
   "geometry": {
    "type": "Point",
    "coordinates": [
     138.69303764,
     -35.34860312
    ]
   },
   "properties": {
    "name": "761 NANGKITA ROAD NANGKITA 5210",
    "locID": "LOC000130633152",
    "tech": "SATELLITE",
    "upgrade": "NULL_NA",
    "gnaf_pid": "GASA_424959168",
    "ee": true,
    "tech_change_status": "Not Planned"
   }
  },
  {
   "type": "Feature",
   "geometry": {
    "type": "Point",
    "coordinates": [
     138.69377811,
     -35.34876599
    ]
   },
   "properties": {
    "name": "767 NANGKITA ROAD NANGKITA 5210",
    "locID": "LOC000130633168",
    "tech": "SATELLITE",
    "upgrade": "NULL_NA",
    "gnaf_pid": "GASA_424959169",
    "ee": true,
    "tech_change_status": "Not Planned"
   }
  },
  {
   "type": "Feature",
   "geometry": {
    "type": "Point",
    "coordinates": [
     138.69375101,
     -35.34888324
    ]
   },
   "properties": {
    "name": "768 NANGKITA ROAD NANGKITA 5210",
    "locID": "LOC000130633175",
    "tech": "NULL",
    "upgrade": "NULL_NA",
    "gnaf_pid": "GASA_424959170",
    "ee": true,
    "tech_change_status": "Not Planned"
   }
  },
  {
   "type": "Feature",
   "geometry": {
    "type": "Point",
    "coordinates": [
     138.70602125,
     -35.35189434
    ]
   },
   "properties": {
    "name": "884 NANGKITA ROAD NANGKITA 5210",
    "locID": "LOC000130636643",
    "tech": "NULL",
    "upgrade": "NULL_NA",
    "gnaf_pid": "GASA_424959171",
    "ee": true,
    "tech_change_status": "Not Planned"
   }
  },
  {
   "type": "Feature",
   "geometry": {
    "type": "Point",
    "coordinates": [
     138.70896467,
     -35.35261481
    ]
   },
   "properties": {
    "name": "912 NANGKITA ROAD NANGKITA 5210",
    "locID": "LOC000130636712",
    "tech": "SATELLITE",
    "upgrade": "NULL_NA",
    "gnaf_pid": "GASA_424959172",
    "ee": true,
    "tech_change_status": "Not Planned"
   }
  },
  {
   "type": "Feature",
   "geometry": {
    "type": "Point",
    "coordinates": [
     138.71369844,
     -35.35370611
    ]
   },
   "properties": {
    "name": "957 NANGKITA ROAD NANGKITA 5210",
    "locID": "LOC000130636796",
    "tech": "WIRELESS",
    "upgrade": "NULL_NA",
    "gnaf_pid": "GASA_424959173",
    "ee": true,
    "tech_change_status": "Not Planned",
    "program_type": "Fixed Wireless and Satellite Upgrade Program",
    "target_eligibility_quarter": "NA"
   }
  },
  {
   "type": "Feature",
   "geometry": {
    "type": "Point",
    "coordinates": [
     138.683313,
     -35.331455
    ]
   },
   "properties": {
    "name": "158 RIDGE ROAD NANGKITA 5210",
    "locID": "LOC000130655538",
    "tech": "SATELLITE",
    "upgrade": "NULL_NA",
    "gnaf_pid": "GASA_424960438",
    "ee": true,
    "tech_change_status": "Not Planned"
   }
  },
  {
   "type": "Feature",
   "geometry": {
    "type": "Point",
    "coordinates": [
     138.69791244,
     -35.33112253
    ]
   },
   "properties": {
    "name": "16 RIDGE ROAD NANGKITA 5210",
    "locID": "LOC000130655572",
    "tech": "NULL",
    "upgrade": "NULL_NA",
    "gnaf_pid": "GASA_424960439",
    "ee": true,
    "tech_change_status": "Not Planned"
   }
  },
  {
   "type": "Feature",
   "geometry": {
    "type": "Point",
    "coordinates": [
     138.69932613,
     -35.33154547
    ]
   },
   "properties": {
    "name": "2 RIDGE ROAD NANGKITA 5210",
    "locID": "LOC000130659010",
    "tech": "WIRELESS",
    "upgrade": "NULL_NA",
    "gnaf_pid": "GASA_424960440",
    "ee": true,
    "tech_change_status": "Not Planned",
    "program_type": "Fixed Wireless and Satellite Upgrade Program",
    "target_eligibility_quarter": "NA"
   }
  },
  {
   "type": "Feature",
   "geometry": {
    "type": "Point",
    "coordinates": [
     138.69484332,
     -35.32977029
    ]
   },
   "properties": {
    "name": "47 RIDGE ROAD NANGKITA 5210",
    "locID": "LOC000130680085",
    "tech": "SATELLITE",
    "upgrade": "NULL_NA",
    "gnaf_pid": "GASA_424960441",
    "ee": true,
    "tech_change_status": "Not Planned"
   }
  },
  {
   "type": "Feature",
   "geometry": {
    "type": "Point",
    "coordinates": [
     138.67615018,
     -35.34444859
    ]
   },
   "properties": {
    "name": "11 STONES FORD ROAD NANGKITA 5210",
    "locID": "LOC000130651481",
    "tech": "SATELLITE",
    "upgrade": "NULL_NA",
    "gnaf_pid": "GASA_424961231",
    "ee": true,
    "tech_change_status": "Not Planned"
   }
  },
  {
   "type": "Feature",
   "geometry": {
    "type": "Point",
    "coordinates": [
     138.679306,
     -35.333212
    ]
   },
   "properties": {
    "name": "139 STONES FORD ROAD NANGKITA 5210",
    "locID": "LOC000130655398",
    "tech": "WIRELESS",
    "upgrade": "NULL_NA",
    "gnaf_pid": "GASA_424961232",
    "ee": true,
    "tech_change_status": "Not Planned",
    "program_type": "Fixed Wireless and Satellite Upgrade Program",
    "target_eligibility_quarter": "NA"
   }
  },
  {
   "type": "Feature",
   "geometry": {
    "type": "Point",
    "coordinates": [
     138.68112,
     -35.332216
    ]
   },
   "properties": {
    "name": "161 STONES FORD ROAD NANGKITA 5210",
    "locID": "LOC000130655593",
    "tech": "SATELLITE",
    "upgrade": "NULL_NA",
    "gnaf_pid": "GASA_424961233",
    "ee": true,
    "tech_change_status": "Not Planned"
   }
  },
  {
   "type": "Feature",
   "geometry": {
    "type": "Point",
    "coordinates": [
     138.67707027,
     -35.3410666
    ]
   },
   "properties": {
    "name": "49 STONES FORD ROAD NANGKITA 5210",
    "locID": "LOC000130680207",
    "tech": "NULL",
    "upgrade": "NULL_NA",
    "gnaf_pid": "GASA_424961236",
    "ee": true,
    "tech_change_status": "Not Planned"
   }
  },
  {
   "type": "Feature",
   "geometry": {
    "type": "Point",
    "coordinates": [
     138.67800428,
     -35.33781815
    ]
   },
   "properties": {
    "name": "87 STONES FORD ROAD NANGKITA 5210",
    "locID": "LOC000130636586",
    "tech": "SATELLITE",
    "upgrade": "NULL_NA",
    "gnaf_pid": "GASA_424961237",
    "ee": true,
    "tech_change_status": "Not Planned"
   }
  },
  {
   "type": "Feature",
   "geometry": {
    "type": "Point",
    "coordinates": [
     138.72491814,
     -35.35855741
    ]
   },
   "properties": {
    "name": "16 SWAMPY CRESCENT NANGKITA 5210",
    "locID": "LOC000130655586",
    "tech": "NULL",
    "upgrade": "NULL_NA",
    "gnaf_pid": "GASA_424961330",
    "ee": true,
    "tech_change_status": "Not Planned"
   }
  },
  {
   "type": "Feature",
   "geometry": {
    "type": "Point",
    "coordinates": [
     138.72353262,
     -35.3569234
    ]
   },
   "properties": {
    "name": "38 SWAMPY CRESCENT NANGKITA 5210",
    "locID": "LOC000130672886",
    "tech": "NULL",
    "upgrade": "NULL_NA",
    "gnaf_pid": "GASA_424961331",
    "ee": true,
    "tech_change_status": "Not Planned"
   }
  },
  {
   "type": "Feature",
   "geometry": {
    "type": "Point",
    "coordinates": [
     138.72107012,
     -35.35452018
    ]
   },
   "properties": {
    "name": "72 SWAMPY CRESCENT NANGKITA 5210",
    "locID": "LOC000130633054",
    "tech": "NULL",
    "upgrade": "NULL_NA",
    "gnaf_pid": "GASA_424961332",
    "ee": true,
    "tech_change_status": "Not Planned"
   }
  },
  {
   "type": "Feature",
   "geometry": {
    "type": "Point",
    "coordinates": [
     138.71976,
     -35.353452
    ]
   },
   "properties": {
    "name": "88 SWAMPY CRESCENT NANGKITA 5210",
    "locID": "LOC000130636615",
    "tech": "WIRELESS",
    "upgrade": "NULL_NA",
    "gnaf_pid": "GASA_424961333",
    "ee": true,
    "tech_change_status": "Not Planned",
    "program_type": "Fixed Wireless and Satellite Upgrade Program",
    "target_eligibility_quarter": "NA"
   }
  },
  {
   "type": "Feature",
   "geometry": {
    "type": "Point",
    "coordinates": [
     138.70002455,
     -35.35724663
    ]
   },
   "properties": {
    "name": "102 WATERFALL DRIVE NANGKITA 5210",
    "locID": "LOC000130648162",
    "tech": "NULL",
    "upgrade": "NULL_NA",
    "gnaf_pid": "GASA_424961881",
    "ee": true,
    "tech_change_status": "Not Planned"
   }
  },
  {
   "type": "Feature",
   "geometry": {
    "type": "Point",
    "coordinates": [
     138.69666124,
     -35.3518967
    ]
   },
   "properties": {
    "name": "34 WATERFALL DRIVE NANGKITA 5210",
    "locID": "LOC000130672736",
    "tech": "NULL",
    "upgrade": "NULL_NA",
    "gnaf_pid": "GASA_424961882",
    "ee": true,
    "tech_change_status": "Not Planned"
   }
  },
  {
   "type": "Feature",
   "geometry": {
    "type": "Point",
    "coordinates": [
     138.69726002,
     -35.35282252
    ]
   },
   "properties": {
    "name": "46 WATERFALL DRIVE NANGKITA 5210",
    "locID": "LOC000130680063",
    "tech": "NULL",
    "upgrade": "NULL_NA",
    "gnaf_pid": "GASA_424961883",
    "ee": true,
    "tech_change_status": "Not Planned"
   }
  },
  {
   "type": "Feature",
   "geometry": {
    "type": "Point",
    "coordinates": [
     138.69507351,
     -35.34941008
    ]
   },
   "properties": {
    "name": "4 WATERFALL DRIVE NANGKITA 5210",
    "locID": "LOC000130676550",
    "tech": "SATELLITE",
    "upgrade": "NULL_NA",
    "gnaf_pid": "GASA_424961884",
    "ee": true,
    "tech_change_status": "Not Planned"
   }
  },
  {
   "type": "Feature",
   "geometry": {
    "type": "Point",
    "coordinates": [
     138.69524307,
     -35.34943531
    ]
   },
   "properties": {
    "name": "5 WATERFALL DRIVE NANGKITA 5210",
    "locID": "LOC000130680253",
    "tech": "SATELLITE",
    "upgrade": "NULL_NA",
    "gnaf_pid": "GASA_424961885",
    "ee": true,
    "tech_change_status": "Not Planned"
   }
  },
  {
   "type": "Feature",
   "geometry": {
    "type": "Point",
    "coordinates": [
     138.69803277,
     -35.35408405
    ]
   },
   "properties": {
    "name": "62 WATERFALL DRIVE NANGKITA 5210",
    "locID": "LOC000130683775",
    "tech": "NULL",
    "upgrade": "NULL_NA",
    "gnaf_pid": "GASA_424961886",
    "ee": true,
    "tech_change_status": "Not Planned"
   }
  },
  {
   "type": "Feature",
   "geometry": {
    "type": "Point",
    "coordinates": [
     138.69937905,
     -35.3561241
    ]
   },
   "properties": {
    "name": "88 WATERFALL DRIVE NANGKITA 5210",
    "locID": "LOC000130636627",
    "tech": "SATELLITE",
    "upgrade": "NULL_NA",
    "gnaf_pid": "GASA_424961887",
    "ee": true,
    "tech_change_status": "Not Planned"
   }
  },
  {
   "type": "Feature",
   "geometry": {
    "type": "Point",
    "coordinates": [
     138.69983135,
     -35.3568591
    ]
   },
   "properties": {
    "name": "96 WATERFALL DRIVE NANGKITA 5210",
    "locID": "LOC000130636810",
    "tech": "SATELLITE",
    "upgrade": "NULL_NA",
    "gnaf_pid": "GASA_424961888",
    "ee": true,
    "tech_change_status": "Not Planned"
   }
  },
  {
   "type": "Feature",
   "geometry": {
    "type": "Point",
    "coordinates": [
     138.66949472,
     -35.34987883
    ]
   },
   "properties": {
    "name": "101 WILLOWBURN DRIVE NANGKITA 5210",
    "locID": "LOC000130648127",
    "tech": "SATELLITE",
    "upgrade": "NULL_NA",
    "gnaf_pid": "GASA_424962078",
    "ee": true,
    "tech_change_status": "Not Planned"
   }
  },
  {
   "type": "Feature",
   "geometry": {
    "type": "Point",
    "coordinates": [
     138.670197,
     -35.34996
    ]
   },
   "properties": {
    "name": "108 WILLOWBURN DRIVE NANGKITA 5210",
    "locID": "LOC000130651423",
    "tech": "SATELLITE",
    "upgrade": "NULL_NA",
    "gnaf_pid": "GASA_424962079",
    "ee": true,
    "tech_change_status": "Not Planned"
   }
  },
  {
   "type": "Feature",
   "geometry": {
    "type": "Point",
    "coordinates": [
     138.66615799,
     -35.3465304
    ]
   },
   "properties": {
    "name": "32 WILLOWBURN DRIVE NANGKITA 5210",
    "locID": "LOC000130672612",
    "tech": "SATELLITE",
    "upgrade": "NULL_NA",
    "gnaf_pid": "GASA_424962080",
    "ee": true,
    "tech_change_status": "Not Planned"
   }
  },
  {
   "type": "Feature",
   "geometry": {
    "type": "Point",
    "coordinates": [
     138.66619914,
     -35.34786998
    ]
   },
   "properties": {
    "name": "47 WILLOWBURN DRIVE NANGKITA 5210",
    "locID": "LOC000130680092",
    "tech": "SATELLITE",
    "upgrade": "NULL_NA",
    "gnaf_pid": "GASA_424962081",
    "ee": true,
    "tech_change_status": "Not Planned"
   }
  },
  {
   "type": "Feature",
   "geometry": {
    "type": "Point",
    "coordinates": [
     138.66566493,
     -35.34867947
    ]
   },
   "properties": {
    "name": "58 WILLOWBURN DRIVE NANGKITA 5210",
    "locID": "LOC000130683618",
    "tech": "NULL",
    "upgrade": "NULL_NA",
    "gnaf_pid": "GASA_424962082",
    "ee": true,
    "tech_change_status": "Not Planned"
   }
  },
  {
   "type": "Feature",
   "geometry": {
    "type": "Point",
    "coordinates": [
     138.66553163,
     -35.34925672
    ]
   },
   "properties": {
    "name": "64 WILLOWBURN DRIVE NANGKITA 5210",
    "locID": "LOC000130629518",
    "tech": "NULL",
    "upgrade": "NULL_NA",
    "gnaf_pid": "GASA_424962083",
    "ee": true,
    "tech_change_status": "Not Planned"
   }
  },
  {
   "type": "Feature",
   "geometry": {
    "type": "Point",
    "coordinates": [
     138.66807423,
     -35.34992595
    ]
   },
   "properties": {
    "name": "88 WILLOWBURN DRIVE NANGKITA 5210",
    "locID": "LOC000130636636",
    "tech": "SATELLITE",
    "upgrade": "NULL_NA",
    "gnaf_pid": "GASA_424962084",
    "ee": true,
    "tech_change_status": "Not Planned"
   }
  },
  {
   "type": "Feature",
   "geometry": {
    "type": "Point",
    "coordinates": [
     138.66925214,
     -35.34996354
    ]
   },
   "properties": {
    "name": "98 WILLOWBURN DRIVE NANGKITA 5210",
    "locID": "LOC000130640740",
    "tech": "SATELLITE",
    "upgrade": "NULL_NA",
    "gnaf_pid": "GASA_424962085",
    "ee": true,
    "tech_change_status": "Not Planned"
   }
  },
  {
   "type": "Feature",
   "geometry": {
    "type": "Point",
    "coordinates": [
     138.66166739,
     -35.33066612
    ]
   },
   "properties": {
    "name": "470 ENTERPRISE ROAD NANGKITA 5210",
    "locID": "LOC000130680118",
    "tech": "NULL",
    "upgrade": "NULL_NA",
    "gnaf_pid": "GASA_425073459",
    "ee": true,
    "tech_change_status": "Not Planned"
   }
  },
  {
   "type": "Feature",
   "geometry": {
    "type": "Point",
    "coordinates": [
     138.71925558,
     -35.35686321
    ]
   },
   "properties": {
    "name": "1018 NANGKITA ROAD NANGKITA 5210",
    "locID": "LOC000130648143",
    "tech": "WIRELESS",
    "upgrade": "NULL_NA",
    "gnaf_pid": "GASA_425075035",
    "ee": true,
    "tech_change_status": "Not Planned",
    "program_type": "Fixed Wireless and Satellite Upgrade Program",
    "target_eligibility_quarter": "NA"
   }
  },
  {
   "type": "Feature",
   "geometry": {
    "type": "Point",
    "coordinates": [
     138.64789901,
     -35.33401042
    ]
   },
   "properties": {
    "name": "469 BAHLOO GLEN ROAD NANGKITA 5210",
    "locID": "LOC000150239669",
    "tech": "NULL",
    "upgrade": "NULL_NA",
    "gnaf_pid": "GASA_425105196",
    "ee": true,
    "tech_change_status": "Not Planned"
   }
  },
  {
   "type": "Feature",
   "geometry": {
    "type": "Point",
    "coordinates": [
     138.65223767,
     -35.33503489
    ]
   },
   "properties": {
    "name": "511 BAHLOO GLEN ROAD NANGKITA 5210",
    "locID": "LOC000150239676",
    "tech": "SATELLITE",
    "upgrade": "NULL_NA",
    "gnaf_pid": "GASA_425105197",
    "ee": true,
    "tech_change_status": "Not Planned"
   }
  },
  {
   "type": "Feature",
   "geometry": {
    "type": "Point",
    "coordinates": [
     138.68142277,
     -35.34662968
    ]
   },
   "properties": {
    "name": "651 NANGKITA ROAD NANGKITA 5210",
    "locID": "LOC000150239682",
    "tech": "NULL",
    "upgrade": "NULL_NA",
    "gnaf_pid": "GASA_425110073",
    "ee": true,
    "tech_change_status": "Not Planned"
   }
  },
  {
   "type": "Feature",
   "geometry": {
    "type": "Point",
    "coordinates": [
     138.67938985,
     -35.3334981
    ]
   },
   "properties": {
    "name": "136 STONES FORD ROAD NANGKITA 5210",
    "locID": "LOC000150239695",
    "tech": "NULL",
    "upgrade": "NULL_NA",
    "gnaf_pid": "GASA_425112317",
    "ee": true,
    "tech_change_status": "Not Planned"
   }
  },
  {
   "type": "Feature",
   "geometry": {
    "type": "Point",
    "coordinates": [
     138.64573987,
     -35.33333692
    ]
   },
   "properties": {
    "name": "448 BAHLOO GLEN ROAD NANGKITA 5210",
    "locID": "LOC000150239726",
    "tech": "NULL",
    "upgrade": "NULL_NA",
    "gnaf_pid": "GASA_425500224",
    "ee": true,
    "tech_change_status": "Not Planned"
   }
  },
  {
   "type": "Feature",
   "geometry": {
    "type": "Point",
    "coordinates": [
     138.66995839,
     -35.34998287
    ]
   },
   "properties": {
    "name": "104 WILLOWBURN DRIVE NANGKITA 5210",
    "locID": "LOC000189324291",
    "tech": "NULL",
    "upgrade": "NULL_NA",
    "gnaf_pid": "GASA_719046043",
    "ee": true,
    "tech_change_status": "Not Planned"
   }
  },
  {
   "type": "Feature",
   "geometry": {
    "type": "Point",
    "coordinates": [
     138.6702773,
     -35.34372199
    ]
   },
   "properties": {
    "name": "543 NANGKITA ROAD NANGKITA 5210",
    "locID": "LOC100079276401",
    "tech": "SATELLITE",
    "upgrade": "NULL_NA",
    "gnaf_pid": "GASA_719451485",
    "ee": true,
    "tech_change_status": "Not Planned"
   }
  },
  {
   "type": "Feature",
   "geometry": {
    "type": "Point",
    "coordinates": [
     138.646003,
     -35.347023
    ]
   },
   "properties": {
    "name": "247 NANGKITA ROAD NANGKITA 5210",
    "locID": "LOC100077870716",
    "tech": "SATELLITE",
    "upgrade": "NULL_NA",
    "gnaf_pid": "GASA_720721643",
    "ee": true,
    "tech_change_status": "Not Planned"
   }
  },
  {
   "type": "Feature",
   "geometry": {
    "type": "Point",
    "coordinates": [
     138.684048,
     -35.346754
    ]
   },
   "properties": {
    "name": "675 NANGKITA ROAD NANGKITA 5210",
    "locID": "LOC100078898667",
    "tech": "SATELLITE",
    "upgrade": "NULL_NA",
    "gnaf_pid": "GASA_720724260",
    "ee": true,
    "tech_change_status": "Not Planned"
   }
  }
 ]
}