{
 "type": "FeatureCollection",
 "generated": "2025-06-15T21:20:18.013566",
 "suburb": "NORTH MOOLOOLOO",
 "features": [
  {
   "type": "Feature",
   "geometry": {
    "type": "Point",
    "coordinates": [
     138.511478,
     -30.62460102
    ]
   },
   "properties": {
    "name": "1191 NORTH MOOLOOLOO ROAD NORTH MOOLOOLOO 5732",
    "locID": "LOC000150241011",
    "tech": "NULL",
    "upgrade": "NULL_NA",
    "gnaf_pid": "GASA_425629839",
    "ee": false,
    "tech_change_status": "Not Planned"
   }
  }
 ]
}