{
 "type": "FeatureCollection",
 "generated": "2025-06-15T21:47:44.664020",
 "suburb": "OAKVALE STATION",
 "features": [
  {
   "type": "Feature",
   "geometry": {
    "type": "Point",
    "coordinates": [
     140.777173,
     -32.99362701
    ]
   },
   "properties": {
    "name": "19757 EASTERN ROAD OAKVALE STATION 5417",
    "locID": "LOC000148245575",
    "tech": "SATELLITE",
    "upgrade": "NULL_NA",
    "gnaf_pid": "GASA_425628825",
    "ee": false,
    "tech_change_status": "Not Planned"
   }
  }
 ]
}