{
 "type": "FeatureCollection",
 "generated": "2025-06-15T21:50:04.953749",
 "suburb": "OLD KOOMOOLOO",
 "features": [
  {
   "type": "Feature",
   "geometry": {
    "type": "Point",
    "coordinates": [
     139.70747028,
     -33.56228445
    ]
   },
   "properties": {
    "name": "2543 KOOMOOLOO ROAD OLD KOOMOOLOO 5417",
    "locID": "LOC000148247186",
    "tech": "NULL",
    "upgrade": "NULL_NA",
    "gnaf_pid": "GASA_425629343",
    "ee": false,
    "tech_change_status": "Not Planned"
   }
  }
 ]
}