{
 "type": "FeatureCollection",
 "generated": "2025-06-15T22:16:13.940279",
 "suburb": "PARAMATTA",
 "features": [
  {
   "type": "Feature",
   "geometry": {
    "type": "Point",
    "coordinates": [
     137.62960949,
     -34.05395982
    ]
   },
   "properties": {
    "name": "29 MCCAULEY ROAD PARAMATTA 5558",
    "locID": "LOC000158442057",
    "tech": "WIRELESS",
    "upgrade": "NULL_NA",
    "gnaf_pid": "GASA_425139363",
    "ee": true,
    "tech_change_status": "Not Planned",
    "program_type": "Fixed Wireless and Satellite Upgrade Program",
    "target_eligibility_quarter": "NA"
   }
  },
  {
   "type": "Feature",
   "geometry": {
    "type": "Point",
    "coordinates": [
     137.6245074,
     -34.05671578
    ]
   },
   "properties": {
    "name": "1346 MINES ROAD PARAMATTA 5558",
    "locID": "LOC000165623645",
    "tech": "WIRELESS",
    "upgrade": "NULL_NA",
    "gnaf_pid": "GASA_425139449",
    "ee": true,
    "tech_change_status": "Not Planned",
    "program_type": "Fixed Wireless and Satellite Upgrade Program",
    "target_eligibility_quarter": "NA"
   }
  },
  {
   "type": "Feature",
   "geometry": {
    "type": "Point",
    "coordinates": [
     137.62046476,
     -34.05805764
    ]
   },
   "properties": {
    "name": "1388 MINES ROAD PARAMATTA 5558",
    "locID": "LOC000162043862",
    "tech": "WIRELESS",
    "upgrade": "NULL_NA",
    "gnaf_pid": "GASA_425139450",
    "ee": true,
    "tech_change_status": "Not Planned",
    "program_type": "Fixed Wireless and Satellite Upgrade Program",
    "target_eligibility_quarter": "NA"
   }
  },
  {
   "type": "Feature",
   "geometry": {
    "type": "Point",
    "coordinates": [
     137.61816079,
     -34.05888246
    ]
   },
   "properties": {
    "name": "1410 MINES ROAD PARAMATTA 5558",
    "locID": "LOC000149019732",
    "tech": "WIRELESS",
    "upgrade": "NULL_NA",
    "gnaf_pid": "GASA_425139452",
    "ee": true,
    "tech_change_status": "Not Planned",
    "program_type": "Fixed Wireless and Satellite Upgrade Program",
    "target_eligibility_quarter": "NA"
   }
  },
  {
   "type": "Feature",
   "geometry": {
    "type": "Point",
    "coordinates": [
     137.62076258,
     -34.05346615
    ]
   },
   "properties": {
    "name": "LOT 13 MINES ROAD PARAMATTA 5558",
    "locID": "LOC000165623645",
    "tech": "WIRELESS",
    "upgrade": "NULL_NA",
    "gnaf_pid": "GASA_425392806",
    "ee": true,
    "tech_change_status": "Not Planned",
    "program_type": "Fixed Wireless and Satellite Upgrade Program",
    "target_eligibility_quarter": "NA"
   }
  },
  {
   "type": "Feature",
   "geometry": {
    "type": "Point",
    "coordinates": [
     137.64414152,
     -34.04275694
    ]
   },
   "properties": {
    "name": "211 MCCAULEY ROAD PARAMATTA 5558",
    "locID": "LOC000144195756",
    "tech": "WIRELESS",
    "upgrade": "NULL_NA",
    "gnaf_pid": "GASA_425532684",
    "ee": true,
    "tech_change_status": "Not Planned",
    "program_type": "Fixed Wireless and Satellite Upgrade Program",
    "target_eligibility_quarter": "NA"
   }
  },
  {
   "type": "Feature",
   "geometry": {
    "type": "Point",
    "coordinates": [
     137.621428,
     -34.03459
    ]
   },
   "properties": {
    "name": "90 CAVANAGH ROAD PARAMATTA 5558",
    "locID": "LOC000169187950",
    "tech": "WIRELESS",
    "upgrade": "NULL_NA",
    "gnaf_pid": "GASA_425581372",
    "ee": true,
    "tech_change_status": "Not Planned",
    "program_type": "Fixed Wireless and Satellite Upgrade Program",
    "target_eligibility_quarter": "NA"
   }
  },
  {
   "type": "Feature",
   "geometry": {
    "type": "Point",
    "coordinates": [
     137.62782208,
     -34.04506237
    ]
   },
   "properties": {
    "name": "LOT 1910 MCCAULEY ROAD PARAMATTA 5558",
    "locID": "LOC000158442057",
    "tech": "WIRELESS",
    "upgrade": "NULL_NA",
    "gnaf_pid": "GASA_425722515",
    "ee": true,
    "tech_change_status": "Not Planned",
    "program_type": "Fixed Wireless and Satellite Upgrade Program",
    "target_eligibility_quarter": "NA"
   }
  },
  {
   "type": "Feature",
   "geometry": {
    "type": "Point",
    "coordinates": [
     137.61885623,
     -34.05821788
    ]
   },
   "properties": {
    "name": "LOT 2597 MINES ROAD PARAMATTA 5558",
    "locID": "LOC000165623645",
    "tech": "WIRELESS",
    "upgrade": "NULL_NA",
    "gnaf_pid": "GASA_425722697",
    "ee": true,
    "tech_change_status": "Not Planned",
    "program_type": "Fixed Wireless and Satellite Upgrade Program",
    "target_eligibility_quarter": "NA"
   }
  },
  {
   "type": "Feature",
   "geometry": {
    "type": "Point",
    "coordinates": [
     137.62001773,
     -34.05774869
    ]
   },
   "properties": {
    "name": "LOT 2598 MINES ROAD PARAMATTA 5558",
    "locID": "LOC000165623645",
    "tech": "WIRELESS",
    "upgrade": "NULL_NA",
    "gnaf_pid": "GASA_425722698",
    "ee": true,
    "tech_change_status": "Not Planned",
    "program_type": "Fixed Wireless and Satellite Upgrade Program",
    "target_eligibility_quarter": "NA"
   }
  },
  {
   "type": "Feature",
   "geometry": {
    "type": "Point",
    "coordinates": [
     137.62690484,
     -34.05041804
    ]
   },
   "properties": {
    "name": "LOT 1670 MCCAULEY ROAD PARAMATTA 5558",
    "locID": "LOC000158442057",
    "tech": "WIRELESS",
    "upgrade": "NULL_NA",
    "gnaf_pid": "GASA_719396598",
    "ee": true,
    "tech_change_status": "Not Planned",
    "program_type": "Fixed Wireless and Satellite Upgrade Program",
    "target_eligibility_quarter": "NA"
   }
  }
 ]
}