{
 "type": "FeatureCollection",
 "generated": "2025-06-15T22:16:04.231096",
 "suburb": "PARAKYLIA",
 "features": [
  {
   "type": "Feature",
   "geometry": {
    "type": "Point",
    "coordinates": [
     136.405021,
     -30.391439
    ]
   },
   "properties": {
    "name": "7738 BILLA KALINA ROAD PARAKYLIA 5720",
    "locID": "LOC000148253880",
    "tech": "SATELLITE",
    "upgrade": "NULL_NA",
    "gnaf_pid": "GASA_425628472",
    "ee": false,
    "tech_change_status": "Not Planned"
   }
  },
  {
   "type": "Feature",
   "geometry": {
    "type": "Point",
    "coordinates": [
     136.400855,
     -30.406896
    ]
   },
   "properties": {
    "name": "7561 BILLA KALINA ROAD PARAKYLIA 5720",
    "locID": "LOC000159217501",
    "tech": "SATELLITE",
    "upgrade": "NULL_NA",
    "gnaf_pid": "GASA_425844007",
    "ee": false,
    "tech_change_status": "Not Planned"
   }
  }
 ]
}