{
 "type": "FeatureCollection",
 "generated": "2025-06-15T22:23:29.132784",
 "suburb": "PARSONS BEACH",
 "features": [
  {
   "type": "Feature",
   "geometry": {
    "type": "Point",
    "coordinates": [
     137.4799317,
     -34.75067156
    ]
   },
   "properties": {
    "name": "115 PARSONS BEACH ROAD PARSONS BEACH 5575",
    "locID": "LOC100078113822",
    "tech": "WIRELESS",
    "upgrade": "NULL_NA",
    "gnaf_pid": "GASA_719512773",
    "ee": true,
    "tech_change_status": "Not Planned",
    "program_type": "Fixed Wireless and Satellite Upgrade Program",
    "target_eligibility_quarter": "NA"
   }
  },
  {
   "type": "Feature",
   "geometry": {
    "type": "Point",
    "coordinates": [
     137.48386579,
     -34.75082315
    ]
   },
   "properties": {
    "name": "93 PARSONS BEACH ROAD PARSONS BEACH 5575",
    "locID": "LOC000131636183",
    "tech": "WIRELESS",
    "upgrade": "NULL_NA",
    "gnaf_pid": "GASA_719513332",
    "ee": true,
    "tech_change_status": "Not Planned",
    "program_type": "Fixed Wireless and Satellite Upgrade Program",
    "target_eligibility_quarter": "NA"
   }
  },
  {
   "type": "Feature",
   "geometry": {
    "type": "Point",
    "coordinates": [
     137.47429836,
     -34.7746535
    ]
   },
   "properties": {
    "name": "LOT 304 BUSH TRACK PARSONS BEACH 5575",
    "locID": "LOC100072076985",
    "tech": "WIRELESS",
    "upgrade": "NULL_NA",
    "gnaf_pid": "GASA_719513409",
    "ee": true,
    "tech_change_status": "Not Planned",
    "program_type": "Fixed Wireless and Satellite Upgrade Program",
    "target_eligibility_quarter": "NA"
   }
  },
  {
   "type": "Feature",
   "geometry": {
    "type": "Point",
    "coordinates": [
     137.4814618,
     -34.75086323
    ]
   },
   "properties": {
    "name": "3 LEONARD COURT PARSONS BEACH 5575",
    "locID": "LOC100078647950",
    "tech": "WIRELESS",
    "upgrade": "NULL_NA",
    "gnaf_pid": "GASA_719513606",
    "ee": true,
    "tech_change_status": "Not Planned",
    "program_type": "Fixed Wireless and Satellite Upgrade Program",
    "target_eligibility_quarter": "NA"
   }
  },
  {
   "type": "Feature",
   "geometry": {
    "type": "Point",
    "coordinates": [
     137.47994655,
     -34.751004
    ]
   },
   "properties": {
    "name": "4 PARSONS PARADE PARSONS BEACH 5575",
    "locID": "LOC100078113851",
    "tech": "WIRELESS",
    "upgrade": "NULL_NA",
    "gnaf_pid": "GASA_719513654",
    "ee": true,
    "tech_change_status": "Not Planned",
    "program_type": "Fixed Wireless and Satellite Upgrade Program",
    "target_eligibility_quarter": "NA"
   }
  },
  {
   "type": "Feature",
   "geometry": {
    "type": "Point",
    "coordinates": [
     137.48051512,
     -34.75176879
    ]
   },
   "properties": {
    "name": "11 PARSONS PARADE PARSONS BEACH 5575",
    "locID": "LOC100072004941",
    "tech": "WIRELESS",
    "upgrade": "NULL_NA",
    "gnaf_pid": "GASA_719513900",
    "ee": true,
    "tech_change_status": "Not Planned",
    "program_type": "Fixed Wireless and Satellite Upgrade Program",
    "target_eligibility_quarter": "NA"
   }
  },
  {
   "type": "Feature",
   "geometry": {
    "type": "Point",
    "coordinates": [
     137.48048688,
     -34.75104594
    ]
   },
   "properties": {
    "name": "3 PARSONS PARADE PARSONS BEACH 5575",
    "locID": "LOC100078647966",
    "tech": "WIRELESS",
    "upgrade": "NULL_NA",
    "gnaf_pid": "GASA_719513902",
    "ee": true,
    "tech_change_status": "Not Planned",
    "program_type": "Fixed Wireless and Satellite Upgrade Program",
    "target_eligibility_quarter": "NA"
   }
  },
  {
   "type": "Feature",
   "geometry": {
    "type": "Point",
    "coordinates": [
     137.48146758,
     -34.75104359
    ]
   },
   "properties": {
    "name": "5 LEONARD COURT PARSONS BEACH 5575",
    "locID": "LOC100072004863",
    "tech": "WIRELESS",
    "upgrade": "NULL_NA",
    "gnaf_pid": "GASA_719513956",
    "ee": true,
    "tech_change_status": "Not Planned",
    "program_type": "Fixed Wireless and Satellite Upgrade Program",
    "target_eligibility_quarter": "NA"
   }
  },
  {
   "type": "Feature",
   "geometry": {
    "type": "Point",
    "coordinates": [
     137.48145538,
     -34.75068234
    ]
   },
   "properties": {
    "name": "1 LEONARD COURT PARSONS BEACH 5575",
    "locID": "LOC100078860963",
    "tech": "WIRELESS",
    "upgrade": "NULL_NA",
    "gnaf_pid": "GASA_719513958",
    "ee": true,
    "tech_change_status": "Not Planned",
    "program_type": "Fixed Wireless and Satellite Upgrade Program",
    "target_eligibility_quarter": "NA"
   }
  },
  {
   "type": "Feature",
   "geometry": {
    "type": "Point",
    "coordinates": [
     137.48049419,
     -34.75122287
    ]
   },
   "properties": {
    "name": "5 PARSONS PARADE PARSONS BEACH 5575",
    "locID": "LOC100072004871",
    "tech": "WIRELESS",
    "upgrade": "NULL_NA",
    "gnaf_pid": "GASA_719514275",
    "ee": true,
    "tech_change_status": "Not Planned",
    "program_type": "Fixed Wireless and Satellite Upgrade Program",
    "target_eligibility_quarter": "NA"
   }
  },
  {
   "type": "Feature",
   "geometry": {
    "type": "Point",
    "coordinates": [
     137.48064892,
     -34.75243969
    ]
   },
   "properties": {
    "name": "2 DOREEN STREET PARSONS BEACH 5575",
    "locID": "LOC000131652645",
    "tech": "WIRELESS",
    "upgrade": "NULL_NA",
    "gnaf_pid": "GASA_719514452",
    "ee": true,
    "tech_change_status": "Eligible to Order",
    "program_type": "Fixed Wireless and Satellite Upgrade Program",
    "target_eligibility_quarter": "NA"
   }
  },
  {
   "type": "Feature",
   "geometry": {
    "type": "Point",
    "coordinates": [
     137.47996221,
     -34.75149559
    ]
   },
   "properties": {
    "name": "10 PARSONS PARADE PARSONS BEACH 5575",
    "locID": "LOC100072004925",
    "tech": "WIRELESS",
    "upgrade": "NULL_NA",
    "gnaf_pid": "GASA_719514525",
    "ee": true,
    "tech_change_status": "Not Planned",
    "program_type": "Fixed Wireless and Satellite Upgrade Program",
    "target_eligibility_quarter": "NA"
   }
  },
  {
   "type": "Feature",
   "geometry": {
    "type": "Point",
    "coordinates": [
     137.48085139,
     -34.75142461
    ]
   },
   "properties": {
    "name": "8 LEONARD COURT PARSONS BEACH 5575",
    "locID": "LOC100072004918",
    "tech": "WIRELESS",
    "upgrade": "NULL_NA",
    "gnaf_pid": "GASA_719514574",
    "ee": true,
    "tech_change_status": "Not Planned",
    "program_type": "Fixed Wireless and Satellite Upgrade Program",
    "target_eligibility_quarter": "NA"
   }
  },
  {
   "type": "Feature",
   "geometry": {
    "type": "Point",
    "coordinates": [
     137.49621839,
     -34.77555468
    ]
   },
   "properties": {
    "name": "280 MOUNT TERRIBLE ROAD PARSONS BEACH 5575",
    "locID": "LOC000116335989",
    "tech": "WIRELESS",
    "upgrade": "NULL_NA",
    "gnaf_pid": "GASA_719514621",
    "ee": true,
    "tech_change_status": "Not Planned",
    "program_type": "Fixed Wireless and Satellite Upgrade Program",
    "target_eligibility_quarter": "NA"
   }
  },
  {
   "type": "Feature",
   "geometry": {
    "type": "Point",
    "coordinates": [
     137.47995902,
     -34.7513301
    ]
   },
   "properties": {
    "name": "8 PARSONS PARADE PARSONS BEACH 5575",
    "locID": "LOC100072004892",
    "tech": "WIRELESS",
    "upgrade": "NULL_NA",
    "gnaf_pid": "GASA_719514675",
    "ee": true,
    "tech_change_status": "Not Planned",
    "program_type": "Fixed Wireless and Satellite Upgrade Program",
    "target_eligibility_quarter": "NA"
   }
  },
  {
   "type": "Feature",
   "geometry": {
    "type": "Point",
    "coordinates": [
     137.48161831,
     -34.75253246
    ]
   },
   "properties": {
    "name": "10 DOREEN STREET PARSONS BEACH 5575",
    "locID": "LOC000131652645",
    "tech": "WIRELESS",
    "upgrade": "NULL_NA",
    "gnaf_pid": "GASA_719514758",
    "ee": true,
    "tech_change_status": "Eligible to Order",
    "program_type": "Fixed Wireless and Satellite Upgrade Program",
    "target_eligibility_quarter": "NA"
   }
  },
  {
   "type": "Feature",
   "geometry": {
    "type": "Point",
    "coordinates": [
     137.48088503,
     -34.7506823
    ]
   },
   "properties": {
    "name": "111 PARSONS BEACH ROAD PARSONS BEACH 5575",
    "locID": "LOC100087510159",
    "tech": "WIRELESS",
    "upgrade": "NULL_NA",
    "gnaf_pid": "GASA_719515085",
    "ee": true,
    "tech_change_status": "Not Planned",
    "program_type": "Fixed Wireless and Satellite Upgrade Program",
    "target_eligibility_quarter": "NA"
   }
  },
  {
   "type": "Feature",
   "geometry": {
    "type": "Point",
    "coordinates": [
     137.47967504,
     -34.76290006
    ]
   },
   "properties": {
    "name": "LOT 201 BUSH TRACK PARSONS BEACH 5575",
    "locID": "LOC100072076985",
    "tech": "WIRELESS",
    "upgrade": "NULL_NA",
    "gnaf_pid": "GASA_719515091",
    "ee": true,
    "tech_change_status": "Not Planned",
    "program_type": "Fixed Wireless and Satellite Upgrade Program",
    "target_eligibility_quarter": "NA"
   }
  },
  {
   "type": "Feature",
   "geometry": {
    "type": "Point",
    "coordinates": [
     137.4808861,
     -34.75121934
    ]
   },
   "properties": {
    "name": "6 LEONARD COURT PARSONS BEACH 5575",
    "locID": "LOC100078860959",
    "tech": "WIRELESS",
    "upgrade": "NULL_NA",
    "gnaf_pid": "GASA_719515201",
    "ee": true,
    "tech_change_status": "Not Planned",
    "program_type": "Fixed Wireless and Satellite Upgrade Program",
    "target_eligibility_quarter": "NA"
   }
  },
  {
   "type": "Feature",
   "geometry": {
    "type": "Point",
    "coordinates": [
     137.47961768,
     -34.75077014
    ]
   },
   "properties": {
    "name": "1 CHENOWETH CRESCENT PARSONS BEACH 5575",
    "locID": "LOC100078647978",
    "tech": "WIRELESS",
    "upgrade": "NULL_NA",
    "gnaf_pid": "GASA_719515925",
    "ee": true,
    "tech_change_status": "Not Planned",
    "program_type": "Fixed Wireless and Satellite Upgrade Program",
    "target_eligibility_quarter": "NA"
   }
  },
  {
   "type": "Feature",
   "geometry": {
    "type": "Point",
    "coordinates": [
     137.48134125,
     -34.752034
    ]
   },
   "properties": {
    "name": "5 DOREEN STREET PARSONS BEACH 5575",
    "locID": "LOC100072004960",
    "tech": "WIRELESS",
    "upgrade": "NULL_NA",
    "gnaf_pid": "GASA_719516189",
    "ee": true,
    "tech_change_status": "Not Planned",
    "program_type": "Fixed Wireless and Satellite Upgrade Program",
    "target_eligibility_quarter": "NA"
   }
  },
  {
   "type": "Feature",
   "geometry": {
    "type": "Point",
    "coordinates": [
     137.48047756,
     -34.75068345
    ]
   },
   "properties": {
    "name": "113 PARSONS BEACH ROAD PARSONS BEACH 5575",
    "locID": "LOC100078113833",
    "tech": "WIRELESS",
    "upgrade": "NULL_NA",
    "gnaf_pid": "GASA_719516191",
    "ee": true,
    "tech_change_status": "Not Planned",
    "program_type": "Fixed Wireless and Satellite Upgrade Program",
    "target_eligibility_quarter": "NA"
   }
  },
  {
   "type": "Feature",
   "geometry": {
    "type": "Point",
    "coordinates": [
     137.48048134,
     -34.75086692
    ]
   },
   "properties": {
    "name": "1 PARSONS PARADE PARSONS BEACH 5575",
    "locID": "LOC100072004925",
    "tech": "WIRELESS",
    "upgrade": "NULL_NA",
    "gnaf_pid": "GASA_719516196",
    "ee": true,
    "tech_change_status": "Not Planned",
    "program_type": "Fixed Wireless and Satellite Upgrade Program",
    "target_eligibility_quarter": "NA"
   }
  },
  {
   "type": "Feature",
   "geometry": {
    "type": "Point",
    "coordinates": [
     137.47967821,
     -34.75168716
    ]
   },
   "properties": {
    "name": "11 CHENOWETH CRESCENT PARSONS BEACH 5575",
    "locID": "LOC100078647978",
    "tech": "WIRELESS",
    "upgrade": "NULL_NA",
    "gnaf_pid": "GASA_719516245",
    "ee": true,
    "tech_change_status": "Not Planned",
    "program_type": "Fixed Wireless and Satellite Upgrade Program",
    "target_eligibility_quarter": "NA"
   }
  },
  {
   "type": "Feature",
   "geometry": {
    "type": "Point",
    "coordinates": [
     137.48438988,
     -34.75082413
    ]
   },
   "properties": {
    "name": "89 PARSONS BEACH ROAD PARSONS BEACH 5575",
    "locID": "LOC000131636203",
    "tech": "WIRELESS",
    "upgrade": "NULL_NA",
    "gnaf_pid": "GASA_719516251",
    "ee": true,
    "tech_change_status": "Not Planned",
    "program_type": "Fixed Wireless and Satellite Upgrade Program",
    "target_eligibility_quarter": "NA"
   }
  },
  {
   "type": "Feature",
   "geometry": {
    "type": "Point",
    "coordinates": [
     137.47902548,
     -34.75100834
    ]
   },
   "properties": {
    "name": "4 CHENOWETH CRESCENT PARSONS BEACH 5575",
    "locID": "LOC100072004837",
    "tech": "WIRELESS",
    "upgrade": "NULL_NA",
    "gnaf_pid": "GASA_719516571",
    "ee": true,
    "tech_change_status": "Not Planned",
    "program_type": "Fixed Wireless and Satellite Upgrade Program",
    "target_eligibility_quarter": "NA"
   }
  },
  {
   "type": "Feature",
   "geometry": {
    "type": "Point",
    "coordinates": [
     137.47995283,
     -34.75116677
    ]
   },
   "properties": {
    "name": "6 PARSONS PARADE PARSONS BEACH 5575",
    "locID": "LOC000131631754",
    "tech": "WIRELESS",
    "upgrade": "NULL_NA",
    "gnaf_pid": "GASA_719516604",
    "ee": true,
    "tech_change_status": "Not Planned",
    "program_type": "Fixed Wireless and Satellite Upgrade Program",
    "target_eligibility_quarter": "NA"
   }
  },
  {
   "type": "Feature",
   "geometry": {
    "type": "Point",
    "coordinates": [
     137.48049926,
     -34.75140409
    ]
   },
   "properties": {
    "name": "7 PARSONS PARADE PARSONS BEACH 5575",
    "locID": "LOC100072004902",
    "tech": "WIRELESS",
    "upgrade": "NULL_NA",
    "gnaf_pid": "GASA_719516846",
    "ee": true,
    "tech_change_status": "Not Planned",
    "program_type": "Fixed Wireless and Satellite Upgrade Program",
    "target_eligibility_quarter": "NA"
   }
  },
  {
   "type": "Feature",
   "geometry": {
    "type": "Point",
    "coordinates": [
     137.48891201,
     -34.76481168
    ]
   },
   "properties": {
    "name": "LOT 754 BUSH TRACK PARSONS BEACH 5575",
    "locID": "LOC100072076985",
    "tech": "WIRELESS",
    "upgrade": "NULL_NA",
    "gnaf_pid": "GASA_719517128",
    "ee": true,
    "tech_change_status": "Not Planned",
    "program_type": "Fixed Wireless and Satellite Upgrade Program",
    "target_eligibility_quarter": "NA"
   }
  },
  {
   "type": "Feature",
   "geometry": {
    "type": "Point",
    "coordinates": [
     137.48089682,
     -34.75104514
    ]
   },
   "properties": {
    "name": "4 LEONARD COURT PARSONS BEACH 5575",
    "locID": "LOC100087513914",
    "tech": "WIRELESS",
    "upgrade": "NULL_NA",
    "gnaf_pid": "GASA_719517375",
    "ee": true,
    "tech_change_status": "Not Planned",
    "program_type": "Fixed Wireless and Satellite Upgrade Program",
    "target_eligibility_quarter": "NA"
   }
  },
  {
   "type": "Feature",
   "geometry": {
    "type": "Point",
    "coordinates": [
     137.47914364,
     -34.75067045
    ]
   },
   "properties": {
    "name": "117 PARSONS BEACH ROAD PARSONS BEACH 5575",
    "locID": "LOC000131648255",
    "tech": "WIRELESS",
    "upgrade": "NULL_NA",
    "gnaf_pid": "GASA_719517433",
    "ee": true,
    "tech_change_status": "Not Planned",
    "program_type": "Fixed Wireless and Satellite Upgrade Program",
    "target_eligibility_quarter": "NA"
   }
  },
  {
   "type": "Feature",
   "geometry": {
    "type": "Point",
    "coordinates": [
     137.47997699,
     -34.75183113
    ]
   },
   "properties": {
    "name": "13 CHENOWETH CRESCENT PARSONS BEACH 5575",
    "locID": "LOC100087510163",
    "tech": "WIRELESS",
    "upgrade": "NULL_NA",
    "gnaf_pid": "GASA_719517435",
    "ee": true,
    "tech_change_status": "Not Planned",
    "program_type": "Fixed Wireless and Satellite Upgrade Program",
    "target_eligibility_quarter": "NA"
   }
  },
  {
   "type": "Feature",
   "geometry": {
    "type": "Point",
    "coordinates": [
     137.4808529,
     -34.75203243
    ]
   },
   "properties": {
    "name": "1 DOREEN STREET PARSONS BEACH 5575",
    "locID": "LOC100072004956",
    "tech": "WIRELESS",
    "upgrade": "NULL_NA",
    "gnaf_pid": "GASA_719517493",
    "ee": true,
    "tech_change_status": "Not Planned",
    "program_type": "Fixed Wireless and Satellite Upgrade Program",
    "target_eligibility_quarter": "NA"
   }
  },
  {
   "type": "Feature",
   "geometry": {
    "type": "Point",
    "coordinates": [
     137.48091066,
     -34.75166527
    ]
   },
   "properties": {
    "name": "10 LEONARD COURT PARSONS BEACH 5575",
    "locID": "LOC100078860963",
    "tech": "WIRELESS",
    "upgrade": "NULL_NA",
    "gnaf_pid": "GASA_719517545",
    "ee": true,
    "tech_change_status": "Not Planned",
    "program_type": "Fixed Wireless and Satellite Upgrade Program",
    "target_eligibility_quarter": "NA"
   }
  },
  {
   "type": "Feature",
   "geometry": {
    "type": "Point",
    "coordinates": [
     137.48197434,
     -34.75093346
    ]
   },
   "properties": {
    "name": "107-109 PARSONS BEACH ROAD PARSONS BEACH 5575",
    "locID": "LOC000150236769",
    "tech": "WIRELESS",
    "upgrade": "NULL_NA",
    "gnaf_pid": "GASA_719517813",
    "ee": true,
    "tech_change_status": "Not Planned",
    "program_type": "Fixed Wireless and Satellite Upgrade Program",
    "target_eligibility_quarter": "NA"
   }
  },
  {
   "type": "Feature",
   "geometry": {
    "type": "Point",
    "coordinates": [
     137.47999383,
     -34.75248064
    ]
   },
   "properties": {
    "name": "20 PARSONS PARADE PARSONS BEACH 5575",
    "locID": "LOC100072004973",
    "tech": "WIRELESS",
    "upgrade": "NULL_NA",
    "gnaf_pid": "GASA_719517978",
    "ee": true,
    "tech_change_status": "Not Planned",
    "program_type": "Fixed Wireless and Satellite Upgrade Program",
    "target_eligibility_quarter": "NA"
   }
  },
  {
   "type": "Feature",
   "geometry": {
    "type": "Point",
    "coordinates": [
     137.48465193,
     -34.75082462
    ]
   },
   "properties": {
    "name": "87 PARSONS BEACH ROAD PARSONS BEACH 5575",
    "locID": "LOC000131636219",
    "tech": "WIRELESS",
    "upgrade": "NULL_NA",
    "gnaf_pid": "GASA_719517982",
    "ee": true,
    "tech_change_status": "Not Planned",
    "program_type": "Fixed Wireless and Satellite Upgrade Program",
    "target_eligibility_quarter": "NA"
   }
  },
  {
   "type": "Feature",
   "geometry": {
    "type": "Point",
    "coordinates": [
     137.48139938,
     -34.75253603
    ]
   },
   "properties": {
    "name": "8 DOREEN STREET PARSONS BEACH 5575",
    "locID": "LOC100072005007",
    "tech": "WIRELESS",
    "upgrade": "NULL_NA",
    "gnaf_pid": "GASA_719518053",
    "ee": true,
    "tech_change_status": "Not Planned",
    "program_type": "Fixed Wireless and Satellite Upgrade Program",
    "target_eligibility_quarter": "NA"
   }
  },
  {
   "type": "Feature",
   "geometry": {
    "type": "Point",
    "coordinates": [
     137.481212,
     -34.75170434
    ]
   },
   "properties": {
    "name": "12 LEONARD COURT PARSONS BEACH 5575",
    "locID": "LOC000108222036",
    "tech": "WIRELESS",
    "upgrade": "NULL_NA",
    "gnaf_pid": "GASA_719518593",
    "ee": true,
    "tech_change_status": "Not Planned",
    "program_type": "Fixed Wireless and Satellite Upgrade Program",
    "target_eligibility_quarter": "NA"
   }
  },
  {
   "type": "Feature",
   "geometry": {
    "type": "Point",
    "coordinates": [
     137.49426982,
     -34.75063953
    ]
   },
   "properties": {
    "name": "2 MOUNT TERRIBLE ROAD PARSONS BEACH 5575",
    "locID": "LOC000116326427",
    "tech": "WIRELESS",
    "upgrade": "NULL_NA",
    "gnaf_pid": "GASA_719518724",
    "ee": true,
    "tech_change_status": "Not Planned",
    "program_type": "Fixed Wireless and Satellite Upgrade Program",
    "target_eligibility_quarter": "NA"
   }
  },
  {
   "type": "Feature",
   "geometry": {
    "type": "Point",
    "coordinates": [
     137.48339377,
     -34.75186144
    ]
   },
   "properties": {
    "name": "LOT 100 PARSONS BEACH ROAD PARSONS BEACH 5575",
    "locID": "LOC000150217508",
    "tech": "WIRELESS",
    "upgrade": "NULL_NA",
    "gnaf_pid": "GASA_719519267",
    "ee": true,
    "tech_change_status": "Not Planned",
    "program_type": "Fixed Wireless and Satellite Upgrade Program",
    "target_eligibility_quarter": "NA"
   }
  },
  {
   "type": "Feature",
   "geometry": {
    "type": "Point",
    "coordinates": [
     137.48523941,
     -34.7520151
    ]
   },
   "properties": {
    "name": "LOT 33 BUSH TRACK PARSONS BEACH 5575",
    "locID": "LOC100072076985",
    "tech": "WIRELESS",
    "upgrade": "NULL_NA",
    "gnaf_pid": "GASA_719519269",
    "ee": true,
    "tech_change_status": "Not Planned",
    "program_type": "Fixed Wireless and Satellite Upgrade Program",
    "target_eligibility_quarter": "NA"
   }
  },
  {
   "type": "Feature",
   "geometry": {
    "type": "Point",
    "coordinates": [
     137.47997042,
     -34.75166153
    ]
   },
   "properties": {
    "name": "12 PARSONS PARADE PARSONS BEACH 5575",
    "locID": "LOC100087513029",
    "tech": "WIRELESS",
    "upgrade": "NULL_NA",
    "gnaf_pid": "GASA_719519352",
    "ee": true,
    "tech_change_status": "Not Planned",
    "program_type": "Fixed Wireless and Satellite Upgrade Program",
    "target_eligibility_quarter": "NA"
   }
  },
  {
   "type": "Feature",
   "geometry": {
    "type": "Point",
    "coordinates": [
     137.47901694,
     -34.75116844
    ]
   },
   "properties": {
    "name": "6 CHENOWETH CRESCENT PARSONS BEACH 5575",
    "locID": "LOC100072004859",
    "tech": "WIRELESS",
    "upgrade": "NULL_NA",
    "gnaf_pid": "GASA_719519850",
    "ee": true,
    "tech_change_status": "Not Planned",
    "program_type": "Fixed Wireless and Satellite Upgrade Program",
    "target_eligibility_quarter": "NA"
   }
  },
  {
   "type": "Feature",
   "geometry": {
    "type": "Point",
    "coordinates": [
     137.47958098,
     -34.75100291
    ]
   },
   "properties": {
    "name": "3 CHENOWETH CRESCENT PARSONS BEACH 5575",
    "locID": "LOC100072004828",
    "tech": "WIRELESS",
    "upgrade": "NULL_NA",
    "gnaf_pid": "GASA_719519852",
    "ee": true,
    "tech_change_status": "Not Planned",
    "program_type": "Fixed Wireless and Satellite Upgrade Program",
    "target_eligibility_quarter": "NA"
   }
  },
  {
   "type": "Feature",
   "geometry": {
    "type": "Point",
    "coordinates": [
     137.48307964,
     -34.75082166
    ]
   },
   "properties": {
    "name": "99 PARSONS BEACH ROAD PARSONS BEACH 5575",
    "locID": "LOC000131636154",
    "tech": "WIRELESS",
    "upgrade": "NULL_NA",
    "gnaf_pid": "GASA_719520386",
    "ee": true,
    "tech_change_status": "Not Planned",
    "program_type": "Fixed Wireless and Satellite Upgrade Program",
    "target_eligibility_quarter": "NA"
   }
  },
  {
   "type": "Feature",
   "geometry": {
    "type": "Point",
    "coordinates": [
     137.47958926,
     -34.75116532
    ]
   },
   "properties": {
    "name": "5 CHENOWETH CRESCENT PARSONS BEACH 5575",
    "locID": "LOC100072004844",
    "tech": "WIRELESS",
    "upgrade": "NULL_NA",
    "gnaf_pid": "GASA_719520405",
    "ee": true,
    "tech_change_status": "Not Planned",
    "program_type": "Fixed Wireless and Satellite Upgrade Program",
    "target_eligibility_quarter": "NA"
   }
  },
  {
   "type": "Feature",
   "geometry": {
    "type": "Point",
    "coordinates": [
     137.47999894,
     -34.75264545
    ]
   },
   "properties": {
    "name": "22 PARSONS PARADE PARSONS BEACH 5575",
    "locID": "LOC100087510214",
    "tech": "WIRELESS",
    "upgrade": "NULL_NA",
    "gnaf_pid": "GASA_719520407",
    "ee": true,
    "tech_change_status": "Not Planned",
    "program_type": "Fixed Wireless and Satellite Upgrade Program",
    "target_eligibility_quarter": "NA"
   }
  },
  {
   "type": "Feature",
   "geometry": {
    "type": "Point",
    "coordinates": [
     137.47911389,
     -34.7514953
    ]
   },
   "properties": {
    "name": "10 CHENOWETH CRESCENT PARSONS BEACH 5575",
    "locID": "LOC100087510279",
    "tech": "WIRELESS",
    "upgrade": "NULL_NA",
    "gnaf_pid": "GASA_719520472",
    "ee": true,
    "tech_change_status": "Not Planned",
    "program_type": "Fixed Wireless and Satellite Upgrade Program",
    "target_eligibility_quarter": "NA"
   }
  },
  {
   "type": "Feature",
   "geometry": {
    "type": "Point",
    "coordinates": [
     137.48954267,
     -34.75856523
    ]
   },
   "properties": {
    "name": "LOT 3 BUSH TRACK PARSONS BEACH 5575",
    "locID": "LOC100072076985",
    "tech": "WIRELESS",
    "upgrade": "NULL_NA",
    "gnaf_pid": "GASA_719520732",
    "ee": true,
    "tech_change_status": "Not Planned",
    "program_type": "Fixed Wireless and Satellite Upgrade Program",
    "target_eligibility_quarter": "NA"
   }
  },
  {
   "type": "Feature",
   "geometry": {
    "type": "Point",
    "coordinates": [
     137.48110111,
     -34.75203184
    ]
   },
   "properties": {
    "name": "3 DOREEN STREET PARSONS BEACH 5575",
    "locID": "LOC000131652678",
    "tech": "WIRELESS",
    "upgrade": "NULL_NA",
    "gnaf_pid": "GASA_719520909",
    "ee": true,
    "tech_change_status": "Not Planned",
    "program_type": "Fixed Wireless and Satellite Upgrade Program",
    "target_eligibility_quarter": "NA"
   }
  },
  {
   "type": "Feature",
   "geometry": {
    "type": "Point",
    "coordinates": [
     137.48096483,
     -34.75253589
    ]
   },
   "properties": {
    "name": "4 DOREEN STREET PARSONS BEACH 5575",
    "locID": "LOC000131652678",
    "tech": "WIRELESS",
    "upgrade": "NULL_NA",
    "gnaf_pid": "GASA_719520951",
    "ee": true,
    "tech_change_status": "Not Planned",
    "program_type": "Fixed Wireless and Satellite Upgrade Program",
    "target_eligibility_quarter": "NA"
   }
  },
  {
   "type": "Feature",
   "geometry": {
    "type": "Point",
    "coordinates": [
     137.48118221,
     -34.75253391
    ]
   },
   "properties": {
    "name": "6 DOREEN STREET PARSONS BEACH 5575",
    "locID": "LOC000131652666",
    "tech": "WIRELESS",
    "upgrade": "NULL_NA",
    "gnaf_pid": "GASA_719520953",
    "ee": true,
    "tech_change_status": "Not Planned",
    "program_type": "Fixed Wireless and Satellite Upgrade Program",
    "target_eligibility_quarter": "NA"
   }
  },
  {
   "type": "Feature",
   "geometry": {
    "type": "Point",
    "coordinates": [
     137.47996602,
     -34.75231411
    ]
   },
   "properties": {
    "name": "18 PARSONS PARADE PARSONS BEACH 5575",
    "locID": "LOC100081487809",
    "tech": "WIRELESS",
    "upgrade": "NULL_NA",
    "gnaf_pid": "GASA_719520962",
    "ee": true,
    "tech_change_status": "Not Planned",
    "program_type": "Fixed Wireless and Satellite Upgrade Program",
    "target_eligibility_quarter": "NA"
   }
  },
  {
   "type": "Feature",
   "geometry": {
    "type": "Point",
    "coordinates": [
     137.48255182,
     -34.75081858
    ]
   },
   "properties": {
    "name": "103 PARSONS BEACH ROAD PARSONS BEACH 5575",
    "locID": "LOC100086273348",
    "tech": "WIRELESS",
    "upgrade": "NULL_NA",
    "gnaf_pid": "GASA_719521537",
    "ee": true,
    "tech_change_status": "Not Planned",
    "program_type": "Fixed Wireless and Satellite Upgrade Program",
    "target_eligibility_quarter": "NA"
   }
  },
  {
   "type": "Feature",
   "geometry": {
    "type": "Point",
    "coordinates": [
     137.48052935,
     -34.7521225
    ]
   },
   "properties": {
    "name": "15 PARSONS PARADE PARSONS BEACH 5575",
    "locID": "LOC100072004987",
    "tech": "WIRELESS",
    "upgrade": "NULL_NA",
    "gnaf_pid": "GASA_719521595",
    "ee": true,
    "tech_change_status": "Not Planned",
    "program_type": "Fixed Wireless and Satellite Upgrade Program",
    "target_eligibility_quarter": "NA"
   }
  },
  {
   "type": "Feature",
   "geometry": {
    "type": "Point",
    "coordinates": [
     137.4796304,
     -34.75149463
    ]
   },
   "properties": {
    "name": "9 CHENOWETH CRESCENT PARSONS BEACH 5575",
    "locID": "LOC000131648264",
    "tech": "WIRELESS",
    "upgrade": "NULL_NA",
    "gnaf_pid": "GASA_719521666",
    "ee": true,
    "tech_change_status": "Not Planned",
    "program_type": "Fixed Wireless and Satellite Upgrade Program",
    "target_eligibility_quarter": "NA"
   }
  },
  {
   "type": "Feature",
   "geometry": {
    "type": "Point",
    "coordinates": [
     137.47384731,
     -34.77131435
    ]
   },
   "properties": {
    "name": "LOT 14 PARSONS BEACH ROAD PARSONS BEACH 5575",
    "locID": "LOC000150217508",
    "tech": "WIRELESS",
    "upgrade": "NULL_NA",
    "gnaf_pid": "GASA_719521675",
    "ee": true,
    "tech_change_status": "Not Planned",
    "program_type": "Fixed Wireless and Satellite Upgrade Program",
    "target_eligibility_quarter": "NA"
   }
  },
  {
   "type": "Feature",
   "geometry": {
    "type": "Point",
    "coordinates": [
     137.47994272,
     -34.75083823
    ]
   },
   "properties": {
    "name": "2 PARSONS PARADE PARSONS BEACH 5575",
    "locID": "LOC100072004973",
    "tech": "WIRELESS",
    "upgrade": "NULL_NA",
    "gnaf_pid": "GASA_719521751",
    "ee": true,
    "tech_change_status": "Not Planned",
    "program_type": "Fixed Wireless and Satellite Upgrade Program",
    "target_eligibility_quarter": "NA"
   }
  },
  {
   "type": "Feature",
   "geometry": {
    "type": "Point",
    "coordinates": [
     137.48412783,
     -34.75082364
    ]
   },
   "properties": {
    "name": "91 PARSONS BEACH ROAD PARSONS BEACH 5575",
    "locID": "LOC000161524248",
    "tech": "WIRELESS",
    "upgrade": "NULL_NA",
    "gnaf_pid": "GASA_719521835",
    "ee": true,
    "tech_change_status": "Not Planned",
    "program_type": "Fixed Wireless and Satellite Upgrade Program",
    "target_eligibility_quarter": "NA"
   }
  },
  {
   "type": "Feature",
   "geometry": {
    "type": "Point",
    "coordinates": [
     137.48569118,
     -34.75088564
    ]
   },
   "properties": {
    "name": "81 PARSONS BEACH ROAD PARSONS BEACH 5575",
    "locID": "LOC000150236769",
    "tech": "WIRELESS",
    "upgrade": "NULL_NA",
    "gnaf_pid": "GASA_719521837",
    "ee": true,
    "tech_change_status": "Not Planned",
    "program_type": "Fixed Wireless and Satellite Upgrade Program",
    "target_eligibility_quarter": "NA"
   }
  },
  {
   "type": "Feature",
   "geometry": {
    "type": "Point",
    "coordinates": [
     137.48153491,
     -34.75141815
    ]
   },
   "properties": {
    "name": "9 LEONARD COURT PARSONS BEACH 5575",
    "locID": "LOC000131669843",
    "tech": "WIRELESS",
    "upgrade": "NULL_NA",
    "gnaf_pid": "GASA_719522180",
    "ee": true,
    "tech_change_status": "Not Planned",
    "program_type": "Fixed Wireless and Satellite Upgrade Program",
    "target_eligibility_quarter": "NA"
   }
  },
  {
   "type": "Feature",
   "geometry": {
    "type": "Point",
    "coordinates": [
     137.479071,
     -34.75133143
    ]
   },
   "properties": {
    "name": "8 CHENOWETH CRESCENT PARSONS BEACH 5575",
    "locID": "LOC000131648361",
    "tech": "WIRELESS",
    "upgrade": "NULL_NA",
    "gnaf_pid": "GASA_719522183",
    "ee": true,
    "tech_change_status": "Not Planned",
    "program_type": "Fixed Wireless and Satellite Upgrade Program",
    "target_eligibility_quarter": "NA"
   }
  },
  {
   "type": "Feature",
   "geometry": {
    "type": "Point",
    "coordinates": [
     137.47937277,
     -34.75133235
    ]
   },
   "properties": {
    "name": "LOT 1 CHENOWETH CRESCENT PARSONS BEACH 5575",
    "locID": "LOC100078647978",
    "tech": "WIRELESS",
    "upgrade": "NULL_NA",
    "gnaf_pid": "GASA_719536159",
    "ee": true,
    "tech_change_status": "Not Planned",
    "program_type": "Fixed Wireless and Satellite Upgrade Program",
    "target_eligibility_quarter": "NA"
   }
  },
  {
   "type": "Feature",
   "geometry": {
    "type": "Point",
    "coordinates": [
     137.48095613,
     -34.75227051
    ]
   },
   "properties": {
    "name": "LOT 27 DOREEN STREET PARSONS BEACH 5575",
    "locID": "LOC000131652645",
    "tech": "WIRELESS",
    "upgrade": "NULL_NA",
    "gnaf_pid": "GASA_719536160",
    "ee": true,
    "tech_change_status": "Eligible to Order",
    "program_type": "Fixed Wireless and Satellite Upgrade Program",
    "target_eligibility_quarter": "NA"
   }
  },
  {
   "type": "Feature",
   "geometry": {
    "type": "Point",
    "coordinates": [
     137.48117837,
     -34.75098078
    ]
   },
   "properties": {
    "name": "LOT 55 LEONARD COURT PARSONS BEACH 5575",
    "locID": "LOC100078647950",
    "tech": "WIRELESS",
    "upgrade": "NULL_NA",
    "gnaf_pid": "GASA_719536289",
    "ee": true,
    "tech_change_status": "Not Planned",
    "program_type": "Fixed Wireless and Satellite Upgrade Program",
    "target_eligibility_quarter": "NA"
   }
  },
  {
   "type": "Feature",
   "geometry": {
    "type": "Point",
    "coordinates": [
     137.48020056,
     -34.75159523
    ]
   },
   "properties": {
    "name": "LOT 18 PARSONS PARADE PARSONS BEACH 5575",
    "locID": "LOC100081487809",
    "tech": "WIRELESS",
    "upgrade": "NULL_NA",
    "gnaf_pid": "GASA_719536320",
    "ee": true,
    "tech_change_status": "Not Planned",
    "program_type": "Fixed Wireless and Satellite Upgrade Program",
    "target_eligibility_quarter": "NA"
   }
  },
  {
   "type": "Feature",
   "geometry": {
    "type": "Point",
    "coordinates": [
     137.47937277,
     -34.75133235
    ]
   },
   "properties": {
    "name": "LOT 5 CHENOWETH CRESCENT PARSONS BEACH 5575",
    "locID": "LOC100072004844",
    "tech": "WIRELESS",
    "upgrade": "NULL_NA",
    "gnaf_pid": "GASA_719536458",
    "ee": true,
    "tech_change_status": "Not Planned",
    "program_type": "Fixed Wireless and Satellite Upgrade Program",
    "target_eligibility_quarter": "NA"
   }
  },
  {
   "type": "Feature",
   "geometry": {
    "type": "Point",
    "coordinates": [
     137.48095613,
     -34.75227051
    ]
   },
   "properties": {
    "name": "LOT 29 DOREEN STREET PARSONS BEACH 5575",
    "locID": "LOC100072004960",
    "tech": "WIRELESS",
    "upgrade": "NULL_NA",
    "gnaf_pid": "GASA_719536459",
    "ee": true,
    "tech_change_status": "Not Planned",
    "program_type": "Fixed Wireless and Satellite Upgrade Program",
    "target_eligibility_quarter": "NA"
   }
  },
  {
   "type": "Feature",
   "geometry": {
    "type": "Point",
    "coordinates": [
     137.48020056,
     -34.75159523
    ]
   },
   "properties": {
    "name": "LOT 31 PARSONS PARADE PARSONS BEACH 5575",
    "locID": "LOC000131631847",
    "tech": "WIRELESS",
    "upgrade": "NULL_NA",
    "gnaf_pid": "GASA_719536506",
    "ee": true,
    "tech_change_status": "Not Planned",
    "program_type": "Fixed Wireless and Satellite Upgrade Program",
    "target_eligibility_quarter": "NA"
   }
  },
  {
   "type": "Feature",
   "geometry": {
    "type": "Point",
    "coordinates": [
     137.48020056,
     -34.75159523
    ]
   },
   "properties": {
    "name": "LOT 20 PARSONS PARADE PARSONS BEACH 5575",
    "locID": "LOC100072004973",
    "tech": "WIRELESS",
    "upgrade": "NULL_NA",
    "gnaf_pid": "GASA_719536513",
    "ee": true,
    "tech_change_status": "Not Planned",
    "program_type": "Fixed Wireless and Satellite Upgrade Program",
    "target_eligibility_quarter": "NA"
   }
  },
  {
   "type": "Feature",
   "geometry": {
    "type": "Point",
    "coordinates": [
     137.47937277,
     -34.75133235
    ]
   },
   "properties": {
    "name": "LOT 4 CHENOWETH CRESCENT PARSONS BEACH 5575",
    "locID": "LOC100072004837",
    "tech": "WIRELESS",
    "upgrade": "NULL_NA",
    "gnaf_pid": "GASA_719536686",
    "ee": true,
    "tech_change_status": "Not Planned",
    "program_type": "Fixed Wireless and Satellite Upgrade Program",
    "target_eligibility_quarter": "NA"
   }
  },
  {
   "type": "Feature",
   "geometry": {
    "type": "Point",
    "coordinates": [
     137.48117837,
     -34.75098078
    ]
   },
   "properties": {
    "name": "LOT 52 LEONARD COURT PARSONS BEACH 5575",
    "locID": "LOC000108222036",
    "tech": "WIRELESS",
    "upgrade": "NULL_NA",
    "gnaf_pid": "GASA_719536734",
    "ee": true,
    "tech_change_status": "Not Planned",
    "program_type": "Fixed Wireless and Satellite Upgrade Program",
    "target_eligibility_quarter": "NA"
   }
  },
  {
   "type": "Feature",
   "geometry": {
    "type": "Point",
    "coordinates": [
     137.4842151,
     -34.75306594
    ]
   },
   "properties": {
    "name": "LOT 601 BUSH TRACK PARSONS BEACH 5575",
    "locID": "LOC100072076985",
    "tech": "WIRELESS",
    "upgrade": "NULL_NA",
    "gnaf_pid": "GASA_719773288",
    "ee": true,
    "tech_change_status": "Not Planned",
    "program_type": "Fixed Wireless and Satellite Upgrade Program",
    "target_eligibility_quarter": "NA"
   }
  },
  {
   "type": "Feature",
   "geometry": {
    "type": "Point",
    "coordinates": [
     137.48388634,
     -34.75440745
    ]
   },
   "properties": {
    "name": "LOT 603 BUSH TRACK PARSONS BEACH 5575",
    "locID": "LOC100072076985",
    "tech": "WIRELESS",
    "upgrade": "NULL_NA",
    "gnaf_pid": "GASA_719774616",
    "ee": true,
    "tech_change_status": "Not Planned",
    "program_type": "Fixed Wireless and Satellite Upgrade Program",
    "target_eligibility_quarter": "NA"
   }
  },
  {
   "type": "Feature",
   "geometry": {
    "type": "Point",
    "coordinates": [
     137.48405082,
     -34.75373679
    ]
   },
   "properties": {
    "name": "LOT 602 BUSH TRACK PARSONS BEACH 5575",
    "locID": "LOC100072076985",
    "tech": "WIRELESS",
    "upgrade": "NULL_NA",
    "gnaf_pid": "GASA_719775692",
    "ee": true,
    "tech_change_status": "Not Planned",
    "program_type": "Fixed Wireless and Satellite Upgrade Program",
    "target_eligibility_quarter": "NA"
   }
  },
  {
   "type": "Feature",
   "geometry": {
    "type": "Point",
    "coordinates": [
     137.48079293,
     -34.7559133
    ]
   },
   "properties": {
    "name": "LOT 600 BUSH TRACK PARSONS BEACH 5575",
    "locID": "LOC100072076985",
    "tech": "WIRELESS",
    "upgrade": "NULL_NA",
    "gnaf_pid": "GASA_719778402",
    "ee": true,
    "tech_change_status": "Not Planned",
    "program_type": "Fixed Wireless and Satellite Upgrade Program",
    "target_eligibility_quarter": "NA"
   }
  }
 ]
}