{
 "type": "FeatureCollection",
 "generated": "2025-06-15T23:07:22.106986",
 "suburb": "POLISH HILL RIVER",
 "features": [
  {
   "type": "Feature",
   "geometry": {
    "type": "Point",
    "coordinates": [
     138.66829891,
     -33.87994218
    ]
   },
   "properties": {
    "name": "109 EDWARDS ROAD POLISH HILL RIVER 5453",
    "locID": "LOC000150767673",
    "tech": "WIRELESS",
    "upgrade": "NULL_NA",
    "gnaf_pid": "GASA_425303058",
    "ee": true,
    "tech_change_status": "Not Planned",
    "program_type": "Fixed Wireless and Satellite Upgrade Program",
    "target_eligibility_quarter": "NA"
   }
  },
  {
   "type": "Feature",
   "geometry": {
    "type": "Point",
    "coordinates": [
     138.67063024,
     -33.88773704
    ]
   },
   "properties": {
    "name": "18 EDWARDS ROAD POLISH HILL RIVER 5453",
    "locID": "LOC000150767687",
    "tech": "WIRELESS",
    "upgrade": "NULL_NA",
    "gnaf_pid": "GASA_425303059",
    "ee": true,
    "tech_change_status": "Not Planned",
    "program_type": "Fixed Wireless and Satellite Upgrade Program",
    "target_eligibility_quarter": "NA"
   }
  },
  {
   "type": "Feature",
   "geometry": {
    "type": "Point",
    "coordinates": [
     138.68337221,
     -33.8975914
    ]
   },
   "properties": {
    "name": "486 JOLLY WAY POLISH HILL RIVER 5453",
    "locID": "LOC000183406116",
    "tech": "WIRELESS",
    "upgrade": "NULL_NA",
    "gnaf_pid": "GASA_425303908",
    "ee": true,
    "tech_change_status": "Not Planned",
    "program_type": "Fixed Wireless and Satellite Upgrade Program",
    "target_eligibility_quarter": "NA"
   }
  },
  {
   "type": "Feature",
   "geometry": {
    "type": "Point",
    "coordinates": [
     138.65879091,
     -33.90540578
    ]
   },
   "properties": {
    "name": "752 JOLLY WAY POLISH HILL RIVER 5453",
    "locID": "LOC000183404823",
    "tech": "NULL",
    "upgrade": "NULL_NA",
    "gnaf_pid": "GASA_425303909",
    "ee": true,
    "tech_change_status": "Not Planned"
   }
  },
  {
   "type": "Feature",
   "geometry": {
    "type": "Point",
    "coordinates": [
     138.64826135,
     -33.87318761
    ]
   },
   "properties": {
    "name": "242 QUARRY ROAD POLISH HILL RIVER 5453",
    "locID": "LOC000150769380",
    "tech": "WIRELESS",
    "upgrade": "NULL_NA",
    "gnaf_pid": "GASA_425304907",
    "ee": true,
    "tech_change_status": "Not Planned",
    "program_type": "Fixed Wireless and Satellite Upgrade Program",
    "target_eligibility_quarter": "NA"
   }
  },
  {
   "type": "Feature",
   "geometry": {
    "type": "Point",
    "coordinates": [
     138.65178668,
     -33.87394681
    ]
   },
   "properties": {
    "name": "276 QUARRY ROAD POLISH HILL RIVER 5453",
    "locID": "LOC000150769398",
    "tech": "WIRELESS",
    "upgrade": "NULL_NA",
    "gnaf_pid": "GASA_425304908",
    "ee": true,
    "tech_change_status": "Not Planned",
    "program_type": "Fixed Wireless and Satellite Upgrade Program",
    "target_eligibility_quarter": "NA"
   }
  },
  {
   "type": "Feature",
   "geometry": {
    "type": "Point",
    "coordinates": [
     138.6584389,
     -33.87031898
    ]
   },
   "properties": {
    "name": "360 QUARRY ROAD POLISH HILL RIVER 5453",
    "locID": "LOC000150769403",
    "tech": "WIRELESS",
    "upgrade": "NULL_NA",
    "gnaf_pid": "GASA_425304909",
    "ee": true,
    "tech_change_status": "Not Planned",
    "program_type": "Fixed Wireless and Satellite Upgrade Program",
    "target_eligibility_quarter": "NA"
   }
  },
  {
   "type": "Feature",
   "geometry": {
    "type": "Point",
    "coordinates": [
     138.64308014,
     -33.88036015
    ]
   },
   "properties": {
    "name": "621 SPRING FARM ROAD POLISH HILL RIVER 5453",
    "locID": "LOC000183404868",
    "tech": "WIRELESS",
    "upgrade": "NULL_NA",
    "gnaf_pid": "GASA_425305506",
    "ee": true,
    "tech_change_status": "Not Planned",
    "program_type": "Fixed Wireless and Satellite Upgrade Program",
    "target_eligibility_quarter": "NA"
   }
  },
  {
   "type": "Feature",
   "geometry": {
    "type": "Point",
    "coordinates": [
     138.64729621,
     -33.89635987
    ]
   },
   "properties": {
    "name": "803 SPRING FARM ROAD POLISH HILL RIVER 5453",
    "locID": "LOC100055833690",
    "tech": "WIRELESS",
    "upgrade": "NULL_NA",
    "gnaf_pid": "GASA_425305507",
    "ee": true,
    "tech_change_status": "Not Planned",
    "program_type": "Fixed Wireless and Satellite Upgrade Program",
    "target_eligibility_quarter": "NA"
   }
  },
  {
   "type": "Feature",
   "geometry": {
    "type": "Point",
    "coordinates": [
     138.6707884,
     -33.88938529
    ]
   },
   "properties": {
    "name": "255 STONECUTTING ROAD POLISH HILL RIVER 5453",
    "locID": "LOC000150770101",
    "tech": "WIRELESS",
    "upgrade": "NULL_NA",
    "gnaf_pid": "GASA_425305667",
    "ee": true,
    "tech_change_status": "Not Planned",
    "program_type": "Fixed Wireless and Satellite Upgrade Program",
    "target_eligibility_quarter": "NA"
   }
  },
  {
   "type": "Feature",
   "geometry": {
    "type": "Point",
    "coordinates": [
     138.66321333,
     -33.86934371
    ]
   },
   "properties": {
    "name": "406 QUARRY ROAD POLISH HILL RIVER 5453",
    "locID": "LOC000150771564",
    "tech": "WIRELESS",
    "upgrade": "NULL_NA",
    "gnaf_pid": "GASA_425356454",
    "ee": true,
    "tech_change_status": "Not Planned",
    "program_type": "Fixed Wireless and Satellite Upgrade Program",
    "target_eligibility_quarter": "NA"
   }
  },
  {
   "type": "Feature",
   "geometry": {
    "type": "Point",
    "coordinates": [
     138.69103986,
     -33.85978903
    ]
   },
   "properties": {
    "name": "216 YSTALYFERA AVENUE POLISH HILL RIVER 5453",
    "locID": "LOC000150771921",
    "tech": "WIRELESS",
    "upgrade": "NULL_NA",
    "gnaf_pid": "GASA_425357970",
    "ee": true,
    "tech_change_status": "Not Planned",
    "program_type": "Fixed Wireless and Satellite Upgrade Program",
    "target_eligibility_quarter": "NA"
   }
  },
  {
   "type": "Feature",
   "geometry": {
    "type": "Point",
    "coordinates": [
     138.664341,
     -33.89373558
    ]
   },
   "properties": {
    "name": "116 POLISH HILL RIVER ROAD POLISH HILL RIVER 5453",
    "locID": "LOC000150777458",
    "tech": "WIRELESS",
    "upgrade": "NULL_NA",
    "gnaf_pid": "GASA_425583421",
    "ee": true,
    "tech_change_status": "Not Planned",
    "program_type": "Fixed Wireless and Satellite Upgrade Program",
    "target_eligibility_quarter": "NA"
   }
  },
  {
   "type": "Feature",
   "geometry": {
    "type": "Point",
    "coordinates": [
     138.67398244,
     -33.8887287
    ]
   },
   "properties": {
    "name": "225A POLISH HILL RIVER ROAD POLISH HILL RIVER 5453",
    "locID": "LOC000150777462",
    "tech": "WIRELESS",
    "upgrade": "NULL_NA",
    "gnaf_pid": "GASA_425583422",
    "ee": true,
    "tech_change_status": "Not Planned",
    "program_type": "Fixed Wireless and Satellite Upgrade Program",
    "target_eligibility_quarter": "NA"
   }
  },
  {
   "type": "Feature",
   "geometry": {
    "type": "Point",
    "coordinates": [
     138.67483379,
     -33.88858946
    ]
   },
   "properties": {
    "name": "233 POLISH HILL RIVER ROAD POLISH HILL RIVER 5453",
    "locID": "LOC000150777470",
    "tech": "WIRELESS",
    "upgrade": "NULL_NA",
    "gnaf_pid": "GASA_425583423",
    "ee": true,
    "tech_change_status": "Not Planned",
    "program_type": "Fixed Wireless and Satellite Upgrade Program",
    "target_eligibility_quarter": "NA"
   }
  },
  {
   "type": "Feature",
   "geometry": {
    "type": "Point",
    "coordinates": [
     138.67544759,
     -33.88845098
    ]
   },
   "properties": {
    "name": "239 POLISH HILL RIVER ROAD POLISH HILL RIVER 5453",
    "locID": "LOC000150777489",
    "tech": "WIRELESS",
    "upgrade": "NULL_NA",
    "gnaf_pid": "GASA_425583424",
    "ee": true,
    "tech_change_status": "Not Planned",
    "program_type": "Fixed Wireless and Satellite Upgrade Program",
    "target_eligibility_quarter": "NA"
   }
  },
  {
   "type": "Feature",
   "geometry": {
    "type": "Point",
    "coordinates": [
     138.67901787,
     -33.88770025
    ]
   },
   "properties": {
    "name": "273 POLISH HILL RIVER ROAD POLISH HILL RIVER 5453",
    "locID": "LOC000150777502",
    "tech": "WIRELESS",
    "upgrade": "NULL_NA",
    "gnaf_pid": "GASA_425583426",
    "ee": true,
    "tech_change_status": "Not Planned",
    "program_type": "Fixed Wireless and Satellite Upgrade Program",
    "target_eligibility_quarter": "NA"
   }
  },
  {
   "type": "Feature",
   "geometry": {
    "type": "Point",
    "coordinates": [
     138.68640211,
     -33.88632232
    ]
   },
   "properties": {
    "name": "342 POLISH HILL RIVER ROAD POLISH HILL RIVER 5453",
    "locID": "LOC100023744627",
    "tech": "WIRELESS",
    "upgrade": "NULL_NA",
    "gnaf_pid": "GASA_425583427",
    "ee": true,
    "tech_change_status": "Not Planned",
    "program_type": "Fixed Wireless and Satellite Upgrade Program",
    "target_eligibility_quarter": "NA"
   }
  },
  {
   "type": "Feature",
   "geometry": {
    "type": "Point",
    "coordinates": [
     138.6650402,
     -33.89547565
    ]
   },
   "properties": {
    "name": "LOT 2 POLISH HILL RIVER ROAD POLISH HILL RIVER 5453",
    "locID": "LOC000150771564",
    "tech": "WIRELESS",
    "upgrade": "NULL_NA",
    "gnaf_pid": "GASA_425583429",
    "ee": true,
    "tech_change_status": "Not Planned",
    "program_type": "Fixed Wireless and Satellite Upgrade Program",
    "target_eligibility_quarter": "NA"
   }
  },
  {
   "type": "Feature",
   "geometry": {
    "type": "Point",
    "coordinates": [
     138.67404734,
     -33.88870565
    ]
   },
   "properties": {
    "name": "225B POLISH HILL RIVER ROAD POLISH HILL RIVER 5453",
    "locID": "LOC000150777979",
    "tech": "WIRELESS",
    "upgrade": "NULL_NA",
    "gnaf_pid": "GASA_425599639",
    "ee": true,
    "tech_change_status": "Not Planned",
    "program_type": "Fixed Wireless and Satellite Upgrade Program",
    "target_eligibility_quarter": "NA"
   }
  },
  {
   "type": "Feature",
   "geometry": {
    "type": "Point",
    "coordinates": [
     138.6803517,
     -33.89821843
    ]
   },
   "properties": {
    "name": "514 JOLLY WAY POLISH HILL RIVER 5453",
    "locID": "LOC000185418148",
    "tech": "WIRELESS",
    "upgrade": "NULL_NA",
    "gnaf_pid": "GASA_719493800",
    "ee": true,
    "tech_change_status": "Not Planned",
    "program_type": "Fixed Wireless and Satellite Upgrade Program",
    "target_eligibility_quarter": "NA"
   }
  },
  {
   "type": "Feature",
   "geometry": {
    "type": "Point",
    "coordinates": [
     138.68196306,
     -33.8710904
    ]
   },
   "properties": {
    "name": "LOT 477 YSTALYFERA AVENUE POLISH HILL RIVER 5453",
    "locID": "LOC000150771921",
    "tech": "WIRELESS",
    "upgrade": "NULL_NA",
    "gnaf_pid": "GASA_720186533",
    "ee": true,
    "tech_change_status": "Not Planned",
    "program_type": "Fixed Wireless and Satellite Upgrade Program",
    "target_eligibility_quarter": "NA"
   }
  },
  {
   "type": "Feature",
   "geometry": {
    "type": "Point",
    "coordinates": [
     138.67155878,
     -33.87969296
    ]
   },
   "properties": {
    "name": "LOT 1 EDWARDS ROAD POLISH HILL RIVER 5453",
    "locID": "LOC000150767687",
    "tech": "WIRELESS",
    "upgrade": "NULL_NA",
    "gnaf_pid": "GASA_720189646",
    "ee": true,
    "tech_change_status": "Not Planned",
    "program_type": "Fixed Wireless and Satellite Upgrade Program",
    "target_eligibility_quarter": "NA"
   }
  },
  {
   "type": "Feature",
   "geometry": {
    "type": "Point",
    "coordinates": [
     138.65629657,
     -33.89469699
    ]
   },
   "properties": {
    "name": "LOT 302 STONECUTTING ROAD POLISH HILL RIVER 5453",
    "locID": "LOC000150770101",
    "tech": "WIRELESS",
    "upgrade": "NULL_NA",
    "gnaf_pid": "GASA_720189690",
    "ee": true,
    "tech_change_status": "Not Planned",
    "program_type": "Fixed Wireless and Satellite Upgrade Program",
    "target_eligibility_quarter": "NA"
   }
  }
 ]
}