{
 "type": "FeatureCollection",
 "generated": "2025-06-15T23:18:33.120036",
 "suburb": "PORT BONYTHON",
 "features": [
  {
   "type": "Feature",
   "geometry": {
    "type": "Point",
    "coordinates": [
     137.76572446,
     -32.99257808
    ]
   },
   "properties": {
    "name": "LOT 240 NINTH STREET PORT BONYTHON 5601",
    "locID": "LOC000186476763",
    "tech": "NULL",
    "upgrade": "NULL_NA",
    "gnaf_pid": "GASA_425393138",
    "ee": true,
    "tech_change_status": "Not Planned"
   }
  },
  {
   "type": "Feature",
   "geometry": {
    "type": "Point",
    "coordinates": [
     137.75502325,
     -32.93712249
    ]
   },
   "properties": {
    "name": "2 GULF VIEW DRIVE PORT BONYTHON 5601",
    "locID": "LOC100087516475",
    "tech": "NULL",
    "upgrade": "NULL_NA",
    "gnaf_pid": "GASA_425501788",
    "ee": true,
    "tech_change_status": "Not Planned"
   }
  }
 ]
}