{
 "type": "FeatureCollection",
 "generated": "2025-06-16T00:00:39.710189",
 "suburb": "RAPID BAY",
 "features": [
  {
   "type": "Feature",
   "geometry": {
    "type": "Point",
    "coordinates": [
     138.19485071,
     -35.52509764
    ]
   },
   "properties": {
    "name": "25 CYGNET PLACE RAPID BAY 5204",
    "locID": "LOC000020045052",
    "tech": "SATELLITE",
    "upgrade": "NULL_NA",
    "gnaf_pid": "GASA_416974509",
    "ee": true,
    "tech_change_status": "Not Planned"
   }
  },
  {
   "type": "Feature",
   "geometry": {
    "type": "Point",
    "coordinates": [
     138.19367875,
     -35.52612203
    ]
   },
   "properties": {
    "name": "27 CYGNET PLACE RAPID BAY 5204",
    "locID": "LOC000036218911",
    "tech": "SATELLITE",
    "upgrade": "NULL_NA",
    "gnaf_pid": "GASA_416974511",
    "ee": true,
    "tech_change_status": "Not Planned"
   }
  },
  {
   "type": "Feature",
   "geometry": {
    "type": "Point",
    "coordinates": [
     138.19444171,
     -35.52523144
    ]
   },
   "properties": {
    "name": "23 CYGNET PLACE RAPID BAY 5204",
    "locID": "LOC000062312837",
    "tech": "SATELLITE",
    "upgrade": "NULL_NA",
    "gnaf_pid": "GASA_416974516",
    "ee": true,
    "tech_change_status": "Not Planned"
   }
  },
  {
   "type": "Feature",
   "geometry": {
    "type": "Point",
    "coordinates": [
     138.1940324,
     -35.52536753
    ]
   },
   "properties": {
    "name": "21 CYGNET PLACE RAPID BAY 5204",
    "locID": "LOC000017117867",
    "tech": "SATELLITE",
    "upgrade": "NULL_NA",
    "gnaf_pid": "GASA_416974517",
    "ee": true,
    "tech_change_status": "Not Planned"
   }
  },
  {
   "type": "Feature",
   "geometry": {
    "type": "Point",
    "coordinates": [
     138.18784765,
     -35.52605831
    ]
   },
   "properties": {
    "name": "7 FINNISS DRIVE RAPID BAY 5204",
    "locID": "LOC000130679429",
    "tech": "WIRELESS",
    "upgrade": "NULL_NA",
    "gnaf_pid": "GASA_416978144",
    "ee": true,
    "tech_change_status": "Not Planned",
    "program_type": "Fixed Wireless and Satellite Upgrade Program",
    "target_eligibility_quarter": "NA"
   }
  },
  {
   "type": "Feature",
   "geometry": {
    "type": "Point",
    "coordinates": [
     138.19319913,
     -35.52564204
    ]
   },
   "properties": {
    "name": "17 CYGNET PLACE RAPID BAY 5204",
    "locID": "LOC000070364935",
    "tech": "SATELLITE",
    "upgrade": "NULL_NA",
    "gnaf_pid": "GASA_422057346",
    "ee": true,
    "tech_change_status": "Not Planned"
   }
  },
  {
   "type": "Feature",
   "geometry": {
    "type": "Point",
    "coordinates": [
     138.19340146,
     -35.52557622
    ]
   },
   "properties": {
    "name": "18 CYGNET PLACE RAPID BAY 5204",
    "locID": "LOC000076280081",
    "tech": "SATELLITE",
    "upgrade": "NULL_NA",
    "gnaf_pid": "GASA_422057347",
    "ee": true,
    "tech_change_status": "Not Planned"
   }
  },
  {
   "type": "Feature",
   "geometry": {
    "type": "Point",
    "coordinates": [
     138.19361302,
     -35.52550541
    ]
   },
   "properties": {
    "name": "19 CYGNET PLACE RAPID BAY 5204",
    "locID": "LOC000051459224",
    "tech": "NULL",
    "upgrade": "NULL_NA",
    "gnaf_pid": "GASA_422057348",
    "ee": true,
    "tech_change_status": "Not Planned"
   }
  },
  {
   "type": "Feature",
   "geometry": {
    "type": "Point",
    "coordinates": [
     138.19382521,
     -35.52543614
    ]
   },
   "properties": {
    "name": "20 CYGNET PLACE RAPID BAY 5204",
    "locID": "LOC000130667781",
    "tech": "SATELLITE",
    "upgrade": "NULL_NA",
    "gnaf_pid": "GASA_422057349",
    "ee": true,
    "tech_change_status": "Not Planned"
   }
  },
  {
   "type": "Feature",
   "geometry": {
    "type": "Point",
    "coordinates": [
     138.1942387,
     -35.52529836
    ]
   },
   "properties": {
    "name": "22 CYGNET PLACE RAPID BAY 5204",
    "locID": "LOC000130671322",
    "tech": "SATELLITE",
    "upgrade": "WIRELESS",
    "gnaf_pid": "GASA_422057350",
    "ee": true,
    "tech_change_status": "Eligible to Order",
    "program_type": "Fixed Wireless and Satellite Upgrade Program",
    "target_eligibility_quarter": "NA"
   }
  },
  {
   "type": "Feature",
   "geometry": {
    "type": "Point",
    "coordinates": [
     138.19464598,
     -35.52516454
    ]
   },
   "properties": {
    "name": "24 CYGNET PLACE RAPID BAY 5204",
    "locID": "LOC000077108923",
    "tech": "SATELLITE",
    "upgrade": "NULL_NA",
    "gnaf_pid": "GASA_422057351",
    "ee": true,
    "tech_change_status": "Not Planned"
   }
  },
  {
   "type": "Feature",
   "geometry": {
    "type": "Point",
    "coordinates": [
     138.19347711,
     -35.52619364
    ]
   },
   "properties": {
    "name": "26 CYGNET PLACE RAPID BAY 5204",
    "locID": "LOC000097651916",
    "tech": "SATELLITE",
    "upgrade": "NULL_NA",
    "gnaf_pid": "GASA_422057352",
    "ee": true,
    "tech_change_status": "Not Planned"
   }
  },
  {
   "type": "Feature",
   "geometry": {
    "type": "Point",
    "coordinates": [
     138.19388829,
     -35.52605076
    ]
   },
   "properties": {
    "name": "28 CYGNET PLACE RAPID BAY 5204",
    "locID": "LOC000023437151",
    "tech": "SATELLITE",
    "upgrade": "NULL_NA",
    "gnaf_pid": "GASA_422057353",
    "ee": true,
    "tech_change_status": "Not Planned"
   }
  },
  {
   "type": "Feature",
   "geometry": {
    "type": "Point",
    "coordinates": [
     138.19413654,
     -35.52606932
    ]
   },
   "properties": {
    "name": "29 CYGNET PLACE RAPID BAY 5204",
    "locID": "LOC000074181748",
    "tech": "NULL",
    "upgrade": "NULL_NA",
    "gnaf_pid": "GASA_422057354",
    "ee": true,
    "tech_change_status": "Not Planned"
   }
  },
  {
   "type": "Feature",
   "geometry": {
    "type": "Point",
    "coordinates": [
     138.19461825,
     -35.52582552
    ]
   },
   "properties": {
    "name": "31 CYGNET PLACE RAPID BAY 5204",
    "locID": "LOC000130635135",
    "tech": "SATELLITE",
    "upgrade": "NULL_NA",
    "gnaf_pid": "GASA_422057356",
    "ee": true,
    "tech_change_status": "Not Planned"
   }
  },
  {
   "type": "Feature",
   "geometry": {
    "type": "Point",
    "coordinates": [
     138.19445124,
     -35.52488595
    ]
   },
   "properties": {
    "name": "LOT 23 ESSINGTON LEWIS DRIVE RAPID BAY 5204",
    "locID": "LOC000142380868",
    "tech": "WIRELESS",
    "upgrade": "NULL_NA",
    "gnaf_pid": "GASA_424169575",
    "ee": true,
    "tech_change_status": "Not Planned",
    "program_type": "Fixed Wireless and Satellite Upgrade Program",
    "target_eligibility_quarter": "NA"
   }
  },
  {
   "type": "Feature",
   "geometry": {
    "type": "Point",
    "coordinates": [
     138.19224322,
     -35.52641879
    ]
   },
   "properties": {
    "name": "LOT 24 ESSINGTON LEWIS DRIVE RAPID BAY 5204",
    "locID": "LOC000142380868",
    "tech": "WIRELESS",
    "upgrade": "NULL_NA",
    "gnaf_pid": "GASA_424169576",
    "ee": true,
    "tech_change_status": "Not Planned",
    "program_type": "Fixed Wireless and Satellite Upgrade Program",
    "target_eligibility_quarter": "NA"
   }
  },
  {
   "type": "Feature",
   "geometry": {
    "type": "Point",
    "coordinates": [
     138.19782171,
     -35.52547306
    ]
   },
   "properties": {
    "name": "LOT 380 ESSINGTON LEWIS DRIVE RAPID BAY 5204",
    "locID": "LOC000142380868",
    "tech": "WIRELESS",
    "upgrade": "NULL_NA",
    "gnaf_pid": "GASA_424169577",
    "ee": true,
    "tech_change_status": "Not Planned",
    "program_type": "Fixed Wireless and Satellite Upgrade Program",
    "target_eligibility_quarter": "NA"
   }
  },
  {
   "type": "Feature",
   "geometry": {
    "type": "Point",
    "coordinates": [
     138.19511545,
     -35.5255113
    ]
   },
   "properties": {
    "name": "UNIT 1, LOT 1 CYGNET PLACE RAPID BAY 5204",
    "locID": "LOC000130670912",
    "tech": "NULL",
    "upgrade": "NULL_NA",
    "gnaf_pid": "GASA_424297153",
    "ee": true,
    "tech_change_status": "Not Planned"
   }
  },
  {
   "type": "Feature",
   "geometry": {
    "type": "Point",
    "coordinates": [
     138.19489146,
     -35.52566285
    ]
   },
   "properties": {
    "name": "UNIT 2, LOT 2 CYGNET PLACE RAPID BAY 5204",
    "locID": "LOC000130627795",
    "tech": "NULL",
    "upgrade": "NULL_NA",
    "gnaf_pid": "GASA_424297154",
    "ee": true,
    "tech_change_status": "Not Planned"
   }
  },
  {
   "type": "Feature",
   "geometry": {
    "type": "Point",
    "coordinates": [
     138.19090838,
     -35.52590373
    ]
   },
   "properties": {
    "name": "LOT 261 ESSINGTON LEWIS DRIVE RAPID BAY 5204",
    "locID": "LOC000142380868",
    "tech": "WIRELESS",
    "upgrade": "NULL_NA",
    "gnaf_pid": "GASA_424299973",
    "ee": true,
    "tech_change_status": "Not Planned",
    "program_type": "Fixed Wireless and Satellite Upgrade Program",
    "target_eligibility_quarter": "NA"
   }
  },
  {
   "type": "Feature",
   "geometry": {
    "type": "Point",
    "coordinates": [
     138.17064478,
     -35.52324332
    ]
   },
   "properties": {
    "name": "LOT 12 FINNISS DRIVE RAPID BAY 5204",
    "locID": "LOC000130675614",
    "tech": "WIRELESS",
    "upgrade": "NULL_NA",
    "gnaf_pid": "GASA_424300916",
    "ee": true,
    "tech_change_status": "Not Planned",
    "program_type": "Fixed Wireless and Satellite Upgrade Program",
    "target_eligibility_quarter": "NA"
   }
  },
  {
   "type": "Feature",
   "geometry": {
    "type": "Point",
    "coordinates": [
     138.16671331,
     -35.53876471
    ]
   },
   "properties": {
    "name": "LOT 1 FINNISS DRIVE RAPID BAY 5204",
    "locID": "LOC000130675614",
    "tech": "WIRELESS",
    "upgrade": "NULL_NA",
    "gnaf_pid": "GASA_424300917",
    "ee": true,
    "tech_change_status": "Not Planned",
    "program_type": "Fixed Wireless and Satellite Upgrade Program",
    "target_eligibility_quarter": "NA"
   }
  },
  {
   "type": "Feature",
   "geometry": {
    "type": "Point",
    "coordinates": [
     138.18025381,
     -35.52534645
    ]
   },
   "properties": {
    "name": "LOT 2 FINNISS DRIVE RAPID BAY 5204",
    "locID": "LOC000130679312",
    "tech": "WIRELESS",
    "upgrade": "NULL_NA",
    "gnaf_pid": "GASA_424300918",
    "ee": true,
    "tech_change_status": "Not Planned",
    "program_type": "Fixed Wireless and Satellite Upgrade Program",
    "target_eligibility_quarter": "NA"
   }
  },
  {
   "type": "Feature",
   "geometry": {
    "type": "Point",
    "coordinates": [
     138.19064461,
     -35.53790923
    ]
   },
   "properties": {
    "name": "LOT 7 RAPID BAY ROAD RAPID BAY 5204",
    "locID": "LOC100056669135",
    "tech": "WIRELESS",
    "upgrade": "NULL_NA",
    "gnaf_pid": "GASA_424401684",
    "ee": true,
    "tech_change_status": "Not Planned",
    "program_type": "Fixed Wireless and Satellite Upgrade Program",
    "target_eligibility_quarter": "NA"
   }
  },
  {
   "type": "Feature",
   "geometry": {
    "type": "Point",
    "coordinates": [
     138.19509153,
     -35.525521
    ]
   },
   "properties": {
    "name": "LOT 1 CYGNET PLACE RAPID BAY 5204",
    "locID": "LOC000150246025",
    "tech": "SATELLITE",
    "upgrade": "NULL_NA",
    "gnaf_pid": "GASA_424413452",
    "ee": true,
    "tech_change_status": "Not Planned"
   }
  },
  {
   "type": "Feature",
   "geometry": {
    "type": "Point",
    "coordinates": [
     138.19486,
     -35.52567802
    ]
   },
   "properties": {
    "name": "LOT 2 CYGNET PLACE RAPID BAY 5204",
    "locID": "LOC000074181748",
    "tech": "NULL",
    "upgrade": "NULL_NA",
    "gnaf_pid": "GASA_424413453",
    "ee": true,
    "tech_change_status": "Not Planned"
   }
  },
  {
   "type": "Feature",
   "geometry": {
    "type": "Point",
    "coordinates": [
     138.191974,
     -35.531851
    ]
   },
   "properties": {
    "name": "445 RAPID BAY ROAD RAPID BAY 5204",
    "locID": "LOC000008462697",
    "tech": "WIRELESS",
    "upgrade": "NULL_NA",
    "gnaf_pid": "GASA_424663542",
    "ee": true,
    "tech_change_status": "Not Planned",
    "program_type": "Fixed Wireless and Satellite Upgrade Program",
    "target_eligibility_quarter": "NA"
   }
  },
  {
   "type": "Feature",
   "geometry": {
    "type": "Point",
    "coordinates": [
     138.19394131,
     -35.52657532
    ]
   },
   "properties": {
    "name": "LOT 21 ESSINGTON LEWIS DRIVE RAPID BAY 5204",
    "locID": "LOC000142380868",
    "tech": "WIRELESS",
    "upgrade": "NULL_NA",
    "gnaf_pid": "GASA_425297263",
    "ee": true,
    "tech_change_status": "Not Planned",
    "program_type": "Fixed Wireless and Satellite Upgrade Program",
    "target_eligibility_quarter": "NA"
   }
  },
  {
   "type": "Feature",
   "geometry": {
    "type": "Point",
    "coordinates": [
     138.19390161,
     -35.53840842
    ]
   },
   "properties": {
    "name": "365 RAPID BAY ROAD RAPID BAY 5204",
    "locID": "LOC000171258894",
    "tech": "SATELLITE",
    "upgrade": "WIRELESS",
    "gnaf_pid": "GASA_425361058",
    "ee": true,
    "tech_change_status": "Eligible to Order",
    "program_type": "Fixed Wireless and Satellite Upgrade Program",
    "target_eligibility_quarter": "NA"
   }
  },
  {
   "type": "Feature",
   "geometry": {
    "type": "Point",
    "coordinates": [
     138.17884571,
     -35.55137438
    ]
   },
   "properties": {
    "name": "316 NO WHERE ELSE ROAD RAPID BAY 5204",
    "locID": "LOC000100506779",
    "tech": "WIRELESS",
    "upgrade": "NULL_NA",
    "gnaf_pid": "GASA_721536926",
    "ee": true,
    "tech_change_status": "Not Planned",
    "program_type": "Fixed Wireless and Satellite Upgrade Program",
    "target_eligibility_quarter": "NA"
   }
  }
 ]
}