{
 "type": "FeatureCollection",
 "generated": "2025-06-16T02:29:39.664292",
 "suburb": "STURT VALE",
 "features": [
  {
   "type": "Feature",
   "geometry": {
    "type": "Point",
    "coordinates": [
     140.03550854,
     -33.2468971
    ]
   },
   "properties": {
    "name": "77 PINE VALLEY ROAD STURT VALE 5417",
    "locID": "LOC000142366926",
    "tech": "SATELLITE",
    "upgrade": "NULL_NA",
    "gnaf_pid": "GASA_425629966",
    "ee": false,
    "tech_change_status": "Not Planned"
   }
  }
 ]
}