{
 "type": "FeatureCollection",
 "generated": "2025-06-16T04:30:39.446397",
 "suburb": "WANILLA",
 "features": [
  {
   "type": "Feature",
   "geometry": {
    "type": "Point",
    "coordinates": [
     135.60711494,
     -34.55751248
    ]
   },
   "properties": {
    "name": "LOT 11 SETTLERS ROAD WANILLA 5607",
    "locID": "LOC000116356131",
    "tech": "WIRELESS",
    "upgrade": "NULL_NA",
    "gnaf_pid": "GASA_424209069",
    "ee": false,
    "tech_change_status": "Not Planned",
    "program_type": "Fixed Wireless and Satellite Upgrade Program",
    "target_eligibility_quarter": "NA"
   }
  },
  {
   "type": "Feature",
   "geometry": {
    "type": "Point",
    "coordinates": [
     135.67569486,
     -34.53128556
    ]
   },
   "properties": {
    "name": "LOT 121 CHARLTON GULLY ROAD WANILLA 5607",
    "locID": "LOC000113195006",
    "tech": "SATELLITE",
    "upgrade": "NULL_NA",
    "gnaf_pid": "GASA_424294174",
    "ee": true,
    "tech_change_status": "Not Planned"
   }
  },
  {
   "type": "Feature",
   "geometry": {
    "type": "Point",
    "coordinates": [
     135.71343618,
     -34.553304
    ]
   },
   "properties": {
    "name": "LOT 124 CHARLTON GULLY ROAD WANILLA 5607",
    "locID": "LOC000113195006",
    "tech": "SATELLITE",
    "upgrade": "NULL_NA",
    "gnaf_pid": "GASA_424294176",
    "ee": true,
    "tech_change_status": "Not Planned"
   }
  },
  {
   "type": "Feature",
   "geometry": {
    "type": "Point",
    "coordinates": [
     135.69267893,
     -34.54456151
    ]
   },
   "properties": {
    "name": "LOT 126 CHARLTON GULLY ROAD WANILLA 5607",
    "locID": "LOC000113195006",
    "tech": "SATELLITE",
    "upgrade": "NULL_NA",
    "gnaf_pid": "GASA_424294177",
    "ee": true,
    "tech_change_status": "Not Planned"
   }
  },
  {
   "type": "Feature",
   "geometry": {
    "type": "Point",
    "coordinates": [
     135.68137433,
     -34.53070917
    ]
   },
   "properties": {
    "name": "LOT 145 CHARLTON GULLY ROAD WANILLA 5607",
    "locID": "LOC000113195006",
    "tech": "SATELLITE",
    "upgrade": "NULL_NA",
    "gnaf_pid": "GASA_424294179",
    "ee": true,
    "tech_change_status": "Not Planned"
   }
  },
  {
   "type": "Feature",
   "geometry": {
    "type": "Point",
    "coordinates": [
     135.69119548,
     -34.52230591
    ]
   },
   "properties": {
    "name": "LOT 147 CHARLTON GULLY ROAD WANILLA 5607",
    "locID": "LOC000113195006",
    "tech": "SATELLITE",
    "upgrade": "NULL_NA",
    "gnaf_pid": "GASA_424294180",
    "ee": true,
    "tech_change_status": "Not Planned"
   }
  },
  {
   "type": "Feature",
   "geometry": {
    "type": "Point",
    "coordinates": [
     135.67750484,
     -34.53240576
    ]
   },
   "properties": {
    "name": "LOT 170 CHARLTON GULLY ROAD WANILLA 5607",
    "locID": "LOC000113195006",
    "tech": "SATELLITE",
    "upgrade": "NULL_NA",
    "gnaf_pid": "GASA_424294182",
    "ee": true,
    "tech_change_status": "Not Planned"
   }
  },
  {
   "type": "Feature",
   "geometry": {
    "type": "Point",
    "coordinates": [
     135.63665126,
     -34.56669706
    ]
   },
   "properties": {
    "name": "LOT 118 MERINTHA CREEK ROAD WANILLA 5607",
    "locID": "LOC000113136554",
    "tech": "WIRELESS",
    "upgrade": "NULL_NA",
    "gnaf_pid": "GASA_424317764",
    "ee": true,
    "tech_change_status": "Not Planned",
    "program_type": "Fixed Wireless and Satellite Upgrade Program",
    "target_eligibility_quarter": "NA"
   }
  },
  {
   "type": "Feature",
   "geometry": {
    "type": "Point",
    "coordinates": [
     135.67616922,
     -34.5608773
    ]
   },
   "properties": {
    "name": "LOT 92 TOD HIGHWAY WANILLA 5607",
    "locID": "LOC000112833301",
    "tech": "WIRELESS",
    "upgrade": "NULL_NA",
    "gnaf_pid": "GASA_424566846",
    "ee": true,
    "tech_change_status": "Not Planned",
    "program_type": "Fixed Wireless and Satellite Upgrade Program",
    "target_eligibility_quarter": "NA"
   }
  },
  {
   "type": "Feature",
   "geometry": {
    "type": "Point",
    "coordinates": [
     135.72850015,
     -34.56507242
    ]
   },
   "properties": {
    "name": "997 PROUDE GULLY ROAD WANILLA 5607",
    "locID": "LOC000114592316",
    "tech": "SATELLITE",
    "upgrade": "NULL_NA",
    "gnaf_pid": "GASA_424740174",
    "ee": true,
    "tech_change_status": "Not Planned"
   }
  },
  {
   "type": "Feature",
   "geometry": {
    "type": "Point",
    "coordinates": [
     135.74803567,
     -34.53210145
    ]
   },
   "properties": {
    "name": "125 BALD HILL ROAD WANILLA 5607",
    "locID": "LOC000113252560",
    "tech": "NULL",
    "upgrade": "NULL_NA",
    "gnaf_pid": "GASA_424810280",
    "ee": true,
    "tech_change_status": "Not Planned"
   }
  },
  {
   "type": "Feature",
   "geometry": {
    "type": "Point",
    "coordinates": [
     135.75327909,
     -34.51431016
    ]
   },
   "properties": {
    "name": "329 BALD HILL ROAD WANILLA 5607",
    "locID": "LOC000114053240",
    "tech": "SATELLITE",
    "upgrade": "NULL_NA",
    "gnaf_pid": "GASA_424810281",
    "ee": true,
    "tech_change_status": "Not Planned"
   }
  },
  {
   "type": "Feature",
   "geometry": {
    "type": "Point",
    "coordinates": [
     135.75600702,
     -34.5115671
    ]
   },
   "properties": {
    "name": "370 BALD HILL ROAD WANILLA 5607",
    "locID": "LOC000013264532",
    "tech": "NULL",
    "upgrade": "NULL_NA",
    "gnaf_pid": "GASA_424810282",
    "ee": true,
    "tech_change_status": "Not Planned"
   }
  },
  {
   "type": "Feature",
   "geometry": {
    "type": "Point",
    "coordinates": [
     135.7661815,
     -34.49531299
    ]
   },
   "properties": {
    "name": "576 BALD HILL ROAD WANILLA 5607",
    "locID": "LOC000107637114",
    "tech": "SATELLITE",
    "upgrade": "NULL_NA",
    "gnaf_pid": "GASA_424810283",
    "ee": true,
    "tech_change_status": "Not Planned"
   }
  },
  {
   "type": "Feature",
   "geometry": {
    "type": "Point",
    "coordinates": [
     135.76331826,
     -34.48799036
    ]
   },
   "properties": {
    "name": "664 BALD HILL ROAD WANILLA 5607",
    "locID": "LOC000113288973",
    "tech": "SATELLITE",
    "upgrade": "NULL_NA",
    "gnaf_pid": "GASA_424810284",
    "ee": true,
    "tech_change_status": "Not Planned"
   }
  },
  {
   "type": "Feature",
   "geometry": {
    "type": "Point",
    "coordinates": [
     135.73438873,
     -34.54803529
    ]
   },
   "properties": {
    "name": "1053 CHARLTON GULLY ROAD WANILLA 5607",
    "locID": "LOC000114322745",
    "tech": "NULL",
    "upgrade": "NULL_NA",
    "gnaf_pid": "GASA_424810785",
    "ee": true,
    "tech_change_status": "Not Planned"
   }
  },
  {
   "type": "Feature",
   "geometry": {
    "type": "Point",
    "coordinates": [
     135.70282365,
     -34.54008193
    ]
   },
   "properties": {
    "name": "1367 CHARLTON GULLY ROAD WANILLA 5607",
    "locID": "LOC000114752386",
    "tech": "SATELLITE",
    "upgrade": "NULL_NA",
    "gnaf_pid": "GASA_424810786",
    "ee": true,
    "tech_change_status": "Not Planned"
   }
  },
  {
   "type": "Feature",
   "geometry": {
    "type": "Point",
    "coordinates": [
     135.6938351,
     -34.53136356
    ]
   },
   "properties": {
    "name": "1494 CHARLTON GULLY ROAD WANILLA 5607",
    "locID": "LOC000113112495",
    "tech": "WIRELESS",
    "upgrade": "NULL_NA",
    "gnaf_pid": "GASA_424810787",
    "ee": true,
    "tech_change_status": "Not Planned",
    "program_type": "Fixed Wireless and Satellite Upgrade Program",
    "target_eligibility_quarter": "NA"
   }
  },
  {
   "type": "Feature",
   "geometry": {
    "type": "Point",
    "coordinates": [
     135.76283699,
     -34.54250481
    ]
   },
   "properties": {
    "name": "770 CHARLTON GULLY ROAD WANILLA 5607",
    "locID": "LOC000113280571",
    "tech": "NULL",
    "upgrade": "NULL_NA",
    "gnaf_pid": "GASA_424810788",
    "ee": true,
    "tech_change_status": "Not Planned"
   }
  },
  {
   "type": "Feature",
   "geometry": {
    "type": "Point",
    "coordinates": [
     135.74807281,
     -34.54294554
    ]
   },
   "properties": {
    "name": "905 CHARLTON GULLY ROAD WANILLA 5607",
    "locID": "LOC000113195006",
    "tech": "SATELLITE",
    "upgrade": "NULL_NA",
    "gnaf_pid": "GASA_424810789",
    "ee": true,
    "tech_change_status": "Not Planned"
   }
  },
  {
   "type": "Feature",
   "geometry": {
    "type": "Point",
    "coordinates": [
     135.74785494,
     -34.5429232
    ]
   },
   "properties": {
    "name": "907 CHARLTON GULLY ROAD WANILLA 5607",
    "locID": "LOC000114726379",
    "tech": "SATELLITE",
    "upgrade": "NULL_NA",
    "gnaf_pid": "GASA_424810790",
    "ee": true,
    "tech_change_status": "Not Planned"
   }
  },
  {
   "type": "Feature",
   "geometry": {
    "type": "Point",
    "coordinates": [
     135.67150409,
     -34.52781996
    ]
   },
   "properties": {
    "name": "31 EXCHANGE ROAD WANILLA 5607",
    "locID": "LOC000114382982",
    "tech": "WIRELESS",
    "upgrade": "NULL_NA",
    "gnaf_pid": "GASA_424811248",
    "ee": true,
    "tech_change_status": "Not Planned",
    "program_type": "Fixed Wireless and Satellite Upgrade Program",
    "target_eligibility_quarter": "NA"
   }
  },
  {
   "type": "Feature",
   "geometry": {
    "type": "Point",
    "coordinates": [
     135.64082132,
     -34.5162906
    ]
   },
   "properties": {
    "name": "341 EXCHANGE ROAD WANILLA 5607",
    "locID": "LOC000114582968",
    "tech": "WIRELESS",
    "upgrade": "NULL_NA",
    "gnaf_pid": "GASA_424811249",
    "ee": true,
    "tech_change_status": "Not Planned",
    "program_type": "Fixed Wireless and Satellite Upgrade Program",
    "target_eligibility_quarter": "NA"
   }
  },
  {
   "type": "Feature",
   "geometry": {
    "type": "Point",
    "coordinates": [
     135.620407,
     -34.50875847
    ]
   },
   "properties": {
    "name": "547 EXCHANGE ROAD WANILLA 5607",
    "locID": "LOC000114185097",
    "tech": "WIRELESS",
    "upgrade": "NULL_NA",
    "gnaf_pid": "GASA_424811251",
    "ee": false,
    "tech_change_status": "Not Planned",
    "program_type": "Fixed Wireless and Satellite Upgrade Program",
    "target_eligibility_quarter": "NA"
   }
  },
  {
   "type": "Feature",
   "geometry": {
    "type": "Point",
    "coordinates": [
     135.67421844,
     -34.52871842
    ]
   },
   "properties": {
    "name": "5 EXCHANGE ROAD WANILLA 5607",
    "locID": "LOC000114322671",
    "tech": "WIRELESS",
    "upgrade": "NULL_NA",
    "gnaf_pid": "GASA_424811252",
    "ee": true,
    "tech_change_status": "Not Planned",
    "program_type": "Fixed Wireless and Satellite Upgrade Program",
    "target_eligibility_quarter": "NA"
   }
  },
  {
   "type": "Feature",
   "geometry": {
    "type": "Point",
    "coordinates": [
     135.6492585,
     -34.54860782
    ]
   },
   "properties": {
    "name": "709 MERINTHA CREEK ROAD WANILLA 5607",
    "locID": "LOC000081696065",
    "tech": "WIRELESS",
    "upgrade": "NULL_NA",
    "gnaf_pid": "GASA_424813141",
    "ee": true,
    "tech_change_status": "Not Planned",
    "program_type": "Fixed Wireless and Satellite Upgrade Program",
    "target_eligibility_quarter": "NA"
   }
  },
  {
   "type": "Feature",
   "geometry": {
    "type": "Point",
    "coordinates": [
     135.6758328,
     -34.5640972
    ]
   },
   "properties": {
    "name": "63 PEAKE LANE WANILLA 5607",
    "locID": "LOC000114593160",
    "tech": "WIRELESS",
    "upgrade": "NULL_NA",
    "gnaf_pid": "GASA_424813705",
    "ee": true,
    "tech_change_status": "Not Planned",
    "program_type": "Fixed Wireless and Satellite Upgrade Program",
    "target_eligibility_quarter": "NA"
   }
  },
  {
   "type": "Feature",
   "geometry": {
    "type": "Point",
    "coordinates": [
     135.60283012,
     -34.49446936
    ]
   },
   "properties": {
    "name": "890 SETTLERS ROAD WANILLA 5607",
    "locID": "LOC000114434495",
    "tech": "WIRELESS",
    "upgrade": "NULL_NA",
    "gnaf_pid": "GASA_424814571",
    "ee": false,
    "tech_change_status": "Not Planned",
    "program_type": "Fixed Wireless and Satellite Upgrade Program",
    "target_eligibility_quarter": "NA"
   }
  },
  {
   "type": "Feature",
   "geometry": {
    "type": "Point",
    "coordinates": [
     135.70082969,
     -34.50990958
    ]
   },
   "properties": {
    "name": "180 STRAWBERRY HILL ROAD WANILLA 5607",
    "locID": "LOC000114429648",
    "tech": "WIRELESS",
    "upgrade": "NULL_NA",
    "gnaf_pid": "GASA_424814909",
    "ee": true,
    "tech_change_status": "Not Planned",
    "program_type": "Fixed Wireless and Satellite Upgrade Program",
    "target_eligibility_quarter": "NA"
   }
  },
  {
   "type": "Feature",
   "geometry": {
    "type": "Point",
    "coordinates": [
     135.70109776,
     -34.48986834
    ]
   },
   "properties": {
    "name": "402 STRAWBERRY HILL ROAD WANILLA 5607",
    "locID": "LOC000113322817",
    "tech": "WIRELESS",
    "upgrade": "NULL_NA",
    "gnaf_pid": "GASA_424814911",
    "ee": false,
    "tech_change_status": "Not Planned"
   }
  },
  {
   "type": "Feature",
   "geometry": {
    "type": "Point",
    "coordinates": [
     135.679484,
     -34.522962
    ]
   },
   "properties": {
    "name": "1175 TOD HIGHWAY WANILLA 5607",
    "locID": "LOC000114127907",
    "tech": "WIRELESS",
    "upgrade": "NULL_NA",
    "gnaf_pid": "GASA_424815229",
    "ee": true,
    "tech_change_status": "Not Planned",
    "program_type": "Fixed Wireless and Satellite Upgrade Program",
    "target_eligibility_quarter": "NA"
   }
  },
  {
   "type": "Feature",
   "geometry": {
    "type": "Point",
    "coordinates": [
     135.68432447,
     -34.51284912
    ]
   },
   "properties": {
    "name": "1301 TOD HIGHWAY WANILLA 5607",
    "locID": "LOC000114966108",
    "tech": "WIRELESS",
    "upgrade": "NULL_NA",
    "gnaf_pid": "GASA_424815230",
    "ee": true,
    "tech_change_status": "Not Planned",
    "program_type": "Fixed Wireless and Satellite Upgrade Program",
    "target_eligibility_quarter": "NA"
   }
  },
  {
   "type": "Feature",
   "geometry": {
    "type": "Point",
    "coordinates": [
     135.68144619,
     -34.48609828
    ]
   },
   "properties": {
    "name": "1603 TOD HIGHWAY WANILLA 5607",
    "locID": "LOC000112848379",
    "tech": "WIRELESS",
    "upgrade": "NULL_NA",
    "gnaf_pid": "GASA_424815231",
    "ee": false,
    "tech_change_status": "Not Planned",
    "program_type": "Fixed Wireless and Satellite Upgrade Program",
    "target_eligibility_quarter": "NA"
   }
  },
  {
   "type": "Feature",
   "geometry": {
    "type": "Point",
    "coordinates": [
     135.661357,
     -34.55608898
    ]
   },
   "properties": {
    "name": "745 TOD HIGHWAY WANILLA 5607",
    "locID": "LOC000113142201",
    "tech": "WIRELESS",
    "upgrade": "NULL_NA",
    "gnaf_pid": "GASA_424815232",
    "ee": true,
    "tech_change_status": "Not Planned",
    "program_type": "Fixed Wireless and Satellite Upgrade Program",
    "target_eligibility_quarter": "NA"
   }
  },
  {
   "type": "Feature",
   "geometry": {
    "type": "Point",
    "coordinates": [
     135.66339723,
     -34.54151473
    ]
   },
   "properties": {
    "name": "919 TOD HIGHWAY WANILLA 5607",
    "locID": "LOC000112833301",
    "tech": "WIRELESS",
    "upgrade": "NULL_NA",
    "gnaf_pid": "GASA_424815233",
    "ee": true,
    "tech_change_status": "Not Planned",
    "program_type": "Fixed Wireless and Satellite Upgrade Program",
    "target_eligibility_quarter": "NA"
   }
  },
  {
   "type": "Feature",
   "geometry": {
    "type": "Point",
    "coordinates": [
     135.65404682,
     -34.47703245
    ]
   },
   "properties": {
    "name": "1023 WARUNDA ROAD WANILLA 5607",
    "locID": "LOC000114061878",
    "tech": "WIRELESS",
    "upgrade": "NULL_NA",
    "gnaf_pid": "GASA_424815436",
    "ee": false,
    "tech_change_status": "Not Planned",
    "program_type": "Fixed Wireless and Satellite Upgrade Program",
    "target_eligibility_quarter": "NA"
   }
  },
  {
   "type": "Feature",
   "geometry": {
    "type": "Point",
    "coordinates": [
     135.61010833,
     -34.47684166
    ]
   },
   "properties": {
    "name": "1437 WARUNDA ROAD WANILLA 5607",
    "locID": "LOC000114103016",
    "tech": "WIRELESS",
    "upgrade": "NULL_NA",
    "gnaf_pid": "GASA_424815437",
    "ee": false,
    "tech_change_status": "Not Planned",
    "program_type": "Fixed Wireless and Satellite Upgrade Program",
    "target_eligibility_quarter": "NA"
   }
  },
  {
   "type": "Feature",
   "geometry": {
    "type": "Point",
    "coordinates": [
     135.61894931,
     -34.5480651
    ]
   },
   "properties": {
    "name": "232 WYLIE ROAD WANILLA 5607",
    "locID": "LOC000114926648",
    "tech": "WIRELESS",
    "upgrade": "NULL_NA",
    "gnaf_pid": "GASA_424815688",
    "ee": true,
    "tech_change_status": "Not Planned",
    "program_type": "Fixed Wireless and Satellite Upgrade Program",
    "target_eligibility_quarter": "NA"
   }
  },
  {
   "type": "Feature",
   "geometry": {
    "type": "Point",
    "coordinates": [
     135.63456266,
     -34.55022725
    ]
   },
   "properties": {
    "name": "65 WYLIE ROAD WANILLA 5607",
    "locID": "LOC000113116433",
    "tech": "WIRELESS",
    "upgrade": "NULL_NA",
    "gnaf_pid": "GASA_424815689",
    "ee": true,
    "tech_change_status": "Not Planned",
    "program_type": "Fixed Wireless and Satellite Upgrade Program",
    "target_eligibility_quarter": "NA"
   }
  },
  {
   "type": "Feature",
   "geometry": {
    "type": "Point",
    "coordinates": [
     135.73768367,
     -34.56294948
    ]
   },
   "properties": {
    "name": "909 PROUDE GULLY ROAD WANILLA 5607",
    "locID": "LOC000112897680",
    "tech": "SATELLITE",
    "upgrade": "NULL_NA",
    "gnaf_pid": "GASA_424903983",
    "ee": true,
    "tech_change_status": "Not Planned"
   }
  },
  {
   "type": "Feature",
   "geometry": {
    "type": "Point",
    "coordinates": [
     135.72855878,
     -34.56519576
    ]
   },
   "properties": {
    "name": "995 PROUDE GULLY ROAD WANILLA 5607",
    "locID": "LOC000177869666",
    "tech": "WIRELESS",
    "upgrade": "NULL_NA",
    "gnaf_pid": "GASA_424903984",
    "ee": true,
    "tech_change_status": "Not Planned",
    "program_type": "Fixed Wireless and Satellite Upgrade Program",
    "target_eligibility_quarter": "NA"
   }
  },
  {
   "type": "Feature",
   "geometry": {
    "type": "Point",
    "coordinates": [
     135.68444944,
     -34.51295602
    ]
   },
   "properties": {
    "name": "1300 TOD HIGHWAY WANILLA 5607",
    "locID": "LOC000131658432",
    "tech": "WIRELESS",
    "upgrade": "NULL_NA",
    "gnaf_pid": "GASA_425069950",
    "ee": true,
    "tech_change_status": "Not Planned",
    "program_type": "Fixed Wireless and Satellite Upgrade Program",
    "target_eligibility_quarter": "NA"
   }
  },
  {
   "type": "Feature",
   "geometry": {
    "type": "Point",
    "coordinates": [
     135.6809688,
     -34.52748475
    ]
   },
   "properties": {
    "name": "LOT 91 TOD HIGHWAY WANILLA 5607",
    "locID": "LOC000112833301",
    "tech": "WIRELESS",
    "upgrade": "NULL_NA",
    "gnaf_pid": "GASA_425511004",
    "ee": true,
    "tech_change_status": "Not Planned",
    "program_type": "Fixed Wireless and Satellite Upgrade Program",
    "target_eligibility_quarter": "NA"
   }
  },
  {
   "type": "Feature",
   "geometry": {
    "type": "Point",
    "coordinates": [
     135.74890525,
     -34.55128859
    ]
   },
   "properties": {
    "name": "LOT 21 CHARLTON GULLY ROAD WANILLA 5607",
    "locID": "LOC000142386431",
    "tech": "NULL",
    "upgrade": "NULL_NA",
    "gnaf_pid": "GASA_425708944",
    "ee": true,
    "tech_change_status": "Not Planned"
   }
  },
  {
   "type": "Feature",
   "geometry": {
    "type": "Point",
    "coordinates": [
     135.68182095,
     -34.52219575
    ]
   },
   "properties": {
    "name": "LOT 172 TOD HIGHWAY WANILLA 5607",
    "locID": "LOC000112833301",
    "tech": "WIRELESS",
    "upgrade": "NULL_NA",
    "gnaf_pid": "GASA_425725394",
    "ee": true,
    "tech_change_status": "Not Planned",
    "program_type": "Fixed Wireless and Satellite Upgrade Program",
    "target_eligibility_quarter": "NA"
   }
  },
  {
   "type": "Feature",
   "geometry": {
    "type": "Point",
    "coordinates": [
     135.67271062,
     -34.56380447
    ]
   },
   "properties": {
    "name": "61 PEAKE LANE WANILLA 5607",
    "locID": "LOC000182809763",
    "tech": "WIRELESS",
    "upgrade": "NULL_NA",
    "gnaf_pid": "GASA_719045847",
    "ee": true,
    "tech_change_status": "Not Planned",
    "program_type": "Fixed Wireless and Satellite Upgrade Program",
    "target_eligibility_quarter": "NA"
   }
  },
  {
   "type": "Feature",
   "geometry": {
    "type": "Point",
    "coordinates": [
     135.6787601,
     -34.5259499
    ]
   },
   "properties": {
    "name": "11-15 MORTLOCK STREET WANILLA 5607",
    "locID": "LOC000179637874",
    "tech": "WIRELESS",
    "upgrade": "NULL_NA",
    "gnaf_pid": "GASA_719392881",
    "ee": true,
    "tech_change_status": "Not Planned",
    "program_type": "Fixed Wireless and Satellite Upgrade Program",
    "target_eligibility_quarter": "NA"
   }
  },
  {
   "type": "Feature",
   "geometry": {
    "type": "Point",
    "coordinates": [
     135.67616236,
     -34.52842095
    ]
   },
   "properties": {
    "name": "7-9 CHARLTON TERRACE WANILLA 5607",
    "locID": "LOC000131625354",
    "tech": "WIRELESS",
    "upgrade": "NULL_NA",
    "gnaf_pid": "GASA_719392950",
    "ee": true,
    "tech_change_status": "Not Planned",
    "program_type": "Fixed Wireless and Satellite Upgrade Program",
    "target_eligibility_quarter": "NA"
   }
  },
  {
   "type": "Feature",
   "geometry": {
    "type": "Point",
    "coordinates": [
     135.68070394,
     -34.52553329
    ]
   },
   "properties": {
    "name": "38 WANILLA TERRACE WANILLA 5607",
    "locID": "LOC000154073640",
    "tech": "WIRELESS",
    "upgrade": "NULL_NA",
    "gnaf_pid": "GASA_719393502",
    "ee": true,
    "tech_change_status": "Not Planned",
    "program_type": "Fixed Wireless and Satellite Upgrade Program",
    "target_eligibility_quarter": "NA"
   }
  },
  {
   "type": "Feature",
   "geometry": {
    "type": "Point",
    "coordinates": [
     135.67682531,
     -34.52786825
    ]
   },
   "properties": {
    "name": "7-11 WANILLA TERRACE WANILLA 5607",
    "locID": "LOC100078106822",
    "tech": "WIRELESS",
    "upgrade": "NULL_NA",
    "gnaf_pid": "GASA_719393648",
    "ee": true,
    "tech_change_status": "Not Planned",
    "program_type": "Fixed Wireless and Satellite Upgrade Program",
    "target_eligibility_quarter": "NA"
   }
  },
  {
   "type": "Feature",
   "geometry": {
    "type": "Point",
    "coordinates": [
     135.67714556,
     -34.52859157
    ]
   },
   "properties": {
    "name": "17 CHARLTON TERRACE WANILLA 5607",
    "locID": "LOC000131679318",
    "tech": "WIRELESS",
    "upgrade": "NULL_NA",
    "gnaf_pid": "GASA_719394027",
    "ee": true,
    "tech_change_status": "Not Planned",
    "program_type": "Fixed Wireless and Satellite Upgrade Program",
    "target_eligibility_quarter": "NA"
   }
  },
  {
   "type": "Feature",
   "geometry": {
    "type": "Point",
    "coordinates": [
     135.67727925,
     -34.52644452
    ]
   },
   "properties": {
    "name": "7-9 WANGARY STREET WANILLA 5607",
    "locID": "LOC100078106769",
    "tech": "WIRELESS",
    "upgrade": "NULL_NA",
    "gnaf_pid": "GASA_719394032",
    "ee": true,
    "tech_change_status": "Not Planned",
    "program_type": "Fixed Wireless and Satellite Upgrade Program",
    "target_eligibility_quarter": "NA"
   }
  },
  {
   "type": "Feature",
   "geometry": {
    "type": "Point",
    "coordinates": [
     135.67623652,
     -34.52720256
    ]
   },
   "properties": {
    "name": "16-20 LINCOLN TERRACE WANILLA 5607",
    "locID": "LOC100077368477",
    "tech": "WIRELESS",
    "upgrade": "NULL_NA",
    "gnaf_pid": "GASA_719394683",
    "ee": true,
    "tech_change_status": "Not Planned",
    "program_type": "Fixed Wireless and Satellite Upgrade Program",
    "target_eligibility_quarter": "NA"
   }
  },
  {
   "type": "Feature",
   "geometry": {
    "type": "Point",
    "coordinates": [
     135.67819786,
     -34.5264573
    ]
   },
   "properties": {
    "name": "16-20 MORTLOCK STREET WANILLA 5607",
    "locID": "LOC100078106776",
    "tech": "WIRELESS",
    "upgrade": "NULL_NA",
    "gnaf_pid": "GASA_719396202",
    "ee": true,
    "tech_change_status": "Not Planned",
    "program_type": "Fixed Wireless and Satellite Upgrade Program",
    "target_eligibility_quarter": "NA"
   }
  },
  {
   "type": "Feature",
   "geometry": {
    "type": "Point",
    "coordinates": [
     135.67689517,
     -34.52709756
    ]
   },
   "properties": {
    "name": "8-10 WANGARY STREET WANILLA 5607",
    "locID": "LOC100078106805",
    "tech": "WIRELESS",
    "upgrade": "NULL_NA",
    "gnaf_pid": "GASA_719396229",
    "ee": true,
    "tech_change_status": "Not Planned",
    "program_type": "Fixed Wireless and Satellite Upgrade Program",
    "target_eligibility_quarter": "NA"
   }
  },
  {
   "type": "Feature",
   "geometry": {
    "type": "Point",
    "coordinates": [
     135.67707611,
     -34.52550795
    ]
   },
   "properties": {
    "name": "2 MORTLOCK STREET WANILLA 5607",
    "locID": "LOC000181394574",
    "tech": "WIRELESS",
    "upgrade": "NULL_NA",
    "gnaf_pid": "GASA_719396394",
    "ee": true,
    "tech_change_status": "Not Planned",
    "program_type": "Fixed Wireless and Satellite Upgrade Program",
    "target_eligibility_quarter": "NA"
   }
  },
  {
   "type": "Feature",
   "geometry": {
    "type": "Point",
    "coordinates": [
     135.67841418,
     -34.52485025
    ]
   },
   "properties": {
    "name": "1-7 MORTLOCK STREET WANILLA 5607",
    "locID": "LOC100078106776",
    "tech": "WIRELESS",
    "upgrade": "NULL_NA",
    "gnaf_pid": "GASA_719396631",
    "ee": true,
    "tech_change_status": "Not Planned",
    "program_type": "Fixed Wireless and Satellite Upgrade Program",
    "target_eligibility_quarter": "NA"
   }
  },
  {
   "type": "Feature",
   "geometry": {
    "type": "Point",
    "coordinates": [
     135.67771246,
     -34.52604642
    ]
   },
   "properties": {
    "name": "10-12 MORTLOCK STREET WANILLA 5607",
    "locID": "LOC000109297917",
    "tech": "WIRELESS",
    "upgrade": "NULL_NA",
    "gnaf_pid": "GASA_719396691",
    "ee": true,
    "tech_change_status": "Not Planned",
    "program_type": "Fixed Wireless and Satellite Upgrade Program",
    "target_eligibility_quarter": "NA"
   }
  },
  {
   "type": "Feature",
   "geometry": {
    "type": "Point",
    "coordinates": [
     135.67684276,
     -34.52609028
    ]
   },
   "properties": {
    "name": "28-32 LINCOLN TERRACE WANILLA 5607",
    "locID": "LOC000131625349",
    "tech": "WIRELESS",
    "upgrade": "NULL_NA",
    "gnaf_pid": "GASA_719396692",
    "ee": true,
    "tech_change_status": "Not Planned",
    "program_type": "Fixed Wireless and Satellite Upgrade Program",
    "target_eligibility_quarter": "NA"
   }
  },
  {
   "type": "Feature",
   "geometry": {
    "type": "Point",
    "coordinates": [
     135.676843,
     -34.52851225
    ]
   },
   "properties": {
    "name": "13-15 CHARLTON TERRACE WANILLA 5607",
    "locID": "LOC000107709512",
    "tech": "WIRELESS",
    "upgrade": "NULL_NA",
    "gnaf_pid": "GASA_719397425",
    "ee": true,
    "tech_change_status": "Not Planned",
    "program_type": "Fixed Wireless and Satellite Upgrade Program",
    "target_eligibility_quarter": "NA"
   }
  },
  {
   "type": "Feature",
   "geometry": {
    "type": "Point",
    "coordinates": [
     135.67721522,
     -34.52562731
    ]
   },
   "properties": {
    "name": "4 MORTLOCK STREET WANILLA 5607",
    "locID": "LOC000181394574",
    "tech": "WIRELESS",
    "upgrade": "NULL_NA",
    "gnaf_pid": "GASA_719397557",
    "ee": true,
    "tech_change_status": "Not Planned",
    "program_type": "Fixed Wireless and Satellite Upgrade Program",
    "target_eligibility_quarter": "NA"
   }
  },
  {
   "type": "Feature",
   "geometry": {
    "type": "Point",
    "coordinates": [
     135.67649171,
     -34.52847381
    ]
   },
   "properties": {
    "name": "11 CHARLTON TERRACE WANILLA 5607",
    "locID": "LOC000131679325",
    "tech": "WIRELESS",
    "upgrade": "NULL_NA",
    "gnaf_pid": "GASA_719398097",
    "ee": true,
    "tech_change_status": "Not Planned",
    "program_type": "Fixed Wireless and Satellite Upgrade Program",
    "target_eligibility_quarter": "NA"
   }
  },
  {
   "type": "Feature",
   "geometry": {
    "type": "Point",
    "coordinates": [
     135.67562681,
     -34.5283207
    ]
   },
   "properties": {
    "name": "1-5 CHARLTON TERRACE WANILLA 5607",
    "locID": "LOC000131679318",
    "tech": "WIRELESS",
    "upgrade": "NULL_NA",
    "gnaf_pid": "GASA_719398349",
    "ee": true,
    "tech_change_status": "Not Planned",
    "program_type": "Fixed Wireless and Satellite Upgrade Program",
    "target_eligibility_quarter": "NA"
   }
  },
  {
   "type": "Feature",
   "geometry": {
    "type": "Point",
    "coordinates": [
     135.7389493,
     -34.48322978
    ]
   },
   "properties": {
    "name": "LOT 137 WARUNDA ROAD WANILLA 5607",
    "locID": "LOC000114103016",
    "tech": "WIRELESS",
    "upgrade": "NULL_NA",
    "gnaf_pid": "GASA_720236751",
    "ee": false,
    "tech_change_status": "Not Planned",
    "program_type": "Fixed Wireless and Satellite Upgrade Program",
    "target_eligibility_quarter": "NA"
   }
  },
  {
   "type": "Feature",
   "geometry": {
    "type": "Point",
    "coordinates": [
     135.66563614,
     -34.52156249
    ]
   },
   "properties": {
    "name": "LOT 2 TOD HIGHWAY WANILLA 5607",
    "locID": "LOC000112833301",
    "tech": "WIRELESS",
    "upgrade": "NULL_NA",
    "gnaf_pid": "GASA_721277078",
    "ee": true,
    "tech_change_status": "Not Planned",
    "program_type": "Fixed Wireless and Satellite Upgrade Program",
    "target_eligibility_quarter": "NA"
   }
  }
 ]
}