{
 "type": "FeatureCollection",
 "generated": "2025-06-16T05:17:45.359307",
 "suburb": "WHITES VALLEY",
 "features": [
  {
   "type": "Feature",
   "geometry": {
    "type": "Point",
    "coordinates": [
     138.52798766,
     -35.27635531
    ]
   },
   "properties": {
    "name": "LOT 21 ALDINGA ROAD WHITES VALLEY 5172",
    "locID": "LOC000000185562",
    "tech": "FTTP",
    "upgrade": "NULL_NA",
    "gnaf_pid": "GASA_424151863",
    "ee": true
   }
  },
  {
   "type": "Feature",
   "geometry": {
    "type": "Point",
    "coordinates": [
     138.5195352,
     -35.27215751
    ]
   },
   "properties": {
    "name": "LOT 2 ALDINGA ROAD WHITES VALLEY 5172",
    "locID": "LOC100079391536",
    "tech": "WIRELESS",
    "upgrade": "NULL_NA",
    "gnaf_pid": "GASA_424151869",
    "ee": true,
    "tech_change_status": "Not Planned",
    "program_type": "Fixed Wireless and Satellite Upgrade Program",
    "target_eligibility_quarter": "NA"
   }
  },
  {
   "type": "Feature",
   "geometry": {
    "type": "Point",
    "coordinates": [
     138.51923922,
     -35.27826862
    ]
   },
   "properties": {
    "name": "LOT 1 ALMOND GROVE ROAD WHITES VALLEY 5172",
    "locID": "LOC000112461925",
    "tech": "WIRELESS",
    "upgrade": "NULL_NA",
    "gnaf_pid": "GASA_424152240",
    "ee": true,
    "tech_change_status": "Not Planned",
    "program_type": "Fixed Wireless and Satellite Upgrade Program",
    "target_eligibility_quarter": "NA"
   }
  },
  {
   "type": "Feature",
   "geometry": {
    "type": "Point",
    "coordinates": [
     138.51803222,
     -35.26147758
    ]
   },
   "properties": {
    "name": "LOT 51 CALIFORNIA ROAD WHITES VALLEY 5172",
    "locID": "LOC000110603326",
    "tech": "WIRELESS",
    "upgrade": "NULL_NA",
    "gnaf_pid": "GASA_424160449",
    "ee": true,
    "tech_change_status": "Not Planned",
    "program_type": "Fixed Wireless and Satellite Upgrade Program",
    "target_eligibility_quarter": "Jun 2025"
   }
  },
  {
   "type": "Feature",
   "geometry": {
    "type": "Point",
    "coordinates": [
     138.52335526,
     -35.26525762
    ]
   },
   "properties": {
    "name": "LOT 10 LITTLE ROAD WHITES VALLEY 5172",
    "locID": "LOC000130679639",
    "tech": "WIRELESS",
    "upgrade": "NULL_NA",
    "gnaf_pid": "GASA_424186681",
    "ee": true,
    "tech_change_status": "Not Planned",
    "program_type": "Fixed Wireless and Satellite Upgrade Program",
    "target_eligibility_quarter": "NA"
   }
  },
  {
   "type": "Feature",
   "geometry": {
    "type": "Point",
    "coordinates": [
     138.50398859,
     -35.26083693
    ]
   },
   "properties": {
    "name": "LOT 31 LITTLE ROAD WHITES VALLEY 5172",
    "locID": "LOC000130679639",
    "tech": "WIRELESS",
    "upgrade": "NULL_NA",
    "gnaf_pid": "GASA_424186688",
    "ee": true,
    "tech_change_status": "Not Planned",
    "program_type": "Fixed Wireless and Satellite Upgrade Program",
    "target_eligibility_quarter": "NA"
   }
  },
  {
   "type": "Feature",
   "geometry": {
    "type": "Point",
    "coordinates": [
     138.52449311,
     -35.26146985
    ]
   },
   "properties": {
    "name": "LOT 7 LITTLE ROAD WHITES VALLEY 5172",
    "locID": "LOC000130679639",
    "tech": "WIRELESS",
    "upgrade": "NULL_NA",
    "gnaf_pid": "GASA_424186691",
    "ee": true,
    "tech_change_status": "Not Planned",
    "program_type": "Fixed Wireless and Satellite Upgrade Program",
    "target_eligibility_quarter": "NA"
   }
  },
  {
   "type": "Feature",
   "geometry": {
    "type": "Point",
    "coordinates": [
     138.5331758,
     -35.26879521
    ]
   },
   "properties": {
    "name": "LOT 1 PETHICK ROAD WHITES VALLEY 5172",
    "locID": "LOC100078125103",
    "tech": "WIRELESS",
    "upgrade": "NULL_NA",
    "gnaf_pid": "GASA_424200395",
    "ee": true,
    "tech_change_status": "Not Planned",
    "program_type": "Fixed Wireless and Satellite Upgrade Program",
    "target_eligibility_quarter": "NA"
   }
  },
  {
   "type": "Feature",
   "geometry": {
    "type": "Point",
    "coordinates": [
     138.54015898,
     -35.2806656
    ]
   },
   "properties": {
    "name": "LOT 17 COLVILLE ROAD WHITES VALLEY 5172",
    "locID": "LOC000113755426",
    "tech": "WIRELESS",
    "upgrade": "NULL_NA",
    "gnaf_pid": "GASA_424295414",
    "ee": true,
    "tech_change_status": "Not Planned",
    "program_type": "Fixed Wireless and Satellite Upgrade Program",
    "target_eligibility_quarter": "NA"
   }
  },
  {
   "type": "Feature",
   "geometry": {
    "type": "Point",
    "coordinates": [
     138.53575765,
     -35.27770613
    ]
   },
   "properties": {
    "name": "LOT 44 DELABOLE ROAD WHITES VALLEY 5172",
    "locID": "LOC000130761579",
    "tech": "WIRELESS",
    "upgrade": "NULL_NA",
    "gnaf_pid": "GASA_424641293",
    "ee": true,
    "tech_change_status": "Not Planned",
    "program_type": "Fixed Wireless and Satellite Upgrade Program",
    "target_eligibility_quarter": "NA"
   }
  },
  {
   "type": "Feature",
   "geometry": {
    "type": "Point",
    "coordinates": [
     138.53379304,
     -35.27285298
    ]
   },
   "properties": {
    "name": "187 ALDINGA ROAD WHITES VALLEY 5172",
    "locID": "LOC100079011243",
    "tech": "WIRELESS",
    "upgrade": "NULL_NA",
    "gnaf_pid": "GASA_424695415",
    "ee": true,
    "tech_change_status": "Not Planned",
    "program_type": "Fixed Wireless and Satellite Upgrade Program",
    "target_eligibility_quarter": "NA"
   }
  },
  {
   "type": "Feature",
   "geometry": {
    "type": "Point",
    "coordinates": [
     138.52242429,
     -35.27669699
    ]
   },
   "properties": {
    "name": "37 ALMOND GROVE ROAD WHITES VALLEY 5172",
    "locID": "LOC000111348008",
    "tech": "WIRELESS",
    "upgrade": "NULL_NA",
    "gnaf_pid": "GASA_424695468",
    "ee": true,
    "tech_change_status": "Not Planned",
    "program_type": "Fixed Wireless and Satellite Upgrade Program",
    "target_eligibility_quarter": "NA"
   }
  },
  {
   "type": "Feature",
   "geometry": {
    "type": "Point",
    "coordinates": [
     138.52233298,
     -35.27710583
    ]
   },
   "properties": {
    "name": "42 ALMOND GROVE ROAD WHITES VALLEY 5172",
    "locID": "LOC000112061724",
    "tech": "WIRELESS",
    "upgrade": "NULL_NA",
    "gnaf_pid": "GASA_424695469",
    "ee": true,
    "tech_change_status": "Not Planned",
    "program_type": "Fixed Wireless and Satellite Upgrade Program",
    "target_eligibility_quarter": "NA"
   }
  },
  {
   "type": "Feature",
   "geometry": {
    "type": "Point",
    "coordinates": [
     138.52246092,
     -35.27872521
    ]
   },
   "properties": {
    "name": "60 ALMOND GROVE ROAD WHITES VALLEY 5172",
    "locID": "LOC000111058159",
    "tech": "WIRELESS",
    "upgrade": "NULL_NA",
    "gnaf_pid": "GASA_424695470",
    "ee": true,
    "tech_change_status": "Not Planned",
    "program_type": "Fixed Wireless and Satellite Upgrade Program",
    "target_eligibility_quarter": "NA"
   }
  },
  {
   "type": "Feature",
   "geometry": {
    "type": "Point",
    "coordinates": [
     138.5226316,
     -35.27898291
    ]
   },
   "properties": {
    "name": "63 ALMOND GROVE ROAD WHITES VALLEY 5172",
    "locID": "LOC000112616492",
    "tech": "WIRELESS",
    "upgrade": "NULL_NA",
    "gnaf_pid": "GASA_424695471",
    "ee": true,
    "tech_change_status": "Not Planned",
    "program_type": "Fixed Wireless and Satellite Upgrade Program",
    "target_eligibility_quarter": "NA"
   }
  },
  {
   "type": "Feature",
   "geometry": {
    "type": "Point",
    "coordinates": [
     138.52260564,
     -35.2807619
    ]
   },
   "properties": {
    "name": "82 ALMOND GROVE ROAD WHITES VALLEY 5172",
    "locID": "LOC000110233553",
    "tech": "WIRELESS",
    "upgrade": "NULL_NA",
    "gnaf_pid": "GASA_424695473",
    "ee": true,
    "tech_change_status": "Not Planned",
    "program_type": "Fixed Wireless and Satellite Upgrade Program",
    "target_eligibility_quarter": "NA"
   }
  },
  {
   "type": "Feature",
   "geometry": {
    "type": "Point",
    "coordinates": [
     138.52277528,
     -35.28111782
    ]
   },
   "properties": {
    "name": "87 ALMOND GROVE ROAD WHITES VALLEY 5172",
    "locID": "LOC000111708115",
    "tech": "WIRELESS",
    "upgrade": "NULL_NA",
    "gnaf_pid": "GASA_424695474",
    "ee": true,
    "tech_change_status": "Not Planned",
    "program_type": "Fixed Wireless and Satellite Upgrade Program",
    "target_eligibility_quarter": "NA"
   }
  },
  {
   "type": "Feature",
   "geometry": {
    "type": "Point",
    "coordinates": [
     138.52111053,
     -35.25994013
    ]
   },
   "properties": {
    "name": "149 CALIFORNIA ROAD WHITES VALLEY 5172",
    "locID": "LOC000112679782",
    "tech": "WIRELESS",
    "upgrade": "NULL_NA",
    "gnaf_pid": "GASA_424697434",
    "ee": true,
    "tech_change_status": "Not Planned",
    "program_type": "Fixed Wireless and Satellite Upgrade Program",
    "target_eligibility_quarter": "NA"
   }
  },
  {
   "type": "Feature",
   "geometry": {
    "type": "Point",
    "coordinates": [
     138.52176657,
     -35.26978359
    ]
   },
   "properties": {
    "name": "41 CALIFORNIA ROAD WHITES VALLEY 5172",
    "locID": "LOC000112516545",
    "tech": "WIRELESS",
    "upgrade": "NULL_NA",
    "gnaf_pid": "GASA_424697435",
    "ee": true,
    "tech_change_status": "Not Planned",
    "program_type": "Fixed Wireless and Satellite Upgrade Program",
    "target_eligibility_quarter": "NA"
   }
  },
  {
   "type": "Feature",
   "geometry": {
    "type": "Point",
    "coordinates": [
     138.52163616,
     -35.26790765
    ]
   },
   "properties": {
    "name": "61 CALIFORNIA ROAD WHITES VALLEY 5172",
    "locID": "LOC000112540018",
    "tech": "WIRELESS",
    "upgrade": "NULL_NA",
    "gnaf_pid": "GASA_424697436",
    "ee": true,
    "tech_change_status": "Not Planned",
    "program_type": "Fixed Wireless and Satellite Upgrade Program",
    "target_eligibility_quarter": "NA"
   }
  },
  {
   "type": "Feature",
   "geometry": {
    "type": "Point",
    "coordinates": [
     138.521541,
     -35.26635438
    ]
   },
   "properties": {
    "name": "79 CALIFORNIA ROAD WHITES VALLEY 5172",
    "locID": "LOC000111055403",
    "tech": "WIRELESS",
    "upgrade": "NULL_NA",
    "gnaf_pid": "GASA_424697437",
    "ee": true,
    "tech_change_status": "Not Planned",
    "program_type": "Fixed Wireless and Satellite Upgrade Program",
    "target_eligibility_quarter": "NA"
   }
  },
  {
   "type": "Feature",
   "geometry": {
    "type": "Point",
    "coordinates": [
     138.52160374,
     -35.26558201
    ]
   },
   "properties": {
    "name": "88 CALIFORNIA ROAD WHITES VALLEY 5172",
    "locID": "LOC000110603326",
    "tech": "WIRELESS",
    "upgrade": "NULL_NA",
    "gnaf_pid": "GASA_424697438",
    "ee": true,
    "tech_change_status": "Not Planned",
    "program_type": "Fixed Wireless and Satellite Upgrade Program",
    "target_eligibility_quarter": "Jun 2025"
   }
  },
  {
   "type": "Feature",
   "geometry": {
    "type": "Point",
    "coordinates": [
     138.52144634,
     -35.26486881
    ]
   },
   "properties": {
    "name": "95 CALIFORNIA ROAD WHITES VALLEY 5172",
    "locID": "LOC000110480705",
    "tech": "WIRELESS",
    "upgrade": "NULL_NA",
    "gnaf_pid": "GASA_424697439",
    "ee": true,
    "tech_change_status": "Not Planned",
    "program_type": "Fixed Wireless and Satellite Upgrade Program",
    "target_eligibility_quarter": "NA"
   }
  },
  {
   "type": "Feature",
   "geometry": {
    "type": "Point",
    "coordinates": [
     138.51310324,
     -35.28430677
    ]
   },
   "properties": {
    "name": "375 COLVILLE ROAD WHITES VALLEY 5172",
    "locID": "LOC000112782539",
    "tech": "WIRELESS",
    "upgrade": "NULL_NA",
    "gnaf_pid": "GASA_424698156",
    "ee": true,
    "tech_change_status": "Not Planned",
    "program_type": "Fixed Wireless and Satellite Upgrade Program",
    "target_eligibility_quarter": "NA"
   }
  },
  {
   "type": "Feature",
   "geometry": {
    "type": "Point",
    "coordinates": [
     138.51524878,
     -35.28419224
    ]
   },
   "properties": {
    "name": "395 COLVILLE ROAD WHITES VALLEY 5172",
    "locID": "LOC000111948707",
    "tech": "WIRELESS",
    "upgrade": "NULL_NA",
    "gnaf_pid": "GASA_424698157",
    "ee": true,
    "tech_change_status": "Not Planned",
    "program_type": "Fixed Wireless and Satellite Upgrade Program",
    "target_eligibility_quarter": "NA"
   }
  },
  {
   "type": "Feature",
   "geometry": {
    "type": "Point",
    "coordinates": [
     138.51654333,
     -35.2841184
    ]
   },
   "properties": {
    "name": "407 COLVILLE ROAD WHITES VALLEY 5172",
    "locID": "LOC000112003558",
    "tech": "WIRELESS",
    "upgrade": "NULL_NA",
    "gnaf_pid": "GASA_424698158",
    "ee": true,
    "tech_change_status": "Not Planned",
    "program_type": "Fixed Wireless and Satellite Upgrade Program",
    "target_eligibility_quarter": "NA"
   }
  },
  {
   "type": "Feature",
   "geometry": {
    "type": "Point",
    "coordinates": [
     138.51660372,
     -35.28411822
    ]
   },
   "properties": {
    "name": "409 COLVILLE ROAD WHITES VALLEY 5172",
    "locID": "LOC000111384001",
    "tech": "WIRELESS",
    "upgrade": "NULL_NA",
    "gnaf_pid": "GASA_424698159",
    "ee": true,
    "tech_change_status": "Not Planned",
    "program_type": "Fixed Wireless and Satellite Upgrade Program",
    "target_eligibility_quarter": "NA"
   }
  },
  {
   "type": "Feature",
   "geometry": {
    "type": "Point",
    "coordinates": [
     138.51869254,
     -35.28398113
    ]
   },
   "properties": {
    "name": "427 COLVILLE ROAD WHITES VALLEY 5172",
    "locID": "LOC000113927918",
    "tech": "WIRELESS",
    "upgrade": "NULL_NA",
    "gnaf_pid": "GASA_424698160",
    "ee": true,
    "tech_change_status": "Not Planned",
    "program_type": "Fixed Wireless and Satellite Upgrade Program",
    "target_eligibility_quarter": "NA"
   }
  },
  {
   "type": "Feature",
   "geometry": {
    "type": "Point",
    "coordinates": [
     138.5205446,
     -35.28389083
    ]
   },
   "properties": {
    "name": "443 COLVILLE ROAD WHITES VALLEY 5172",
    "locID": "LOC000112504822",
    "tech": "WIRELESS",
    "upgrade": "NULL_NA",
    "gnaf_pid": "GASA_424698161",
    "ee": true,
    "tech_change_status": "Not Planned",
    "program_type": "Fixed Wireless and Satellite Upgrade Program",
    "target_eligibility_quarter": "NA"
   }
  },
  {
   "type": "Feature",
   "geometry": {
    "type": "Point",
    "coordinates": [
     138.52584544,
     -35.28366968
    ]
   },
   "properties": {
    "name": "491 COLVILLE ROAD WHITES VALLEY 5172",
    "locID": "LOC000113646741",
    "tech": "WIRELESS",
    "upgrade": "NULL_NA",
    "gnaf_pid": "GASA_424698162",
    "ee": true,
    "tech_change_status": "Not Planned",
    "program_type": "Fixed Wireless and Satellite Upgrade Program",
    "target_eligibility_quarter": "NA"
   }
  },
  {
   "type": "Feature",
   "geometry": {
    "type": "Point",
    "coordinates": [
     138.52793764,
     -35.28352983
    ]
   },
   "properties": {
    "name": "511 COLVILLE ROAD WHITES VALLEY 5172",
    "locID": "LOC000113488020",
    "tech": "WIRELESS",
    "upgrade": "NULL_NA",
    "gnaf_pid": "GASA_424698163",
    "ee": true,
    "tech_change_status": "Not Planned",
    "program_type": "Fixed Wireless and Satellite Upgrade Program",
    "target_eligibility_quarter": "NA"
   }
  },
  {
   "type": "Feature",
   "geometry": {
    "type": "Point",
    "coordinates": [
     138.52864966,
     -35.28349544
    ]
   },
   "properties": {
    "name": "517 COLVILLE ROAD WHITES VALLEY 5172",
    "locID": "LOC000113684015",
    "tech": "WIRELESS",
    "upgrade": "NULL_NA",
    "gnaf_pid": "GASA_424698164",
    "ee": true,
    "tech_change_status": "Not Planned",
    "program_type": "Fixed Wireless and Satellite Upgrade Program",
    "target_eligibility_quarter": "NA"
   }
  },
  {
   "type": "Feature",
   "geometry": {
    "type": "Point",
    "coordinates": [
     138.53093351,
     -35.28335075
    ]
   },
   "properties": {
    "name": "539 COLVILLE ROAD WHITES VALLEY 5172",
    "locID": "LOC000110469094",
    "tech": "WIRELESS",
    "upgrade": "NULL_NA",
    "gnaf_pid": "GASA_424698165",
    "ee": true,
    "tech_change_status": "Not Planned",
    "program_type": "Fixed Wireless and Satellite Upgrade Program",
    "target_eligibility_quarter": "NA"
   }
  },
  {
   "type": "Feature",
   "geometry": {
    "type": "Point",
    "coordinates": [
     138.53223058,
     -35.28334507
    ]
   },
   "properties": {
    "name": "549 COLVILLE ROAD WHITES VALLEY 5172",
    "locID": "LOC000111849372",
    "tech": "WIRELESS",
    "upgrade": "NULL_NA",
    "gnaf_pid": "GASA_424698166",
    "ee": true,
    "tech_change_status": "Not Planned",
    "program_type": "Fixed Wireless and Satellite Upgrade Program",
    "target_eligibility_quarter": "NA"
   }
  },
  {
   "type": "Feature",
   "geometry": {
    "type": "Point",
    "coordinates": [
     138.54164264,
     -35.28283712
    ]
   },
   "properties": {
    "name": "635 COLVILLE ROAD WHITES VALLEY 5172",
    "locID": "LOC000112291866",
    "tech": "WIRELESS",
    "upgrade": "NULL_NA",
    "gnaf_pid": "GASA_424698167",
    "ee": true,
    "tech_change_status": "Not Planned",
    "program_type": "Fixed Wireless and Satellite Upgrade Program",
    "target_eligibility_quarter": "NA"
   }
  },
  {
   "type": "Feature",
   "geometry": {
    "type": "Point",
    "coordinates": [
     138.54335517,
     -35.28276732
    ]
   },
   "properties": {
    "name": "651 COLVILLE ROAD WHITES VALLEY 5172",
    "locID": "LOC000110609069",
    "tech": "WIRELESS",
    "upgrade": "NULL_NA",
    "gnaf_pid": "GASA_424698168",
    "ee": true,
    "tech_change_status": "Not Planned",
    "program_type": "Fixed Wireless and Satellite Upgrade Program",
    "target_eligibility_quarter": "NA"
   }
  },
  {
   "type": "Feature",
   "geometry": {
    "type": "Point",
    "coordinates": [
     138.54375934,
     -35.28273993
    ]
   },
   "properties": {
    "name": "655 COLVILLE ROAD WHITES VALLEY 5172",
    "locID": "LOC000000395619",
    "tech": "WIRELESS",
    "upgrade": "NULL_NA",
    "gnaf_pid": "GASA_424698169",
    "ee": true,
    "tech_change_status": "Not Planned",
    "program_type": "Fixed Wireless and Satellite Upgrade Program",
    "target_eligibility_quarter": "NA"
   }
  },
  {
   "type": "Feature",
   "geometry": {
    "type": "Point",
    "coordinates": [
     138.5355283,
     -35.28159714
    ]
   },
   "properties": {
    "name": "100 DELABOLE ROAD WHITES VALLEY 5172",
    "locID": "LOC000111895619",
    "tech": "WIRELESS",
    "upgrade": "NULL_NA",
    "gnaf_pid": "GASA_424698696",
    "ee": true,
    "tech_change_status": "Not Planned",
    "program_type": "Fixed Wireless and Satellite Upgrade Program",
    "target_eligibility_quarter": "NA"
   }
  },
  {
   "type": "Feature",
   "geometry": {
    "type": "Point",
    "coordinates": [
     138.53567397,
     -35.28182834
    ]
   },
   "properties": {
    "name": "101 DELABOLE ROAD WHITES VALLEY 5172",
    "locID": "LOC000000395635",
    "tech": "WIRELESS",
    "upgrade": "NULL_NA",
    "gnaf_pid": "GASA_424698697",
    "ee": true,
    "tech_change_status": "Not Planned",
    "program_type": "Fixed Wireless and Satellite Upgrade Program",
    "target_eligibility_quarter": "NA"
   }
  },
  {
   "type": "Feature",
   "geometry": {
    "type": "Point",
    "coordinates": [
     138.53506124,
     -35.27544935
    ]
   },
   "properties": {
    "name": "30 DELABOLE ROAD WHITES VALLEY 5172",
    "locID": "LOC000113648178",
    "tech": "WIRELESS",
    "upgrade": "NULL_NA",
    "gnaf_pid": "GASA_424698698",
    "ee": true,
    "tech_change_status": "Not Planned",
    "program_type": "Fixed Wireless and Satellite Upgrade Program",
    "target_eligibility_quarter": "NA"
   }
  },
  {
   "type": "Feature",
   "geometry": {
    "type": "Point",
    "coordinates": [
     138.53512837,
     -35.27643054
    ]
   },
   "properties": {
    "name": "42 DELABOLE ROAD WHITES VALLEY 5172",
    "locID": "LOC000113961008",
    "tech": "WIRELESS",
    "upgrade": "NULL_NA",
    "gnaf_pid": "GASA_424698699",
    "ee": true,
    "tech_change_status": "Not Planned",
    "program_type": "Fixed Wireless and Satellite Upgrade Program",
    "target_eligibility_quarter": "NA"
   }
  },
  {
   "type": "Feature",
   "geometry": {
    "type": "Point",
    "coordinates": [
     138.53519752,
     -35.27699028
    ]
   },
   "properties": {
    "name": "48 DELABOLE ROAD WHITES VALLEY 5172",
    "locID": "LOC000110688471",
    "tech": "WIRELESS",
    "upgrade": "NULL_NA",
    "gnaf_pid": "GASA_424698700",
    "ee": true,
    "tech_change_status": "Not Planned",
    "program_type": "Fixed Wireless and Satellite Upgrade Program",
    "target_eligibility_quarter": "NA"
   }
  },
  {
   "type": "Feature",
   "geometry": {
    "type": "Point",
    "coordinates": [
     138.53539008,
     -35.27823818
    ]
   },
   "properties": {
    "name": "61 DELABOLE ROAD WHITES VALLEY 5172",
    "locID": "LOC000000395657",
    "tech": "WIRELESS",
    "upgrade": "NULL_NA",
    "gnaf_pid": "GASA_424698701",
    "ee": true,
    "tech_change_status": "Not Planned",
    "program_type": "Fixed Wireless and Satellite Upgrade Program",
    "target_eligibility_quarter": "NA"
   }
  },
  {
   "type": "Feature",
   "geometry": {
    "type": "Point",
    "coordinates": [
     138.53547453,
     -35.27928895
    ]
   },
   "properties": {
    "name": "73 DELABOLE ROAD WHITES VALLEY 5172",
    "locID": "LOC000000395642",
    "tech": "WIRELESS",
    "upgrade": "NULL_NA",
    "gnaf_pid": "GASA_424698703",
    "ee": true,
    "tech_change_status": "Not Planned",
    "program_type": "Fixed Wireless and Satellite Upgrade Program",
    "target_eligibility_quarter": "NA"
   }
  },
  {
   "type": "Feature",
   "geometry": {
    "type": "Point",
    "coordinates": [
     138.53545075,
     -35.28007625
    ]
   },
   "properties": {
    "name": "82 DELABOLE ROAD WHITES VALLEY 5172",
    "locID": "LOC000112418894",
    "tech": "WIRELESS",
    "upgrade": "NULL_NA",
    "gnaf_pid": "GASA_424698704",
    "ee": true,
    "tech_change_status": "Not Planned",
    "program_type": "Fixed Wireless and Satellite Upgrade Program",
    "target_eligibility_quarter": "NA"
   }
  },
  {
   "type": "Feature",
   "geometry": {
    "type": "Point",
    "coordinates": [
     138.50028253,
     -35.26268923
    ]
   },
   "properties": {
    "name": "120 LITTLE ROAD WHITES VALLEY 5172",
    "locID": "LOC000112629780",
    "tech": "WIRELESS",
    "upgrade": "NULL_NA",
    "gnaf_pid": "GASA_424702777",
    "ee": true,
    "tech_change_status": "Not Planned",
    "program_type": "Fixed Wireless and Satellite Upgrade Program",
    "target_eligibility_quarter": "NA"
   }
  },
  {
   "type": "Feature",
   "geometry": {
    "type": "Point",
    "coordinates": [
     138.5015608,
     -35.26213158
    ]
   },
   "properties": {
    "name": "133 LITTLE ROAD WHITES VALLEY 5172",
    "locID": "LOC000110874332",
    "tech": "WIRELESS",
    "upgrade": "NULL_NA",
    "gnaf_pid": "GASA_424702778",
    "ee": true,
    "tech_change_status": "Not Planned",
    "program_type": "Fixed Wireless and Satellite Upgrade Program",
    "target_eligibility_quarter": "NA"
   }
  },
  {
   "type": "Feature",
   "geometry": {
    "type": "Point",
    "coordinates": [
     138.5021963,
     -35.26221512
    ]
   },
   "properties": {
    "name": "140 LITTLE ROAD WHITES VALLEY 5172",
    "locID": "LOC000111159050",
    "tech": "WIRELESS",
    "upgrade": "NULL_NA",
    "gnaf_pid": "GASA_424702779",
    "ee": true,
    "tech_change_status": "Not Planned",
    "program_type": "Fixed Wireless and Satellite Upgrade Program",
    "target_eligibility_quarter": "NA"
   }
  },
  {
   "type": "Feature",
   "geometry": {
    "type": "Point",
    "coordinates": [
     138.50317135,
     -35.26249088
    ]
   },
   "properties": {
    "name": "150 LITTLE ROAD WHITES VALLEY 5172",
    "locID": "LOC000112304517",
    "tech": "WIRELESS",
    "upgrade": "NULL_NA",
    "gnaf_pid": "GASA_424702780",
    "ee": true,
    "tech_change_status": "Not Planned",
    "program_type": "Fixed Wireless and Satellite Upgrade Program",
    "target_eligibility_quarter": "NA"
   }
  },
  {
   "type": "Feature",
   "geometry": {
    "type": "Point",
    "coordinates": [
     138.50758136,
     -35.26344945
    ]
   },
   "properties": {
    "name": "192 LITTLE ROAD WHITES VALLEY 5172",
    "locID": "LOC000113730505",
    "tech": "WIRELESS",
    "upgrade": "NULL_NA",
    "gnaf_pid": "GASA_424702782",
    "ee": true,
    "tech_change_status": "Not Planned",
    "program_type": "Fixed Wireless and Satellite Upgrade Program",
    "target_eligibility_quarter": "NA"
   }
  },
  {
   "type": "Feature",
   "geometry": {
    "type": "Point",
    "coordinates": [
     138.51557823,
     -35.26304184
    ]
   },
   "properties": {
    "name": "264 LITTLE ROAD WHITES VALLEY 5172",
    "locID": "LOC000111267014",
    "tech": "WIRELESS",
    "upgrade": "NULL_NA",
    "gnaf_pid": "GASA_424702783",
    "ee": true,
    "tech_change_status": "Not Planned",
    "program_type": "Fixed Wireless and Satellite Upgrade Program",
    "target_eligibility_quarter": "NA"
   }
  },
  {
   "type": "Feature",
   "geometry": {
    "type": "Point",
    "coordinates": [
     138.51840729,
     -35.26287619
    ]
   },
   "properties": {
    "name": "290 LITTLE ROAD WHITES VALLEY 5172",
    "locID": "LOC000111458650",
    "tech": "WIRELESS",
    "upgrade": "NULL_NA",
    "gnaf_pid": "GASA_424702784",
    "ee": true,
    "tech_change_status": "Not Planned",
    "program_type": "Fixed Wireless and Satellite Upgrade Program",
    "target_eligibility_quarter": "NA"
   }
  },
  {
   "type": "Feature",
   "geometry": {
    "type": "Point",
    "coordinates": [
     138.52510766,
     -35.26254057
    ]
   },
   "properties": {
    "name": "352 LITTLE ROAD WHITES VALLEY 5172",
    "locID": "LOC000113384006",
    "tech": "WIRELESS",
    "upgrade": "NULL_NA",
    "gnaf_pid": "GASA_424702785",
    "ee": true,
    "tech_change_status": "Not Planned",
    "program_type": "Fixed Wireless and Satellite Upgrade Program",
    "target_eligibility_quarter": "NA"
   }
  },
  {
   "type": "Feature",
   "geometry": {
    "type": "Point",
    "coordinates": [
     138.52775417,
     -35.26235757
    ]
   },
   "properties": {
    "name": "376 LITTLE ROAD WHITES VALLEY 5172",
    "locID": "LOC000110678878",
    "tech": "WIRELESS",
    "upgrade": "NULL_NA",
    "gnaf_pid": "GASA_424702786",
    "ee": true,
    "tech_change_status": "Not Planned",
    "program_type": "Fixed Wireless and Satellite Upgrade Program",
    "target_eligibility_quarter": "NA"
   }
  },
  {
   "type": "Feature",
   "geometry": {
    "type": "Point",
    "coordinates": [
     138.5278239,
     -35.26225556
    ]
   },
   "properties": {
    "name": "377 LITTLE ROAD WHITES VALLEY 5172",
    "locID": "LOC000110624953",
    "tech": "WIRELESS",
    "upgrade": "NULL_NA",
    "gnaf_pid": "GASA_424702787",
    "ee": true,
    "tech_change_status": "Not Planned",
    "program_type": "Fixed Wireless and Satellite Upgrade Program",
    "target_eligibility_quarter": "NA"
   }
  },
  {
   "type": "Feature",
   "geometry": {
    "type": "Point",
    "coordinates": [
     138.49743659,
     -35.26387974
    ]
   },
   "properties": {
    "name": "91 LITTLE ROAD WHITES VALLEY 5172",
    "locID": "LOC000111628839",
    "tech": "WIRELESS",
    "upgrade": "NULL_NA",
    "gnaf_pid": "GASA_424702788",
    "ee": true,
    "tech_change_status": "Not Planned",
    "program_type": "Fixed Wireless and Satellite Upgrade Program",
    "target_eligibility_quarter": "NA"
   }
  },
  {
   "type": "Feature",
   "geometry": {
    "type": "Point",
    "coordinates": [
     138.4995188,
     -35.25334818
    ]
   },
   "properties": {
    "name": "485 MALPAS ROAD WHITES VALLEY 5172",
    "locID": "LOC000112000636",
    "tech": "WIRELESS",
    "upgrade": "NULL_NA",
    "gnaf_pid": "GASA_424703500",
    "ee": true,
    "tech_change_status": "Not Planned",
    "program_type": "Fixed Wireless and Satellite Upgrade Program",
    "target_eligibility_quarter": "NA"
   }
  },
  {
   "type": "Feature",
   "geometry": {
    "type": "Point",
    "coordinates": [
     138.49585351,
     -35.25352015
    ]
   },
   "properties": {
    "name": "519 MALPAS ROAD WHITES VALLEY 5172",
    "locID": "LOC000110268915",
    "tech": "WIRELESS",
    "upgrade": "NULL_NA",
    "gnaf_pid": "GASA_424703501",
    "ee": true,
    "tech_change_status": "Not Planned",
    "program_type": "Fixed Wireless and Satellite Upgrade Program",
    "target_eligibility_quarter": "NA"
   }
  },
  {
   "type": "Feature",
   "geometry": {
    "type": "Point",
    "coordinates": [
     138.50953652,
     -35.27618983
    ]
   },
   "properties": {
    "name": "25 RYAN ROAD WHITES VALLEY 5172",
    "locID": "LOC000111820493",
    "tech": "WIRELESS",
    "upgrade": "NULL_NA",
    "gnaf_pid": "GASA_424707770",
    "ee": true,
    "tech_change_status": "Not Planned",
    "program_type": "Fixed Wireless and Satellite Upgrade Program",
    "target_eligibility_quarter": "NA"
   }
  },
  {
   "type": "Feature",
   "geometry": {
    "type": "Point",
    "coordinates": [
     138.50952028,
     -35.27790101
    ]
   },
   "properties": {
    "name": "44 RYAN ROAD WHITES VALLEY 5172",
    "locID": "LOC000111746391",
    "tech": "WIRELESS",
    "upgrade": "NULL_NA",
    "gnaf_pid": "GASA_424707772",
    "ee": true,
    "tech_change_status": "Not Planned",
    "program_type": "Fixed Wireless and Satellite Upgrade Program",
    "target_eligibility_quarter": "NA"
   }
  },
  {
   "type": "Feature",
   "geometry": {
    "type": "Point",
    "coordinates": [
     138.5097137,
     -35.27873562
    ]
   },
   "properties": {
    "name": "53 RYAN ROAD WHITES VALLEY 5172",
    "locID": "LOC000111299441",
    "tech": "WIRELESS",
    "upgrade": "NULL_NA",
    "gnaf_pid": "GASA_424707773",
    "ee": true,
    "tech_change_status": "Not Planned",
    "program_type": "Fixed Wireless and Satellite Upgrade Program",
    "target_eligibility_quarter": "NA"
   }
  },
  {
   "type": "Feature",
   "geometry": {
    "type": "Point",
    "coordinates": [
     138.50963089,
     -35.27918914
    ]
   },
   "properties": {
    "name": "58 RYAN ROAD WHITES VALLEY 5172",
    "locID": "LOC000110882378",
    "tech": "WIRELESS",
    "upgrade": "NULL_NA",
    "gnaf_pid": "GASA_424707774",
    "ee": true,
    "tech_change_status": "Not Planned",
    "program_type": "Fixed Wireless and Satellite Upgrade Program",
    "target_eligibility_quarter": "NA"
   }
  },
  {
   "type": "Feature",
   "geometry": {
    "type": "Point",
    "coordinates": [
     138.50975982,
     -35.27929225
    ]
   },
   "properties": {
    "name": "59 RYAN ROAD WHITES VALLEY 5172",
    "locID": "LOC000111301973",
    "tech": "WIRELESS",
    "upgrade": "NULL_NA",
    "gnaf_pid": "GASA_424707775",
    "ee": true,
    "tech_change_status": "Not Planned",
    "program_type": "Fixed Wireless and Satellite Upgrade Program",
    "target_eligibility_quarter": "NA"
   }
  },
  {
   "type": "Feature",
   "geometry": {
    "type": "Point",
    "coordinates": [
     138.50981988,
     -35.2819162
    ]
   },
   "properties": {
    "name": "88 RYAN ROAD WHITES VALLEY 5172",
    "locID": "LOC000113846049",
    "tech": "WIRELESS",
    "upgrade": "NULL_NA",
    "gnaf_pid": "GASA_424707776",
    "ee": true,
    "tech_change_status": "Not Planned",
    "program_type": "Fixed Wireless and Satellite Upgrade Program",
    "target_eligibility_quarter": "NA"
   }
  },
  {
   "type": "Feature",
   "geometry": {
    "type": "Point",
    "coordinates": [
     138.50998154,
     -35.28232391
    ]
   },
   "properties": {
    "name": "93 RYAN ROAD WHITES VALLEY 5172",
    "locID": "LOC000111936025",
    "tech": "WIRELESS",
    "upgrade": "NULL_NA",
    "gnaf_pid": "GASA_424707777",
    "ee": true,
    "tech_change_status": "Not Planned",
    "program_type": "Fixed Wireless and Satellite Upgrade Program",
    "target_eligibility_quarter": "NA"
   }
  },
  {
   "type": "Feature",
   "geometry": {
    "type": "Point",
    "coordinates": [
     138.49588321,
     -35.26451417
    ]
   },
   "properties": {
    "name": "7 ADEY ROAD WHITES VALLEY 5172",
    "locID": "LOC000111538550",
    "tech": "WIRELESS",
    "upgrade": "NULL_NA",
    "gnaf_pid": "GASA_424799737",
    "ee": true,
    "tech_change_status": "Not Planned",
    "program_type": "Fixed Wireless and Satellite Upgrade Program",
    "target_eligibility_quarter": "NA"
   }
  },
  {
   "type": "Feature",
   "geometry": {
    "type": "Point",
    "coordinates": [
     138.53870037,
     -35.27244678
    ]
   },
   "properties": {
    "name": "142 ALDINGA ROAD WHITES VALLEY 5172",
    "locID": "LOC100079391515",
    "tech": "WIRELESS",
    "upgrade": "NULL_NA",
    "gnaf_pid": "GASA_424799820",
    "ee": true,
    "tech_change_status": "Not Planned",
    "program_type": "Fixed Wireless and Satellite Upgrade Program",
    "target_eligibility_quarter": "Jun 2025"
   }
  },
  {
   "type": "Feature",
   "geometry": {
    "type": "Point",
    "coordinates": [
     138.53836012,
     -35.27259675
    ]
   },
   "properties": {
    "name": "145 ALDINGA ROAD WHITES VALLEY 5172",
    "locID": "LOC100079391536",
    "tech": "WIRELESS",
    "upgrade": "NULL_NA",
    "gnaf_pid": "GASA_424799821",
    "ee": true,
    "tech_change_status": "Not Planned",
    "program_type": "Fixed Wireless and Satellite Upgrade Program",
    "target_eligibility_quarter": "NA"
   }
  },
  {
   "type": "Feature",
   "geometry": {
    "type": "Point",
    "coordinates": [
     138.53661592,
     -35.27207221
    ]
   },
   "properties": {
    "name": "162 ALDINGA ROAD WHITES VALLEY 5172",
    "locID": "LOC100079391527",
    "tech": "WIRELESS",
    "upgrade": "NULL_NA",
    "gnaf_pid": "GASA_424799823",
    "ee": true,
    "tech_change_status": "Not Planned",
    "program_type": "Fixed Wireless and Satellite Upgrade Program",
    "target_eligibility_quarter": "NA"
   }
  },
  {
   "type": "Feature",
   "geometry": {
    "type": "Point",
    "coordinates": [
     138.53610538,
     -35.27255895
    ]
   },
   "properties": {
    "name": "166 ALDINGA ROAD WHITES VALLEY 5172",
    "locID": "LOC000111241435",
    "tech": "WIRELESS",
    "upgrade": "NULL_NA",
    "gnaf_pid": "GASA_424799824",
    "ee": true,
    "tech_change_status": "Not Planned",
    "program_type": "Fixed Wireless and Satellite Upgrade Program",
    "target_eligibility_quarter": "NA"
   }
  },
  {
   "type": "Feature",
   "geometry": {
    "type": "Point",
    "coordinates": [
     138.53286199,
     -35.2727613
    ]
   },
   "properties": {
    "name": "196 ALDINGA ROAD WHITES VALLEY 5172",
    "locID": "LOC100079391543",
    "tech": "WIRELESS",
    "upgrade": "NULL_NA",
    "gnaf_pid": "GASA_424799826",
    "ee": true,
    "tech_change_status": "Not Planned",
    "program_type": "Fixed Wireless and Satellite Upgrade Program",
    "target_eligibility_quarter": "NA"
   }
  },
  {
   "type": "Feature",
   "geometry": {
    "type": "Point",
    "coordinates": [
     138.53210415,
     -35.27294347
    ]
   },
   "properties": {
    "name": "203 ALDINGA ROAD WHITES VALLEY 5172",
    "locID": "LOC100079391558",
    "tech": "WIRELESS",
    "upgrade": "NULL_NA",
    "gnaf_pid": "GASA_424799827",
    "ee": true,
    "tech_change_status": "Not Planned",
    "program_type": "Fixed Wireless and Satellite Upgrade Program",
    "target_eligibility_quarter": "NA"
   }
  },
  {
   "type": "Feature",
   "geometry": {
    "type": "Point",
    "coordinates": [
     138.5311719,
     -35.27298216
    ]
   },
   "properties": {
    "name": "211 ALDINGA ROAD WHITES VALLEY 5172",
    "locID": "LOC100079391562",
    "tech": "WIRELESS",
    "upgrade": "NULL_NA",
    "gnaf_pid": "GASA_424799828",
    "ee": true,
    "tech_change_status": "Not Planned",
    "program_type": "Fixed Wireless and Satellite Upgrade Program",
    "target_eligibility_quarter": "NA"
   }
  },
  {
   "type": "Feature",
   "geometry": {
    "type": "Point",
    "coordinates": [
     138.5300855,
     -35.27301217
    ]
   },
   "properties": {
    "name": "221 ALDINGA ROAD WHITES VALLEY 5172",
    "locID": "LOC000111641146",
    "tech": "WIRELESS",
    "upgrade": "NULL_NA",
    "gnaf_pid": "GASA_424799829",
    "ee": true,
    "tech_change_status": "Not Planned",
    "program_type": "Fixed Wireless and Satellite Upgrade Program",
    "target_eligibility_quarter": "NA"
   }
  },
  {
   "type": "Feature",
   "geometry": {
    "type": "Point",
    "coordinates": [
     138.52971269,
     -35.27305079
    ]
   },
   "properties": {
    "name": "225 ALDINGA ROAD WHITES VALLEY 5172",
    "locID": "LOC000110793006",
    "tech": "WIRELESS",
    "upgrade": "NULL_NA",
    "gnaf_pid": "GASA_424799830",
    "ee": true,
    "tech_change_status": "Not Planned",
    "program_type": "Fixed Wireless and Satellite Upgrade Program",
    "target_eligibility_quarter": "NA"
   }
  },
  {
   "type": "Feature",
   "geometry": {
    "type": "Point",
    "coordinates": [
     138.52858754,
     -35.27294815
    ]
   },
   "properties": {
    "name": "234 ALDINGA ROAD WHITES VALLEY 5172",
    "locID": "LOC100079111097",
    "tech": "WIRELESS",
    "upgrade": "NULL_NA",
    "gnaf_pid": "GASA_424799831",
    "ee": true,
    "tech_change_status": "Not Planned",
    "program_type": "Fixed Wireless and Satellite Upgrade Program",
    "target_eligibility_quarter": "NA"
   }
  },
  {
   "type": "Feature",
   "geometry": {
    "type": "Point",
    "coordinates": [
     138.52804745,
     -35.27313063
    ]
   },
   "properties": {
    "name": "239 ALDINGA ROAD WHITES VALLEY 5172",
    "locID": "LOC100079011262",
    "tech": "WIRELESS",
    "upgrade": "NULL_NA",
    "gnaf_pid": "GASA_424799832",
    "ee": true,
    "tech_change_status": "Not Planned",
    "program_type": "Fixed Wireless and Satellite Upgrade Program",
    "target_eligibility_quarter": "Jun 2025"
   }
  },
  {
   "type": "Feature",
   "geometry": {
    "type": "Point",
    "coordinates": [
     138.52679895,
     -35.27303721
    ]
   },
   "properties": {
    "name": "250 ALDINGA ROAD WHITES VALLEY 5172",
    "locID": "LOC100079011258",
    "tech": "WIRELESS",
    "upgrade": "NULL_NA",
    "gnaf_pid": "GASA_424799833",
    "ee": true,
    "tech_change_status": "Not Planned",
    "program_type": "Fixed Wireless and Satellite Upgrade Program",
    "target_eligibility_quarter": "NA"
   }
  },
  {
   "type": "Feature",
   "geometry": {
    "type": "Point",
    "coordinates": [
     138.523924,
     -35.2732
    ]
   },
   "properties": {
    "name": "276 ALDINGA ROAD WHITES VALLEY 5172",
    "locID": "LOC100079391570",
    "tech": "WIRELESS",
    "upgrade": "NULL_NA",
    "gnaf_pid": "GASA_424799834",
    "ee": true,
    "tech_change_status": "Not Planned",
    "program_type": "Fixed Wireless and Satellite Upgrade Program",
    "target_eligibility_quarter": "NA"
   }
  },
  {
   "type": "Feature",
   "geometry": {
    "type": "Point",
    "coordinates": [
     138.52103525,
     -35.27335867
    ]
   },
   "properties": {
    "name": "304 ALDINGA ROAD WHITES VALLEY 5172",
    "locID": "LOC000110421059",
    "tech": "WIRELESS",
    "upgrade": "NULL_NA",
    "gnaf_pid": "GASA_424799835",
    "ee": true,
    "tech_change_status": "Not Planned",
    "program_type": "Fixed Wireless and Satellite Upgrade Program",
    "target_eligibility_quarter": "NA"
   }
  },
  {
   "type": "Feature",
   "geometry": {
    "type": "Point",
    "coordinates": [
     138.52068459,
     -35.27337822
    ]
   },
   "properties": {
    "name": "306 ALDINGA ROAD WHITES VALLEY 5172",
    "locID": "LOC100079011289",
    "tech": "WIRELESS",
    "upgrade": "NULL_NA",
    "gnaf_pid": "GASA_424799836",
    "ee": true,
    "tech_change_status": "Not Planned",
    "program_type": "Fixed Wireless and Satellite Upgrade Program",
    "target_eligibility_quarter": "NA"
   }
  },
  {
   "type": "Feature",
   "geometry": {
    "type": "Point",
    "coordinates": [
     138.51979988,
     -35.27357578
    ]
   },
   "properties": {
    "name": "315 ALDINGA ROAD WHITES VALLEY 5172",
    "locID": "LOC100079391591",
    "tech": "WIRELESS",
    "upgrade": "NULL_NA",
    "gnaf_pid": "GASA_424799837",
    "ee": true,
    "tech_change_status": "Not Planned",
    "program_type": "Fixed Wireless and Satellite Upgrade Program",
    "target_eligibility_quarter": "NA"
   }
  },
  {
   "type": "Feature",
   "geometry": {
    "type": "Point",
    "coordinates": [
     138.51920525,
     -35.27360842
    ]
   },
   "properties": {
    "name": "321 ALDINGA ROAD WHITES VALLEY 5172",
    "locID": "LOC100079011317",
    "tech": "WIRELESS",
    "upgrade": "NULL_NA",
    "gnaf_pid": "GASA_424799838",
    "ee": true,
    "tech_change_status": "Not Planned",
    "program_type": "Fixed Wireless and Satellite Upgrade Program",
    "target_eligibility_quarter": "NA"
   }
  },
  {
   "type": "Feature",
   "geometry": {
    "type": "Point",
    "coordinates": [
     138.51844682,
     -35.27352103
    ]
   },
   "properties": {
    "name": "326 ALDINGA ROAD WHITES VALLEY 5172",
    "locID": "LOC100079011291",
    "tech": "WIRELESS",
    "upgrade": "NULL_NA",
    "gnaf_pid": "GASA_424799839",
    "ee": true,
    "tech_change_status": "Not Planned",
    "program_type": "Fixed Wireless and Satellite Upgrade Program",
    "target_eligibility_quarter": "NA"
   }
  },
  {
   "type": "Feature",
   "geometry": {
    "type": "Point",
    "coordinates": [
     138.51844631,
     -35.27365468
    ]
   },
   "properties": {
    "name": "327 ALDINGA ROAD WHITES VALLEY 5172",
    "locID": "LOC100079391602",
    "tech": "WIRELESS",
    "upgrade": "NULL_NA",
    "gnaf_pid": "GASA_424799840",
    "ee": true,
    "tech_change_status": "Not Planned",
    "program_type": "Fixed Wireless and Satellite Upgrade Program",
    "target_eligibility_quarter": "NA"
   }
  },
  {
   "type": "Feature",
   "geometry": {
    "type": "Point",
    "coordinates": [
     138.518194,
     -35.273669
    ]
   },
   "properties": {
    "name": "329 ALDINGA ROAD WHITES VALLEY 5172",
    "locID": "LOC100079011329",
    "tech": "WIRELESS",
    "upgrade": "NULL_NA",
    "gnaf_pid": "GASA_424799841",
    "ee": true,
    "tech_change_status": "Not Planned",
    "program_type": "Fixed Wireless and Satellite Upgrade Program",
    "target_eligibility_quarter": "NA"
   }
  },
  {
   "type": "Feature",
   "geometry": {
    "type": "Point",
    "coordinates": [
     138.51645057,
     -35.27360716
    ]
   },
   "properties": {
    "name": "346 ALDINGA ROAD WHITES VALLEY 5172",
    "locID": "LOC100079011301",
    "tech": "WIRELESS",
    "upgrade": "NULL_NA",
    "gnaf_pid": "GASA_424799842",
    "ee": true,
    "tech_change_status": "Not Planned",
    "program_type": "Fixed Wireless and Satellite Upgrade Program",
    "target_eligibility_quarter": "NA"
   }
  },
  {
   "type": "Feature",
   "geometry": {
    "type": "Point",
    "coordinates": [
     138.516145,
     -35.273765
    ]
   },
   "properties": {
    "name": "347 ALDINGA ROAD WHITES VALLEY 5172",
    "locID": "LOC000111711914",
    "tech": "WIRELESS",
    "upgrade": "NULL_NA",
    "gnaf_pid": "GASA_424799843",
    "ee": true,
    "tech_change_status": "Not Planned",
    "program_type": "Fixed Wireless and Satellite Upgrade Program",
    "target_eligibility_quarter": "NA"
   }
  },
  {
   "type": "Feature",
   "geometry": {
    "type": "Point",
    "coordinates": [
     138.51569272,
     -35.27365182
    ]
   },
   "properties": {
    "name": "352 ALDINGA ROAD WHITES VALLEY 5172",
    "locID": "LOC000111814711",
    "tech": "SATELLITE",
    "upgrade": "WIRELESS",
    "gnaf_pid": "GASA_424799844",
    "ee": true,
    "tech_change_status": "Eligible to Order",
    "program_type": "Fixed Wireless and Satellite Upgrade Program",
    "target_eligibility_quarter": "NA"
   }
  },
  {
   "type": "Feature",
   "geometry": {
    "type": "Point",
    "coordinates": [
     138.51487282,
     -35.27382929
    ]
   },
   "properties": {
    "name": "359 ALDINGA ROAD WHITES VALLEY 5172",
    "locID": "LOC000110722068",
    "tech": "WIRELESS",
    "upgrade": "NULL_NA",
    "gnaf_pid": "GASA_424799845",
    "ee": true,
    "tech_change_status": "Not Planned",
    "program_type": "Fixed Wireless and Satellite Upgrade Program",
    "target_eligibility_quarter": "NA"
   }
  },
  {
   "type": "Feature",
   "geometry": {
    "type": "Point",
    "coordinates": [
     138.5144178,
     -35.27385158
    ]
   },
   "properties": {
    "name": "363 ALDINGA ROAD WHITES VALLEY 5172",
    "locID": "LOC000112224983",
    "tech": "WIRELESS",
    "upgrade": "NULL_NA",
    "gnaf_pid": "GASA_424799846",
    "ee": true,
    "tech_change_status": "Not Planned",
    "program_type": "Fixed Wireless and Satellite Upgrade Program",
    "target_eligibility_quarter": "NA"
   }
  },
  {
   "type": "Feature",
   "geometry": {
    "type": "Point",
    "coordinates": [
     138.51412747,
     -35.27370963
    ]
   },
   "properties": {
    "name": "366 ALDINGA ROAD WHITES VALLEY 5172",
    "locID": "LOC100079011338",
    "tech": "WIRELESS",
    "upgrade": "NULL_NA",
    "gnaf_pid": "GASA_424799847",
    "ee": true,
    "tech_change_status": "Not Planned",
    "program_type": "Fixed Wireless and Satellite Upgrade Program",
    "target_eligibility_quarter": "NA"
   }
  },
  {
   "type": "Feature",
   "geometry": {
    "type": "Point",
    "coordinates": [
     138.51225943,
     -35.27394967
    ]
   },
   "properties": {
    "name": "383 ALDINGA ROAD WHITES VALLEY 5172",
    "locID": "LOC000110832273",
    "tech": "WIRELESS",
    "upgrade": "NULL_NA",
    "gnaf_pid": "GASA_424799848",
    "ee": true,
    "tech_change_status": "Not Planned",
    "program_type": "Fixed Wireless and Satellite Upgrade Program",
    "target_eligibility_quarter": "NA"
   }
  },
  {
   "type": "Feature",
   "geometry": {
    "type": "Point",
    "coordinates": [
     138.51109368,
     -35.27400269
    ]
   },
   "properties": {
    "name": "393 ALDINGA ROAD WHITES VALLEY 5172",
    "locID": "LOC000112258421",
    "tech": "WIRELESS",
    "upgrade": "NULL_NA",
    "gnaf_pid": "GASA_424799849",
    "ee": true,
    "tech_change_status": "Not Planned",
    "program_type": "Fixed Wireless and Satellite Upgrade Program",
    "target_eligibility_quarter": "NA"
   }
  },
  {
   "type": "Feature",
   "geometry": {
    "type": "Point",
    "coordinates": [
     138.51108442,
     -35.27387712
    ]
   },
   "properties": {
    "name": "394 ALDINGA ROAD WHITES VALLEY 5172",
    "locID": "LOC100078125190",
    "tech": "WIRELESS",
    "upgrade": "NULL_NA",
    "gnaf_pid": "GASA_424799850",
    "ee": true,
    "tech_change_status": "Not Planned",
    "program_type": "Fixed Wireless and Satellite Upgrade Program",
    "target_eligibility_quarter": "NA"
   }
  },
  {
   "type": "Feature",
   "geometry": {
    "type": "Point",
    "coordinates": [
     138.50725368,
     -35.27422608
    ]
   },
   "properties": {
    "name": "429 ALDINGA ROAD WHITES VALLEY 5172",
    "locID": "LOC100079391618",
    "tech": "WIRELESS",
    "upgrade": "NULL_NA",
    "gnaf_pid": "GASA_424799851",
    "ee": true,
    "tech_change_status": "Not Planned",
    "program_type": "Fixed Wireless and Satellite Upgrade Program",
    "target_eligibility_quarter": "NA"
   }
  },
  {
   "type": "Feature",
   "geometry": {
    "type": "Point",
    "coordinates": [
     138.50566531,
     -35.27430406
    ]
   },
   "properties": {
    "name": "445 ALDINGA ROAD WHITES VALLEY 5172",
    "locID": "LOC000110767769",
    "tech": "WIRELESS",
    "upgrade": "NULL_NA",
    "gnaf_pid": "GASA_424799852",
    "ee": true,
    "tech_change_status": "Not Planned",
    "program_type": "Fixed Wireless and Satellite Upgrade Program",
    "target_eligibility_quarter": "NA"
   }
  },
  {
   "type": "Feature",
   "geometry": {
    "type": "Point",
    "coordinates": [
     138.50514548,
     -35.27433336
    ]
   },
   "properties": {
    "name": "449 ALDINGA ROAD WHITES VALLEY 5172",
    "locID": "LOC000110756754",
    "tech": "WIRELESS",
    "upgrade": "NULL_NA",
    "gnaf_pid": "GASA_424799853",
    "ee": true,
    "tech_change_status": "Not Planned",
    "program_type": "Fixed Wireless and Satellite Upgrade Program",
    "target_eligibility_quarter": "NA"
   }
  },
  {
   "type": "Feature",
   "geometry": {
    "type": "Point",
    "coordinates": [
     138.52275966,
     -35.28282921
    ]
   },
   "properties": {
    "name": "106 ALMOND GROVE ROAD WHITES VALLEY 5172",
    "locID": "LOC000111103730",
    "tech": "WIRELESS",
    "upgrade": "NULL_NA",
    "gnaf_pid": "GASA_424799876",
    "ee": true,
    "tech_change_status": "Not Planned",
    "program_type": "Fixed Wireless and Satellite Upgrade Program",
    "target_eligibility_quarter": "NA"
   }
  },
  {
   "type": "Feature",
   "geometry": {
    "type": "Point",
    "coordinates": [
     138.52294588,
     -35.2832075
    ]
   },
   "properties": {
    "name": "109 ALMOND GROVE ROAD WHITES VALLEY 5172",
    "locID": "LOC000112461925",
    "tech": "WIRELESS",
    "upgrade": "NULL_NA",
    "gnaf_pid": "GASA_424799877",
    "ee": true,
    "tech_change_status": "Not Planned",
    "program_type": "Fixed Wireless and Satellite Upgrade Program",
    "target_eligibility_quarter": "NA"
   }
  },
  {
   "type": "Feature",
   "geometry": {
    "type": "Point",
    "coordinates": [
     138.52218967,
     -35.27516699
    ]
   },
   "properties": {
    "name": "20 ALMOND GROVE ROAD WHITES VALLEY 5172",
    "locID": "LOC000111447027",
    "tech": "WIRELESS",
    "upgrade": "NULL_NA",
    "gnaf_pid": "GASA_424799878",
    "ee": true,
    "tech_change_status": "Not Planned",
    "program_type": "Fixed Wireless and Satellite Upgrade Program",
    "target_eligibility_quarter": "NA"
   }
  },
  {
   "type": "Feature",
   "geometry": {
    "type": "Point",
    "coordinates": [
     138.5225385,
     -35.27992938
    ]
   },
   "properties": {
    "name": "74 ALMOND GROVE ROAD WHITES VALLEY 5172",
    "locID": "LOC000112460497",
    "tech": "WIRELESS",
    "upgrade": "NULL_NA",
    "gnaf_pid": "GASA_424799879",
    "ee": true,
    "tech_change_status": "Not Planned",
    "program_type": "Fixed Wireless and Satellite Upgrade Program",
    "target_eligibility_quarter": "NA"
   }
  },
  {
   "type": "Feature",
   "geometry": {
    "type": "Point",
    "coordinates": [
     138.50827371,
     -35.25984428
    ]
   },
   "properties": {
    "name": "107 BAYLISS ROAD WHITES VALLEY 5172",
    "locID": "LOC100078124968",
    "tech": "WIRELESS",
    "upgrade": "NULL_NA",
    "gnaf_pid": "GASA_424800465",
    "ee": true,
    "tech_change_status": "Not Planned",
    "program_type": "Fixed Wireless and Satellite Upgrade Program",
    "target_eligibility_quarter": "NA"
   }
  },
  {
   "type": "Feature",
   "geometry": {
    "type": "Point",
    "coordinates": [
     138.50886288,
     -35.26695163
    ]
   },
   "properties": {
    "name": "28 BAYLISS ROAD WHITES VALLEY 5172",
    "locID": "LOC000111437127",
    "tech": "WIRELESS",
    "upgrade": "NULL_NA",
    "gnaf_pid": "GASA_424800466",
    "ee": true,
    "tech_change_status": "Not Planned",
    "program_type": "Fixed Wireless and Satellite Upgrade Program",
    "target_eligibility_quarter": "NA"
   }
  },
  {
   "type": "Feature",
   "geometry": {
    "type": "Point",
    "coordinates": [
     138.5086612,
     -35.26375728
    ]
   },
   "properties": {
    "name": "64 BAYLISS ROAD WHITES VALLEY 5172",
    "locID": "LOC000112096036",
    "tech": "WIRELESS",
    "upgrade": "NULL_NA",
    "gnaf_pid": "GASA_424800468",
    "ee": true,
    "tech_change_status": "Not Planned",
    "program_type": "Fixed Wireless and Satellite Upgrade Program",
    "target_eligibility_quarter": "NA"
   }
  },
  {
   "type": "Feature",
   "geometry": {
    "type": "Point",
    "coordinates": [
     138.50902621,
     -35.26890872
    ]
   },
   "properties": {
    "name": "6 BAYLISS ROAD WHITES VALLEY 5172",
    "locID": "LOC000110645794",
    "tech": "WIRELESS",
    "upgrade": "NULL_NA",
    "gnaf_pid": "GASA_424800469",
    "ee": true,
    "tech_change_status": "Not Planned",
    "program_type": "Fixed Wireless and Satellite Upgrade Program",
    "target_eligibility_quarter": "NA"
   }
  },
  {
   "type": "Feature",
   "geometry": {
    "type": "Point",
    "coordinates": [
     138.50850709,
     -35.26141962
    ]
   },
   "properties": {
    "name": "90 BAYLISS ROAD WHITES VALLEY 5172",
    "locID": "LOC000111479548",
    "tech": "WIRELESS",
    "upgrade": "NULL_NA",
    "gnaf_pid": "GASA_424800470",
    "ee": true,
    "tech_change_status": "Not Planned",
    "program_type": "Fixed Wireless and Satellite Upgrade Program",
    "target_eligibility_quarter": "NA"
   }
  },
  {
   "type": "Feature",
   "geometry": {
    "type": "Point",
    "coordinates": [
     138.52093257,
     -35.25731326
    ]
   },
   "properties": {
    "name": "179 CALIFORNIA ROAD WHITES VALLEY 5172",
    "locID": "LOC000116205043",
    "tech": "WIRELESS",
    "upgrade": "NULL_NA",
    "gnaf_pid": "GASA_424800937",
    "ee": true,
    "tech_change_status": "Not Planned",
    "program_type": "Fixed Wireless and Satellite Upgrade Program",
    "target_eligibility_quarter": "NA"
   }
  },
  {
   "type": "Feature",
   "geometry": {
    "type": "Point",
    "coordinates": [
     138.522034,
     -35.271198
    ]
   },
   "properties": {
    "name": "24 CALIFORNIA ROAD WHITES VALLEY 5172",
    "locID": "LOC000116215964",
    "tech": "WIRELESS",
    "upgrade": "NULL_NA",
    "gnaf_pid": "GASA_424800938",
    "ee": true,
    "tech_change_status": "Not Planned",
    "program_type": "Fixed Wireless and Satellite Upgrade Program",
    "target_eligibility_quarter": "NA"
   }
  },
  {
   "type": "Feature",
   "geometry": {
    "type": "Point",
    "coordinates": [
     138.53532002,
     -35.27883491
    ]
   },
   "properties": {
    "name": "68 DELABOLE ROAD WHITES VALLEY 5172",
    "locID": "LOC000110892736",
    "tech": "WIRELESS",
    "upgrade": "NULL_NA",
    "gnaf_pid": "GASA_424801553",
    "ee": true,
    "tech_change_status": "Not Planned",
    "program_type": "Fixed Wireless and Satellite Upgrade Program",
    "target_eligibility_quarter": "NA"
   }
  },
  {
   "type": "Feature",
   "geometry": {
    "type": "Point",
    "coordinates": [
     138.49935792,
     -35.2687376
    ]
   },
   "properties": {
    "name": "155 FLOUR MILL ROAD WHITES VALLEY 5172",
    "locID": "LOC000111157113",
    "tech": "WIRELESS",
    "upgrade": "NULL_NA",
    "gnaf_pid": "GASA_424802078",
    "ee": true,
    "tech_change_status": "Not Planned",
    "program_type": "Fixed Wireless and Satellite Upgrade Program",
    "target_eligibility_quarter": "NA"
   }
  },
  {
   "type": "Feature",
   "geometry": {
    "type": "Point",
    "coordinates": [
     138.49790367,
     -35.26865161
    ]
   },
   "properties": {
    "name": "169 FLOUR MILL ROAD WHITES VALLEY 5172",
    "locID": "LOC000110521094",
    "tech": "WIRELESS",
    "upgrade": "NULL_NA",
    "gnaf_pid": "GASA_424802079",
    "ee": true,
    "tech_change_status": "Not Planned",
    "program_type": "Fixed Wireless and Satellite Upgrade Program",
    "target_eligibility_quarter": "NA"
   }
  },
  {
   "type": "Feature",
   "geometry": {
    "type": "Point",
    "coordinates": [
     138.4976503,
     -35.26856586
    ]
   },
   "properties": {
    "name": "172 FLOUR MILL ROAD WHITES VALLEY 5172",
    "locID": "LOC000112193359",
    "tech": "WIRELESS",
    "upgrade": "NULL_NA",
    "gnaf_pid": "GASA_424802080",
    "ee": true,
    "tech_change_status": "Not Planned",
    "program_type": "Fixed Wireless and Satellite Upgrade Program",
    "target_eligibility_quarter": "NA"
   }
  },
  {
   "type": "Feature",
   "geometry": {
    "type": "Point",
    "coordinates": [
     138.49630422,
     -35.26857365
    ]
   },
   "properties": {
    "name": "183 FLOUR MILL ROAD WHITES VALLEY 5172",
    "locID": "LOC000111673933",
    "tech": "WIRELESS",
    "upgrade": "NULL_NA",
    "gnaf_pid": "GASA_424802081",
    "ee": true,
    "tech_change_status": "Not Planned",
    "program_type": "Fixed Wireless and Satellite Upgrade Program",
    "target_eligibility_quarter": "NA"
   }
  },
  {
   "type": "Feature",
   "geometry": {
    "type": "Point",
    "coordinates": [
     138.51094919,
     -35.27266156
    ]
   },
   "properties": {
    "name": "22 FLOUR MILL ROAD WHITES VALLEY 5172",
    "locID": "LOC000113500040",
    "tech": "WIRELESS",
    "upgrade": "NULL_NA",
    "gnaf_pid": "GASA_424802082",
    "ee": true,
    "tech_change_status": "Not Planned",
    "program_type": "Fixed Wireless and Satellite Upgrade Program",
    "target_eligibility_quarter": "NA"
   }
  },
  {
   "type": "Feature",
   "geometry": {
    "type": "Point",
    "coordinates": [
     138.5090599,
     -35.26994783
    ]
   },
   "properties": {
    "name": "62 FLOUR MILL ROAD WHITES VALLEY 5172",
    "locID": "LOC000110704927",
    "tech": "WIRELESS",
    "upgrade": "NULL_NA",
    "gnaf_pid": "GASA_424802083",
    "ee": true,
    "tech_change_status": "Not Planned",
    "program_type": "Fixed Wireless and Satellite Upgrade Program",
    "target_eligibility_quarter": "NA"
   }
  },
  {
   "type": "Feature",
   "geometry": {
    "type": "Point",
    "coordinates": [
     138.50819336,
     -35.26907718
    ]
   },
   "properties": {
    "name": "76 FLOUR MILL ROAD WHITES VALLEY 5172",
    "locID": "LOC000112107564",
    "tech": "WIRELESS",
    "upgrade": "NULL_NA",
    "gnaf_pid": "GASA_424802084",
    "ee": true,
    "tech_change_status": "Not Planned",
    "program_type": "Fixed Wireless and Satellite Upgrade Program",
    "target_eligibility_quarter": "NA"
   }
  },
  {
   "type": "Feature",
   "geometry": {
    "type": "Point",
    "coordinates": [
     138.50728731,
     -35.26902219
    ]
   },
   "properties": {
    "name": "84 FLOUR MILL ROAD WHITES VALLEY 5172",
    "locID": "LOC000112634813",
    "tech": "WIRELESS",
    "upgrade": "NULL_NA",
    "gnaf_pid": "GASA_424802085",
    "ee": true,
    "tech_change_status": "Not Planned",
    "program_type": "Fixed Wireless and Satellite Upgrade Program",
    "target_eligibility_quarter": "NA"
   }
  },
  {
   "type": "Feature",
   "geometry": {
    "type": "Point",
    "coordinates": [
     138.50620233,
     -35.26898536
    ]
   },
   "properties": {
    "name": "94 FLOUR MILL ROAD WHITES VALLEY 5172",
    "locID": "LOC000112619842",
    "tech": "WIRELESS",
    "upgrade": "NULL_NA",
    "gnaf_pid": "GASA_424802086",
    "ee": true,
    "tech_change_status": "Not Planned",
    "program_type": "Fixed Wireless and Satellite Upgrade Program",
    "target_eligibility_quarter": "NA"
   }
  },
  {
   "type": "Feature",
   "geometry": {
    "type": "Point",
    "coordinates": [
     138.50920695,
     -35.27234542
    ]
   },
   "properties": {
    "name": "7 FREE LANE WHITES VALLEY 5172",
    "locID": "LOC000116206042",
    "tech": "WIRELESS",
    "upgrade": "NULL_NA",
    "gnaf_pid": "GASA_424802152",
    "ee": true,
    "tech_change_status": "Not Planned",
    "program_type": "Fixed Wireless and Satellite Upgrade Program",
    "target_eligibility_quarter": "NA"
   }
  },
  {
   "type": "Feature",
   "geometry": {
    "type": "Point",
    "coordinates": [
     138.49542205,
     -35.25877618
    ]
   },
   "properties": {
    "name": "59 HAMPSHIRE WAY WHITES VALLEY 5172",
    "locID": "LOC000116206026",
    "tech": "WIRELESS",
    "upgrade": "NULL_NA",
    "gnaf_pid": "GASA_424802476",
    "ee": true,
    "tech_change_status": "Not Planned",
    "program_type": "Fixed Wireless and Satellite Upgrade Program",
    "target_eligibility_quarter": "NA"
   }
  },
  {
   "type": "Feature",
   "geometry": {
    "type": "Point",
    "coordinates": [
     138.49934407,
     -35.26310626
    ]
   },
   "properties": {
    "name": "110 LITTLE ROAD WHITES VALLEY 5172",
    "locID": "LOC000111694438",
    "tech": "WIRELESS",
    "upgrade": "NULL_NA",
    "gnaf_pid": "GASA_424803442",
    "ee": true,
    "tech_change_status": "Not Planned",
    "program_type": "Fixed Wireless and Satellite Upgrade Program",
    "target_eligibility_quarter": "NA"
   }
  },
  {
   "type": "Feature",
   "geometry": {
    "type": "Point",
    "coordinates": [
     138.50460615,
     -35.26305011
    ]
   },
   "properties": {
    "name": "164 LITTLE ROAD WHITES VALLEY 5172",
    "locID": "LOC000110752809",
    "tech": "WIRELESS",
    "upgrade": "NULL_NA",
    "gnaf_pid": "GASA_424803443",
    "ee": true,
    "tech_change_status": "Not Planned",
    "program_type": "Fixed Wireless and Satellite Upgrade Program",
    "target_eligibility_quarter": "NA"
   }
  },
  {
   "type": "Feature",
   "geometry": {
    "type": "Point",
    "coordinates": [
     138.53481958,
     -35.27136963
    ]
   },
   "properties": {
    "name": "15 PETHICK ROAD WHITES VALLEY 5172",
    "locID": "LOC000116214842",
    "tech": "WIRELESS",
    "upgrade": "NULL_NA",
    "gnaf_pid": "GASA_424805016",
    "ee": true,
    "tech_change_status": "Not Planned",
    "program_type": "Fixed Wireless and Satellite Upgrade Program",
    "target_eligibility_quarter": "NA"
   }
  },
  {
   "type": "Feature",
   "geometry": {
    "type": "Point",
    "coordinates": [
     138.53482191,
     -35.27090573
    ]
   },
   "properties": {
    "name": "20 PETHICK ROAD WHITES VALLEY 5172",
    "locID": "LOC000111193771",
    "tech": "WIRELESS",
    "upgrade": "NULL_NA",
    "gnaf_pid": "GASA_424805017",
    "ee": true,
    "tech_change_status": "Not Planned",
    "program_type": "Fixed Wireless and Satellite Upgrade Program",
    "target_eligibility_quarter": "NA"
   }
  },
  {
   "type": "Feature",
   "geometry": {
    "type": "Point",
    "coordinates": [
     138.53473675,
     -35.26983821
    ]
   },
   "properties": {
    "name": "32 PETHICK ROAD WHITES VALLEY 5172",
    "locID": "LOC000116219833",
    "tech": "WIRELESS",
    "upgrade": "NULL_NA",
    "gnaf_pid": "GASA_424805018",
    "ee": true,
    "tech_change_status": "Not Planned",
    "program_type": "Fixed Wireless and Satellite Upgrade Program",
    "target_eligibility_quarter": "NA"
   }
  },
  {
   "type": "Feature",
   "geometry": {
    "type": "Point",
    "coordinates": [
     138.53434747,
     -35.2653573
    ]
   },
   "properties": {
    "name": "83 PETHICK ROAD WHITES VALLEY 5172",
    "locID": "LOC000116204881",
    "tech": "WIRELESS",
    "upgrade": "NULL_NA",
    "gnaf_pid": "GASA_424805019",
    "ee": true,
    "tech_change_status": "Not Planned",
    "program_type": "Fixed Wireless and Satellite Upgrade Program",
    "target_eligibility_quarter": "NA"
   }
  },
  {
   "type": "Feature",
   "geometry": {
    "type": "Point",
    "coordinates": [
     138.53420718,
     -35.26472264
    ]
   },
   "properties": {
    "name": "89 PETHICK ROAD WHITES VALLEY 5172",
    "locID": "LOC000116204921",
    "tech": "WIRELESS",
    "upgrade": "NULL_NA",
    "gnaf_pid": "GASA_424805020",
    "ee": true,
    "tech_change_status": "Not Planned",
    "program_type": "Fixed Wireless and Satellite Upgrade Program",
    "target_eligibility_quarter": "NA"
   }
  },
  {
   "type": "Feature",
   "geometry": {
    "type": "Point",
    "coordinates": [
     138.50933917,
     -35.27498502
    ]
   },
   "properties": {
    "name": "12 RYAN ROAD WHITES VALLEY 5172",
    "locID": "LOC000111899760",
    "tech": "WIRELESS",
    "upgrade": "NULL_NA",
    "gnaf_pid": "GASA_424805774",
    "ee": true,
    "tech_change_status": "Not Planned",
    "program_type": "Fixed Wireless and Satellite Upgrade Program",
    "target_eligibility_quarter": "NA"
   }
  },
  {
   "type": "Feature",
   "geometry": {
    "type": "Point",
    "coordinates": [
     138.51286036,
     -35.27763966
    ]
   },
   "properties": {
    "name": "41 RYAN ROAD WHITES VALLEY 5172",
    "locID": "LOC000112431570",
    "tech": "WIRELESS",
    "upgrade": "NULL_NA",
    "gnaf_pid": "GASA_424805775",
    "ee": true,
    "tech_change_status": "Not Planned",
    "program_type": "Fixed Wireless and Satellite Upgrade Program",
    "target_eligibility_quarter": "NA"
   }
  },
  {
   "type": "Feature",
   "geometry": {
    "type": "Point",
    "coordinates": [
     138.51949715,
     -35.26281692
    ]
   },
   "properties": {
    "name": "300 LITTLE ROAD WHITES VALLEY 5172",
    "locID": "LOC000130679639",
    "tech": "WIRELESS",
    "upgrade": "NULL_NA",
    "gnaf_pid": "GASA_424823269",
    "ee": true,
    "tech_change_status": "Not Planned",
    "program_type": "Fixed Wireless and Satellite Upgrade Program",
    "target_eligibility_quarter": "NA"
   }
  },
  {
   "type": "Feature",
   "geometry": {
    "type": "Point",
    "coordinates": [
     138.53447735,
     -35.26726148
    ]
   },
   "properties": {
    "name": "61 PETHICK ROAD WHITES VALLEY 5172",
    "locID": "LOC100079391504",
    "tech": "WIRELESS",
    "upgrade": "NULL_NA",
    "gnaf_pid": "GASA_425191998",
    "ee": true,
    "tech_change_status": "Not Planned",
    "program_type": "Fixed Wireless and Satellite Upgrade Program",
    "target_eligibility_quarter": "NA"
   }
  },
  {
   "type": "Feature",
   "geometry": {
    "type": "Point",
    "coordinates": [
     138.54835447,
     -35.28032824
    ]
   },
   "properties": {
    "name": "19 MARTIN ROAD WHITES VALLEY 5172",
    "locID": "LOC000000185026",
    "tech": "FTTP",
    "upgrade": "NULL_NA",
    "gnaf_pid": "GASA_425258466",
    "ee": true
   }
  },
  {
   "type": "Feature",
   "geometry": {
    "type": "Point",
    "coordinates": [
     138.49798474,
     -35.27193134
    ]
   },
   "properties": {
    "name": "LOT 10 ALDINGA ROAD WHITES VALLEY 5172",
    "locID": "LOC100079391536",
    "tech": "WIRELESS",
    "upgrade": "NULL_NA",
    "gnaf_pid": "GASA_425296118",
    "ee": true,
    "tech_change_status": "Not Planned",
    "program_type": "Fixed Wireless and Satellite Upgrade Program",
    "target_eligibility_quarter": "NA"
   }
  },
  {
   "type": "Feature",
   "geometry": {
    "type": "Point",
    "coordinates": [
     138.51734739,
     -35.28409207
    ]
   },
   "properties": {
    "name": "415 COLVILLE ROAD WHITES VALLEY 5172",
    "locID": "LOC000169111520",
    "tech": "WIRELESS",
    "upgrade": "NULL_NA",
    "gnaf_pid": "GASA_425296869",
    "ee": true,
    "tech_change_status": "Not Planned",
    "program_type": "Fixed Wireless and Satellite Upgrade Program",
    "target_eligibility_quarter": "NA"
   }
  },
  {
   "type": "Feature",
   "geometry": {
    "type": "Point",
    "coordinates": [
     138.54837314,
     -35.28120976
    ]
   },
   "properties": {
    "name": "11 MARTIN ROAD WHITES VALLEY 5172",
    "locID": "LOC000000187047",
    "tech": "FTTP",
    "upgrade": "NULL_NA",
    "gnaf_pid": "GASA_425298903",
    "ee": true
   }
  },
  {
   "type": "Feature",
   "geometry": {
    "type": "Point",
    "coordinates": [
     138.54826343,
     -35.27967988
    ]
   },
   "properties": {
    "name": "27 MARTIN ROAD WHITES VALLEY 5172",
    "locID": "LOC000116215993",
    "tech": "FTTP",
    "upgrade": "NULL_NA",
    "gnaf_pid": "GASA_425298904",
    "ee": true
   }
  },
  {
   "type": "Feature",
   "geometry": {
    "type": "Point",
    "coordinates": [
     138.51717388,
     -35.26292878
    ]
   },
   "properties": {
    "name": "280 LITTLE ROAD WHITES VALLEY 5172",
    "locID": "LOC100057526511",
    "tech": "WIRELESS",
    "upgrade": "NULL_NA",
    "gnaf_pid": "GASA_425360401",
    "ee": true,
    "tech_change_status": "Not Planned",
    "program_type": "Fixed Wireless and Satellite Upgrade Program",
    "target_eligibility_quarter": "NA"
   }
  },
  {
   "type": "Feature",
   "geometry": {
    "type": "Point",
    "coordinates": [
     138.53441889,
     -35.27269609
    ]
   },
   "properties": {
    "name": "182 ALDINGA ROAD WHITES VALLEY 5172",
    "locID": "LOC100079011236",
    "tech": "WIRELESS",
    "upgrade": "NULL_NA",
    "gnaf_pid": "GASA_425396016",
    "ee": true,
    "tech_change_status": "Not Planned",
    "program_type": "Fixed Wireless and Satellite Upgrade Program",
    "target_eligibility_quarter": "NA"
   }
  },
  {
   "type": "Feature",
   "geometry": {
    "type": "Point",
    "coordinates": [
     138.53562644,
     -35.2762743
    ]
   },
   "properties": {
    "name": "LOT 21 DELABOLE ROAD WHITES VALLEY 5172",
    "locID": "LOC000111450188",
    "tech": "WIRELESS",
    "upgrade": "NULL_NA",
    "gnaf_pid": "GASA_425709611",
    "ee": true,
    "tech_change_status": "Not Planned",
    "program_type": "Fixed Wireless and Satellite Upgrade Program",
    "target_eligibility_quarter": "NA"
   }
  },
  {
   "type": "Feature",
   "geometry": {
    "type": "Point",
    "coordinates": [
     138.52485194,
     -35.25865193
    ]
   },
   "properties": {
    "name": "LOT 6 LITTLE ROAD WHITES VALLEY 5172",
    "locID": "LOC000130679639",
    "tech": "WIRELESS",
    "upgrade": "NULL_NA",
    "gnaf_pid": "GASA_425711899",
    "ee": true,
    "tech_change_status": "Not Planned",
    "program_type": "Fixed Wireless and Satellite Upgrade Program",
    "target_eligibility_quarter": "NA"
   }
  },
  {
   "type": "Feature",
   "geometry": {
    "type": "Point",
    "coordinates": [
     138.52153591,
     -35.25391047
    ]
   },
   "properties": {
    "name": "LOT 2 CALIFORNIA ROAD WHITES VALLEY 5172",
    "locID": "LOC000116215964",
    "tech": "WIRELESS",
    "upgrade": "NULL_NA",
    "gnaf_pid": "GASA_719047531",
    "ee": true,
    "tech_change_status": "Not Planned",
    "program_type": "Fixed Wireless and Satellite Upgrade Program",
    "target_eligibility_quarter": "NA"
   }
  },
  {
   "type": "Feature",
   "geometry": {
    "type": "Point",
    "coordinates": [
     138.52145697,
     -35.25280995
    ]
   },
   "properties": {
    "name": "LOT 1 CALIFORNIA ROAD WHITES VALLEY 5172",
    "locID": "LOC000112679782",
    "tech": "WIRELESS",
    "upgrade": "NULL_NA",
    "gnaf_pid": "GASA_719047532",
    "ee": true,
    "tech_change_status": "Not Planned",
    "program_type": "Fixed Wireless and Satellite Upgrade Program",
    "target_eligibility_quarter": "NA"
   }
  },
  {
   "type": "Feature",
   "geometry": {
    "type": "Point",
    "coordinates": [
     138.52493994,
     -35.25487223
    ]
   },
   "properties": {
    "name": "LOT 4 CALIFORNIA ROAD WHITES VALLEY 5172",
    "locID": "LOC000112516545",
    "tech": "WIRELESS",
    "upgrade": "NULL_NA",
    "gnaf_pid": "GASA_719048881",
    "ee": true,
    "tech_change_status": "Not Planned",
    "program_type": "Fixed Wireless and Satellite Upgrade Program",
    "target_eligibility_quarter": "NA"
   }
  },
  {
   "type": "Feature",
   "geometry": {
    "type": "Point",
    "coordinates": [
     138.530153,
     -35.272908
    ]
   },
   "properties": {
    "name": "220 ALDINGA ROAD WHITES VALLEY 5172",
    "locID": "LOC000178490225",
    "tech": "WIRELESS",
    "upgrade": "NULL_NA",
    "gnaf_pid": "GASA_719249813",
    "ee": true,
    "tech_change_status": "Not Planned",
    "program_type": "Fixed Wireless and Satellite Upgrade Program",
    "target_eligibility_quarter": "NA"
   }
  },
  {
   "type": "Feature",
   "geometry": {
    "type": "Point",
    "coordinates": [
     138.49592565,
     -35.26626775
    ]
   },
   "properties": {
    "name": "32 ADEY ROAD WHITES VALLEY 5172",
    "locID": "LOC000111034896",
    "tech": "WIRELESS",
    "upgrade": "NULL_NA",
    "gnaf_pid": "GASA_720630298",
    "ee": true,
    "tech_change_status": "Not Planned",
    "program_type": "Fixed Wireless and Satellite Upgrade Program",
    "target_eligibility_quarter": "NA"
   }
  }
 ]
}