{
 "type": "FeatureCollection",
 "generated": "2025-06-16T05:23:57.341787",
 "suburb": "WILLIPPA",
 "features": [
  {
   "type": "Feature",
   "geometry": {
    "type": "Point",
    "coordinates": [
     139.00050537,
     -31.76317676
    ]
   },
   "properties": {
    "name": "920 WILLIPPA ROAD WILLIPPA 5432",
    "locID": "LOC000142878222",
    "tech": "SATELLITE",
    "upgrade": "NULL_NA",
    "gnaf_pid": "GASA_425715716",
    "ee": false,
    "tech_change_status": "Not Planned"
   }
  }
 ]
}