{
 "type": "FeatureCollection",
 "generated": "2025-06-16T05:46:28.272791",
 "suburb": "WOMPINIE",
 "features": [
  {
   "type": "Feature",
   "geometry": {
    "type": "Point",
    "coordinates": [
     140.773566,
     -32.065248
    ]
   },
   "properties": {
    "name": "683 WOMPINIE ROAD WOMPINIE 5440",
    "locID": "LOC000148253309",
    "tech": "NULL",
    "upgrade": "NULL_NA",
    "gnaf_pid": "GASA_425630772",
    "ee": false,
    "tech_change_status": "Not Planned"
   }
  },
  {
   "type": "Feature",
   "geometry": {
    "type": "Point",
    "coordinates": [
     140.79211197,
     -31.89244832
    ]
   },
   "properties": {
    "name": "LOT 119 WOMPINIE ROAD WOMPINIE 5440",
    "locID": "LOC000148253309",
    "tech": "NULL",
    "upgrade": "NULL_NA",
    "gnaf_pid": "GASA_719858874",
    "ee": false,
    "tech_change_status": "Not Planned"
   }
  }
 ]
}