{
 "type": "FeatureCollection",
 "generated": "2025-06-16T05:59:35.231364",
 "suburb": "WOOMERA",
 "features": [
  {
   "type": "Feature",
   "geometry": {
    "type": "Point",
    "coordinates": [
     136.82408492,
     -31.19852518
    ]
   },
   "properties": {
    "name": "19 BOORONG STREET WOOMERA 5720",
    "locID": "LOC000033404975",
    "tech": "NULL",
    "upgrade": "NULL_NA",
    "gnaf_pid": "GASA_415607018",
    "ee": true,
    "tech_change_status": "Not Planned"
   }
  },
  {
   "type": "Feature",
   "geometry": {
    "type": "Point",
    "coordinates": [
     136.82236465,
     -31.1993602
    ]
   },
   "properties": {
    "name": "4 BOORONG STREET WOOMERA 5720",
    "locID": "LOC000026221682",
    "tech": "NULL",
    "upgrade": "NULL_NA",
    "gnaf_pid": "GASA_415607019",
    "ee": true,
    "tech_change_status": "Not Planned"
   }
  },
  {
   "type": "Feature",
   "geometry": {
    "type": "Point",
    "coordinates": [
     136.82167994,
     -31.20097732
    ]
   },
   "properties": {
    "name": "4 BORRAL STREET WOOMERA 5720",
    "locID": "LOC000039302511",
    "tech": "NULL",
    "upgrade": "NULL_NA",
    "gnaf_pid": "GASA_415607020",
    "ee": true,
    "tech_change_status": "Not Planned"
   }
  },
  {
   "type": "Feature",
   "geometry": {
    "type": "Point",
    "coordinates": [
     136.82557997,
     -31.19984391
    ]
   },
   "properties": {
    "name": "1 DEWRANG AVENUE WOOMERA 5720",
    "locID": "LOC000099441477",
    "tech": "NULL",
    "upgrade": "NULL_NA",
    "gnaf_pid": "GASA_416413854",
    "ee": true,
    "tech_change_status": "Not Planned"
   }
  },
  {
   "type": "Feature",
   "geometry": {
    "type": "Point",
    "coordinates": [
     136.82329649,
     -31.19592714
    ]
   },
   "properties": {
    "name": "25 GOOYONG STREET WOOMERA 5720",
    "locID": "LOC000084612033",
    "tech": "NULL",
    "upgrade": "NULL_NA",
    "gnaf_pid": "GASA_416413856",
    "ee": true,
    "tech_change_status": "Not Planned"
   }
  },
  {
   "type": "Feature",
   "geometry": {
    "type": "Point",
    "coordinates": [
     136.82854714,
     -31.1986655
    ]
   },
   "properties": {
    "name": "38F BUNDILLA CRESCENT WOOMERA 5720",
    "locID": "LOC000058778548",
    "tech": "NULL",
    "upgrade": "NULL_NA",
    "gnaf_pid": "GASA_416414592",
    "ee": true,
    "tech_change_status": "Not Planned"
   }
  },
  {
   "type": "Feature",
   "geometry": {
    "type": "Point",
    "coordinates": [
     136.82189963,
     -31.19952701
    ]
   },
   "properties": {
    "name": "5 BOORONG STREET WOOMERA 5720",
    "locID": "LOC000029199886",
    "tech": "NULL",
    "upgrade": "NULL_NA",
    "gnaf_pid": "GASA_416414667",
    "ee": true,
    "tech_change_status": "Not Planned"
   }
  },
  {
   "type": "Feature",
   "geometry": {
    "type": "Point",
    "coordinates": [
     136.82177216,
     -31.19921981
    ]
   },
   "properties": {
    "name": "7 BOORONG STREET WOOMERA 5720",
    "locID": "LOC000029199886",
    "tech": "NULL",
    "upgrade": "NULL_NA",
    "gnaf_pid": "GASA_416414669",
    "ee": true,
    "tech_change_status": "Not Planned"
   }
  },
  {
   "type": "Feature",
   "geometry": {
    "type": "Point",
    "coordinates": [
     136.82528142,
     -31.20391835
    ]
   },
   "properties": {
    "name": "28 COOLAROO STREET WOOMERA 5720",
    "locID": "LOC000031302941",
    "tech": "NULL",
    "upgrade": "NULL_NA",
    "gnaf_pid": "GASA_416414671",
    "ee": true,
    "tech_change_status": "Not Planned"
   }
  },
  {
   "type": "Feature",
   "geometry": {
    "type": "Point",
    "coordinates": [
     136.82313214,
     -31.20425382
    ]
   },
   "properties": {
    "name": "101 CARRIWAN STREET WOOMERA 5720",
    "locID": "LOC100081697780",
    "tech": "NULL",
    "upgrade": "NULL_NA",
    "gnaf_pid": "GASA_416414672",
    "ee": true,
    "tech_change_status": "Not Planned"
   }
  },
  {
   "type": "Feature",
   "geometry": {
    "type": "Point",
    "coordinates": [
     136.82329649,
     -31.19592714
    ]
   },
   "properties": {
    "name": "24 GOOYONG STREET WOOMERA 5720",
    "locID": "LOC000019270414",
    "tech": "NULL",
    "upgrade": "NULL_NA",
    "gnaf_pid": "GASA_416416199",
    "ee": true,
    "tech_change_status": "Not Planned"
   }
  },
  {
   "type": "Feature",
   "geometry": {
    "type": "Point",
    "coordinates": [
     136.82854714,
     -31.1986655
    ]
   },
   "properties": {
    "name": "37F BUNDILLA CRESCENT WOOMERA 5720",
    "locID": "LOC000047848461",
    "tech": "NULL",
    "upgrade": "NULL_NA",
    "gnaf_pid": "GASA_416416201",
    "ee": true,
    "tech_change_status": "Not Planned"
   }
  },
  {
   "type": "Feature",
   "geometry": {
    "type": "Point",
    "coordinates": [
     136.82557997,
     -31.19984391
    ]
   },
   "properties": {
    "name": "5 DEWRANG AVENUE WOOMERA 5720",
    "locID": "LOC000142386788",
    "tech": "SATELLITE",
    "upgrade": "NULL_NA",
    "gnaf_pid": "GASA_416416207",
    "ee": true,
    "tech_change_status": "Not Planned"
   }
  },
  {
   "type": "Feature",
   "geometry": {
    "type": "Point",
    "coordinates": [
     136.82042007,
     -31.20168209
    ]
   },
   "properties": {
    "name": "18 BOORRI STREET WOOMERA 5720",
    "locID": "LOC000043567575",
    "tech": "NULL",
    "upgrade": "NULL_NA",
    "gnaf_pid": "GASA_416418276",
    "ee": true,
    "tech_change_status": "Not Planned"
   }
  },
  {
   "type": "Feature",
   "geometry": {
    "type": "Point",
    "coordinates": [
     136.82042007,
     -31.20168209
    ]
   },
   "properties": {
    "name": "2 BOORRI STREET WOOMERA 5720",
    "locID": "LOC000031840488",
    "tech": "NULL",
    "upgrade": "NULL_NA",
    "gnaf_pid": "GASA_416418277",
    "ee": true,
    "tech_change_status": "Not Planned"
   }
  },
  {
   "type": "Feature",
   "geometry": {
    "type": "Point",
    "coordinates": [
     136.82042007,
     -31.20168209
    ]
   },
   "properties": {
    "name": "23 BOORRI STREET WOOMERA 5720",
    "locID": "LOC000042944971",
    "tech": "NULL",
    "upgrade": "NULL_NA",
    "gnaf_pid": "GASA_416418280",
    "ee": true,
    "tech_change_status": "Not Planned"
   }
  },
  {
   "type": "Feature",
   "geometry": {
    "type": "Point",
    "coordinates": [
     136.82528142,
     -31.20391835
    ]
   },
   "properties": {
    "name": "32 COOLAROO STREET WOOMERA 5720",
    "locID": "LOC000083557074",
    "tech": "NULL",
    "upgrade": "NULL_NA",
    "gnaf_pid": "GASA_416418282",
    "ee": true,
    "tech_change_status": "Not Planned"
   }
  },
  {
   "type": "Feature",
   "geometry": {
    "type": "Point",
    "coordinates": [
     136.82528142,
     -31.20391835
    ]
   },
   "properties": {
    "name": "34 COOLAROO STREET WOOMERA 5720",
    "locID": "LOC000081916533",
    "tech": "NULL",
    "upgrade": "NULL_NA",
    "gnaf_pid": "GASA_416418283",
    "ee": true,
    "tech_change_status": "Not Planned"
   }
  },
  {
   "type": "Feature",
   "geometry": {
    "type": "Point",
    "coordinates": [
     136.82528142,
     -31.20391835
    ]
   },
   "properties": {
    "name": "36 COOLAROO STREET WOOMERA 5720",
    "locID": "LOC000071196027",
    "tech": "NULL",
    "upgrade": "NULL_NA",
    "gnaf_pid": "GASA_416418284",
    "ee": true,
    "tech_change_status": "Not Planned"
   }
  },
  {
   "type": "Feature",
   "geometry": {
    "type": "Point",
    "coordinates": [
     136.82528142,
     -31.20391835
    ]
   },
   "properties": {
    "name": "38 COOLAROO STREET WOOMERA 5720",
    "locID": "LOC000060394847",
    "tech": "NULL",
    "upgrade": "NULL_NA",
    "gnaf_pid": "GASA_416418285",
    "ee": true,
    "tech_change_status": "Not Planned"
   }
  },
  {
   "type": "Feature",
   "geometry": {
    "type": "Point",
    "coordinates": [
     136.82528142,
     -31.20391835
    ]
   },
   "properties": {
    "name": "4A COOLAROO STREET WOOMERA 5720",
    "locID": "LOC000039913671",
    "tech": "NULL",
    "upgrade": "NULL_NA",
    "gnaf_pid": "GASA_416418286",
    "ee": true,
    "tech_change_status": "Not Planned"
   }
  },
  {
   "type": "Feature",
   "geometry": {
    "type": "Point",
    "coordinates": [
     136.82528142,
     -31.20391835
    ]
   },
   "properties": {
    "name": "42 COOLAROO STREET WOOMERA 5720",
    "locID": "LOC000017586111",
    "tech": "NULL",
    "upgrade": "NULL_NA",
    "gnaf_pid": "GASA_416418288",
    "ee": true,
    "tech_change_status": "Not Planned"
   }
  },
  {
   "type": "Feature",
   "geometry": {
    "type": "Point",
    "coordinates": [
     136.82528142,
     -31.20391835
    ]
   },
   "properties": {
    "name": "44 COOLAROO STREET WOOMERA 5720",
    "locID": "LOC000009242340",
    "tech": "NULL",
    "upgrade": "NULL_NA",
    "gnaf_pid": "GASA_416418289",
    "ee": true,
    "tech_change_status": "Not Planned"
   }
  },
  {
   "type": "Feature",
   "geometry": {
    "type": "Point",
    "coordinates": [
     136.823495,
     -31.2005985
    ]
   },
   "properties": {
    "name": "25 BURRIMUL STREET WOOMERA 5720",
    "locID": "LOC000013378389",
    "tech": "NULL",
    "upgrade": "NULL_NA",
    "gnaf_pid": "GASA_416418293",
    "ee": true,
    "tech_change_status": "Not Planned"
   }
  },
  {
   "type": "Feature",
   "geometry": {
    "type": "Point",
    "coordinates": [
     136.823495,
     -31.2005985
    ]
   },
   "properties": {
    "name": "26A BURRIMUL STREET WOOMERA 5720",
    "locID": "LOC000038569453",
    "tech": "NULL",
    "upgrade": "NULL_NA",
    "gnaf_pid": "GASA_416418294",
    "ee": true,
    "tech_change_status": "Not Planned"
   }
  },
  {
   "type": "Feature",
   "geometry": {
    "type": "Point",
    "coordinates": [
     136.81884051,
     -31.19795642
    ]
   },
   "properties": {
    "name": "5 GURUWA STREET WOOMERA 5720",
    "locID": "LOC000047340527",
    "tech": "NULL",
    "upgrade": "NULL_NA",
    "gnaf_pid": "GASA_416419729",
    "ee": true,
    "tech_change_status": "Not Planned"
   }
  },
  {
   "type": "Feature",
   "geometry": {
    "type": "Point",
    "coordinates": [
     136.82183858,
     -31.19666073
    ]
   },
   "properties": {
    "name": "1 GUNDAWARRA STREET WOOMERA 5720",
    "locID": "LOC000006735844",
    "tech": "NULL",
    "upgrade": "NULL_NA",
    "gnaf_pid": "GASA_416419731",
    "ee": true,
    "tech_change_status": "Not Planned"
   }
  },
  {
   "type": "Feature",
   "geometry": {
    "type": "Point",
    "coordinates": [
     136.82183858,
     -31.19666073
    ]
   },
   "properties": {
    "name": "11 GUNDAWARRA STREET WOOMERA 5720",
    "locID": "LOC000020152183",
    "tech": "NULL",
    "upgrade": "NULL_NA",
    "gnaf_pid": "GASA_416419732",
    "ee": true,
    "tech_change_status": "Not Planned"
   }
  },
  {
   "type": "Feature",
   "geometry": {
    "type": "Point",
    "coordinates": [
     136.82183858,
     -31.19666073
    ]
   },
   "properties": {
    "name": "13 GUNDAWARRA STREET WOOMERA 5720",
    "locID": "LOC000070925163",
    "tech": "NULL",
    "upgrade": "NULL_NA",
    "gnaf_pid": "GASA_416419734",
    "ee": true,
    "tech_change_status": "Not Planned"
   }
  },
  {
   "type": "Feature",
   "geometry": {
    "type": "Point",
    "coordinates": [
     136.82176982,
     -31.19783359
    ]
   },
   "properties": {
    "name": "14 GUNDAWARRA STREET WOOMERA 5720",
    "locID": "LOC000062723259",
    "tech": "NULL",
    "upgrade": "NULL_NA",
    "gnaf_pid": "GASA_416419735",
    "ee": true,
    "tech_change_status": "Not Planned"
   }
  },
  {
   "type": "Feature",
   "geometry": {
    "type": "Point",
    "coordinates": [
     136.82183858,
     -31.19666073
    ]
   },
   "properties": {
    "name": "15 GUNDAWARRA STREET WOOMERA 5720",
    "locID": "LOC000093357714",
    "tech": "NULL",
    "upgrade": "NULL_NA",
    "gnaf_pid": "GASA_416419736",
    "ee": true,
    "tech_change_status": "Not Planned"
   }
  },
  {
   "type": "Feature",
   "geometry": {
    "type": "Point",
    "coordinates": [
     136.82183858,
     -31.19666073
    ]
   },
   "properties": {
    "name": "17 GUNDAWARRA STREET WOOMERA 5720",
    "locID": "LOC000089029363",
    "tech": "NULL",
    "upgrade": "NULL_NA",
    "gnaf_pid": "GASA_416419737",
    "ee": true,
    "tech_change_status": "Not Planned"
   }
  },
  {
   "type": "Feature",
   "geometry": {
    "type": "Point",
    "coordinates": [
     136.82183858,
     -31.19666073
    ]
   },
   "properties": {
    "name": "2 GUNDAWARRA STREET WOOMERA 5720",
    "locID": "LOC000085463788",
    "tech": "NULL",
    "upgrade": "NULL_NA",
    "gnaf_pid": "GASA_416419738",
    "ee": true,
    "tech_change_status": "Not Planned"
   }
  },
  {
   "type": "Feature",
   "geometry": {
    "type": "Point",
    "coordinates": [
     136.82183858,
     -31.19666073
    ]
   },
   "properties": {
    "name": "22 GUNDAWARRA STREET WOOMERA 5720",
    "locID": "LOC000016189395",
    "tech": "NULL",
    "upgrade": "NULL_NA",
    "gnaf_pid": "GASA_416419740",
    "ee": true,
    "tech_change_status": "Not Planned"
   }
  },
  {
   "type": "Feature",
   "geometry": {
    "type": "Point",
    "coordinates": [
     136.82183858,
     -31.19666073
    ]
   },
   "properties": {
    "name": "5 GUNDAWARRA STREET WOOMERA 5720",
    "locID": "LOC000006735844",
    "tech": "NULL",
    "upgrade": "NULL_NA",
    "gnaf_pid": "GASA_416419741",
    "ee": true,
    "tech_change_status": "Not Planned"
   }
  },
  {
   "type": "Feature",
   "geometry": {
    "type": "Point",
    "coordinates": [
     136.82183858,
     -31.19666073
    ]
   },
   "properties": {
    "name": "7 GUNDAWARRA STREET WOOMERA 5720",
    "locID": "LOC000103894035",
    "tech": "NULL",
    "upgrade": "NULL_NA",
    "gnaf_pid": "GASA_416419742",
    "ee": true,
    "tech_change_status": "Not Planned"
   }
  },
  {
   "type": "Feature",
   "geometry": {
    "type": "Point",
    "coordinates": [
     136.823495,
     -31.2005985
    ]
   },
   "properties": {
    "name": "9 BURRIMUL STREET WOOMERA 5720",
    "locID": "LOC000103207859",
    "tech": "NULL",
    "upgrade": "NULL_NA",
    "gnaf_pid": "GASA_416419746",
    "ee": true,
    "tech_change_status": "Not Planned"
   }
  },
  {
   "type": "Feature",
   "geometry": {
    "type": "Point",
    "coordinates": [
     136.82197908,
     -31.20118794
    ]
   },
   "properties": {
    "name": "11 BORRAL STREET WOOMERA 5720",
    "locID": "LOC000087755196",
    "tech": "NULL",
    "upgrade": "NULL_NA",
    "gnaf_pid": "GASA_416419748",
    "ee": true,
    "tech_change_status": "Not Planned"
   }
  },
  {
   "type": "Feature",
   "geometry": {
    "type": "Point",
    "coordinates": [
     136.82197908,
     -31.20118794
    ]
   },
   "properties": {
    "name": "14 BORRAL STREET WOOMERA 5720",
    "locID": "LOC000088941328",
    "tech": "NULL",
    "upgrade": "NULL_NA",
    "gnaf_pid": "GASA_416419750",
    "ee": true,
    "tech_change_status": "Not Planned"
   }
  },
  {
   "type": "Feature",
   "geometry": {
    "type": "Point",
    "coordinates": [
     136.82197908,
     -31.20118794
    ]
   },
   "properties": {
    "name": "17 BORRAL STREET WOOMERA 5720",
    "locID": "LOC000042464288",
    "tech": "NULL",
    "upgrade": "NULL_NA",
    "gnaf_pid": "GASA_416419751",
    "ee": true,
    "tech_change_status": "Not Planned"
   }
  },
  {
   "type": "Feature",
   "geometry": {
    "type": "Point",
    "coordinates": [
     136.82197908,
     -31.20118794
    ]
   },
   "properties": {
    "name": "17A BORRAL STREET WOOMERA 5720",
    "locID": "LOC000042464290",
    "tech": "SATELLITE",
    "upgrade": "NULL_NA",
    "gnaf_pid": "GASA_416419752",
    "ee": true,
    "tech_change_status": "Not Planned"
   }
  },
  {
   "type": "Feature",
   "geometry": {
    "type": "Point",
    "coordinates": [
     136.82197908,
     -31.20118794
    ]
   },
   "properties": {
    "name": "18 BORRAL STREET WOOMERA 5720",
    "locID": "LOC000042521708",
    "tech": "NULL",
    "upgrade": "NULL_NA",
    "gnaf_pid": "GASA_416419753",
    "ee": true,
    "tech_change_status": "Not Planned"
   }
  },
  {
   "type": "Feature",
   "geometry": {
    "type": "Point",
    "coordinates": [
     136.82197908,
     -31.20118794
    ]
   },
   "properties": {
    "name": "19 BORRAL STREET WOOMERA 5720",
    "locID": "LOC000047861806",
    "tech": "NULL",
    "upgrade": "NULL_NA",
    "gnaf_pid": "GASA_416419754",
    "ee": true,
    "tech_change_status": "Not Planned"
   }
  },
  {
   "type": "Feature",
   "geometry": {
    "type": "Point",
    "coordinates": [
     136.82197908,
     -31.20118794
    ]
   },
   "properties": {
    "name": "2 BORRAL STREET WOOMERA 5720",
    "locID": "LOC000095528831",
    "tech": "NULL",
    "upgrade": "NULL_NA",
    "gnaf_pid": "GASA_416419755",
    "ee": true,
    "tech_change_status": "Not Planned"
   }
  },
  {
   "type": "Feature",
   "geometry": {
    "type": "Point",
    "coordinates": [
     136.82197908,
     -31.20118794
    ]
   },
   "properties": {
    "name": "21 BORRAL STREET WOOMERA 5720",
    "locID": "LOC000009259778",
    "tech": "NULL",
    "upgrade": "NULL_NA",
    "gnaf_pid": "GASA_416419756",
    "ee": true,
    "tech_change_status": "Not Planned"
   }
  },
  {
   "type": "Feature",
   "geometry": {
    "type": "Point",
    "coordinates": [
     136.82197908,
     -31.20118794
    ]
   },
   "properties": {
    "name": "24 BORRAL STREET WOOMERA 5720",
    "locID": "LOC000103256373",
    "tech": "NULL",
    "upgrade": "NULL_NA",
    "gnaf_pid": "GASA_416419757",
    "ee": true,
    "tech_change_status": "Not Planned"
   }
  },
  {
   "type": "Feature",
   "geometry": {
    "type": "Point",
    "coordinates": [
     136.81891215,
     -31.20162022
    ]
   },
   "properties": {
    "name": "210 WIRRUNA AVENUE WOOMERA 5720",
    "locID": "LOC000066919523",
    "tech": "NULL",
    "upgrade": "NULL_NA",
    "gnaf_pid": "GASA_416421790",
    "ee": true,
    "tech_change_status": "Not Planned"
   }
  },
  {
   "type": "Feature",
   "geometry": {
    "type": "Point",
    "coordinates": [
     136.823495,
     -31.2005985
    ]
   },
   "properties": {
    "name": "16 BURRIMUL STREET WOOMERA 5720",
    "locID": "LOC000071254742",
    "tech": "NULL",
    "upgrade": "NULL_NA",
    "gnaf_pid": "GASA_416421791",
    "ee": true,
    "tech_change_status": "Not Planned"
   }
  },
  {
   "type": "Feature",
   "geometry": {
    "type": "Point",
    "coordinates": [
     136.82197908,
     -31.20118794
    ]
   },
   "properties": {
    "name": "8 BORRAL STREET WOOMERA 5720",
    "locID": "LOC000081714823",
    "tech": "NULL",
    "upgrade": "NULL_NA",
    "gnaf_pid": "GASA_416421809",
    "ee": true,
    "tech_change_status": "Not Planned"
   }
  },
  {
   "type": "Feature",
   "geometry": {
    "type": "Point",
    "coordinates": [
     136.82042007,
     -31.20168209
    ]
   },
   "properties": {
    "name": "1 BOORRI STREET WOOMERA 5720",
    "locID": "LOC000043567575",
    "tech": "NULL",
    "upgrade": "NULL_NA",
    "gnaf_pid": "GASA_416421811",
    "ee": true,
    "tech_change_status": "Not Planned"
   }
  },
  {
   "type": "Feature",
   "geometry": {
    "type": "Point",
    "coordinates": [
     136.82765127,
     -31.20209451
    ]
   },
   "properties": {
    "name": "1 KILPA STREET WOOMERA 5720",
    "locID": "LOC000011791491",
    "tech": "NULL",
    "upgrade": "NULL_NA",
    "gnaf_pid": "GASA_416424644",
    "ee": true,
    "tech_change_status": "Not Planned"
   }
  },
  {
   "type": "Feature",
   "geometry": {
    "type": "Point",
    "coordinates": [
     136.82765127,
     -31.20209451
    ]
   },
   "properties": {
    "name": "13 KILPA STREET WOOMERA 5720",
    "locID": "LOC000036012409",
    "tech": "NULL",
    "upgrade": "NULL_NA",
    "gnaf_pid": "GASA_416424646",
    "ee": true,
    "tech_change_status": "Not Planned"
   }
  },
  {
   "type": "Feature",
   "geometry": {
    "type": "Point",
    "coordinates": [
     136.82765127,
     -31.20209451
    ]
   },
   "properties": {
    "name": "21 KILPA STREET WOOMERA 5720",
    "locID": "LOC000094955256",
    "tech": "NULL",
    "upgrade": "NULL_NA",
    "gnaf_pid": "GASA_416424648",
    "ee": true,
    "tech_change_status": "Not Planned"
   }
  },
  {
   "type": "Feature",
   "geometry": {
    "type": "Point",
    "coordinates": [
     136.82765127,
     -31.20209451
    ]
   },
   "properties": {
    "name": "4 KILPA STREET WOOMERA 5720",
    "locID": "LOC000043180996",
    "tech": "NULL",
    "upgrade": "NULL_NA",
    "gnaf_pid": "GASA_416424652",
    "ee": true,
    "tech_change_status": "Not Planned"
   }
  },
  {
   "type": "Feature",
   "geometry": {
    "type": "Point",
    "coordinates": [
     136.82197908,
     -31.20118794
    ]
   },
   "properties": {
    "name": "5 BORRAL STREET WOOMERA 5720",
    "locID": "LOC000009259778",
    "tech": "NULL",
    "upgrade": "NULL_NA",
    "gnaf_pid": "GASA_416424654",
    "ee": true,
    "tech_change_status": "Not Planned"
   }
  },
  {
   "type": "Feature",
   "geometry": {
    "type": "Point",
    "coordinates": [
     136.82197908,
     -31.20118794
    ]
   },
   "properties": {
    "name": "7 BORRAL STREET WOOMERA 5720",
    "locID": "LOC000041477911",
    "tech": "NULL",
    "upgrade": "NULL_NA",
    "gnaf_pid": "GASA_416424656",
    "ee": true,
    "tech_change_status": "Not Planned"
   }
  },
  {
   "type": "Feature",
   "geometry": {
    "type": "Point",
    "coordinates": [
     136.83025579,
     -31.2004676
    ]
   },
   "properties": {
    "name": "1 KILLARA AVENUE WOOMERA 5720",
    "locID": "LOC000188886034",
    "tech": "NULL",
    "upgrade": "NULL_NA",
    "gnaf_pid": "GASA_416424664",
    "ee": true,
    "tech_change_status": "Not Planned"
   }
  },
  {
   "type": "Feature",
   "geometry": {
    "type": "Point",
    "coordinates": [
     136.82157147,
     -31.19747004
    ]
   },
   "properties": {
    "name": "16 GUNDAWARRA STREET WOOMERA 5720",
    "locID": "LOC000022595681",
    "tech": "NULL",
    "upgrade": "NULL_NA",
    "gnaf_pid": "GASA_416424673",
    "ee": true,
    "tech_change_status": "Not Planned"
   }
  },
  {
   "type": "Feature",
   "geometry": {
    "type": "Point",
    "coordinates": [
     136.82060798,
     -31.2000286
    ]
   },
   "properties": {
    "name": "11 BOOROMI STREET WOOMERA 5720",
    "locID": "LOC000054370237",
    "tech": "NULL",
    "upgrade": "NULL_NA",
    "gnaf_pid": "GASA_416425321",
    "ee": true,
    "tech_change_status": "Not Planned"
   }
  },
  {
   "type": "Feature",
   "geometry": {
    "type": "Point",
    "coordinates": [
     136.82060798,
     -31.2000286
    ]
   },
   "properties": {
    "name": "13 BOOROMI STREET WOOMERA 5720",
    "locID": "LOC000106877176",
    "tech": "NULL",
    "upgrade": "NULL_NA",
    "gnaf_pid": "GASA_416425322",
    "ee": true,
    "tech_change_status": "Not Planned"
   }
  },
  {
   "type": "Feature",
   "geometry": {
    "type": "Point",
    "coordinates": [
     136.82165403,
     -31.1994429
    ]
   },
   "properties": {
    "name": "14 BOOROMI STREET WOOMERA 5720",
    "locID": "LOC000074216339",
    "tech": "NULL",
    "upgrade": "NULL_NA",
    "gnaf_pid": "GASA_416425323",
    "ee": true,
    "tech_change_status": "Not Planned"
   }
  },
  {
   "type": "Feature",
   "geometry": {
    "type": "Point",
    "coordinates": [
     136.82180177,
     -31.1997965
    ]
   },
   "properties": {
    "name": "18 BOOROMI STREET WOOMERA 5720",
    "locID": "LOC000040972153",
    "tech": "NULL",
    "upgrade": "NULL_NA",
    "gnaf_pid": "GASA_416425324",
    "ee": true,
    "tech_change_status": "Not Planned"
   }
  },
  {
   "type": "Feature",
   "geometry": {
    "type": "Point",
    "coordinates": [
     136.82425923,
     -31.19846197
    ]
   },
   "properties": {
    "name": "19 BOOROMI STREET WOOMERA 5720",
    "locID": "LOC000031147921",
    "tech": "NULL",
    "upgrade": "NULL_NA",
    "gnaf_pid": "GASA_416425325",
    "ee": true,
    "tech_change_status": "Not Planned"
   }
  },
  {
   "type": "Feature",
   "geometry": {
    "type": "Point",
    "coordinates": [
     136.82423707,
     -31.19918494
    ]
   },
   "properties": {
    "name": "13B BANOOL AVENUE WOOMERA 5720",
    "locID": "LOC000039416883",
    "tech": "NULL",
    "upgrade": "NULL_NA",
    "gnaf_pid": "GASA_416426073",
    "ee": true,
    "tech_change_status": "Not Planned"
   }
  },
  {
   "type": "Feature",
   "geometry": {
    "type": "Point",
    "coordinates": [
     136.82423707,
     -31.19918494
    ]
   },
   "properties": {
    "name": "14B BANOOL AVENUE WOOMERA 5720",
    "locID": "LOC000014268459",
    "tech": "NULL",
    "upgrade": "NULL_NA",
    "gnaf_pid": "GASA_416426074",
    "ee": true,
    "tech_change_status": "Not Planned"
   }
  },
  {
   "type": "Feature",
   "geometry": {
    "type": "Point",
    "coordinates": [
     136.82423707,
     -31.19918494
    ]
   },
   "properties": {
    "name": "18B BANOOL AVENUE WOOMERA 5720",
    "locID": "LOC000109039796",
    "tech": "NULL",
    "upgrade": "NULL_NA",
    "gnaf_pid": "GASA_416426076",
    "ee": true,
    "tech_change_status": "Not Planned"
   }
  },
  {
   "type": "Feature",
   "geometry": {
    "type": "Point",
    "coordinates": [
     136.82423707,
     -31.19918494
    ]
   },
   "properties": {
    "name": "7C BANOOL AVENUE WOOMERA 5720",
    "locID": "LOC000093300631",
    "tech": "NULL",
    "upgrade": "NULL_NA",
    "gnaf_pid": "GASA_416426080",
    "ee": true,
    "tech_change_status": "Not Planned"
   }
  },
  {
   "type": "Feature",
   "geometry": {
    "type": "Point",
    "coordinates": [
     136.823495,
     -31.2005985
    ]
   },
   "properties": {
    "name": "19 BURRIMUL STREET WOOMERA 5720",
    "locID": "LOC000036917516",
    "tech": "NULL",
    "upgrade": "NULL_NA",
    "gnaf_pid": "GASA_416426081",
    "ee": true,
    "tech_change_status": "Not Planned"
   }
  },
  {
   "type": "Feature",
   "geometry": {
    "type": "Point",
    "coordinates": [
     136.823495,
     -31.2005985
    ]
   },
   "properties": {
    "name": "20A BURRIMUL STREET WOOMERA 5720",
    "locID": "LOC000016223335",
    "tech": "NULL",
    "upgrade": "NULL_NA",
    "gnaf_pid": "GASA_416426082",
    "ee": true,
    "tech_change_status": "Not Planned"
   }
  },
  {
   "type": "Feature",
   "geometry": {
    "type": "Point",
    "coordinates": [
     136.823495,
     -31.2005985
    ]
   },
   "properties": {
    "name": "22 BURRIMUL STREET WOOMERA 5720",
    "locID": "LOC000019316927",
    "tech": "NULL",
    "upgrade": "NULL_NA",
    "gnaf_pid": "GASA_416426084",
    "ee": true,
    "tech_change_status": "Not Planned"
   }
  },
  {
   "type": "Feature",
   "geometry": {
    "type": "Point",
    "coordinates": [
     136.81884051,
     -31.19795642
    ]
   },
   "properties": {
    "name": "1 GURUWA STREET WOOMERA 5720",
    "locID": "LOC000050998610",
    "tech": "NULL",
    "upgrade": "NULL_NA",
    "gnaf_pid": "GASA_416426182",
    "ee": true,
    "tech_change_status": "Not Planned"
   }
  },
  {
   "type": "Feature",
   "geometry": {
    "type": "Point",
    "coordinates": [
     136.823495,
     -31.2005985
    ]
   },
   "properties": {
    "name": "1 BURRIMUL STREET WOOMERA 5720",
    "locID": "LOC000011677905",
    "tech": "NULL",
    "upgrade": "NULL_NA",
    "gnaf_pid": "GASA_416426189",
    "ee": true,
    "tech_change_status": "Not Planned"
   }
  },
  {
   "type": "Feature",
   "geometry": {
    "type": "Point",
    "coordinates": [
     136.82197908,
     -31.20118794
    ]
   },
   "properties": {
    "name": "1 BORRAL STREET WOOMERA 5720",
    "locID": "LOC000072031871",
    "tech": "NULL",
    "upgrade": "NULL_NA",
    "gnaf_pid": "GASA_416427001",
    "ee": true,
    "tech_change_status": "Not Planned"
   }
  },
  {
   "type": "Feature",
   "geometry": {
    "type": "Point",
    "coordinates": [
     136.82365458,
     -31.19884875
    ]
   },
   "properties": {
    "name": "12 BOOROOK STREET WOOMERA 5720",
    "locID": "LOC000027535765",
    "tech": "NULL",
    "upgrade": "NULL_NA",
    "gnaf_pid": "GASA_416427005",
    "ee": true,
    "tech_change_status": "Not Planned"
   }
  },
  {
   "type": "Feature",
   "geometry": {
    "type": "Point",
    "coordinates": [
     136.82365458,
     -31.19884875
    ]
   },
   "properties": {
    "name": "9 BOOROOK STREET WOOMERA 5720",
    "locID": "LOC000016197531",
    "tech": "NULL",
    "upgrade": "NULL_NA",
    "gnaf_pid": "GASA_416427006",
    "ee": true,
    "tech_change_status": "Not Planned"
   }
  },
  {
   "type": "Feature",
   "geometry": {
    "type": "Point",
    "coordinates": [
     136.82212512,
     -31.19945853
    ]
   },
   "properties": {
    "name": "16 BOORONG STREET WOOMERA 5720",
    "locID": "LOC000031141275",
    "tech": "NULL",
    "upgrade": "NULL_NA",
    "gnaf_pid": "GASA_416427007",
    "ee": true,
    "tech_change_status": "Not Planned"
   }
  },
  {
   "type": "Feature",
   "geometry": {
    "type": "Point",
    "coordinates": [
     136.82158016,
     -31.19926609
    ]
   },
   "properties": {
    "name": "12 BOOROMI STREET WOOMERA 5720",
    "locID": "LOC000035020115",
    "tech": "NULL",
    "upgrade": "NULL_NA",
    "gnaf_pid": "GASA_416427008",
    "ee": true,
    "tech_change_status": "Not Planned"
   }
  },
  {
   "type": "Feature",
   "geometry": {
    "type": "Point",
    "coordinates": [
     136.8204579,
     -31.19787664
    ]
   },
   "properties": {
    "name": "12A GILGHI STREET WOOMERA 5720",
    "locID": "LOC000033520532",
    "tech": "NULL",
    "upgrade": "NULL_NA",
    "gnaf_pid": "GASA_416427860",
    "ee": true,
    "tech_change_status": "Not Planned"
   }
  },
  {
   "type": "Feature",
   "geometry": {
    "type": "Point",
    "coordinates": [
     136.82034338,
     -31.1973181
    ]
   },
   "properties": {
    "name": "16 GILGHI STREET WOOMERA 5720",
    "locID": "LOC000078706578",
    "tech": "NULL",
    "upgrade": "NULL_NA",
    "gnaf_pid": "GASA_416427861",
    "ee": true,
    "tech_change_status": "Not Planned"
   }
  },
  {
   "type": "Feature",
   "geometry": {
    "type": "Point",
    "coordinates": [
     136.82365458,
     -31.19884875
    ]
   },
   "properties": {
    "name": "1 BOOROOK STREET WOOMERA 5720",
    "locID": "LOC000103768297",
    "tech": "NULL",
    "upgrade": "NULL_NA",
    "gnaf_pid": "GASA_416428129",
    "ee": true,
    "tech_change_status": "Not Planned"
   }
  },
  {
   "type": "Feature",
   "geometry": {
    "type": "Point",
    "coordinates": [
     136.82365458,
     -31.19884875
    ]
   },
   "properties": {
    "name": "10 BOOROOK STREET WOOMERA 5720",
    "locID": "LOC000075693852",
    "tech": "NULL",
    "upgrade": "NULL_NA",
    "gnaf_pid": "GASA_416428130",
    "ee": true,
    "tech_change_status": "Not Planned"
   }
  },
  {
   "type": "Feature",
   "geometry": {
    "type": "Point",
    "coordinates": [
     136.82365458,
     -31.19884875
    ]
   },
   "properties": {
    "name": "3 BOOROOK STREET WOOMERA 5720",
    "locID": "LOC000103768307",
    "tech": "NULL",
    "upgrade": "NULL_NA",
    "gnaf_pid": "GASA_416428132",
    "ee": true,
    "tech_change_status": "Not Planned"
   }
  },
  {
   "type": "Feature",
   "geometry": {
    "type": "Point",
    "coordinates": [
     136.82365458,
     -31.19884875
    ]
   },
   "properties": {
    "name": "4 BOOROOK STREET WOOMERA 5720",
    "locID": "LOC000074537071",
    "tech": "NULL",
    "upgrade": "NULL_NA",
    "gnaf_pid": "GASA_416428133",
    "ee": true,
    "tech_change_status": "Not Planned"
   }
  },
  {
   "type": "Feature",
   "geometry": {
    "type": "Point",
    "coordinates": [
     136.82365458,
     -31.19884875
    ]
   },
   "properties": {
    "name": "5 BOOROOK STREET WOOMERA 5720",
    "locID": "LOC000090747867",
    "tech": "NULL",
    "upgrade": "NULL_NA",
    "gnaf_pid": "GASA_416428134",
    "ee": true,
    "tech_change_status": "Not Planned"
   }
  },
  {
   "type": "Feature",
   "geometry": {
    "type": "Point",
    "coordinates": [
     136.82365458,
     -31.19884875
    ]
   },
   "properties": {
    "name": "6 BOOROOK STREET WOOMERA 5720",
    "locID": "LOC000058588770",
    "tech": "NULL",
    "upgrade": "NULL_NA",
    "gnaf_pid": "GASA_416428135",
    "ee": true,
    "tech_change_status": "Not Planned"
   }
  },
  {
   "type": "Feature",
   "geometry": {
    "type": "Point",
    "coordinates": [
     136.82314466,
     -31.199389
    ]
   },
   "properties": {
    "name": "1A BOORONG STREET WOOMERA 5720",
    "locID": "LOC000034183342",
    "tech": "NULL",
    "upgrade": "NULL_NA",
    "gnaf_pid": "GASA_416428137",
    "ee": true,
    "tech_change_status": "Not Planned"
   }
  },
  {
   "type": "Feature",
   "geometry": {
    "type": "Point",
    "coordinates": [
     136.82295278,
     -31.19946916
    ]
   },
   "properties": {
    "name": "1B BOORONG STREET WOOMERA 5720",
    "locID": "LOC000034423562",
    "tech": "NULL",
    "upgrade": "NULL_NA",
    "gnaf_pid": "GASA_416428138",
    "ee": true,
    "tech_change_status": "Not Planned"
   }
  },
  {
   "type": "Feature",
   "geometry": {
    "type": "Point",
    "coordinates": [
     136.82204485,
     -31.19849855
    ]
   },
   "properties": {
    "name": "11 BOORONG STREET WOOMERA 5720",
    "locID": "LOC000081482355",
    "tech": "NULL",
    "upgrade": "NULL_NA",
    "gnaf_pid": "GASA_416428139",
    "ee": true,
    "tech_change_status": "Not Planned"
   }
  },
  {
   "type": "Feature",
   "geometry": {
    "type": "Point",
    "coordinates": [
     136.823495,
     -31.2005985
    ]
   },
   "properties": {
    "name": "11 BURRIMUL STREET WOOMERA 5720",
    "locID": "LOC000067051461",
    "tech": "NULL",
    "upgrade": "NULL_NA",
    "gnaf_pid": "GASA_416430076",
    "ee": true,
    "tech_change_status": "Not Planned"
   }
  },
  {
   "type": "Feature",
   "geometry": {
    "type": "Point",
    "coordinates": [
     136.823495,
     -31.2005985
    ]
   },
   "properties": {
    "name": "12 BURRIMUL STREET WOOMERA 5720",
    "locID": "LOC000073917563",
    "tech": "NULL",
    "upgrade": "NULL_NA",
    "gnaf_pid": "GASA_416430077",
    "ee": true,
    "tech_change_status": "Not Planned"
   }
  },
  {
   "type": "Feature",
   "geometry": {
    "type": "Point",
    "coordinates": [
     136.823495,
     -31.2005985
    ]
   },
   "properties": {
    "name": "18 BURRIMUL STREET WOOMERA 5720",
    "locID": "LOC000018831321",
    "tech": "SATELLITE",
    "upgrade": "NULL_NA",
    "gnaf_pid": "GASA_416430079",
    "ee": true,
    "tech_change_status": "Not Planned"
   }
  },
  {
   "type": "Feature",
   "geometry": {
    "type": "Point",
    "coordinates": [
     136.82204517,
     -31.19982116
    ]
   },
   "properties": {
    "name": "20B BOOROMI STREET WOOMERA 5720",
    "locID": "LOC000085758927",
    "tech": "NULL",
    "upgrade": "NULL_NA",
    "gnaf_pid": "GASA_416430080",
    "ee": true,
    "tech_change_status": "Not Planned"
   }
  },
  {
   "type": "Feature",
   "geometry": {
    "type": "Point",
    "coordinates": [
     136.82060798,
     -31.2000286
    ]
   },
   "properties": {
    "name": "6 BOOROMI STREET WOOMERA 5720",
    "locID": "LOC000022511780",
    "tech": "NULL",
    "upgrade": "NULL_NA",
    "gnaf_pid": "GASA_416430081",
    "ee": true,
    "tech_change_status": "Not Planned"
   }
  },
  {
   "type": "Feature",
   "geometry": {
    "type": "Point",
    "coordinates": [
     136.82060798,
     -31.2000286
    ]
   },
   "properties": {
    "name": "7 BOOROMI STREET WOOMERA 5720",
    "locID": "LOC000103301239",
    "tech": "NULL",
    "upgrade": "NULL_NA",
    "gnaf_pid": "GASA_416430082",
    "ee": true,
    "tech_change_status": "Not Planned"
   }
  },
  {
   "type": "Feature",
   "geometry": {
    "type": "Point",
    "coordinates": [
     136.8212629,
     -31.19906463
    ]
   },
   "properties": {
    "name": "8 BOOROMI STREET WOOMERA 5720",
    "locID": "LOC000082356157",
    "tech": "NULL",
    "upgrade": "NULL_NA",
    "gnaf_pid": "GASA_416430083",
    "ee": true,
    "tech_change_status": "Not Planned"
   }
  },
  {
   "type": "Feature",
   "geometry": {
    "type": "Point",
    "coordinates": [
     136.8212629,
     -31.19906463
    ]
   },
   "properties": {
    "name": "8A BOOROMI STREET WOOMERA 5720",
    "locID": "LOC000082356161",
    "tech": "NULL",
    "upgrade": "NULL_NA",
    "gnaf_pid": "GASA_416430084",
    "ee": true,
    "tech_change_status": "Not Planned"
   }
  },
  {
   "type": "Feature",
   "geometry": {
    "type": "Point",
    "coordinates": [
     136.81909931,
     -31.20064184
    ]
   },
   "properties": {
    "name": "10 BOOREEN STREET WOOMERA 5720",
    "locID": "LOC000011721794",
    "tech": "NULL",
    "upgrade": "NULL_NA",
    "gnaf_pid": "GASA_416430085",
    "ee": true,
    "tech_change_status": "Not Planned"
   }
  },
  {
   "type": "Feature",
   "geometry": {
    "type": "Point",
    "coordinates": [
     136.81909931,
     -31.20064184
    ]
   },
   "properties": {
    "name": "15 BOOREEN STREET WOOMERA 5720",
    "locID": "LOC000062717416",
    "tech": "NULL",
    "upgrade": "NULL_NA",
    "gnaf_pid": "GASA_416430086",
    "ee": true,
    "tech_change_status": "Not Planned"
   }
  },
  {
   "type": "Feature",
   "geometry": {
    "type": "Point",
    "coordinates": [
     136.81909931,
     -31.20064184
    ]
   },
   "properties": {
    "name": "16 BOOREEN STREET WOOMERA 5720",
    "locID": "LOC000091059249",
    "tech": "NULL",
    "upgrade": "NULL_NA",
    "gnaf_pid": "GASA_416430087",
    "ee": true,
    "tech_change_status": "Not Planned"
   }
  },
  {
   "type": "Feature",
   "geometry": {
    "type": "Point",
    "coordinates": [
     136.82329649,
     -31.19592714
    ]
   },
   "properties": {
    "name": "8 GOOYONG STREET WOOMERA 5720",
    "locID": "LOC000017595750",
    "tech": "NULL",
    "upgrade": "NULL_NA",
    "gnaf_pid": "GASA_416431200",
    "ee": true,
    "tech_change_status": "Not Planned"
   }
  },
  {
   "type": "Feature",
   "geometry": {
    "type": "Point",
    "coordinates": [
     136.82034338,
     -31.1973181
    ]
   },
   "properties": {
    "name": "1 GILGHI STREET WOOMERA 5720",
    "locID": "LOC000084694668",
    "tech": "NULL",
    "upgrade": "NULL_NA",
    "gnaf_pid": "GASA_416431201",
    "ee": true,
    "tech_change_status": "Not Planned"
   }
  },
  {
   "type": "Feature",
   "geometry": {
    "type": "Point",
    "coordinates": [
     136.81909931,
     -31.20064184
    ]
   },
   "properties": {
    "name": "17 BOOREEN STREET WOOMERA 5720",
    "locID": "LOC000087629320",
    "tech": "NULL",
    "upgrade": "NULL_NA",
    "gnaf_pid": "GASA_416431661",
    "ee": true,
    "tech_change_status": "Not Planned"
   }
  },
  {
   "type": "Feature",
   "geometry": {
    "type": "Point",
    "coordinates": [
     136.81909931,
     -31.20064184
    ]
   },
   "properties": {
    "name": "19 BOOREEN STREET WOOMERA 5720",
    "locID": "LOC000060627031",
    "tech": "NULL",
    "upgrade": "NULL_NA",
    "gnaf_pid": "GASA_416431663",
    "ee": true,
    "tech_change_status": "Not Planned"
   }
  },
  {
   "type": "Feature",
   "geometry": {
    "type": "Point",
    "coordinates": [
     136.82329649,
     -31.19592714
    ]
   },
   "properties": {
    "name": "10 GOOYONG STREET WOOMERA 5720",
    "locID": "LOC000026785639",
    "tech": "NULL",
    "upgrade": "NULL_NA",
    "gnaf_pid": "GASA_416431664",
    "ee": true,
    "tech_change_status": "Not Planned"
   }
  },
  {
   "type": "Feature",
   "geometry": {
    "type": "Point",
    "coordinates": [
     136.81909931,
     -31.20064184
    ]
   },
   "properties": {
    "name": "4 BOOREEN STREET WOOMERA 5720",
    "locID": "LOC000036206727",
    "tech": "NULL",
    "upgrade": "NULL_NA",
    "gnaf_pid": "GASA_416431667",
    "ee": true,
    "tech_change_status": "Not Planned"
   }
  },
  {
   "type": "Feature",
   "geometry": {
    "type": "Point",
    "coordinates": [
     136.81926721,
     -31.2003822
    ]
   },
   "properties": {
    "name": "6 BOOREEN STREET WOOMERA 5720",
    "locID": "LOC000040572849",
    "tech": "NULL",
    "upgrade": "NULL_NA",
    "gnaf_pid": "GASA_416431668",
    "ee": true,
    "tech_change_status": "Not Planned"
   }
  },
  {
   "type": "Feature",
   "geometry": {
    "type": "Point",
    "coordinates": [
     136.82329649,
     -31.19592714
    ]
   },
   "properties": {
    "name": "14 GOOYONG STREET WOOMERA 5720",
    "locID": "LOC000069783827",
    "tech": "NULL",
    "upgrade": "NULL_NA",
    "gnaf_pid": "GASA_416431669",
    "ee": true,
    "tech_change_status": "Not Planned"
   }
  },
  {
   "type": "Feature",
   "geometry": {
    "type": "Point",
    "coordinates": [
     136.82528142,
     -31.20391835
    ]
   },
   "properties": {
    "name": "14 COOLAROO STREET WOOMERA 5720",
    "locID": "LOC000082566131",
    "tech": "NULL",
    "upgrade": "NULL_NA",
    "gnaf_pid": "GASA_416431808",
    "ee": true,
    "tech_change_status": "Not Planned"
   }
  },
  {
   "type": "Feature",
   "geometry": {
    "type": "Point",
    "coordinates": [
     136.82528142,
     -31.20391835
    ]
   },
   "properties": {
    "name": "24 COOLAROO STREET WOOMERA 5720",
    "locID": "LOC000027636622",
    "tech": "NULL",
    "upgrade": "NULL_NA",
    "gnaf_pid": "GASA_416431809",
    "ee": true,
    "tech_change_status": "Not Planned"
   }
  },
  {
   "type": "Feature",
   "geometry": {
    "type": "Point",
    "coordinates": [
     136.81909931,
     -31.20064184
    ]
   },
   "properties": {
    "name": "3 BOOREEN STREET WOOMERA 5720",
    "locID": "LOC000051523273",
    "tech": "NULL",
    "upgrade": "NULL_NA",
    "gnaf_pid": "GASA_416431810",
    "ee": true,
    "tech_change_status": "Not Planned"
   }
  },
  {
   "type": "Feature",
   "geometry": {
    "type": "Point",
    "coordinates": [
     136.82528142,
     -31.20391835
    ]
   },
   "properties": {
    "name": "2A COOLAROO STREET WOOMERA 5720",
    "locID": "LOC000007559410",
    "tech": "NULL",
    "upgrade": "NULL_NA",
    "gnaf_pid": "GASA_416433321",
    "ee": true,
    "tech_change_status": "Not Planned"
   }
  },
  {
   "type": "Feature",
   "geometry": {
    "type": "Point",
    "coordinates": [
     136.81884051,
     -31.19795642
    ]
   },
   "properties": {
    "name": "4 GURUWA STREET WOOMERA 5720",
    "locID": "LOC000047340527",
    "tech": "NULL",
    "upgrade": "NULL_NA",
    "gnaf_pid": "GASA_416433398",
    "ee": true,
    "tech_change_status": "Not Planned"
   }
  },
  {
   "type": "Feature",
   "geometry": {
    "type": "Point",
    "coordinates": [
     136.81884051,
     -31.19795642
    ]
   },
   "properties": {
    "name": "4A GURUWA STREET WOOMERA 5720",
    "locID": "LOC000047340527",
    "tech": "NULL",
    "upgrade": "NULL_NA",
    "gnaf_pid": "GASA_416433399",
    "ee": true,
    "tech_change_status": "Not Planned"
   }
  },
  {
   "type": "Feature",
   "geometry": {
    "type": "Point",
    "coordinates": [
     136.82034338,
     -31.1973181
    ]
   },
   "properties": {
    "name": "2 GILGHI STREET WOOMERA 5720",
    "locID": "LOC000030322444",
    "tech": "NULL",
    "upgrade": "NULL_NA",
    "gnaf_pid": "GASA_416434064",
    "ee": true,
    "tech_change_status": "Not Planned"
   }
  },
  {
   "type": "Feature",
   "geometry": {
    "type": "Point",
    "coordinates": [
     136.81884051,
     -31.19795642
    ]
   },
   "properties": {
    "name": "15 GURUWA STREET WOOMERA 5720",
    "locID": "LOC000023405844",
    "tech": "SATELLITE",
    "upgrade": "NULL_NA",
    "gnaf_pid": "GASA_416435564",
    "ee": true,
    "tech_change_status": "Not Planned"
   }
  },
  {
   "type": "Feature",
   "geometry": {
    "type": "Point",
    "coordinates": [
     136.82528142,
     -31.20391835
    ]
   },
   "properties": {
    "name": "20 COOLAROO STREET WOOMERA 5720",
    "locID": "LOC000092095872",
    "tech": "NULL",
    "upgrade": "NULL_NA",
    "gnaf_pid": "GASA_416436018",
    "ee": true,
    "tech_change_status": "Not Planned"
   }
  },
  {
   "type": "Feature",
   "geometry": {
    "type": "Point",
    "coordinates": [
     136.82528142,
     -31.20391835
    ]
   },
   "properties": {
    "name": "22 COOLAROO STREET WOOMERA 5720",
    "locID": "LOC000003583906",
    "tech": "NULL",
    "upgrade": "NULL_NA",
    "gnaf_pid": "GASA_416436019",
    "ee": true,
    "tech_change_status": "Not Planned"
   }
  },
  {
   "type": "Feature",
   "geometry": {
    "type": "Point",
    "coordinates": [
     136.82528142,
     -31.20391835
    ]
   },
   "properties": {
    "name": "26 COOLAROO STREET WOOMERA 5720",
    "locID": "LOC000067260209",
    "tech": "NULL",
    "upgrade": "NULL_NA",
    "gnaf_pid": "GASA_416436020",
    "ee": true,
    "tech_change_status": "Not Planned"
   }
  },
  {
   "type": "Feature",
   "geometry": {
    "type": "Point",
    "coordinates": [
     136.81909931,
     -31.20064184
    ]
   },
   "properties": {
    "name": "8 BOOREEN STREET WOOMERA 5720",
    "locID": "LOC000058573002",
    "tech": "NULL",
    "upgrade": "NULL_NA",
    "gnaf_pid": "GASA_416436021",
    "ee": true,
    "tech_change_status": "Not Planned"
   }
  },
  {
   "type": "Feature",
   "geometry": {
    "type": "Point",
    "coordinates": [
     136.82329649,
     -31.19592714
    ]
   },
   "properties": {
    "name": "15 GOOYONG STREET WOOMERA 5720",
    "locID": "LOC000027574523",
    "tech": "NULL",
    "upgrade": "NULL_NA",
    "gnaf_pid": "GASA_416436022",
    "ee": true,
    "tech_change_status": "Not Planned"
   }
  },
  {
   "type": "Feature",
   "geometry": {
    "type": "Point",
    "coordinates": [
     136.82329649,
     -31.19592714
    ]
   },
   "properties": {
    "name": "18 GOOYONG STREET WOOMERA 5720",
    "locID": "LOC000057550727",
    "tech": "NULL",
    "upgrade": "NULL_NA",
    "gnaf_pid": "GASA_416436025",
    "ee": true,
    "tech_change_status": "Not Planned"
   }
  },
  {
   "type": "Feature",
   "geometry": {
    "type": "Point",
    "coordinates": [
     136.82329649,
     -31.19592714
    ]
   },
   "properties": {
    "name": "19 GOOYONG STREET WOOMERA 5720",
    "locID": "LOC000076240416",
    "tech": "NULL",
    "upgrade": "NULL_NA",
    "gnaf_pid": "GASA_416436026",
    "ee": true,
    "tech_change_status": "Not Planned"
   }
  },
  {
   "type": "Feature",
   "geometry": {
    "type": "Point",
    "coordinates": [
     136.82329649,
     -31.19592714
    ]
   },
   "properties": {
    "name": "2 GOOYONG STREET WOOMERA 5720",
    "locID": "LOC000082447524",
    "tech": "NULL",
    "upgrade": "NULL_NA",
    "gnaf_pid": "GASA_416436027",
    "ee": true,
    "tech_change_status": "Not Planned"
   }
  },
  {
   "type": "Feature",
   "geometry": {
    "type": "Point",
    "coordinates": [
     136.82329649,
     -31.19592714
    ]
   },
   "properties": {
    "name": "28 GOOYONG STREET WOOMERA 5720",
    "locID": "LOC000082447524",
    "tech": "NULL",
    "upgrade": "NULL_NA",
    "gnaf_pid": "GASA_416436032",
    "ee": true,
    "tech_change_status": "Not Planned"
   }
  },
  {
   "type": "Feature",
   "geometry": {
    "type": "Point",
    "coordinates": [
     136.81909931,
     -31.20064184
    ]
   },
   "properties": {
    "name": "9 BOOREEN STREET WOOMERA 5720",
    "locID": "LOC000060737576",
    "tech": "NULL",
    "upgrade": "NULL_NA",
    "gnaf_pid": "GASA_416436035",
    "ee": true,
    "tech_change_status": "Not Planned"
   }
  },
  {
   "type": "Feature",
   "geometry": {
    "type": "Point",
    "coordinates": [
     136.82108002,
     -31.19913185
    ]
   },
   "properties": {
    "name": "8B BOOROMI STREET WOOMERA 5720",
    "locID": "LOC000081926091",
    "tech": "NULL",
    "upgrade": "NULL_NA",
    "gnaf_pid": "GASA_416436438",
    "ee": true,
    "tech_change_status": "Not Planned"
   }
  },
  {
   "type": "Feature",
   "geometry": {
    "type": "Point",
    "coordinates": [
     136.823495,
     -31.2005985
    ]
   },
   "properties": {
    "name": "3 BURRIMUL STREET WOOMERA 5720",
    "locID": "LOC000067985883",
    "tech": "NULL",
    "upgrade": "NULL_NA",
    "gnaf_pid": "GASA_416436642",
    "ee": true,
    "tech_change_status": "Not Planned"
   }
  },
  {
   "type": "Feature",
   "geometry": {
    "type": "Point",
    "coordinates": [
     136.82528142,
     -31.20391835
    ]
   },
   "properties": {
    "name": "16 COOLAROO STREET WOOMERA 5720",
    "locID": "LOC000052638517",
    "tech": "NULL",
    "upgrade": "NULL_NA",
    "gnaf_pid": "GASA_416437083",
    "ee": true,
    "tech_change_status": "Not Planned"
   }
  },
  {
   "type": "Feature",
   "geometry": {
    "type": "Point",
    "coordinates": [
     136.82528142,
     -31.20391835
    ]
   },
   "properties": {
    "name": "18 COOLAROO STREET WOOMERA 5720",
    "locID": "LOC000043111647",
    "tech": "NULL",
    "upgrade": "NULL_NA",
    "gnaf_pid": "GASA_416437084",
    "ee": true,
    "tech_change_status": "Not Planned"
   }
  },
  {
   "type": "Feature",
   "geometry": {
    "type": "Point",
    "coordinates": [
     136.82528142,
     -31.20391835
    ]
   },
   "properties": {
    "name": "2 COOLAROO STREET WOOMERA 5720",
    "locID": "LOC000007533902",
    "tech": "NULL",
    "upgrade": "NULL_NA",
    "gnaf_pid": "GASA_416437085",
    "ee": true,
    "tech_change_status": "Not Planned"
   }
  },
  {
   "type": "Feature",
   "geometry": {
    "type": "Point",
    "coordinates": [
     136.82197908,
     -31.20118794
    ]
   },
   "properties": {
    "name": "25 BORRAL STREET WOOMERA 5720",
    "locID": "LOC000027517826",
    "tech": "NULL",
    "upgrade": "NULL_NA",
    "gnaf_pid": "GASA_416437432",
    "ee": true,
    "tech_change_status": "Not Planned"
   }
  },
  {
   "type": "Feature",
   "geometry": {
    "type": "Point",
    "coordinates": [
     136.82034338,
     -31.1973181
    ]
   },
   "properties": {
    "name": "4 GILGHI STREET WOOMERA 5720",
    "locID": "LOC000021797298",
    "tech": "NULL",
    "upgrade": "NULL_NA",
    "gnaf_pid": "GASA_416437435",
    "ee": true,
    "tech_change_status": "Not Planned"
   }
  },
  {
   "type": "Feature",
   "geometry": {
    "type": "Point",
    "coordinates": [
     136.82034338,
     -31.1973181
    ]
   },
   "properties": {
    "name": "5 GILGHI STREET WOOMERA 5720",
    "locID": "LOC000017587379",
    "tech": "NULL",
    "upgrade": "NULL_NA",
    "gnaf_pid": "GASA_416437436",
    "ee": true,
    "tech_change_status": "Not Planned"
   }
  },
  {
   "type": "Feature",
   "geometry": {
    "type": "Point",
    "coordinates": [
     136.82042007,
     -31.20168209
    ]
   },
   "properties": {
    "name": "24 BOORRI STREET WOOMERA 5720",
    "locID": "LOC000031840488",
    "tech": "NULL",
    "upgrade": "NULL_NA",
    "gnaf_pid": "GASA_416439108",
    "ee": true,
    "tech_change_status": "Not Planned"
   }
  },
  {
   "type": "Feature",
   "geometry": {
    "type": "Point",
    "coordinates": [
     136.823495,
     -31.2005985
    ]
   },
   "properties": {
    "name": "4 BURRIMUL STREET WOOMERA 5720",
    "locID": "LOC000015173047",
    "tech": "NULL",
    "upgrade": "NULL_NA",
    "gnaf_pid": "GASA_416439366",
    "ee": true,
    "tech_change_status": "Not Planned"
   }
  },
  {
   "type": "Feature",
   "geometry": {
    "type": "Point",
    "coordinates": [
     136.823495,
     -31.2005985
    ]
   },
   "properties": {
    "name": "7 BURRIMUL STREET WOOMERA 5720",
    "locID": "LOC000091887680",
    "tech": "NULL",
    "upgrade": "NULL_NA",
    "gnaf_pid": "GASA_416439368",
    "ee": true,
    "tech_change_status": "Not Planned"
   }
  },
  {
   "type": "Feature",
   "geometry": {
    "type": "Point",
    "coordinates": [
     136.82042007,
     -31.20168209
    ]
   },
   "properties": {
    "name": "28 BOORRI STREET WOOMERA 5720",
    "locID": "LOC000089043627",
    "tech": "NULL",
    "upgrade": "NULL_NA",
    "gnaf_pid": "GASA_416439771",
    "ee": true,
    "tech_change_status": "Not Planned"
   }
  },
  {
   "type": "Feature",
   "geometry": {
    "type": "Point",
    "coordinates": [
     136.82042007,
     -31.20168209
    ]
   },
   "properties": {
    "name": "8 BOORRI STREET WOOMERA 5720",
    "locID": "LOC000079096748",
    "tech": "NULL",
    "upgrade": "NULL_NA",
    "gnaf_pid": "GASA_416439774",
    "ee": true,
    "tech_change_status": "Not Planned"
   }
  },
  {
   "type": "Feature",
   "geometry": {
    "type": "Point",
    "coordinates": [
     136.82042007,
     -31.20168209
    ]
   },
   "properties": {
    "name": "9 BOORRI STREET WOOMERA 5720",
    "locID": "LOC000069878569",
    "tech": "NULL",
    "upgrade": "NULL_NA",
    "gnaf_pid": "GASA_416439775",
    "ee": true,
    "tech_change_status": "Not Planned"
   }
  },
  {
   "type": "Feature",
   "geometry": {
    "type": "Point",
    "coordinates": [
     136.8217279,
     -31.1996197
    ]
   },
   "properties": {
    "name": "16 BOOROMI STREET WOOMERA 5720",
    "locID": "LOC000042271752",
    "tech": "NULL",
    "upgrade": "NULL_NA",
    "gnaf_pid": "GASA_416439776",
    "ee": true,
    "tech_change_status": "Not Planned"
   }
  },
  {
   "type": "Feature",
   "geometry": {
    "type": "Point",
    "coordinates": [
     136.82222779,
     -31.1997565
    ]
   },
   "properties": {
    "name": "20A BOOROMI STREET WOOMERA 5720",
    "locID": "LOC000085595940",
    "tech": "NULL",
    "upgrade": "NULL_NA",
    "gnaf_pid": "GASA_416439777",
    "ee": true,
    "tech_change_status": "Not Planned"
   }
  },
  {
   "type": "Feature",
   "geometry": {
    "type": "Point",
    "coordinates": [
     136.82060798,
     -31.2000286
    ]
   },
   "properties": {
    "name": "4 BOOROMI STREET WOOMERA 5720",
    "locID": "LOC000012655353",
    "tech": "NULL",
    "upgrade": "NULL_NA",
    "gnaf_pid": "GASA_416439778",
    "ee": true,
    "tech_change_status": "Not Planned"
   }
  },
  {
   "type": "Feature",
   "geometry": {
    "type": "Point",
    "coordinates": [
     136.823495,
     -31.2005985
    ]
   },
   "properties": {
    "name": "20 BURRIMUL STREET WOOMERA 5720",
    "locID": "LOC000016210914",
    "tech": "NULL",
    "upgrade": "NULL_NA",
    "gnaf_pid": "GASA_416439781",
    "ee": true,
    "tech_change_status": "Not Planned"
   }
  },
  {
   "type": "Feature",
   "geometry": {
    "type": "Point",
    "coordinates": [
     136.823495,
     -31.2005985
    ]
   },
   "properties": {
    "name": "26 BURRIMUL STREET WOOMERA 5720",
    "locID": "LOC000038569453",
    "tech": "NULL",
    "upgrade": "NULL_NA",
    "gnaf_pid": "GASA_416439782",
    "ee": true,
    "tech_change_status": "Not Planned"
   }
  },
  {
   "type": "Feature",
   "geometry": {
    "type": "Point",
    "coordinates": [
     136.82329649,
     -31.19592714
    ]
   },
   "properties": {
    "name": "286 GOOYONG STREET WOOMERA 5720",
    "locID": "LOC000082447524",
    "tech": "NULL",
    "upgrade": "NULL_NA",
    "gnaf_pid": "GASA_416439787",
    "ee": true,
    "tech_change_status": "Not Planned"
   }
  },
  {
   "type": "Feature",
   "geometry": {
    "type": "Point",
    "coordinates": [
     136.82557997,
     -31.19984391
    ]
   },
   "properties": {
    "name": "13 DEWRANG AVENUE WOOMERA 5720",
    "locID": "LOC000090752358",
    "tech": "NULL",
    "upgrade": "NULL_NA",
    "gnaf_pid": "GASA_416439791",
    "ee": true,
    "tech_change_status": "Not Planned"
   }
  },
  {
   "type": "Feature",
   "geometry": {
    "type": "Point",
    "coordinates": [
     136.82765127,
     -31.20209451
    ]
   },
   "properties": {
    "name": "25 KILPA STREET WOOMERA 5720",
    "locID": "LOC000068030188",
    "tech": "NULL",
    "upgrade": "NULL_NA",
    "gnaf_pid": "GASA_416439792",
    "ee": true,
    "tech_change_status": "Not Planned"
   }
  },
  {
   "type": "Feature",
   "geometry": {
    "type": "Point",
    "coordinates": [
     136.823495,
     -31.2005985
    ]
   },
   "properties": {
    "name": "7A BURRIMUL STREET WOOMERA 5720",
    "locID": "LOC000092269686",
    "tech": "NULL",
    "upgrade": "NULL_NA",
    "gnaf_pid": "GASA_416440220",
    "ee": true,
    "tech_change_status": "Not Planned"
   }
  },
  {
   "type": "Feature",
   "geometry": {
    "type": "Point",
    "coordinates": [
     136.82765127,
     -31.20209451
    ]
   },
   "properties": {
    "name": "20 KILPA STREET WOOMERA 5720",
    "locID": "LOC000097901655",
    "tech": "NULL",
    "upgrade": "NULL_NA",
    "gnaf_pid": "GASA_416440478",
    "ee": true,
    "tech_change_status": "Not Planned"
   }
  },
  {
   "type": "Feature",
   "geometry": {
    "type": "Point",
    "coordinates": [
     136.82027626,
     -31.19793446
    ]
   },
   "properties": {
    "name": "12B GILGHI STREET WOOMERA 5720",
    "locID": "LOC000033495449",
    "tech": "NULL",
    "upgrade": "NULL_NA",
    "gnaf_pid": "GASA_417098153",
    "ee": true,
    "tech_change_status": "Not Planned"
   }
  },
  {
   "type": "Feature",
   "geometry": {
    "type": "Point",
    "coordinates": [
     136.81884051,
     -31.19795642
    ]
   },
   "properties": {
    "name": "2 GURUWA STREET WOOMERA 5720",
    "locID": "LOC000033601040",
    "tech": "NULL",
    "upgrade": "NULL_NA",
    "gnaf_pid": "GASA_417098786",
    "ee": true,
    "tech_change_status": "Not Planned"
   }
  },
  {
   "type": "Feature",
   "geometry": {
    "type": "Point",
    "coordinates": [
     136.82183858,
     -31.19666073
    ]
   },
   "properties": {
    "name": "10 GUNDAWARRA STREET WOOMERA 5720",
    "locID": "LOC000010153563",
    "tech": "NULL",
    "upgrade": "NULL_NA",
    "gnaf_pid": "GASA_417100571",
    "ee": true,
    "tech_change_status": "Not Planned"
   }
  },
  {
   "type": "Feature",
   "geometry": {
    "type": "Point",
    "coordinates": [
     136.81891215,
     -31.20162022
    ]
   },
   "properties": {
    "name": "2 WIRRUNA AVENUE WOOMERA 5720",
    "locID": "LOC000066919523",
    "tech": "NULL",
    "upgrade": "NULL_NA",
    "gnaf_pid": "GASA_417101579",
    "ee": true,
    "tech_change_status": "Not Planned"
   }
  },
  {
   "type": "Feature",
   "geometry": {
    "type": "Point",
    "coordinates": [
     136.82765127,
     -31.20209451
    ]
   },
   "properties": {
    "name": "24A KILPA STREET WOOMERA 5720",
    "locID": "LOC000095418860",
    "tech": "NULL",
    "upgrade": "NULL_NA",
    "gnaf_pid": "GASA_417103234",
    "ee": true,
    "tech_change_status": "Not Planned"
   }
  },
  {
   "type": "Feature",
   "geometry": {
    "type": "Point",
    "coordinates": [
     136.82528142,
     -31.20391835
    ]
   },
   "properties": {
    "name": "4 COOLAROO STREET WOOMERA 5720",
    "locID": "LOC000039555159",
    "tech": "NULL",
    "upgrade": "NULL_NA",
    "gnaf_pid": "GASA_417105168",
    "ee": true,
    "tech_change_status": "Not Planned"
   }
  },
  {
   "type": "Feature",
   "geometry": {
    "type": "Point",
    "coordinates": [
     136.82060798,
     -31.2000286
    ]
   },
   "properties": {
    "name": "11B BOOROMI STREET WOOMERA 5720",
    "locID": "LOC000054370237",
    "tech": "NULL",
    "upgrade": "NULL_NA",
    "gnaf_pid": "GASA_417105986",
    "ee": true,
    "tech_change_status": "Not Planned"
   }
  },
  {
   "type": "Feature",
   "geometry": {
    "type": "Point",
    "coordinates": [
     136.82060798,
     -31.2000286
    ]
   },
   "properties": {
    "name": "11A BOOROMI STREET WOOMERA 5720",
    "locID": "LOC000054370237",
    "tech": "NULL",
    "upgrade": "NULL_NA",
    "gnaf_pid": "GASA_417105987",
    "ee": true,
    "tech_change_status": "Not Planned"
   }
  },
  {
   "type": "Feature",
   "geometry": {
    "type": "Point",
    "coordinates": [
     136.82060798,
     -31.2000286
    ]
   },
   "properties": {
    "name": "1 BOOROMI STREET WOOMERA 5720",
    "locID": "LOC000031147921",
    "tech": "NULL",
    "upgrade": "NULL_NA",
    "gnaf_pid": "GASA_417105988",
    "ee": true,
    "tech_change_status": "Not Planned"
   }
  },
  {
   "type": "Feature",
   "geometry": {
    "type": "Point",
    "coordinates": [
     136.82060798,
     -31.2000286
    ]
   },
   "properties": {
    "name": "2 BOOROMI STREET WOOMERA 5720",
    "locID": "LOC000085595940",
    "tech": "NULL",
    "upgrade": "NULL_NA",
    "gnaf_pid": "GASA_417105994",
    "ee": true,
    "tech_change_status": "Not Planned"
   }
  },
  {
   "type": "Feature",
   "geometry": {
    "type": "Point",
    "coordinates": [
     136.82423707,
     -31.19918494
    ]
   },
   "properties": {
    "name": "5 BANOOL AVENUE WOOMERA 5720",
    "locID": "LOC000021231269",
    "tech": "NULL",
    "upgrade": "NULL_NA",
    "gnaf_pid": "GASA_417111336",
    "ee": true,
    "tech_change_status": "Not Planned"
   }
  },
  {
   "type": "Feature",
   "geometry": {
    "type": "Point",
    "coordinates": [
     136.82921784,
     -31.20160868
    ]
   },
   "properties": {
    "name": "22 KENNELLA STREET WOOMERA 5720",
    "locID": "LOC000016158616",
    "tech": "HFC",
    "upgrade": "NULL_NA",
    "gnaf_pid": "GASA_417112391",
    "ee": true
   }
  },
  {
   "type": "Feature",
   "geometry": {
    "type": "Point",
    "coordinates": [
     136.82423707,
     -31.19918494
    ]
   },
   "properties": {
    "name": "7 BANOOL AVENUE WOOMERA 5720",
    "locID": "LOC000093300631",
    "tech": "NULL",
    "upgrade": "NULL_NA",
    "gnaf_pid": "GASA_417112710",
    "ee": true,
    "tech_change_status": "Not Planned"
   }
  },
  {
   "type": "Feature",
   "geometry": {
    "type": "Point",
    "coordinates": [
     136.81909931,
     -31.20064184
    ]
   },
   "properties": {
    "name": "5 BOOREEN STREET WOOMERA 5720",
    "locID": "LOC000011300342",
    "tech": "NULL",
    "upgrade": "NULL_NA",
    "gnaf_pid": "GASA_417112726",
    "ee": true,
    "tech_change_status": "Not Planned"
   }
  },
  {
   "type": "Feature",
   "geometry": {
    "type": "Point",
    "coordinates": [
     136.81909931,
     -31.20064184
    ]
   },
   "properties": {
    "name": "1 BOOREEN STREET WOOMERA 5720",
    "locID": "LOC000011721794",
    "tech": "NULL",
    "upgrade": "NULL_NA",
    "gnaf_pid": "GASA_417112729",
    "ee": true,
    "tech_change_status": "Not Planned"
   }
  },
  {
   "type": "Feature",
   "geometry": {
    "type": "Point",
    "coordinates": [
     136.82329649,
     -31.19592714
    ]
   },
   "properties": {
    "name": "22 GOOYONG STREET WOOMERA 5720",
    "locID": "LOC000104168694",
    "tech": "NULL",
    "upgrade": "NULL_NA",
    "gnaf_pid": "GASA_417114335",
    "ee": true,
    "tech_change_status": "Not Planned"
   }
  },
  {
   "type": "Feature",
   "geometry": {
    "type": "Point",
    "coordinates": [
     136.82212512,
     -31.19945853
    ]
   },
   "properties": {
    "name": "21 BOORONG STREET WOOMERA 5720",
    "locID": "LOC000039423231",
    "tech": "NULL",
    "upgrade": "NULL_NA",
    "gnaf_pid": "GASA_417115235",
    "ee": true,
    "tech_change_status": "Not Planned"
   }
  },
  {
   "type": "Feature",
   "geometry": {
    "type": "Point",
    "coordinates": [
     136.82295278,
     -31.19946916
    ]
   },
   "properties": {
    "name": "1 BOORONG STREET WOOMERA 5720",
    "locID": "LOC000081482355",
    "tech": "NULL",
    "upgrade": "NULL_NA",
    "gnaf_pid": "GASA_417115236",
    "ee": true,
    "tech_change_status": "Not Planned"
   }
  },
  {
   "type": "Feature",
   "geometry": {
    "type": "Point",
    "coordinates": [
     136.82765127,
     -31.20209451
    ]
   },
   "properties": {
    "name": "17 KILPA STREET WOOMERA 5720",
    "locID": "LOC000011791491",
    "tech": "NULL",
    "upgrade": "NULL_NA",
    "gnaf_pid": "GASA_417115775",
    "ee": true,
    "tech_change_status": "Not Planned"
   }
  },
  {
   "type": "Feature",
   "geometry": {
    "type": "Point",
    "coordinates": [
     136.82423707,
     -31.19918494
    ]
   },
   "properties": {
    "name": "1 BANOOL AVENUE WOOMERA 5720",
    "locID": "LOC000103814664",
    "tech": "NULL",
    "upgrade": "NULL_NA",
    "gnaf_pid": "GASA_417116264",
    "ee": true,
    "tech_change_status": "Not Planned"
   }
  },
  {
   "type": "Feature",
   "geometry": {
    "type": "Point",
    "coordinates": [
     136.82765127,
     -31.20209451
    ]
   },
   "properties": {
    "name": "24 KILPA STREET WOOMERA 5720",
    "locID": "LOC000095383202",
    "tech": "NULL",
    "upgrade": "NULL_NA",
    "gnaf_pid": "GASA_417116274",
    "ee": true,
    "tech_change_status": "Not Planned"
   }
  },
  {
   "type": "Feature",
   "geometry": {
    "type": "Point",
    "coordinates": [
     136.82197908,
     -31.20118794
    ]
   },
   "properties": {
    "name": "23 BORRAL STREET WOOMERA 5720",
    "locID": "LOC000081403814",
    "tech": "NULL",
    "upgrade": "NULL_NA",
    "gnaf_pid": "GASA_417116342",
    "ee": true,
    "tech_change_status": "Not Planned"
   }
  },
  {
   "type": "Feature",
   "geometry": {
    "type": "Point",
    "coordinates": [
     136.82197908,
     -31.20118794
    ]
   },
   "properties": {
    "name": "13 BORRAL STREET WOOMERA 5720",
    "locID": "LOC000007640688",
    "tech": "SATELLITE",
    "upgrade": "NULL_NA",
    "gnaf_pid": "GASA_417116344",
    "ee": true,
    "tech_change_status": "Not Planned"
   }
  },
  {
   "type": "Feature",
   "geometry": {
    "type": "Point",
    "coordinates": [
     136.82042007,
     -31.20168209
    ]
   },
   "properties": {
    "name": "5 BOORRI STREET WOOMERA 5720",
    "locID": "LOC000042944971",
    "tech": "NULL",
    "upgrade": "NULL_NA",
    "gnaf_pid": "GASA_417118681",
    "ee": true,
    "tech_change_status": "Not Planned"
   }
  },
  {
   "type": "Feature",
   "geometry": {
    "type": "Point",
    "coordinates": [
     136.82557997,
     -31.19984391
    ]
   },
   "properties": {
    "name": "3 DEWRANG AVENUE WOOMERA 5720",
    "locID": "LOC000001873193",
    "tech": "NULL",
    "upgrade": "NULL_NA",
    "gnaf_pid": "GASA_417123106",
    "ee": true,
    "tech_change_status": "Not Planned"
   }
  },
  {
   "type": "Feature",
   "geometry": {
    "type": "Point",
    "coordinates": [
     136.82557997,
     -31.19984391
    ]
   },
   "properties": {
    "name": "15 DEWRANG AVENUE WOOMERA 5720",
    "locID": "LOC000053991440",
    "tech": "NULL",
    "upgrade": "NULL_NA",
    "gnaf_pid": "GASA_417123107",
    "ee": true,
    "tech_change_status": "Not Planned"
   }
  },
  {
   "type": "Feature",
   "geometry": {
    "type": "Point",
    "coordinates": [
     136.823495,
     -31.2005985
    ]
   },
   "properties": {
    "name": "5 BURRIMUL STREET WOOMERA 5720",
    "locID": "LOC000011677905",
    "tech": "NULL",
    "upgrade": "NULL_NA",
    "gnaf_pid": "GASA_417126916",
    "ee": true,
    "tech_change_status": "Not Planned"
   }
  },
  {
   "type": "Feature",
   "geometry": {
    "type": "Point",
    "coordinates": [
     136.823495,
     -31.2005985
    ]
   },
   "properties": {
    "name": "28 BURRIMUL STREET WOOMERA 5720",
    "locID": "LOC000019201414",
    "tech": "NULL",
    "upgrade": "NULL_NA",
    "gnaf_pid": "GASA_417126917",
    "ee": true,
    "tech_change_status": "Not Planned"
   }
  },
  {
   "type": "Feature",
   "geometry": {
    "type": "Point",
    "coordinates": [
     136.823495,
     -31.2005985
    ]
   },
   "properties": {
    "name": "10 BURRIMUL STREET WOOMERA 5720",
    "locID": "LOC000013399935",
    "tech": "NULL",
    "upgrade": "NULL_NA",
    "gnaf_pid": "GASA_417126920",
    "ee": true,
    "tech_change_status": "Not Planned"
   }
  },
  {
   "type": "Feature",
   "geometry": {
    "type": "Point",
    "coordinates": [
     136.82423707,
     -31.19918494
    ]
   },
   "properties": {
    "name": "16B BANOOL AVENUE WOOMERA 5720",
    "locID": "LOC000003541801",
    "tech": "NULL",
    "upgrade": "NULL_NA",
    "gnaf_pid": "GASA_423595581",
    "ee": true,
    "tech_change_status": "Not Planned"
   }
  },
  {
   "type": "Feature",
   "geometry": {
    "type": "Point",
    "coordinates": [
     136.82423707,
     -31.19918494
    ]
   },
   "properties": {
    "name": "6C BANOOL AVENUE WOOMERA 5720",
    "locID": "LOC000021231269",
    "tech": "NULL",
    "upgrade": "NULL_NA",
    "gnaf_pid": "GASA_423595582",
    "ee": true,
    "tech_change_status": "Not Planned"
   }
  },
  {
   "type": "Feature",
   "geometry": {
    "type": "Point",
    "coordinates": [
     136.82854714,
     -31.1986655
    ]
   },
   "properties": {
    "name": "63D BUNDILLA CRESCENT WOOMERA 5720",
    "locID": "LOC000035181544",
    "tech": "NULL",
    "upgrade": "NULL_NA",
    "gnaf_pid": "GASA_423738885",
    "ee": true,
    "tech_change_status": "Not Planned"
   }
  },
  {
   "type": "Feature",
   "geometry": {
    "type": "Point",
    "coordinates": [
     136.82854714,
     -31.1986655
    ]
   },
   "properties": {
    "name": "67D BUNDILLA CRESCENT WOOMERA 5720",
    "locID": "LOC000021159408",
    "tech": "NULL",
    "upgrade": "NULL_NA",
    "gnaf_pid": "GASA_424345434",
    "ee": true,
    "tech_change_status": "Not Planned"
   }
  },
  {
   "type": "Feature",
   "geometry": {
    "type": "Point",
    "coordinates": [
     136.82854714,
     -31.1986655
    ]
   },
   "properties": {
    "name": "72D BUNDILLA CRESCENT WOOMERA 5720",
    "locID": "LOC000029226847",
    "tech": "NULL",
    "upgrade": "NULL_NA",
    "gnaf_pid": "GASA_424345444",
    "ee": true,
    "tech_change_status": "Not Planned"
   }
  },
  {
   "type": "Feature",
   "geometry": {
    "type": "Point",
    "coordinates": [
     136.81530856,
     -31.15577205
    ]
   },
   "properties": {
    "name": "LOT 100 PIMBA ROAD WOOMERA 5720",
    "locID": "LOC100077856548",
    "tech": "NULL",
    "upgrade": "NULL_NA",
    "gnaf_pid": "GASA_425723710",
    "ee": true,
    "tech_change_status": "Not Planned"
   }
  },
  {
   "type": "Feature",
   "geometry": {
    "type": "Point",
    "coordinates": [
     136.80371261,
     -31.14770119
    ]
   },
   "properties": {
    "name": "LOT 2 PIMBA ROAD WOOMERA 5720",
    "locID": "LOC000185718901",
    "tech": "NULL",
    "upgrade": "NULL_NA",
    "gnaf_pid": "GASA_425723711",
    "ee": true,
    "tech_change_status": "Not Planned"
   }
  },
  {
   "type": "Feature",
   "geometry": {
    "type": "Point",
    "coordinates": [
     136.82842276,
     -31.19972023
    ]
   },
   "properties": {
    "name": "1 KOTARA PLACE WOOMERA 5720",
    "locID": "LOC100081621610",
    "tech": "NULL",
    "upgrade": "NULL_NA",
    "gnaf_pid": "GASA_719548794",
    "ee": true,
    "tech_change_status": "Not Planned"
   }
  },
  {
   "type": "Feature",
   "geometry": {
    "type": "Point",
    "coordinates": [
     136.81825547,
     -31.20416729
    ]
   },
   "properties": {
    "name": "LOT 101 PIMBA ROAD WOOMERA 5720",
    "locID": "LOC100077856548",
    "tech": "NULL",
    "upgrade": "NULL_NA",
    "gnaf_pid": "GASA_720188951",
    "ee": true,
    "tech_change_status": "Not Planned"
   }
  }
 ]
}