{
 "type": "FeatureCollection",
 "generated": "2025-06-16T18:45:48.682834",
 "suburb": "ARMSTRONG",
 "features": [
  {
   "type": "Feature",
   "geometry": {
    "type": "Point",
    "coordinates": [
     142.86623939,
     -37.20812455
    ]
   },
   "properties": {
    "name": "94 WESTGATE ROAD ARMSTRONG 3377",
    "locID": "LOC000033129733",
    "tech": "WIRELESS",
    "upgrade": "NULL_NA",
    "gnaf_pid": "GAVIC410767279",
    "ee": true,
    "tech_change_status": "Not Planned",
    "program_type": "Fixed Wireless and Satellite Upgrade Program",
    "target_eligibility_quarter": "NA"
   }
  },
  {
   "type": "Feature",
   "geometry": {
    "type": "Point",
    "coordinates": [
     142.8638522,
     -37.21066355
    ]
   },
   "properties": {
    "name": "1 WESTGATE ROAD ARMSTRONG 3377",
    "locID": "LOC000079864856",
    "tech": "WIRELESS",
    "upgrade": "NULL_NA",
    "gnaf_pid": "GAVIC414289005",
    "ee": true,
    "tech_change_status": "Not Planned",
    "program_type": "Fixed Wireless and Satellite Upgrade Program",
    "target_eligibility_quarter": "NA"
   }
  },
  {
   "type": "Feature",
   "geometry": {
    "type": "Point",
    "coordinates": [
     142.88050876,
     -37.21279192
    ]
   },
   "properties": {
    "name": "41 EAGLEHAWK ROAD ARMSTRONG 3377",
    "locID": "LOC000062395053",
    "tech": "NULL",
    "upgrade": "NULL_NA",
    "gnaf_pid": "GAVIC419849238",
    "ee": true,
    "tech_change_status": "Not Planned"
   }
  },
  {
   "type": "Feature",
   "geometry": {
    "type": "Point",
    "coordinates": [
     142.8868603,
     -37.20978521
    ]
   },
   "properties": {
    "name": "11 MILITARY BYPASS ROAD ARMSTRONG 3377",
    "locID": "LOC000058823229",
    "tech": "WIRELESS",
    "upgrade": "NULL_NA",
    "gnaf_pid": "GAVIC420452489",
    "ee": true,
    "tech_change_status": "Not Planned",
    "program_type": "Fixed Wireless and Satellite Upgrade Program",
    "target_eligibility_quarter": "NA"
   }
  },
  {
   "type": "Feature",
   "geometry": {
    "type": "Point",
    "coordinates": [
     142.8864969,
     -37.20560005
    ]
   },
   "properties": {
    "name": "990 WESTERN HIGHWAY ARMSTRONG 3377",
    "locID": "LOC000009760407",
    "tech": "WIRELESS",
    "upgrade": "NULL_NA",
    "gnaf_pid": "GAVIC421051049",
    "ee": true,
    "tech_change_status": "Not Planned",
    "program_type": "Fixed Wireless and Satellite Upgrade Program",
    "target_eligibility_quarter": "NA"
   }
  },
  {
   "type": "Feature",
   "geometry": {
    "type": "Point",
    "coordinates": [
     142.88626551,
     -37.21033545
    ]
   },
   "properties": {
    "name": "12 MILITARY BYPASS ROAD ARMSTRONG 3377",
    "locID": "LOC000023875851",
    "tech": "WIRELESS",
    "upgrade": "NULL_NA",
    "gnaf_pid": "GAVIC421673092",
    "ee": true,
    "tech_change_status": "Not Planned",
    "program_type": "Fixed Wireless and Satellite Upgrade Program",
    "target_eligibility_quarter": "NA"
   }
  },
  {
   "type": "Feature",
   "geometry": {
    "type": "Point",
    "coordinates": [
     142.87599405,
     -37.20363509
    ]
   },
   "properties": {
    "name": "98 GARDEN GULLY ROAD ARMSTRONG 3377",
    "locID": "LOC000053151881",
    "tech": "WIRELESS",
    "upgrade": "NULL_NA",
    "gnaf_pid": "GAVIC421992691",
    "ee": true,
    "tech_change_status": "Not Planned",
    "program_type": "Fixed Wireless and Satellite Upgrade Program",
    "target_eligibility_quarter": "NA"
   }
  },
  {
   "type": "Feature",
   "geometry": {
    "type": "Point",
    "coordinates": [
     142.8872516,
     -37.21780035
    ]
   },
   "properties": {
    "name": "841 WESTERN HIGHWAY ARMSTRONG 3377",
    "locID": "LOC000101638547",
    "tech": "WIRELESS",
    "upgrade": "NULL_NA",
    "gnaf_pid": "GAVIC422025881",
    "ee": true,
    "tech_change_status": "Not Planned",
    "program_type": "Fixed Wireless and Satellite Upgrade Program",
    "target_eligibility_quarter": "NA"
   }
  },
  {
   "type": "Feature",
   "geometry": {
    "type": "Point",
    "coordinates": [
     142.88059333,
     -37.20699185
    ]
   },
   "properties": {
    "name": "45 GARDEN GULLY ROAD ARMSTRONG 3377",
    "locID": "LOC100078651251",
    "tech": "WIRELESS",
    "upgrade": "NULL_NA",
    "gnaf_pid": "GAVIC422027900",
    "ee": true,
    "tech_change_status": "Not Planned",
    "program_type": "Fixed Wireless and Satellite Upgrade Program",
    "target_eligibility_quarter": "NA"
   }
  },
  {
   "type": "Feature",
   "geometry": {
    "type": "Point",
    "coordinates": [
     142.87281453,
     -37.2141271
    ]
   },
   "properties": {
    "name": "108 EAGLEHAWK ROAD ARMSTRONG 3377",
    "locID": "LOC000003613071",
    "tech": "WIRELESS",
    "upgrade": "NULL_NA",
    "gnaf_pid": "GAVIC422143708",
    "ee": true,
    "tech_change_status": "Not Planned",
    "program_type": "Fixed Wireless and Satellite Upgrade Program",
    "target_eligibility_quarter": "NA"
   }
  },
  {
   "type": "Feature",
   "geometry": {
    "type": "Point",
    "coordinates": [
     142.87250565,
     -37.2157633
    ]
   },
   "properties": {
    "name": "121 EAGLEHAWK ROAD ARMSTRONG 3377",
    "locID": "LOC000034695665",
    "tech": "NULL",
    "upgrade": "NULL_NA",
    "gnaf_pid": "GAVIC422143709",
    "ee": true,
    "tech_change_status": "Not Planned"
   }
  },
  {
   "type": "Feature",
   "geometry": {
    "type": "Point",
    "coordinates": [
     142.88173532,
     -37.20674839
    ]
   },
   "properties": {
    "name": "35 GARDEN GULLY ROAD ARMSTRONG 3377",
    "locID": "LOC000055057714",
    "tech": "NULL",
    "upgrade": "NULL_NA",
    "gnaf_pid": "GAVIC422148410",
    "ee": true,
    "tech_change_status": "Not Planned"
   }
  },
  {
   "type": "Feature",
   "geometry": {
    "type": "Point",
    "coordinates": [
     142.87519885,
     -37.20362098
    ]
   },
   "properties": {
    "name": "99 GARDEN GULLY ROAD ARMSTRONG 3377",
    "locID": "LOC000020321088",
    "tech": "WIRELESS",
    "upgrade": "NULL_NA",
    "gnaf_pid": "GAVIC422148411",
    "ee": true,
    "tech_change_status": "Not Planned",
    "program_type": "Fixed Wireless and Satellite Upgrade Program",
    "target_eligibility_quarter": "NA"
   }
  },
  {
   "type": "Feature",
   "geometry": {
    "type": "Point",
    "coordinates": [
     142.89228795,
     -37.2091848
    ]
   },
   "properties": {
    "name": "130 MILITARY BYPASS ROAD ARMSTRONG 3377",
    "locID": "LOC000062224250",
    "tech": "WIRELESS",
    "upgrade": "NULL_NA",
    "gnaf_pid": "GAVIC422171496",
    "ee": true,
    "tech_change_status": "Not Planned",
    "program_type": "Fixed Wireless and Satellite Upgrade Program",
    "target_eligibility_quarter": "NA"
   }
  },
  {
   "type": "Feature",
   "geometry": {
    "type": "Point",
    "coordinates": [
     142.8918075,
     -37.2070925
    ]
   },
   "properties": {
    "name": "166 MILITARY BYPASS ROAD ARMSTRONG 3377",
    "locID": "LOC000087095462",
    "tech": "WIRELESS",
    "upgrade": "NULL_NA",
    "gnaf_pid": "GAVIC422171497",
    "ee": true,
    "tech_change_status": "Not Planned",
    "program_type": "Fixed Wireless and Satellite Upgrade Program",
    "target_eligibility_quarter": "NA"
   }
  },
  {
   "type": "Feature",
   "geometry": {
    "type": "Point",
    "coordinates": [
     142.88800852,
     -37.20020203
    ]
   },
   "properties": {
    "name": "244 MILITARY BYPASS ROAD ARMSTRONG 3377",
    "locID": "LOC000059858557",
    "tech": "SATELLITE",
    "upgrade": "NULL_NA",
    "gnaf_pid": "GAVIC422171498",
    "ee": true,
    "tech_change_status": "Not Planned"
   }
  },
  {
   "type": "Feature",
   "geometry": {
    "type": "Point",
    "coordinates": [
     142.88813688,
     -37.21081934
    ]
   },
   "properties": {
    "name": "29 MILITARY BYPASS ROAD ARMSTRONG 3377",
    "locID": "LOC000042459960",
    "tech": "WIRELESS",
    "upgrade": "NULL_NA",
    "gnaf_pid": "GAVIC422171499",
    "ee": true,
    "tech_change_status": "Not Planned",
    "program_type": "Fixed Wireless and Satellite Upgrade Program",
    "target_eligibility_quarter": "NA"
   }
  },
  {
   "type": "Feature",
   "geometry": {
    "type": "Point",
    "coordinates": [
     142.89135066,
     -37.21271478
    ]
   },
   "properties": {
    "name": "67 MILITARY BYPASS ROAD ARMSTRONG 3377",
    "locID": "LOC000105690872",
    "tech": "WIRELESS",
    "upgrade": "NULL_NA",
    "gnaf_pid": "GAVIC422171500",
    "ee": true,
    "tech_change_status": "Not Planned",
    "program_type": "Fixed Wireless and Satellite Upgrade Program",
    "target_eligibility_quarter": "NA"
   }
  },
  {
   "type": "Feature",
   "geometry": {
    "type": "Point",
    "coordinates": [
     142.89199048,
     -37.21306508
    ]
   },
   "properties": {
    "name": "73 MILITARY BYPASS ROAD ARMSTRONG 3377",
    "locID": "LOC000058247357",
    "tech": "WIRELESS",
    "upgrade": "NULL_NA",
    "gnaf_pid": "GAVIC422171501",
    "ee": true,
    "tech_change_status": "Not Planned",
    "program_type": "Fixed Wireless and Satellite Upgrade Program",
    "target_eligibility_quarter": "NA"
   }
  },
  {
   "type": "Feature",
   "geometry": {
    "type": "Point",
    "coordinates": [
     142.88455864,
     -37.23162367
    ]
   },
   "properties": {
    "name": "124 PETTICOAT GULLY ROAD ARMSTRONG 3377",
    "locID": "LOC000077221253",
    "tech": "WIRELESS",
    "upgrade": "NULL_NA",
    "gnaf_pid": "GAVIC422181663",
    "ee": true,
    "tech_change_status": "Not Planned",
    "program_type": "Fixed Wireless and Satellite Upgrade Program",
    "target_eligibility_quarter": "NA"
   }
  },
  {
   "type": "Feature",
   "geometry": {
    "type": "Point",
    "coordinates": [
     142.88403496,
     -37.23210076
    ]
   },
   "properties": {
    "name": "126 PETTICOAT GULLY ROAD ARMSTRONG 3377",
    "locID": "LOC000038952461",
    "tech": "WIRELESS",
    "upgrade": "NULL_NA",
    "gnaf_pid": "GAVIC422181664",
    "ee": true,
    "tech_change_status": "Not Planned",
    "program_type": "Fixed Wireless and Satellite Upgrade Program",
    "target_eligibility_quarter": "NA"
   }
  },
  {
   "type": "Feature",
   "geometry": {
    "type": "Point",
    "coordinates": [
     142.88657649,
     -37.20291298
    ]
   },
   "properties": {
    "name": "1014 WESTERN HIGHWAY ARMSTRONG 3377",
    "locID": "LOC000095243247",
    "tech": "WIRELESS",
    "upgrade": "NULL_NA",
    "gnaf_pid": "GAVIC422202456",
    "ee": true,
    "tech_change_status": "Not Planned",
    "program_type": "Fixed Wireless and Satellite Upgrade Program",
    "target_eligibility_quarter": "NA"
   }
  },
  {
   "type": "Feature",
   "geometry": {
    "type": "Point",
    "coordinates": [
     142.88946396,
     -37.21929721
    ]
   },
   "properties": {
    "name": "823 WESTERN HIGHWAY ARMSTRONG 3377",
    "locID": "LOC000048602959",
    "tech": "WIRELESS",
    "upgrade": "NULL_NA",
    "gnaf_pid": "GAVIC422202457",
    "ee": true,
    "tech_change_status": "Not Planned",
    "program_type": "Fixed Wireless and Satellite Upgrade Program",
    "target_eligibility_quarter": "NA"
   }
  },
  {
   "type": "Feature",
   "geometry": {
    "type": "Point",
    "coordinates": [
     142.88468475,
     -37.21383055
    ]
   },
   "properties": {
    "name": "897 WESTERN HIGHWAY ARMSTRONG 3377",
    "locID": "LOC000079331158",
    "tech": "WIRELESS",
    "upgrade": "NULL_NA",
    "gnaf_pid": "GAVIC422202458",
    "ee": true,
    "tech_change_status": "Not Planned",
    "program_type": "Fixed Wireless and Satellite Upgrade Program",
    "target_eligibility_quarter": "NA"
   }
  },
  {
   "type": "Feature",
   "geometry": {
    "type": "Point",
    "coordinates": [
     142.86394631,
     -37.21076465
    ]
   },
   "properties": {
    "name": "135 WESTGATE ROAD ARMSTRONG 3377",
    "locID": "LOC000079864856",
    "tech": "WIRELESS",
    "upgrade": "NULL_NA",
    "gnaf_pid": "GAVIC422202584",
    "ee": true,
    "tech_change_status": "Not Planned",
    "program_type": "Fixed Wireless and Satellite Upgrade Program",
    "target_eligibility_quarter": "NA"
   }
  },
  {
   "type": "Feature",
   "geometry": {
    "type": "Point",
    "coordinates": [
     142.86318305,
     -37.21116361
    ]
   },
   "properties": {
    "name": "142 WESTGATE ROAD ARMSTRONG 3377",
    "locID": "LOC000095530092",
    "tech": "WIRELESS",
    "upgrade": "NULL_NA",
    "gnaf_pid": "GAVIC422202585",
    "ee": true,
    "tech_change_status": "Not Planned",
    "program_type": "Fixed Wireless and Satellite Upgrade Program",
    "target_eligibility_quarter": "NA"
   }
  },
  {
   "type": "Feature",
   "geometry": {
    "type": "Point",
    "coordinates": [
     142.85976465,
     -37.21432797
    ]
   },
   "properties": {
    "name": "180 WESTGATE ROAD ARMSTRONG 3377",
    "locID": "LOC000075247008",
    "tech": "WIRELESS",
    "upgrade": "NULL_NA",
    "gnaf_pid": "GAVIC422202586",
    "ee": true,
    "tech_change_status": "Not Planned",
    "program_type": "Fixed Wireless and Satellite Upgrade Program",
    "target_eligibility_quarter": "NA"
   }
  },
  {
   "type": "Feature",
   "geometry": {
    "type": "Point",
    "coordinates": [
     142.86782336,
     -37.20323477
    ]
   },
   "properties": {
    "name": "34 HARD HILL ROAD ARMSTRONG 3377",
    "locID": "LOC000050217972",
    "tech": "WIRELESS",
    "upgrade": "NULL_NA",
    "gnaf_pid": "GAVIC422296368",
    "ee": true,
    "tech_change_status": "Not Planned",
    "program_type": "Fixed Wireless and Satellite Upgrade Program",
    "target_eligibility_quarter": "NA"
   }
  },
  {
   "type": "Feature",
   "geometry": {
    "type": "Point",
    "coordinates": [
     142.87804166,
     -37.2008766
    ]
   },
   "properties": {
    "name": "33 YELLOW BOX LANE ARMSTRONG 3377",
    "locID": "LOC000104022776",
    "tech": "WIRELESS",
    "upgrade": "NULL_NA",
    "gnaf_pid": "GAVIC422335444",
    "ee": true,
    "tech_change_status": "Not Planned",
    "program_type": "Fixed Wireless and Satellite Upgrade Program",
    "target_eligibility_quarter": "NA"
   }
  },
  {
   "type": "Feature",
   "geometry": {
    "type": "Point",
    "coordinates": [
     142.8744498,
     -37.2016749
    ]
   },
   "properties": {
    "name": "5 YELLOW BOX LANE ARMSTRONG 3377",
    "locID": "LOC000030238859",
    "tech": "SATELLITE",
    "upgrade": "NULL_NA",
    "gnaf_pid": "GAVIC422335445",
    "ee": true,
    "tech_change_status": "Not Planned"
   }
  },
  {
   "type": "Feature",
   "geometry": {
    "type": "Point",
    "coordinates": [
     142.89746744,
     -37.21307651
    ]
   },
   "properties": {
    "name": "116 OLD BREWERY ROAD ARMSTRONG 3377",
    "locID": "LOC000073676073",
    "tech": "WIRELESS",
    "upgrade": "NULL_NA",
    "gnaf_pid": "GAVIC423106705",
    "ee": true,
    "tech_change_status": "Not Planned",
    "program_type": "Fixed Wireless and Satellite Upgrade Program",
    "target_eligibility_quarter": "NA"
   }
  },
  {
   "type": "Feature",
   "geometry": {
    "type": "Point",
    "coordinates": [
     142.89551283,
     -37.21788296
    ]
   },
   "properties": {
    "name": "58 OLD BREWERY ROAD ARMSTRONG 3377",
    "locID": "LOC000012104264",
    "tech": "WIRELESS",
    "upgrade": "NULL_NA",
    "gnaf_pid": "GAVIC423106706",
    "ee": true,
    "tech_change_status": "Not Planned",
    "program_type": "Fixed Wireless and Satellite Upgrade Program",
    "target_eligibility_quarter": "NA"
   }
  },
  {
   "type": "Feature",
   "geometry": {
    "type": "Point",
    "coordinates": [
     142.89559432,
     -37.21326235
    ]
   },
   "properties": {
    "name": "122 OLD BREWERY ROAD ARMSTRONG 3377",
    "locID": "LOC000022673016",
    "tech": "WIRELESS",
    "upgrade": "NULL_NA",
    "gnaf_pid": "GAVIC423386431",
    "ee": true,
    "tech_change_status": "Not Planned",
    "program_type": "Fixed Wireless and Satellite Upgrade Program",
    "target_eligibility_quarter": "NA"
   }
  },
  {
   "type": "Feature",
   "geometry": {
    "type": "Point",
    "coordinates": [
     142.90006455,
     -37.216792
    ]
   },
   "properties": {
    "name": "76 OLD BREWERY ROAD ARMSTRONG 3377",
    "locID": "LOC000021129797",
    "tech": "WIRELESS",
    "upgrade": "NULL_NA",
    "gnaf_pid": "GAVIC423386432",
    "ee": true,
    "tech_change_status": "Not Planned",
    "program_type": "Fixed Wireless and Satellite Upgrade Program",
    "target_eligibility_quarter": "NA"
   }
  },
  {
   "type": "Feature",
   "geometry": {
    "type": "Point",
    "coordinates": [
     142.89581645,
     -37.21348191
    ]
   },
   "properties": {
    "name": "129 OLD BREWERY ROAD ARMSTRONG 3377",
    "locID": "LOC000098421939",
    "tech": "WIRELESS",
    "upgrade": "NULL_NA",
    "gnaf_pid": "GAVIC423479086",
    "ee": true,
    "tech_change_status": "Not Planned",
    "program_type": "Fixed Wireless and Satellite Upgrade Program",
    "target_eligibility_quarter": "NA"
   }
  },
  {
   "type": "Feature",
   "geometry": {
    "type": "Point",
    "coordinates": [
     142.88012612,
     -37.20623154
    ]
   },
   "properties": {
    "name": "50 GARDEN GULLY ROAD ARMSTRONG 3377",
    "locID": "LOC000124614138",
    "tech": "WIRELESS",
    "upgrade": "NULL_NA",
    "gnaf_pid": "GAVIC423791632",
    "ee": true,
    "tech_change_status": "Not Planned",
    "program_type": "Fixed Wireless and Satellite Upgrade Program",
    "target_eligibility_quarter": "NA"
   }
  },
  {
   "type": "Feature",
   "geometry": {
    "type": "Point",
    "coordinates": [
     142.89152058,
     -37.2146725
    ]
   },
   "properties": {
    "name": "13 THOMAS ROAD ARMSTRONG 3377",
    "locID": "LOC000106885540",
    "tech": "WIRELESS",
    "upgrade": "NULL_NA",
    "gnaf_pid": "GAVIC423800599",
    "ee": true,
    "tech_change_status": "Not Planned",
    "program_type": "Fixed Wireless and Satellite Upgrade Program",
    "target_eligibility_quarter": "NA"
   }
  },
  {
   "type": "Feature",
   "geometry": {
    "type": "Point",
    "coordinates": [
     142.89100445,
     -37.21431121
    ]
   },
   "properties": {
    "name": "14 THOMAS ROAD ARMSTRONG 3377",
    "locID": "LOC000074997678",
    "tech": "WIRELESS",
    "upgrade": "NULL_NA",
    "gnaf_pid": "GAVIC423800600",
    "ee": true,
    "tech_change_status": "Not Planned",
    "program_type": "Fixed Wireless and Satellite Upgrade Program",
    "target_eligibility_quarter": "NA"
   }
  },
  {
   "type": "Feature",
   "geometry": {
    "type": "Point",
    "coordinates": [
     142.89099998,
     -37.21468853
    ]
   },
   "properties": {
    "name": "17 THOMAS ROAD ARMSTRONG 3377",
    "locID": "LOC000035565486",
    "tech": "WIRELESS",
    "upgrade": "NULL_NA",
    "gnaf_pid": "GAVIC423800601",
    "ee": true,
    "tech_change_status": "Not Planned",
    "program_type": "Fixed Wireless and Satellite Upgrade Program",
    "target_eligibility_quarter": "NA"
   }
  },
  {
   "type": "Feature",
   "geometry": {
    "type": "Point",
    "coordinates": [
     142.89135066,
     -37.21271478
    ]
   },
   "properties": {
    "name": "67A MILITARY BYPASS ROAD ARMSTRONG 3377",
    "locID": "LOC000105690872",
    "tech": "WIRELESS",
    "upgrade": "NULL_NA",
    "gnaf_pid": "GAVIC424729421",
    "ee": true,
    "tech_change_status": "Not Planned",
    "program_type": "Fixed Wireless and Satellite Upgrade Program",
    "target_eligibility_quarter": "NA"
   }
  },
  {
   "type": "Feature",
   "geometry": {
    "type": "Point",
    "coordinates": [
     142.86010203,
     -37.19718958
    ]
   },
   "properties": {
    "name": "103 HARD HILL ROAD ARMSTRONG 3377",
    "locID": "LOC000152284593",
    "tech": "WIRELESS",
    "upgrade": "NULL_NA",
    "gnaf_pid": "GAVIC425465373",
    "ee": true,
    "tech_change_status": "Not Planned",
    "program_type": "Fixed Wireless and Satellite Upgrade Program",
    "target_eligibility_quarter": "NA"
   }
  },
  {
   "type": "Feature",
   "geometry": {
    "type": "Point",
    "coordinates": [
     142.88830999,
     -37.21110061
    ]
   },
   "properties": {
    "name": "43 MILITARY BYPASS ROAD ARMSTRONG 3377",
    "locID": "LOC000145394569",
    "tech": "WIRELESS",
    "upgrade": "NULL_NA",
    "gnaf_pid": "GAVIC425524441",
    "ee": true,
    "tech_change_status": "Not Planned",
    "program_type": "Fixed Wireless and Satellite Upgrade Program",
    "target_eligibility_quarter": "NA"
   }
  },
  {
   "type": "Feature",
   "geometry": {
    "type": "Point",
    "coordinates": [
     142.86256143,
     -37.2116144
    ]
   },
   "properties": {
    "name": "156 WESTGATE ROAD ARMSTRONG 3377",
    "locID": "LOC100077957128",
    "tech": "WIRELESS",
    "upgrade": "NULL_NA",
    "gnaf_pid": "GAVIC720064034",
    "ee": true,
    "tech_change_status": "Not Planned",
    "program_type": "Fixed Wireless and Satellite Upgrade Program",
    "target_eligibility_quarter": "NA"
   }
  },
  {
   "type": "Feature",
   "geometry": {
    "type": "Point",
    "coordinates": [
     142.87856196,
     -37.20128591
    ]
   },
   "properties": {
    "name": "37 YELLOW BOX LANE ARMSTRONG 3377",
    "locID": "LOC100087527939",
    "tech": "SATELLITE",
    "upgrade": "NULL_NA",
    "gnaf_pid": "GAVIC721034466",
    "ee": true,
    "tech_change_status": "Not Planned"
   }
  }
 ]
}