{
 "type": "FeatureCollection",
 "generated": "2025-06-16T20:45:52.815824",
 "suburb": "BARRAPORT WEST",
 "features": [
  {
   "type": "Feature",
   "geometry": {
    "type": "Point",
    "coordinates": [
     143.52227795,
     -36.00792598
    ]
   },
   "properties": {
    "name": "358 HILLS ROAD BARRAPORT WEST 3537",
    "locID": "LOC000016804927",
    "tech": "SATELLITE",
    "upgrade": "NULL_NA",
    "gnaf_pid": "GAVIC410831544",
    "ee": false,
    "tech_change_status": "Not Planned"
   }
  },
  {
   "type": "Feature",
   "geometry": {
    "type": "Point",
    "coordinates": [
     143.56089493,
     -36.0285407
    ]
   },
   "properties": {
    "name": "1207 QUAMBATOOK-WYCHITELLA ROAD BARRAPORT WEST 3537",
    "locID": "LOC000007610797",
    "tech": "SATELLITE",
    "upgrade": "NULL_NA",
    "gnaf_pid": "GAVIC410831546",
    "ee": false,
    "tech_change_status": "Not Planned"
   }
  },
  {
   "type": "Feature",
   "geometry": {
    "type": "Point",
    "coordinates": [
     143.55183109,
     -36.00126998
    ]
   },
   "properties": {
    "name": "116 SMITHS ROAD BARRAPORT WEST 3537",
    "locID": "LOC000010164399",
    "tech": "SATELLITE",
    "upgrade": "NULL_NA",
    "gnaf_pid": "GAVIC410832415",
    "ee": false,
    "tech_change_status": "Not Planned"
   }
  }
 ]
}