{
 "type": "FeatureCollection",
 "generated": "2025-06-16T20:45:47.393301",
 "suburb": "BARRAPORT",
 "features": [
  {
   "type": "Feature",
   "geometry": {
    "type": "Point",
    "coordinates": [
     143.65516315,
     -36.0112937
    ]
   },
   "properties": {
    "name": "135 BARRAPORT WEST ROAD BARRAPORT 3537",
    "locID": "LOC000065897732",
    "tech": "WIRELESS",
    "upgrade": "NULL_NA",
    "gnaf_pid": "GAVIC410834276",
    "ee": false,
    "tech_change_status": "Not Planned",
    "program_type": "Fixed Wireless and Satellite Upgrade Program",
    "target_eligibility_quarter": "NA"
   }
  },
  {
   "type": "Feature",
   "geometry": {
    "type": "Point",
    "coordinates": [
     143.71455155,
     -35.96882277
    ]
   },
   "properties": {
    "name": "178 GREDGWIN EAST ROAD BARRAPORT 3537",
    "locID": "LOC000108774474",
    "tech": "NULL",
    "upgrade": "NULL_NA",
    "gnaf_pid": "GAVIC410834278",
    "ee": false,
    "tech_change_status": "Not Planned"
   }
  },
  {
   "type": "Feature",
   "geometry": {
    "type": "Point",
    "coordinates": [
     143.71731288,
     -35.98331812
    ]
   },
   "properties": {
    "name": "513 BARRAPORT EAST ROAD BARRAPORT 3537",
    "locID": "LOC000090492430",
    "tech": "WIRELESS",
    "upgrade": "NULL_NA",
    "gnaf_pid": "GAVIC410834282",
    "ee": false,
    "tech_change_status": "Not Planned",
    "program_type": "Fixed Wireless and Satellite Upgrade Program",
    "target_eligibility_quarter": "NA"
   }
  },
  {
   "type": "Feature",
   "geometry": {
    "type": "Point",
    "coordinates": [
     143.62831603,
     -36.0102539
    ]
   },
   "properties": {
    "name": "374 BARRAPORT WEST ROAD BARRAPORT 3537",
    "locID": "LOC000091647587",
    "tech": "WIRELESS",
    "upgrade": "NULL_NA",
    "gnaf_pid": "GAVIC410834283",
    "ee": false,
    "tech_change_status": "Not Planned",
    "program_type": "Fixed Wireless and Satellite Upgrade Program",
    "target_eligibility_quarter": "NA"
   }
  },
  {
   "type": "Feature",
   "geometry": {
    "type": "Point",
    "coordinates": [
     143.66929634,
     -36.0084608
    ]
   },
   "properties": {
    "name": "1316 BOORT-QUAMBATOOK ROAD BARRAPORT 3537",
    "locID": "LOC000021977950",
    "tech": "WIRELESS",
    "upgrade": "NULL_NA",
    "gnaf_pid": "GAVIC410834286",
    "ee": false,
    "tech_change_status": "Not Planned",
    "program_type": "Fixed Wireless and Satellite Upgrade Program",
    "target_eligibility_quarter": "NA"
   }
  },
  {
   "type": "Feature",
   "geometry": {
    "type": "Point",
    "coordinates": [
     143.70757119,
     -35.99008068
    ]
   },
   "properties": {
    "name": "394 BARRAPORT EAST ROAD BARRAPORT 3537",
    "locID": "LOC000028887576",
    "tech": "SATELLITE",
    "upgrade": "NULL_NA",
    "gnaf_pid": "GAVIC410834287",
    "ee": false,
    "tech_change_status": "Not Planned"
   }
  },
  {
   "type": "Feature",
   "geometry": {
    "type": "Point",
    "coordinates": [
     143.6252123,
     -36.00668307
    ]
   },
   "properties": {
    "name": "29 BARRAPORT WEST ROAD BARRAPORT 3537",
    "locID": "LOC000050595865",
    "tech": "WIRELESS",
    "upgrade": "NULL_NA",
    "gnaf_pid": "GAVIC414382004",
    "ee": false,
    "tech_change_status": "Not Planned",
    "program_type": "Fixed Wireless and Satellite Upgrade Program",
    "target_eligibility_quarter": "NA"
   }
  },
  {
   "type": "Feature",
   "geometry": {
    "type": "Point",
    "coordinates": [
     143.6252123,
     -36.00668307
    ]
   },
   "properties": {
    "name": "33 BARRAPORT WEST ROAD BARRAPORT 3537",
    "locID": "LOC000012947146",
    "tech": "SATELLITE",
    "upgrade": "NULL_NA",
    "gnaf_pid": "GAVIC414382005",
    "ee": false,
    "tech_change_status": "Not Planned"
   }
  },
  {
   "type": "Feature",
   "geometry": {
    "type": "Point",
    "coordinates": [
     143.68092469,
     -36.02087378
    ]
   },
   "properties": {
    "name": "18 BOORT-QUAMBATOOK ROAD BARRAPORT 3537",
    "locID": "LOC000009788954",
    "tech": "WIRELESS",
    "upgrade": "NULL_NA",
    "gnaf_pid": "GAVIC414382006",
    "ee": false,
    "tech_change_status": "Not Planned",
    "program_type": "Fixed Wireless and Satellite Upgrade Program",
    "target_eligibility_quarter": "NA"
   }
  },
  {
   "type": "Feature",
   "geometry": {
    "type": "Point",
    "coordinates": [
     143.68092469,
     -36.02087378
    ]
   },
   "properties": {
    "name": "35 BOORT-QUAMBATOOK ROAD BARRAPORT 3537",
    "locID": "LOC000021977950",
    "tech": "WIRELESS",
    "upgrade": "NULL_NA",
    "gnaf_pid": "GAVIC414382008",
    "ee": false,
    "tech_change_status": "Not Planned",
    "program_type": "Fixed Wireless and Satellite Upgrade Program",
    "target_eligibility_quarter": "NA"
   }
  },
  {
   "type": "Feature",
   "geometry": {
    "type": "Point",
    "coordinates": [
     143.68092469,
     -36.02087378
    ]
   },
   "properties": {
    "name": "38 BOORT-QUAMBATOOK ROAD BARRAPORT 3537",
    "locID": "LOC000088789374",
    "tech": "WIRELESS",
    "upgrade": "NULL_NA",
    "gnaf_pid": "GAVIC414382011",
    "ee": false,
    "tech_change_status": "Not Planned",
    "program_type": "Fixed Wireless and Satellite Upgrade Program",
    "target_eligibility_quarter": "NA"
   }
  },
  {
   "type": "Feature",
   "geometry": {
    "type": "Point",
    "coordinates": [
     143.69736872,
     -35.99481918
    ]
   },
   "properties": {
    "name": "291 BARRAPORT EAST ROAD BARRAPORT 3537",
    "locID": "LOC000050595865",
    "tech": "WIRELESS",
    "upgrade": "NULL_NA",
    "gnaf_pid": "GAVIC421793315",
    "ee": false,
    "tech_change_status": "Not Planned",
    "program_type": "Fixed Wireless and Satellite Upgrade Program",
    "target_eligibility_quarter": "NA"
   }
  },
  {
   "type": "Feature",
   "geometry": {
    "type": "Point",
    "coordinates": [
     143.6970031,
     -36.02667334
    ]
   },
   "properties": {
    "name": "110 BARRAPORT-MINMINDIE ROAD BARRAPORT 3537",
    "locID": "LOC000046635622",
    "tech": "WIRELESS",
    "upgrade": "NULL_NA",
    "gnaf_pid": "GAVIC422126171",
    "ee": false,
    "tech_change_status": "Not Planned",
    "program_type": "Fixed Wireless and Satellite Upgrade Program",
    "target_eligibility_quarter": "NA"
   }
  },
  {
   "type": "Feature",
   "geometry": {
    "type": "Point",
    "coordinates": [
     143.68431274,
     -36.02536073
    ]
   },
   "properties": {
    "name": "1085 BOORT-QUAMBATOOK ROAD BARRAPORT 3537",
    "locID": "LOC000082957947",
    "tech": "WIRELESS",
    "upgrade": "NULL_NA",
    "gnaf_pid": "GAVIC422129575",
    "ee": false,
    "tech_change_status": "Not Planned",
    "program_type": "Fixed Wireless and Satellite Upgrade Program",
    "target_eligibility_quarter": "NA"
   }
  },
  {
   "type": "Feature",
   "geometry": {
    "type": "Point",
    "coordinates": [
     143.6688577,
     -36.00821489
    ]
   },
   "properties": {
    "name": "1314 BOORT-QUAMBATOOK ROAD BARRAPORT 3537",
    "locID": "LOC000058240177",
    "tech": "WIRELESS",
    "upgrade": "NULL_NA",
    "gnaf_pid": "GAVIC422129576",
    "ee": false,
    "tech_change_status": "Not Planned",
    "program_type": "Fixed Wireless and Satellite Upgrade Program",
    "target_eligibility_quarter": "NA"
   }
  },
  {
   "type": "Feature",
   "geometry": {
    "type": "Point",
    "coordinates": [
     143.70370504,
     -36.04327573
    ]
   },
   "properties": {
    "name": "19 LEWIS ROAD BARRAPORT 3537",
    "locID": "LOC000114864770",
    "tech": "WIRELESS",
    "upgrade": "NULL_NA",
    "gnaf_pid": "GAVIC422164124",
    "ee": false,
    "tech_change_status": "Not Planned",
    "program_type": "Fixed Wireless and Satellite Upgrade Program",
    "target_eligibility_quarter": "NA"
   }
  },
  {
   "type": "Feature",
   "geometry": {
    "type": "Point",
    "coordinates": [
     143.7043371,
     -36.04292363
    ]
   },
   "properties": {
    "name": "24 LEWIS ROAD BARRAPORT 3537",
    "locID": "LOC000092893281",
    "tech": "WIRELESS",
    "upgrade": "NULL_NA",
    "gnaf_pid": "GAVIC422164125",
    "ee": false,
    "tech_change_status": "Not Planned",
    "program_type": "Fixed Wireless and Satellite Upgrade Program",
    "target_eligibility_quarter": "NA"
   }
  },
  {
   "type": "Feature",
   "geometry": {
    "type": "Point",
    "coordinates": [
     143.7133377,
     -36.0286716
    ]
   },
   "properties": {
    "name": "262 BARRAPORT-MINMINDIE ROAD BARRAPORT 3537",
    "locID": "LOC000068229333",
    "tech": "WIRELESS",
    "upgrade": "NULL_NA",
    "gnaf_pid": "GAVIC423700544",
    "ee": false,
    "tech_change_status": "Not Planned",
    "program_type": "Fixed Wireless and Satellite Upgrade Program",
    "target_eligibility_quarter": "NA"
   }
  },
  {
   "type": "Feature",
   "geometry": {
    "type": "Point",
    "coordinates": [
     143.70170653,
     -36.05413105
    ]
   },
   "properties": {
    "name": "465 OSBORNE ROAD BARRAPORT 3537",
    "locID": "LOC000022628762",
    "tech": "WIRELESS",
    "upgrade": "NULL_NA",
    "gnaf_pid": "GAVIC423891071",
    "ee": false,
    "tech_change_status": "Not Planned",
    "program_type": "Fixed Wireless and Satellite Upgrade Program",
    "target_eligibility_quarter": "NA"
   }
  },
  {
   "type": "Feature",
   "geometry": {
    "type": "Point",
    "coordinates": [
     143.6697184,
     -36.00994647
    ]
   },
   "properties": {
    "name": "8 BARRAPORT WEST ROAD BARRAPORT 3537",
    "locID": "LOC000179194948",
    "tech": "WIRELESS",
    "upgrade": "NULL_NA",
    "gnaf_pid": "GAVIC425630984",
    "ee": false,
    "tech_change_status": "Not Planned",
    "program_type": "Fixed Wireless and Satellite Upgrade Program",
    "target_eligibility_quarter": "NA"
   }
  },
  {
   "type": "Feature",
   "geometry": {
    "type": "Point",
    "coordinates": [
     143.68215879,
     -35.972862
    ]
   },
   "properties": {
    "name": "334 LEHMANN ROAD BARRAPORT 3537",
    "locID": "LOC000012947146",
    "tech": "SATELLITE",
    "upgrade": "NULL_NA",
    "gnaf_pid": "GAVIC719433053",
    "ee": false,
    "tech_change_status": "Not Planned"
   }
  },
  {
   "type": "Feature",
   "geometry": {
    "type": "Point",
    "coordinates": [
     143.68251671,
     -35.95100669
    ]
   },
   "properties": {
    "name": "586 LEHMANN ROAD BARRAPORT 3537",
    "locID": "LOC000070446711",
    "tech": "WIRELESS",
    "upgrade": "NULL_NA",
    "gnaf_pid": "GAVIC719433054",
    "ee": false,
    "tech_change_status": "Not Planned",
    "program_type": "Fixed Wireless and Satellite Upgrade Program",
    "target_eligibility_quarter": "NA"
   }
  },
  {
   "type": "Feature",
   "geometry": {
    "type": "Point",
    "coordinates": [
     143.61987576,
     -36.00262099
    ]
   },
   "properties": {
    "name": "534 BARRAPORT WEST ROAD BARRAPORT 3537",
    "locID": "LOC100078136524",
    "tech": "WIRELESS",
    "upgrade": "NULL_NA",
    "gnaf_pid": "GAVIC720364255",
    "ee": false,
    "tech_change_status": "Not Planned",
    "program_type": "Fixed Wireless and Satellite Upgrade Program",
    "target_eligibility_quarter": "NA"
   }
  }
 ]
}