{
 "type": "FeatureCollection",
 "generated": "2025-06-17T00:42:32.516824",
 "suburb": "BULGA",
 "features": [
  {
   "type": "Feature",
   "geometry": {
    "type": "Point",
    "coordinates": [
     143.31649861,
     -35.30484935
    ]
   },
   "properties": {
    "name": "1563 BULGA ROAD BULGA 3586",
    "locID": "LOC000050619436",
    "tech": "NULL",
    "upgrade": "NULL_NA",
    "gnaf_pid": "GAVIC423163738",
    "ee": true,
    "tech_change_status": "Not Planned"
   }
  },
  {
   "type": "Feature",
   "geometry": {
    "type": "Point",
    "coordinates": [
     143.30600916,
     -35.30085851
    ]
   },
   "properties": {
    "name": "41 THREADGOLD ROAD BULGA 3586",
    "locID": "LOC000080179250",
    "tech": "NULL",
    "upgrade": "NULL_NA",
    "gnaf_pid": "GAVIC423388675",
    "ee": true,
    "tech_change_status": "Not Planned"
   }
  }
 ]
}