{
 "type": "FeatureCollection",
 "generated": "2025-06-17T01:32:50.239340",
 "suburb": "BUTCHERS RIDGE",
 "features": [
  {
   "type": "Feature",
   "geometry": {
    "type": "Point",
    "coordinates": [
     148.25560729,
     -37.2400855
    ]
   },
   "properties": {
    "name": "3611 GELANTIPY ROAD BUTCHERS RIDGE 3885",
    "locID": "LOC000050229157",
    "tech": "SATELLITE",
    "upgrade": "NULL_NA",
    "gnaf_pid": "GAVIC421989491",
    "ee": false,
    "tech_change_status": "Not Planned"
   }
  },
  {
   "type": "Feature",
   "geometry": {
    "type": "Point",
    "coordinates": [
     148.25113765,
     -37.2787131
    ]
   },
   "properties": {
    "name": "60 BATES ROAD BUTCHERS RIDGE 3885",
    "locID": "LOC000021046426",
    "tech": "NULL",
    "upgrade": "NULL_NA",
    "gnaf_pid": "GAVIC422276544",
    "ee": false,
    "tech_change_status": "Not Planned"
   }
  },
  {
   "type": "Feature",
   "geometry": {
    "type": "Point",
    "coordinates": [
     148.25095661,
     -37.27867895
    ]
   },
   "properties": {
    "name": "62 BATES ROAD BUTCHERS RIDGE 3885",
    "locID": "LOC000027967530",
    "tech": "NULL",
    "upgrade": "NULL_NA",
    "gnaf_pid": "GAVIC422276545",
    "ee": false,
    "tech_change_status": "Not Planned"
   }
  },
  {
   "type": "Feature",
   "geometry": {
    "type": "Point",
    "coordinates": [
     148.2556211,
     -37.2797202
    ]
   },
   "properties": {
    "name": "3116 GELANTIPY ROAD BUTCHERS RIDGE 3885",
    "locID": "LOC000032921012",
    "tech": "SATELLITE",
    "upgrade": "NULL_NA",
    "gnaf_pid": "GAVIC422292916",
    "ee": false,
    "tech_change_status": "Not Planned"
   }
  },
  {
   "type": "Feature",
   "geometry": {
    "type": "Point",
    "coordinates": [
     148.25444918,
     -37.2791107
    ]
   },
   "properties": {
    "name": "3121 GELANTIPY ROAD BUTCHERS RIDGE 3885",
    "locID": "LOC000085304751",
    "tech": "NULL",
    "upgrade": "NULL_NA",
    "gnaf_pid": "GAVIC422292917",
    "ee": false,
    "tech_change_status": "Not Planned"
   }
  },
  {
   "type": "Feature",
   "geometry": {
    "type": "Point",
    "coordinates": [
     148.25295711,
     -37.26805599
    ]
   },
   "properties": {
    "name": "3345 GELANTIPY ROAD BUTCHERS RIDGE 3885",
    "locID": "LOC000037830289",
    "tech": "NULL",
    "upgrade": "NULL_NA",
    "gnaf_pid": "GAVIC422292920",
    "ee": false,
    "tech_change_status": "Not Planned"
   }
  },
  {
   "type": "Feature",
   "geometry": {
    "type": "Point",
    "coordinates": [
     148.2484944,
     -37.26140816
    ]
   },
   "properties": {
    "name": "3346 GELANTIPY ROAD BUTCHERS RIDGE 3885",
    "locID": "LOC000063667240",
    "tech": "NULL",
    "upgrade": "NULL_NA",
    "gnaf_pid": "GAVIC422292921",
    "ee": false,
    "tech_change_status": "Not Planned"
   }
  },
  {
   "type": "Feature",
   "geometry": {
    "type": "Point",
    "coordinates": [
     148.2473408,
     -37.24753064
    ]
   },
   "properties": {
    "name": "108 GILLIES ROAD BUTCHERS RIDGE 3885",
    "locID": "LOC000065849330",
    "tech": "NULL",
    "upgrade": "NULL_NA",
    "gnaf_pid": "GAVIC422293278",
    "ee": false,
    "tech_change_status": "Not Planned"
   }
  },
  {
   "type": "Feature",
   "geometry": {
    "type": "Point",
    "coordinates": [
     148.24744675,
     -37.2539561
    ]
   },
   "properties": {
    "name": "30 GILLIES ROAD BUTCHERS RIDGE 3885",
    "locID": "LOC000021292993",
    "tech": "NULL",
    "upgrade": "NULL_NA",
    "gnaf_pid": "GAVIC422293280",
    "ee": false,
    "tech_change_status": "Not Planned"
   }
  },
  {
   "type": "Feature",
   "geometry": {
    "type": "Point",
    "coordinates": [
     148.24735748,
     -37.25354676
    ]
   },
   "properties": {
    "name": "32 GILLIES ROAD BUTCHERS RIDGE 3885",
    "locID": "LOC000003548709",
    "tech": "SATELLITE",
    "upgrade": "NULL_NA",
    "gnaf_pid": "GAVIC422293281",
    "ee": false,
    "tech_change_status": "Not Planned"
   }
  },
  {
   "type": "Feature",
   "geometry": {
    "type": "Point",
    "coordinates": [
     148.24665079,
     -37.24876375
    ]
   },
   "properties": {
    "name": "94 GILLIES ROAD BUTCHERS RIDGE 3885",
    "locID": "LOC000071602680",
    "tech": "NULL",
    "upgrade": "NULL_NA",
    "gnaf_pid": "GAVIC422293283",
    "ee": false,
    "tech_change_status": "Not Planned"
   }
  },
  {
   "type": "Feature",
   "geometry": {
    "type": "Point",
    "coordinates": [
     148.24782285,
     -37.2617432
    ]
   },
   "properties": {
    "name": "3345A GELANTIPY ROAD BUTCHERS RIDGE 3885",
    "locID": "LOC000037830289",
    "tech": "NULL",
    "upgrade": "NULL_NA",
    "gnaf_pid": "GAVIC721215444",
    "ee": false,
    "tech_change_status": "Not Planned"
   }
  },
  {
   "type": "Feature",
   "geometry": {
    "type": "Point",
    "coordinates": [
     148.25764246,
     -37.23344188
    ]
   },
   "properties": {
    "name": "26 WESTPHAL ROAD BUTCHERS RIDGE 3885",
    "locID": "LOC000142399475",
    "tech": "SATELLITE",
    "upgrade": "NULL_NA",
    "gnaf_pid": "GAVIC721424906",
    "ee": false,
    "tech_change_status": "Not Planned"
   }
  }
 ]
}