{
 "type": "FeatureCollection",
 "generated": "2025-06-17T03:51:59.611593",
 "suburb": "CHESHUNT SOUTH",
 "features": [
  {
   "type": "Feature",
   "geometry": {
    "type": "Point",
    "coordinates": [
     146.3872604,
     -36.913469
    ]
   },
   "properties": {
    "name": "1660 UPPER KING RIVER ROAD CHESHUNT SOUTH 3678",
    "locID": "LOC000058007406",
    "tech": "NULL",
    "upgrade": "NULL_NA",
    "gnaf_pid": "GAVIC422198972",
    "ee": false,
    "tech_change_status": "Not Planned"
   }
  }
 ]
}