{
 "type": "FeatureCollection",
 "generated": "2025-06-17T04:49:11.877713",
 "suburb": "COBUNGRA",
 "features": [
  {
   "type": "Feature",
   "geometry": {
    "type": "Point",
    "coordinates": [
     147.3311879,
     -37.0569831
    ]
   },
   "properties": {
    "name": "7799 GREAT ALPINE ROAD COBUNGRA 3898",
    "locID": "LOC000046718638",
    "tech": "NULL",
    "upgrade": "NULL_NA",
    "gnaf_pid": "GAVIC422151712",
    "ee": false,
    "tech_change_status": "Not Planned"
   }
  },
  {
   "type": "Feature",
   "geometry": {
    "type": "Point",
    "coordinates": [
     147.40977811,
     -37.08922515
    ]
   },
   "properties": {
    "name": "49 COBUNGRA COURT COBUNGRA 3898",
    "locID": "LOC000083393369",
    "tech": "NULL",
    "upgrade": "NULL_NA",
    "gnaf_pid": "GAVIC422284362",
    "ee": false,
    "tech_change_status": "Not Planned"
   }
  },
  {
   "type": "Feature",
   "geometry": {
    "type": "Point",
    "coordinates": [
     147.411773,
     -37.0898222
    ]
   },
   "properties": {
    "name": "74 COBUNGRA COURT COBUNGRA 3898",
    "locID": "LOC000006142164",
    "tech": "SATELLITE",
    "upgrade": "NULL_NA",
    "gnaf_pid": "GAVIC422284363",
    "ee": false,
    "tech_change_status": "Not Planned"
   }
  },
  {
   "type": "Feature",
   "geometry": {
    "type": "Point",
    "coordinates": [
     147.40602903,
     -37.08673206
    ]
   },
   "properties": {
    "name": "140 COBUNGRA ROAD COBUNGRA 3898",
    "locID": "LOC000045900279",
    "tech": "NULL",
    "upgrade": "NULL_NA",
    "gnaf_pid": "GAVIC422284364",
    "ee": false,
    "tech_change_status": "Not Planned"
   }
  },
  {
   "type": "Feature",
   "geometry": {
    "type": "Point",
    "coordinates": [
     147.41026973,
     -37.08234553
    ]
   },
   "properties": {
    "name": "208 COBUNGRA ROAD COBUNGRA 3898",
    "locID": "LOC000041321142",
    "tech": "SATELLITE",
    "upgrade": "WIRELESS",
    "gnaf_pid": "GAVIC422284366",
    "ee": false,
    "tech_change_status": "Eligible to Order",
    "program_type": "Fixed Wireless and Satellite Upgrade Program",
    "target_eligibility_quarter": "NA"
   }
  },
  {
   "type": "Feature",
   "geometry": {
    "type": "Point",
    "coordinates": [
     147.40758078,
     -37.0823548
    ]
   },
   "properties": {
    "name": "232 COBUNGRA ROAD COBUNGRA 3898",
    "locID": "LOC000033144979",
    "tech": "WIRELESS",
    "upgrade": "NULL_NA",
    "gnaf_pid": "GAVIC422284367",
    "ee": false,
    "tech_change_status": "Not Planned",
    "program_type": "Fixed Wireless and Satellite Upgrade Program",
    "target_eligibility_quarter": "NA"
   }
  },
  {
   "type": "Feature",
   "geometry": {
    "type": "Point",
    "coordinates": [
     147.40600461,
     -37.08217089
    ]
   },
   "properties": {
    "name": "248 COBUNGRA ROAD COBUNGRA 3898",
    "locID": "LOC000052906065",
    "tech": "SATELLITE",
    "upgrade": "WIRELESS",
    "gnaf_pid": "GAVIC422284369",
    "ee": false,
    "tech_change_status": "Eligible to Order",
    "program_type": "Fixed Wireless and Satellite Upgrade Program",
    "target_eligibility_quarter": "NA"
   }
  },
  {
   "type": "Feature",
   "geometry": {
    "type": "Point",
    "coordinates": [
     147.40518389,
     -37.08228188
    ]
   },
   "properties": {
    "name": "253 COBUNGRA ROAD COBUNGRA 3898",
    "locID": "LOC000040589203",
    "tech": "SATELLITE",
    "upgrade": "NULL_NA",
    "gnaf_pid": "GAVIC422284370",
    "ee": false,
    "tech_change_status": "Not Planned"
   }
  },
  {
   "type": "Feature",
   "geometry": {
    "type": "Point",
    "coordinates": [
     147.40426763,
     -37.08135654
    ]
   },
   "properties": {
    "name": "269 COBUNGRA ROAD COBUNGRA 3898",
    "locID": "LOC100078661316",
    "tech": "WIRELESS",
    "upgrade": "NULL_NA",
    "gnaf_pid": "GAVIC422284372",
    "ee": false,
    "tech_change_status": "Not Planned",
    "program_type": "Fixed Wireless and Satellite Upgrade Program",
    "target_eligibility_quarter": "NA"
   }
  },
  {
   "type": "Feature",
   "geometry": {
    "type": "Point",
    "coordinates": [
     147.40461311,
     -37.08074239
    ]
   },
   "properties": {
    "name": "273 COBUNGRA ROAD COBUNGRA 3898",
    "locID": "LOC000092784030",
    "tech": "WIRELESS",
    "upgrade": "NULL_NA",
    "gnaf_pid": "GAVIC422284373",
    "ee": false,
    "tech_change_status": "Not Planned",
    "program_type": "Fixed Wireless and Satellite Upgrade Program",
    "target_eligibility_quarter": "NA"
   }
  },
  {
   "type": "Feature",
   "geometry": {
    "type": "Point",
    "coordinates": [
     147.40325418,
     -37.09178051
    ]
   },
   "properties": {
    "name": "48 COBUNGRA ROAD COBUNGRA 3898",
    "locID": "LOC000045073016",
    "tech": "SATELLITE",
    "upgrade": "NULL_NA",
    "gnaf_pid": "GAVIC422284374",
    "ee": false,
    "tech_change_status": "Not Planned"
   }
  },
  {
   "type": "Feature",
   "geometry": {
    "type": "Point",
    "coordinates": [
     147.40280216,
     -37.09142149
    ]
   },
   "properties": {
    "name": "51 COBUNGRA ROAD COBUNGRA 3898",
    "locID": "LOC000062396255",
    "tech": "SATELLITE",
    "upgrade": "NULL_NA",
    "gnaf_pid": "GAVIC422284375",
    "ee": false,
    "tech_change_status": "Not Planned"
   }
  },
  {
   "type": "Feature",
   "geometry": {
    "type": "Point",
    "coordinates": [
     147.40475824,
     -37.08896295
    ]
   },
   "properties": {
    "name": "93 COBUNGRA ROAD COBUNGRA 3898",
    "locID": "LOC000053963465",
    "tech": "SATELLITE",
    "upgrade": "NULL_NA",
    "gnaf_pid": "GAVIC422284376",
    "ee": false,
    "tech_change_status": "Not Planned"
   }
  },
  {
   "type": "Feature",
   "geometry": {
    "type": "Point",
    "coordinates": [
     147.4030205,
     -37.08168528
    ]
   },
   "properties": {
    "name": "12 FOX COURT COBUNGRA 3898",
    "locID": "LOC000014332241",
    "tech": "SATELLITE",
    "upgrade": "WIRELESS",
    "gnaf_pid": "GAVIC422291963",
    "ee": false,
    "tech_change_status": "Eligible to Order",
    "program_type": "Fixed Wireless and Satellite Upgrade Program",
    "target_eligibility_quarter": "NA"
   }
  },
  {
   "type": "Feature",
   "geometry": {
    "type": "Point",
    "coordinates": [
     147.40067094,
     -37.0820448
    ]
   },
   "properties": {
    "name": "32 FOX COURT COBUNGRA 3898",
    "locID": "LOC000058066104",
    "tech": "WIRELESS",
    "upgrade": "NULL_NA",
    "gnaf_pid": "GAVIC422291964",
    "ee": false,
    "tech_change_status": "Not Planned",
    "program_type": "Fixed Wireless and Satellite Upgrade Program",
    "target_eligibility_quarter": "NA"
   }
  },
  {
   "type": "Feature",
   "geometry": {
    "type": "Point",
    "coordinates": [
     147.40330404,
     -37.08210799
    ]
   },
   "properties": {
    "name": "9 FOX COURT COBUNGRA 3898",
    "locID": "LOC000060163327",
    "tech": "WIRELESS",
    "upgrade": "NULL_NA",
    "gnaf_pid": "GAVIC422291966",
    "ee": false,
    "tech_change_status": "Not Planned",
    "program_type": "Fixed Wireless and Satellite Upgrade Program",
    "target_eligibility_quarter": "NA"
   }
  },
  {
   "type": "Feature",
   "geometry": {
    "type": "Point",
    "coordinates": [
     147.43110478,
     -37.11154968
    ]
   },
   "properties": {
    "name": "1929 GREAT ALPINE ROAD COBUNGRA 3898",
    "locID": "LOC000087714356",
    "tech": "NULL",
    "upgrade": "NULL_NA",
    "gnaf_pid": "GAVIC422295009",
    "ee": false,
    "tech_change_status": "Not Planned"
   }
  },
  {
   "type": "Feature",
   "geometry": {
    "type": "Point",
    "coordinates": [
     147.43109352,
     -37.11154972
    ]
   },
   "properties": {
    "name": "2067 GREAT ALPINE ROAD COBUNGRA 3898",
    "locID": "LOC000026979848",
    "tech": "SATELLITE",
    "upgrade": "NULL_NA",
    "gnaf_pid": "GAVIC422295012",
    "ee": false,
    "tech_change_status": "Not Planned"
   }
  },
  {
   "type": "Feature",
   "geometry": {
    "type": "Point",
    "coordinates": [
     147.42479184,
     -37.09854871
    ]
   },
   "properties": {
    "name": "2096 GREAT ALPINE ROAD COBUNGRA 3898",
    "locID": "LOC000096723644",
    "tech": "NULL",
    "upgrade": "NULL_NA",
    "gnaf_pid": "GAVIC422295014",
    "ee": false,
    "tech_change_status": "Not Planned"
   }
  },
  {
   "type": "Feature",
   "geometry": {
    "type": "Point",
    "coordinates": [
     147.42204275,
     -37.09562224
    ]
   },
   "properties": {
    "name": "2140 GREAT ALPINE ROAD COBUNGRA 3898",
    "locID": "LOC000075850930",
    "tech": "SATELLITE",
    "upgrade": "NULL_NA",
    "gnaf_pid": "GAVIC422295016",
    "ee": false,
    "tech_change_status": "Not Planned"
   }
  },
  {
   "type": "Feature",
   "geometry": {
    "type": "Point",
    "coordinates": [
     147.41720234,
     -37.0949594
    ]
   },
   "properties": {
    "name": "2182 GREAT ALPINE ROAD COBUNGRA 3898",
    "locID": "LOC000103885622",
    "tech": "SATELLITE",
    "upgrade": "NULL_NA",
    "gnaf_pid": "GAVIC422295017",
    "ee": false,
    "tech_change_status": "Not Planned"
   }
  },
  {
   "type": "Feature",
   "geometry": {
    "type": "Point",
    "coordinates": [
     147.41183556,
     -37.09512239
    ]
   },
   "properties": {
    "name": "2232 GREAT ALPINE ROAD COBUNGRA 3898",
    "locID": "LOC000102189859",
    "tech": "SATELLITE",
    "upgrade": "NULL_NA",
    "gnaf_pid": "GAVIC422295019",
    "ee": false,
    "tech_change_status": "Not Planned"
   }
  },
  {
   "type": "Feature",
   "geometry": {
    "type": "Point",
    "coordinates": [
     147.40640989,
     -37.09480755
    ]
   },
   "properties": {
    "name": "2278 GREAT ALPINE ROAD COBUNGRA 3898",
    "locID": "LOC000106560589",
    "tech": "SATELLITE",
    "upgrade": "NULL_NA",
    "gnaf_pid": "GAVIC422295020",
    "ee": false,
    "tech_change_status": "Not Planned"
   }
  },
  {
   "type": "Feature",
   "geometry": {
    "type": "Point",
    "coordinates": [
     147.39507575,
     -37.0943681
    ]
   },
   "properties": {
    "name": "2386 GREAT ALPINE ROAD COBUNGRA 3898",
    "locID": "LOC000017796542",
    "tech": "NULL",
    "upgrade": "NULL_NA",
    "gnaf_pid": "GAVIC422295025",
    "ee": false,
    "tech_change_status": "Not Planned"
   }
  },
  {
   "type": "Feature",
   "geometry": {
    "type": "Point",
    "coordinates": [
     147.39424521,
     -37.0947855
    ]
   },
   "properties": {
    "name": "2393 GREAT ALPINE ROAD COBUNGRA 3898",
    "locID": "LOC000101004723",
    "tech": "SATELLITE",
    "upgrade": "NULL_NA",
    "gnaf_pid": "GAVIC422295026",
    "ee": false,
    "tech_change_status": "Not Planned"
   }
  },
  {
   "type": "Feature",
   "geometry": {
    "type": "Point",
    "coordinates": [
     147.39055842,
     -37.09341852
    ]
   },
   "properties": {
    "name": "2414 GREAT ALPINE ROAD COBUNGRA 3898",
    "locID": "LOC000081360593",
    "tech": "SATELLITE",
    "upgrade": "NULL_NA",
    "gnaf_pid": "GAVIC422295027",
    "ee": false,
    "tech_change_status": "Not Planned"
   }
  },
  {
   "type": "Feature",
   "geometry": {
    "type": "Point",
    "coordinates": [
     147.38877045,
     -37.09365875
    ]
   },
   "properties": {
    "name": "2443 GREAT ALPINE ROAD COBUNGRA 3898",
    "locID": "LOC000083703293",
    "tech": "NULL",
    "upgrade": "NULL_NA",
    "gnaf_pid": "GAVIC422295029",
    "ee": false,
    "tech_change_status": "Not Planned"
   }
  },
  {
   "type": "Feature",
   "geometry": {
    "type": "Point",
    "coordinates": [
     147.38775388,
     -37.09291389
    ]
   },
   "properties": {
    "name": "2454 GREAT ALPINE ROAD COBUNGRA 3898",
    "locID": "LOC000070894990",
    "tech": "NULL",
    "upgrade": "NULL_NA",
    "gnaf_pid": "GAVIC422295030",
    "ee": false,
    "tech_change_status": "Not Planned"
   }
  },
  {
   "type": "Feature",
   "geometry": {
    "type": "Point",
    "coordinates": [
     147.44992165,
     -37.09400004
    ]
   },
   "properties": {
    "name": "245 TOLANDS ROAD COBUNGRA 3898",
    "locID": "LOC000043670234",
    "tech": "SATELLITE",
    "upgrade": "NULL_NA",
    "gnaf_pid": "GAVIC422329128",
    "ee": false,
    "tech_change_status": "Not Planned"
   }
  },
  {
   "type": "Feature",
   "geometry": {
    "type": "Point",
    "coordinates": [
     147.43403645,
     -37.10064082
    ]
   },
   "properties": {
    "name": "67 TOLANDS ROAD COBUNGRA 3898",
    "locID": "LOC000084557704",
    "tech": "SATELLITE",
    "upgrade": "NULL_NA",
    "gnaf_pid": "GAVIC422329132",
    "ee": false,
    "tech_change_status": "Not Planned"
   }
  },
  {
   "type": "Feature",
   "geometry": {
    "type": "Point",
    "coordinates": [
     147.43417789,
     -37.10073603
    ]
   },
   "properties": {
    "name": "69 TOLANDS ROAD COBUNGRA 3898",
    "locID": "LOC000102057160",
    "tech": "SATELLITE",
    "upgrade": "NULL_NA",
    "gnaf_pid": "GAVIC422329133",
    "ee": false,
    "tech_change_status": "Not Planned"
   }
  },
  {
   "type": "Feature",
   "geometry": {
    "type": "Point",
    "coordinates": [
     147.43110478,
     -37.11154968
    ]
   },
   "properties": {
    "name": "89 VICTORIA FALLS ROAD COBUNGRA 3898",
    "locID": "LOC000010084016",
    "tech": "NULL",
    "upgrade": "NULL_NA",
    "gnaf_pid": "GAVIC422330853",
    "ee": false,
    "tech_change_status": "Not Planned"
   }
  },
  {
   "type": "Feature",
   "geometry": {
    "type": "Point",
    "coordinates": [
     147.38393296,
     -37.09390886
    ]
   },
   "properties": {
    "name": "18 VICTORIA RIVER TRACK COBUNGRA 3898",
    "locID": "LOC000036177942",
    "tech": "SATELLITE",
    "upgrade": "NULL_NA",
    "gnaf_pid": "GAVIC422330870",
    "ee": false,
    "tech_change_status": "Not Planned"
   }
  },
  {
   "type": "Feature",
   "geometry": {
    "type": "Point",
    "coordinates": [
     147.4129526,
     -37.08293501
    ]
   },
   "properties": {
    "name": "28 VICTORIA COURT COBUNGRA 3898",
    "locID": "LOC000032475113",
    "tech": "SATELLITE",
    "upgrade": "NULL_NA",
    "gnaf_pid": "GAVIC422330904",
    "ee": false,
    "tech_change_status": "Not Planned"
   }
  },
  {
   "type": "Feature",
   "geometry": {
    "type": "Point",
    "coordinates": [
     147.41476236,
     -37.0829699
    ]
   },
   "properties": {
    "name": "47 VICTORIA COURT COBUNGRA 3898",
    "locID": "LOC000006100848",
    "tech": "WIRELESS",
    "upgrade": "NULL_NA",
    "gnaf_pid": "GAVIC422330907",
    "ee": false,
    "tech_change_status": "Not Planned",
    "program_type": "Fixed Wireless and Satellite Upgrade Program",
    "target_eligibility_quarter": "NA"
   }
  },
  {
   "type": "Feature",
   "geometry": {
    "type": "Point",
    "coordinates": [
     147.41804974,
     -37.08394873
    ]
   },
   "properties": {
    "name": "75 VICTORIA COURT COBUNGRA 3898",
    "locID": "LOC100072030290",
    "tech": "NULL",
    "upgrade": "NULL_NA",
    "gnaf_pid": "GAVIC422330908",
    "ee": false,
    "tech_change_status": "Not Planned"
   }
  },
  {
   "type": "Feature",
   "geometry": {
    "type": "Point",
    "coordinates": [
     147.44899506,
     -37.08767305
    ]
   },
   "properties": {
    "name": "257 VICTORIA FALLS ROAD COBUNGRA 3898",
    "locID": "LOC000034431147",
    "tech": "NULL",
    "upgrade": "NULL_NA",
    "gnaf_pid": "GAVIC424253166",
    "ee": false,
    "tech_change_status": "Not Planned"
   }
  },
  {
   "type": "Feature",
   "geometry": {
    "type": "Point",
    "coordinates": [
     147.40283664,
     -37.09182705
    ]
   },
   "properties": {
    "name": "49 COBUNGRA ROAD COBUNGRA 3898",
    "locID": "LOC000083827779",
    "tech": "SATELLITE",
    "upgrade": "NULL_NA",
    "gnaf_pid": "GAVIC424261992",
    "ee": false,
    "tech_change_status": "Not Planned"
   }
  },
  {
   "type": "Feature",
   "geometry": {
    "type": "Point",
    "coordinates": [
     147.4012955,
     -37.08222886
    ]
   },
   "properties": {
    "name": "25 FOX COURT COBUNGRA 3898",
    "locID": "LOC000011094899",
    "tech": "NULL",
    "upgrade": "NULL_NA",
    "gnaf_pid": "GAVIC424263757",
    "ee": false,
    "tech_change_status": "Not Planned"
   }
  },
  {
   "type": "Feature",
   "geometry": {
    "type": "Point",
    "coordinates": [
     147.45321548,
     -37.08248173
    ]
   },
   "properties": {
    "name": "540 VICTORIA FALLS ROAD COBUNGRA 3898",
    "locID": "LOC000125789440",
    "tech": "NULL",
    "upgrade": "NULL_NA",
    "gnaf_pid": "GAVIC424271280",
    "ee": false,
    "tech_change_status": "Not Planned"
   }
  },
  {
   "type": "Feature",
   "geometry": {
    "type": "Point",
    "coordinates": [
     147.38858124,
     -37.06053345
    ]
   },
   "properties": {
    "name": "371 KEWISH ROAD COBUNGRA 3898",
    "locID": "LOC000096935328",
    "tech": "SATELLITE",
    "upgrade": "NULL_NA",
    "gnaf_pid": "GAVIC424448773",
    "ee": false,
    "tech_change_status": "Not Planned"
   }
  },
  {
   "type": "Feature",
   "geometry": {
    "type": "Point",
    "coordinates": [
     147.39296932,
     -37.05485541
    ]
   },
   "properties": {
    "name": "511 KEWISH ROAD COBUNGRA 3898",
    "locID": "LOC000028842888",
    "tech": "SATELLITE",
    "upgrade": "NULL_NA",
    "gnaf_pid": "GAVIC424448774",
    "ee": false,
    "tech_change_status": "Not Planned"
   }
  },
  {
   "type": "Feature",
   "geometry": {
    "type": "Point",
    "coordinates": [
     147.40098743,
     -37.08195978
    ]
   },
   "properties": {
    "name": "30 FOX COURT COBUNGRA 3898",
    "locID": "LOC000125784763",
    "tech": "SATELLITE",
    "upgrade": "WIRELESS",
    "gnaf_pid": "GAVIC424878671",
    "ee": false,
    "tech_change_status": "Eligible to Order",
    "program_type": "Fixed Wireless and Satellite Upgrade Program",
    "target_eligibility_quarter": "NA"
   }
  },
  {
   "type": "Feature",
   "geometry": {
    "type": "Point",
    "coordinates": [
     147.40779344,
     -37.08961422
    ]
   },
   "properties": {
    "name": "30 COBUNGRA COURT COBUNGRA 3898",
    "locID": "LOC000125784759",
    "tech": "SATELLITE",
    "upgrade": "NULL_NA",
    "gnaf_pid": "GAVIC425012388",
    "ee": false,
    "tech_change_status": "Not Planned"
   }
  },
  {
   "type": "Feature",
   "geometry": {
    "type": "Point",
    "coordinates": [
     147.4086201,
     -37.08251505
    ]
   },
   "properties": {
    "name": "215 COBUNGRA ROAD COBUNGRA 3898",
    "locID": "LOC000148029908",
    "tech": "SATELLITE",
    "upgrade": "WIRELESS",
    "gnaf_pid": "GAVIC425224303",
    "ee": false,
    "tech_change_status": "Eligible to Order",
    "program_type": "Fixed Wireless and Satellite Upgrade Program",
    "target_eligibility_quarter": "NA"
   }
  },
  {
   "type": "Feature",
   "geometry": {
    "type": "Point",
    "coordinates": [
     147.41592391,
     -37.08395778
    ]
   },
   "properties": {
    "name": "54 VICTORIA COURT COBUNGRA 3898",
    "locID": "LOC100072030226",
    "tech": "WIRELESS",
    "upgrade": "NULL_NA",
    "gnaf_pid": "GAVIC718996743",
    "ee": false,
    "tech_change_status": "Not Planned",
    "program_type": "Fixed Wireless and Satellite Upgrade Program",
    "target_eligibility_quarter": "NA"
   }
  },
  {
   "type": "Feature",
   "geometry": {
    "type": "Point",
    "coordinates": [
     147.41271798,
     -37.08979995
    ]
   },
   "properties": {
    "name": "75 COBUNGRA COURT COBUNGRA 3898",
    "locID": "LOC100072030290",
    "tech": "NULL",
    "upgrade": "NULL_NA",
    "gnaf_pid": "GAVIC719793102",
    "ee": false,
    "tech_change_status": "Not Planned"
   }
  },
  {
   "type": "Feature",
   "geometry": {
    "type": "Point",
    "coordinates": [
     147.33235512,
     -37.05441056
    ]
   },
   "properties": {
    "name": "19 DINGO JOES TRACK COBUNGRA 3898",
    "locID": "LOC100087476221",
    "tech": "NULL",
    "upgrade": "NULL_NA",
    "gnaf_pid": "GAVIC721420650",
    "ee": false,
    "tech_change_status": "Not Planned"
   }
  }
 ]
}