{
 "type": "FeatureCollection",
 "generated": "2025-06-17T05:36:25.181446",
 "suburb": "CORACK EAST",
 "features": [
  {
   "type": "Feature",
   "geometry": {
    "type": "Point",
    "coordinates": [
     143.04304385,
     -36.16554561
    ]
   },
   "properties": {
    "name": "1570 DONALD-SWAN HILL ROAD CORACK EAST 3480",
    "locID": "LOC000092692918",
    "tech": "NULL",
    "upgrade": "NULL_NA",
    "gnaf_pid": "GAVIC422142399",
    "ee": true,
    "tech_change_status": "Not Planned"
   }
  },
  {
   "type": "Feature",
   "geometry": {
    "type": "Point",
    "coordinates": [
     143.0426628,
     -36.16506324
    ]
   },
   "properties": {
    "name": "1574 DONALD-SWAN HILL ROAD CORACK EAST 3480",
    "locID": "LOC000081891208",
    "tech": "SATELLITE",
    "upgrade": "NULL_NA",
    "gnaf_pid": "GAVIC422142400",
    "ee": true,
    "tech_change_status": "Not Planned"
   }
  },
  {
   "type": "Feature",
   "geometry": {
    "type": "Point",
    "coordinates": [
     143.05780775,
     -36.13628695
    ]
   },
   "properties": {
    "name": "1928 DONALD-SWAN HILL ROAD CORACK EAST 3480",
    "locID": "LOC000040802575",
    "tech": "WIRELESS",
    "upgrade": "NULL_NA",
    "gnaf_pid": "GAVIC422142401",
    "ee": true,
    "tech_change_status": "Not Planned",
    "program_type": "Fixed Wireless and Satellite Upgrade Program",
    "target_eligibility_quarter": "NA"
   }
  },
  {
   "type": "Feature",
   "geometry": {
    "type": "Point",
    "coordinates": [
     143.07374191,
     -36.17167996
    ]
   },
   "properties": {
    "name": "294 CORACK EAST-CHIRRUP ROAD CORACK EAST 3480",
    "locID": "LOC000051124890",
    "tech": "WIRELESS",
    "upgrade": "NULL_NA",
    "gnaf_pid": "GAVIC423878039",
    "ee": true,
    "tech_change_status": "Not Planned",
    "program_type": "Fixed Wireless and Satellite Upgrade Program",
    "target_eligibility_quarter": "NA"
   }
  },
  {
   "type": "Feature",
   "geometry": {
    "type": "Point",
    "coordinates": [
     143.09266959,
     -36.171052
    ]
   },
   "properties": {
    "name": "466 CORACK EAST-CHIRRUP ROAD CORACK EAST 3480",
    "locID": "LOC000024341442",
    "tech": "SATELLITE",
    "upgrade": "NULL_NA",
    "gnaf_pid": "GAVIC423878040",
    "ee": true,
    "tech_change_status": "Not Planned"
   }
  },
  {
   "type": "Feature",
   "geometry": {
    "type": "Point",
    "coordinates": [
     143.0491165,
     -36.16865075
    ]
   },
   "properties": {
    "name": "73 CORACK EAST-CHIRRUP ROAD CORACK EAST 3480",
    "locID": "LOC000011908342",
    "tech": "SATELLITE",
    "upgrade": "NULL_NA",
    "gnaf_pid": "GAVIC423878041",
    "ee": true,
    "tech_change_status": "Not Planned"
   }
  },
  {
   "type": "Feature",
   "geometry": {
    "type": "Point",
    "coordinates": [
     143.09218851,
     -36.17051958
    ]
   },
   "properties": {
    "name": "463 CORACK EAST-CHIRRUP ROAD CORACK EAST 3480",
    "locID": "LOC000104394775",
    "tech": "SATELLITE",
    "upgrade": "NULL_NA",
    "gnaf_pid": "GAVIC424023585",
    "ee": true,
    "tech_change_status": "Not Planned"
   }
  },
  {
   "type": "Feature",
   "geometry": {
    "type": "Point",
    "coordinates": [
     143.1105995,
     -36.1705151
    ]
   },
   "properties": {
    "name": "629 CORACK EAST-CHIRRUP ROAD CORACK EAST 3480",
    "locID": "LOC000042316428",
    "tech": "WIRELESS",
    "upgrade": "NULL_NA",
    "gnaf_pid": "GAVIC424061292",
    "ee": true,
    "tech_change_status": "Not Planned",
    "program_type": "Fixed Wireless and Satellite Upgrade Program",
    "target_eligibility_quarter": "NA"
   }
  },
  {
   "type": "Feature",
   "geometry": {
    "type": "Point",
    "coordinates": [
     143.02553913,
     -36.12079218
    ]
   },
   "properties": {
    "name": "83 HOLLISS ROAD CORACK EAST 3480",
    "locID": "LOC000103716937",
    "tech": "SATELLITE",
    "upgrade": "NULL_NA",
    "gnaf_pid": "GAVIC424063937",
    "ee": true,
    "tech_change_status": "Not Planned"
   }
  },
  {
   "type": "Feature",
   "geometry": {
    "type": "Point",
    "coordinates": [
     143.0154327,
     -36.12990476
    ]
   },
   "properties": {
    "name": "220 L ROTHERHAM ROAD CORACK EAST 3480",
    "locID": "LOC000045991990",
    "tech": "WIRELESS",
    "upgrade": "NULL_NA",
    "gnaf_pid": "GAVIC424064880",
    "ee": true,
    "tech_change_status": "Not Planned",
    "program_type": "Fixed Wireless and Satellite Upgrade Program",
    "target_eligibility_quarter": "NA"
   }
  },
  {
   "type": "Feature",
   "geometry": {
    "type": "Point",
    "coordinates": [
     143.04234487,
     -36.16602627
    ]
   },
   "properties": {
    "name": "1562 DONALD-SWAN HILL ROAD CORACK EAST 3480",
    "locID": "LOC000124957048",
    "tech": "NULL",
    "upgrade": "NULL_NA",
    "gnaf_pid": "GAVIC425014431",
    "ee": true,
    "tech_change_status": "Not Planned"
   }
  }
 ]
}