{
 "type": "FeatureCollection",
 "generated": "2025-06-17T08:44:43.614629",
 "suburb": "ELINGAMITE",
 "features": [
  {
   "type": "Feature",
   "geometry": {
    "type": "Point",
    "coordinates": [
     143.01074891,
     -38.37806377
    ]
   },
   "properties": {
    "name": "762 COBDEN-WARRNAMBOOL ROAD ELINGAMITE 3266",
    "locID": "LOC000095350136",
    "tech": "WIRELESS",
    "upgrade": "NULL_NA",
    "gnaf_pid": "GAVIC411316959",
    "ee": true,
    "tech_change_status": "Not Planned",
    "program_type": "Fixed Wireless and Satellite Upgrade Program",
    "target_eligibility_quarter": "NA"
   }
  },
  {
   "type": "Feature",
   "geometry": {
    "type": "Point",
    "coordinates": [
     143.02194141,
     -38.36739063
    ]
   },
   "properties": {
    "name": "6 ALEXANDERS ROAD ELINGAMITE 3266",
    "locID": "LOC000006110647",
    "tech": "WIRELESS",
    "upgrade": "NULL_NA",
    "gnaf_pid": "GAVIC411321394",
    "ee": true,
    "tech_change_status": "Not Planned",
    "program_type": "Fixed Wireless and Satellite Upgrade Program",
    "target_eligibility_quarter": "NA"
   }
  },
  {
   "type": "Feature",
   "geometry": {
    "type": "Point",
    "coordinates": [
     143.02371065,
     -38.36691773
    ]
   },
   "properties": {
    "name": "9 ALEXANDERS ROAD ELINGAMITE 3266",
    "locID": "LOC000010197037",
    "tech": "WIRELESS",
    "upgrade": "NULL_NA",
    "gnaf_pid": "GAVIC411321398",
    "ee": true,
    "tech_change_status": "Not Planned",
    "program_type": "Fixed Wireless and Satellite Upgrade Program",
    "target_eligibility_quarter": "NA"
   }
  },
  {
   "type": "Feature",
   "geometry": {
    "type": "Point",
    "coordinates": [
     143.02196224,
     -38.36609553
    ]
   },
   "properties": {
    "name": "6 COBDEN-WARRNAMBOOL ROAD ELINGAMITE 3266",
    "locID": "LOC000031035032",
    "tech": "WIRELESS",
    "upgrade": "NULL_NA",
    "gnaf_pid": "GAVIC414148733",
    "ee": true,
    "tech_change_status": "Not Planned",
    "program_type": "Fixed Wireless and Satellite Upgrade Program",
    "target_eligibility_quarter": "NA"
   }
  },
  {
   "type": "Feature",
   "geometry": {
    "type": "Point",
    "coordinates": [
     142.98720869,
     -38.37555149
    ]
   },
   "properties": {
    "name": "111 SOUNDRYS ROAD ELINGAMITE 3266",
    "locID": "LOC000017684299",
    "tech": "WIRELESS",
    "upgrade": "NULL_NA",
    "gnaf_pid": "GAVIC419705567",
    "ee": true,
    "tech_change_status": "Not Planned",
    "program_type": "Fixed Wireless and Satellite Upgrade Program",
    "target_eligibility_quarter": "NA"
   }
  },
  {
   "type": "Feature",
   "geometry": {
    "type": "Point",
    "coordinates": [
     143.02015001,
     -38.36590606
    ]
   },
   "properties": {
    "name": "10 ROHANS ROAD ELINGAMITE 3266",
    "locID": "LOC000079717252",
    "tech": "WIRELESS",
    "upgrade": "NULL_NA",
    "gnaf_pid": "GAVIC420004412",
    "ee": true,
    "tech_change_status": "Not Planned",
    "program_type": "Fixed Wireless and Satellite Upgrade Program",
    "target_eligibility_quarter": "NA"
   }
  },
  {
   "type": "Feature",
   "geometry": {
    "type": "Point",
    "coordinates": [
     143.03640952,
     -38.36894527
    ]
   },
   "properties": {
    "name": "30 ANDREWS ROAD ELINGAMITE 3266",
    "locID": "LOC000028786794",
    "tech": "WIRELESS",
    "upgrade": "NULL_NA",
    "gnaf_pid": "GAVIC420284481",
    "ee": true,
    "tech_change_status": "Not Planned",
    "program_type": "Fixed Wireless and Satellite Upgrade Program",
    "target_eligibility_quarter": "NA"
   }
  },
  {
   "type": "Feature",
   "geometry": {
    "type": "Point",
    "coordinates": [
     143.03163669,
     -38.38103602
    ]
   },
   "properties": {
    "name": "131 BROWNS ROAD ELINGAMITE 3266",
    "locID": "LOC000102271538",
    "tech": "WIRELESS",
    "upgrade": "NULL_NA",
    "gnaf_pid": "GAVIC420314628",
    "ee": true,
    "tech_change_status": "Not Planned",
    "program_type": "Fixed Wireless and Satellite Upgrade Program",
    "target_eligibility_quarter": "NA"
   }
  },
  {
   "type": "Feature",
   "geometry": {
    "type": "Point",
    "coordinates": [
     143.03309457,
     -38.37054895
    ]
   },
   "properties": {
    "name": "23 BROWNS ROAD ELINGAMITE 3266",
    "locID": "LOC000040080398",
    "tech": "WIRELESS",
    "upgrade": "NULL_NA",
    "gnaf_pid": "GAVIC420314630",
    "ee": true,
    "tech_change_status": "Not Planned",
    "program_type": "Fixed Wireless and Satellite Upgrade Program",
    "target_eligibility_quarter": "NA"
   }
  },
  {
   "type": "Feature",
   "geometry": {
    "type": "Point",
    "coordinates": [
     143.02302109,
     -38.35144779
    ]
   },
   "properties": {
    "name": "107 OATES ROAD ELINGAMITE 3266",
    "locID": "LOC000041572533",
    "tech": "WIRELESS",
    "upgrade": "NULL_NA",
    "gnaf_pid": "GAVIC420575538",
    "ee": true,
    "tech_change_status": "Not Planned",
    "program_type": "Fixed Wireless and Satellite Upgrade Program",
    "target_eligibility_quarter": "NA"
   }
  },
  {
   "type": "Feature",
   "geometry": {
    "type": "Point",
    "coordinates": [
     143.03222678,
     -38.3726379
    ]
   },
   "properties": {
    "name": "45 BROWNS ROAD ELINGAMITE 3266",
    "locID": "LOC000028417725",
    "tech": "WIRELESS",
    "upgrade": "NULL_NA",
    "gnaf_pid": "GAVIC420611599",
    "ee": true,
    "tech_change_status": "Not Planned",
    "program_type": "Fixed Wireless and Satellite Upgrade Program",
    "target_eligibility_quarter": "NA"
   }
  },
  {
   "type": "Feature",
   "geometry": {
    "type": "Point",
    "coordinates": [
     143.03184726,
     -38.37777866
    ]
   },
   "properties": {
    "name": "101 BROWNS ROAD ELINGAMITE 3266",
    "locID": "LOC000023478861",
    "tech": "WIRELESS",
    "upgrade": "NULL_NA",
    "gnaf_pid": "GAVIC420611609",
    "ee": true,
    "tech_change_status": "Not Planned",
    "program_type": "Fixed Wireless and Satellite Upgrade Program",
    "target_eligibility_quarter": "NA"
   }
  },
  {
   "type": "Feature",
   "geometry": {
    "type": "Point",
    "coordinates": [
     143.0313419,
     -38.37935534
    ]
   },
   "properties": {
    "name": "129 BROWNS ROAD ELINGAMITE 3266",
    "locID": "LOC000048414886",
    "tech": "WIRELESS",
    "upgrade": "NULL_NA",
    "gnaf_pid": "GAVIC420908659",
    "ee": true,
    "tech_change_status": "Not Planned",
    "program_type": "Fixed Wireless and Satellite Upgrade Program",
    "target_eligibility_quarter": "NA"
   }
  },
  {
   "type": "Feature",
   "geometry": {
    "type": "Point",
    "coordinates": [
     143.02316306,
     -38.36313271
    ]
   },
   "properties": {
    "name": "540 COBDEN-WARRNAMBOOL ROAD ELINGAMITE 3266",
    "locID": "LOC000009421122",
    "tech": "WIRELESS",
    "upgrade": "NULL_NA",
    "gnaf_pid": "GAVIC421218032",
    "ee": true,
    "tech_change_status": "Not Planned",
    "program_type": "Fixed Wireless and Satellite Upgrade Program",
    "target_eligibility_quarter": "NA"
   }
  },
  {
   "type": "Feature",
   "geometry": {
    "type": "Point",
    "coordinates": [
     142.98414649,
     -38.37595113
    ]
   },
   "properties": {
    "name": "133 SOUNDRYS ROAD ELINGAMITE 3266",
    "locID": "LOC000057031296",
    "tech": "WIRELESS",
    "upgrade": "NULL_NA",
    "gnaf_pid": "GAVIC421234244",
    "ee": true,
    "tech_change_status": "Not Planned",
    "program_type": "Fixed Wireless and Satellite Upgrade Program",
    "target_eligibility_quarter": "NA"
   }
  },
  {
   "type": "Feature",
   "geometry": {
    "type": "Point",
    "coordinates": [
     143.02035591,
     -38.36713703
    ]
   },
   "properties": {
    "name": "600 COBDEN-WARRNAMBOOL ROAD ELINGAMITE 3266",
    "locID": "LOC000031035032",
    "tech": "WIRELESS",
    "upgrade": "NULL_NA",
    "gnaf_pid": "GAVIC421469447",
    "ee": true,
    "tech_change_status": "Not Planned",
    "program_type": "Fixed Wireless and Satellite Upgrade Program",
    "target_eligibility_quarter": "NA"
   }
  },
  {
   "type": "Feature",
   "geometry": {
    "type": "Point",
    "coordinates": [
     143.02878602,
     -38.35808027
    ]
   },
   "properties": {
    "name": "470 COBDEN-WARRNAMBOOL ROAD ELINGAMITE 3266",
    "locID": "LOC000023476887",
    "tech": "WIRELESS",
    "upgrade": "NULL_NA",
    "gnaf_pid": "GAVIC421495052",
    "ee": true,
    "tech_change_status": "Not Planned",
    "program_type": "Fixed Wireless and Satellite Upgrade Program",
    "target_eligibility_quarter": "NA"
   }
  },
  {
   "type": "Feature",
   "geometry": {
    "type": "Point",
    "coordinates": [
     142.99986865,
     -38.37433065
    ]
   },
   "properties": {
    "name": "109 ELLIOTTS ROAD ELINGAMITE 3266",
    "locID": "LOC000066062735",
    "tech": "WIRELESS",
    "upgrade": "NULL_NA",
    "gnaf_pid": "GAVIC421512159",
    "ee": true,
    "tech_change_status": "Not Planned",
    "program_type": "Fixed Wireless and Satellite Upgrade Program",
    "target_eligibility_quarter": "NA"
   }
  },
  {
   "type": "Feature",
   "geometry": {
    "type": "Point",
    "coordinates": [
     142.9990448,
     -38.37095633
    ]
   },
   "properties": {
    "name": "143 ELLIOTTS ROAD ELINGAMITE 3266",
    "locID": "LOC000108204463",
    "tech": "WIRELESS",
    "upgrade": "NULL_NA",
    "gnaf_pid": "GAVIC421777577",
    "ee": true,
    "tech_change_status": "Not Planned",
    "program_type": "Fixed Wireless and Satellite Upgrade Program",
    "target_eligibility_quarter": "NA"
   }
  },
  {
   "type": "Feature",
   "geometry": {
    "type": "Point",
    "coordinates": [
     143.02992871,
     -38.37753255
    ]
   },
   "properties": {
    "name": "102 BROWNS ROAD ELINGAMITE 3266",
    "locID": "LOC000063636774",
    "tech": "WIRELESS",
    "upgrade": "NULL_NA",
    "gnaf_pid": "GAVIC422131458",
    "ee": true,
    "tech_change_status": "Not Planned",
    "program_type": "Fixed Wireless and Satellite Upgrade Program",
    "target_eligibility_quarter": "NA"
   }
  },
  {
   "type": "Feature",
   "geometry": {
    "type": "Point",
    "coordinates": [
     143.03218068,
     -38.36935546
    ]
   },
   "properties": {
    "name": "10 BROWNS ROAD ELINGAMITE 3266",
    "locID": "LOC000048628801",
    "tech": "WIRELESS",
    "upgrade": "NULL_NA",
    "gnaf_pid": "GAVIC422131459",
    "ee": true,
    "tech_change_status": "Not Planned",
    "program_type": "Fixed Wireless and Satellite Upgrade Program",
    "target_eligibility_quarter": "NA"
   }
  },
  {
   "type": "Feature",
   "geometry": {
    "type": "Point",
    "coordinates": [
     143.03217481,
     -38.36914292
    ]
   },
   "properties": {
    "name": "2 BROWNS ROAD ELINGAMITE 3266",
    "locID": "LOC000040080398",
    "tech": "WIRELESS",
    "upgrade": "NULL_NA",
    "gnaf_pid": "GAVIC422131461",
    "ee": true,
    "tech_change_status": "Not Planned",
    "program_type": "Fixed Wireless and Satellite Upgrade Program",
    "target_eligibility_quarter": "NA"
   }
  },
  {
   "type": "Feature",
   "geometry": {
    "type": "Point",
    "coordinates": [
     143.03188435,
     -38.37415024
    ]
   },
   "properties": {
    "name": "61 BROWNS ROAD ELINGAMITE 3266",
    "locID": "LOC000103522221",
    "tech": "WIRELESS",
    "upgrade": "NULL_NA",
    "gnaf_pid": "GAVIC422131462",
    "ee": true,
    "tech_change_status": "Not Planned",
    "program_type": "Fixed Wireless and Satellite Upgrade Program",
    "target_eligibility_quarter": "NA"
   }
  },
  {
   "type": "Feature",
   "geometry": {
    "type": "Point",
    "coordinates": [
     143.02089695,
     -38.36642484
    ]
   },
   "properties": {
    "name": "590 COBDEN-WARRNAMBOOL ROAD ELINGAMITE 3266",
    "locID": "LOC000065737760",
    "tech": "WIRELESS",
    "upgrade": "NULL_NA",
    "gnaf_pid": "GAVIC422137426",
    "ee": true,
    "tech_change_status": "Not Planned",
    "program_type": "Fixed Wireless and Satellite Upgrade Program",
    "target_eligibility_quarter": "NA"
   }
  },
  {
   "type": "Feature",
   "geometry": {
    "type": "Point",
    "coordinates": [
     143.01241395,
     -38.3804028
    ]
   },
   "properties": {
    "name": "769 COBDEN-WARRNAMBOOL ROAD ELINGAMITE 3266",
    "locID": "LOC000101692871",
    "tech": "WIRELESS",
    "upgrade": "NULL_NA",
    "gnaf_pid": "GAVIC422137427",
    "ee": true,
    "tech_change_status": "Not Planned",
    "program_type": "Fixed Wireless and Satellite Upgrade Program",
    "target_eligibility_quarter": "NA"
   }
  },
  {
   "type": "Feature",
   "geometry": {
    "type": "Point",
    "coordinates": [
     142.98703296,
     -38.37521269
    ]
   },
   "properties": {
    "name": "112 SOUNDRYS ROAD ELINGAMITE 3266",
    "locID": "LOC000088575398",
    "tech": "WIRELESS",
    "upgrade": "NULL_NA",
    "gnaf_pid": "GAVIC422190982",
    "ee": true,
    "tech_change_status": "Not Planned",
    "program_type": "Fixed Wireless and Satellite Upgrade Program",
    "target_eligibility_quarter": "NA"
   }
  },
  {
   "type": "Feature",
   "geometry": {
    "type": "Point",
    "coordinates": [
     143.03610979,
     -38.35300535
    ]
   },
   "properties": {
    "name": "6 WHEATONS ROAD ELINGAMITE 3266",
    "locID": "LOC000089693395",
    "tech": "WIRELESS",
    "upgrade": "NULL_NA",
    "gnaf_pid": "GAVIC422202820",
    "ee": true,
    "tech_change_status": "Not Planned",
    "program_type": "Fixed Wireless and Satellite Upgrade Program",
    "target_eligibility_quarter": "NA"
   }
  }
 ]
}