{
 "type": "FeatureCollection",
 "generated": "2025-06-17T12:05:12.401447",
 "suburb": "GLEN FORBES",
 "features": [
  {
   "type": "Feature",
   "geometry": {
    "type": "Point",
    "coordinates": [
     145.54376559,
     -38.45931645
    ]
   },
   "properties": {
    "name": "1721 DALYSTON-GLEN FORBES ROAD GLEN FORBES 3990",
    "locID": "LOC000097407631",
    "tech": "WIRELESS",
    "upgrade": "NULL_NA",
    "gnaf_pid": "GAVIC411439101",
    "ee": true,
    "tech_change_status": "Not Planned",
    "program_type": "Fixed Wireless and Satellite Upgrade Program",
    "target_eligibility_quarter": "NA"
   }
  },
  {
   "type": "Feature",
   "geometry": {
    "type": "Point",
    "coordinates": [
     145.55105239,
     -38.47366488
    ]
   },
   "properties": {
    "name": "160 WATSON ROAD GLEN FORBES 3990",
    "locID": "LOC000010099984",
    "tech": "WIRELESS",
    "upgrade": "NULL_NA",
    "gnaf_pid": "GAVIC411439103",
    "ee": true,
    "tech_change_status": "Not Planned",
    "program_type": "Fixed Wireless and Satellite Upgrade Program",
    "target_eligibility_quarter": "NA"
   }
  },
  {
   "type": "Feature",
   "geometry": {
    "type": "Point",
    "coordinates": [
     145.5387454,
     -38.4666849
    ]
   },
   "properties": {
    "name": "1605 DALYSTON-GLEN FORBES ROAD GLEN FORBES 3990",
    "locID": "LOC000081317890",
    "tech": "WIRELESS",
    "upgrade": "NULL_NA",
    "gnaf_pid": "GAVIC411449648",
    "ee": true,
    "tech_change_status": "Not Planned",
    "program_type": "Fixed Wireless and Satellite Upgrade Program",
    "target_eligibility_quarter": "NA"
   }
  },
  {
   "type": "Feature",
   "geometry": {
    "type": "Point",
    "coordinates": [
     145.54215725,
     -38.45733975
    ]
   },
   "properties": {
    "name": "1750 DALYSTON-GLEN FORBES ROAD GLEN FORBES 3990",
    "locID": "LOC000013784196",
    "tech": "WIRELESS",
    "upgrade": "NULL_NA",
    "gnaf_pid": "GAVIC411461278",
    "ee": true,
    "tech_change_status": "Not Planned",
    "program_type": "Fixed Wireless and Satellite Upgrade Program",
    "target_eligibility_quarter": "NA"
   }
  },
  {
   "type": "Feature",
   "geometry": {
    "type": "Point",
    "coordinates": [
     145.4826601,
     -38.45329975
    ]
   },
   "properties": {
    "name": "15 MCKENZIE ROAD GLEN FORBES 3990",
    "locID": "LOC000066939816",
    "tech": "WIRELESS",
    "upgrade": "NULL_NA",
    "gnaf_pid": "GAVIC419669728",
    "ee": true,
    "tech_change_status": "Not Planned",
    "program_type": "Fixed Wireless and Satellite Upgrade Program",
    "target_eligibility_quarter": "NA"
   }
  },
  {
   "type": "Feature",
   "geometry": {
    "type": "Point",
    "coordinates": [
     145.49779571,
     -38.43353481
    ]
   },
   "properties": {
    "name": "2255 DALYSTON-GLEN FORBES ROAD GLEN FORBES 3990",
    "locID": "LOC000003515951",
    "tech": "WIRELESS",
    "upgrade": "NULL_NA",
    "gnaf_pid": "GAVIC419675530",
    "ee": true,
    "tech_change_status": "Not Planned",
    "program_type": "Fixed Wireless and Satellite Upgrade Program",
    "target_eligibility_quarter": "NA"
   }
  },
  {
   "type": "Feature",
   "geometry": {
    "type": "Point",
    "coordinates": [
     145.52657497,
     -38.44800288
    ]
   },
   "properties": {
    "name": "1900 DALYSTON-GLEN FORBES ROAD GLEN FORBES 3990",
    "locID": "LOC000073607228",
    "tech": "WIRELESS",
    "upgrade": "NULL_NA",
    "gnaf_pid": "GAVIC419675531",
    "ee": true,
    "tech_change_status": "Not Planned",
    "program_type": "Fixed Wireless and Satellite Upgrade Program",
    "target_eligibility_quarter": "NA"
   }
  },
  {
   "type": "Feature",
   "geometry": {
    "type": "Point",
    "coordinates": [
     145.52284335,
     -38.44717085
    ]
   },
   "properties": {
    "name": "1975 DALYSTON-GLEN FORBES ROAD GLEN FORBES 3990",
    "locID": "LOC000022772155",
    "tech": "WIRELESS",
    "upgrade": "NULL_NA",
    "gnaf_pid": "GAVIC419764896",
    "ee": true,
    "tech_change_status": "Not Planned",
    "program_type": "Fixed Wireless and Satellite Upgrade Program",
    "target_eligibility_quarter": "NA"
   }
  },
  {
   "type": "Feature",
   "geometry": {
    "type": "Point",
    "coordinates": [
     145.53351681,
     -38.44981145
    ]
   },
   "properties": {
    "name": "1865 DALYSTON-GLEN FORBES ROAD GLEN FORBES 3990",
    "locID": "LOC000028874780",
    "tech": "SATELLITE",
    "upgrade": "NULL_NA",
    "gnaf_pid": "GAVIC419764989",
    "ee": true,
    "tech_change_status": "Not Planned"
   }
  },
  {
   "type": "Feature",
   "geometry": {
    "type": "Point",
    "coordinates": [
     145.5419459,
     -38.43577761
    ]
   },
   "properties": {
    "name": "245A STANLEY ROAD GLEN FORBES 3990",
    "locID": "LOC000040781522",
    "tech": "WIRELESS",
    "upgrade": "NULL_NA",
    "gnaf_pid": "GAVIC419783663",
    "ee": true,
    "tech_change_status": "Not Planned",
    "program_type": "Fixed Wireless and Satellite Upgrade Program",
    "target_eligibility_quarter": "NA"
   }
  },
  {
   "type": "Feature",
   "geometry": {
    "type": "Point",
    "coordinates": [
     145.4838521,
     -38.44228422
    ]
   },
   "properties": {
    "name": "2125 BASS HIGHWAY GLEN FORBES 3990",
    "locID": "LOC000077088768",
    "tech": "WIRELESS",
    "upgrade": "NULL_NA",
    "gnaf_pid": "GAVIC420063079",
    "ee": true,
    "tech_change_status": "Not Planned",
    "program_type": "Fixed Wireless and Satellite Upgrade Program",
    "target_eligibility_quarter": "NA"
   }
  },
  {
   "type": "Feature",
   "geometry": {
    "type": "Point",
    "coordinates": [
     145.48660977,
     -38.43892001
    ]
   },
   "properties": {
    "name": "2105 BASS HIGHWAY GLEN FORBES 3990",
    "locID": "LOC000086354188",
    "tech": "WIRELESS",
    "upgrade": "NULL_NA",
    "gnaf_pid": "GAVIC420076449",
    "ee": true,
    "tech_change_status": "Not Planned",
    "program_type": "Fixed Wireless and Satellite Upgrade Program",
    "target_eligibility_quarter": "NA"
   }
  },
  {
   "type": "Feature",
   "geometry": {
    "type": "Point",
    "coordinates": [
     145.52521288,
     -38.44786745
    ]
   },
   "properties": {
    "name": "1945 DALYSTON-GLEN FORBES ROAD GLEN FORBES 3990",
    "locID": "LOC000026055352",
    "tech": "WIRELESS",
    "upgrade": "NULL_NA",
    "gnaf_pid": "GAVIC420076543",
    "ee": true,
    "tech_change_status": "Not Planned",
    "program_type": "Fixed Wireless and Satellite Upgrade Program",
    "target_eligibility_quarter": "NA"
   }
  },
  {
   "type": "Feature",
   "geometry": {
    "type": "Point",
    "coordinates": [
     145.53903805,
     -38.45282535
    ]
   },
   "properties": {
    "name": "1810 DALYSTON-GLEN FORBES ROAD GLEN FORBES 3990",
    "locID": "LOC000087817842",
    "tech": "SATELLITE",
    "upgrade": "NULL_NA",
    "gnaf_pid": "GAVIC420077292",
    "ee": true,
    "tech_change_status": "Not Planned"
   }
  },
  {
   "type": "Feature",
   "geometry": {
    "type": "Point",
    "coordinates": [
     145.49735865,
     -38.45516659
    ]
   },
   "properties": {
    "name": "145 MCKENZIE ROAD GLEN FORBES 3990",
    "locID": "LOC000019519403",
    "tech": "WIRELESS",
    "upgrade": "NULL_NA",
    "gnaf_pid": "GAVIC420269967",
    "ee": true,
    "tech_change_status": "Not Planned",
    "program_type": "Fixed Wireless and Satellite Upgrade Program",
    "target_eligibility_quarter": "NA"
   }
  },
  {
   "type": "Feature",
   "geometry": {
    "type": "Point",
    "coordinates": [
     145.52586371,
     -38.44844895
    ]
   },
   "properties": {
    "name": "1935 DALYSTON-GLEN FORBES ROAD GLEN FORBES 3990",
    "locID": "LOC000066653792",
    "tech": "WIRELESS",
    "upgrade": "NULL_NA",
    "gnaf_pid": "GAVIC420347554",
    "ee": true,
    "tech_change_status": "Not Planned",
    "program_type": "Fixed Wireless and Satellite Upgrade Program",
    "target_eligibility_quarter": "NA"
   }
  },
  {
   "type": "Feature",
   "geometry": {
    "type": "Point",
    "coordinates": [
     145.52167919,
     -38.4466242
    ]
   },
   "properties": {
    "name": "1985 DALYSTON-GLEN FORBES ROAD GLEN FORBES 3990",
    "locID": "LOC000066036353",
    "tech": "WIRELESS",
    "upgrade": "NULL_NA",
    "gnaf_pid": "GAVIC420387193",
    "ee": true,
    "tech_change_status": "Not Planned",
    "program_type": "Fixed Wireless and Satellite Upgrade Program",
    "target_eligibility_quarter": "NA"
   }
  },
  {
   "type": "Feature",
   "geometry": {
    "type": "Point",
    "coordinates": [
     145.53641278,
     -38.45156659
    ]
   },
   "properties": {
    "name": "1840 DALYSTON-GLEN FORBES ROAD GLEN FORBES 3990",
    "locID": "LOC000142405649",
    "tech": "WIRELESS",
    "upgrade": "NULL_NA",
    "gnaf_pid": "GAVIC420637659",
    "ee": true,
    "tech_change_status": "Not Planned",
    "program_type": "Fixed Wireless and Satellite Upgrade Program",
    "target_eligibility_quarter": "NA"
   }
  },
  {
   "type": "Feature",
   "geometry": {
    "type": "Point",
    "coordinates": [
     145.50666649,
     -38.42871403
    ]
   },
   "properties": {
    "name": "1835 BASS HIGHWAY GLEN FORBES 3990",
    "locID": "LOC000072741314",
    "tech": "WIRELESS",
    "upgrade": "NULL_NA",
    "gnaf_pid": "GAVIC420656454",
    "ee": true,
    "tech_change_status": "Not Planned",
    "program_type": "Fixed Wireless and Satellite Upgrade Program",
    "target_eligibility_quarter": "NA"
   }
  },
  {
   "type": "Feature",
   "geometry": {
    "type": "Point",
    "coordinates": [
     145.54037896,
     -38.45305937
    ]
   },
   "properties": {
    "name": "1800 DALYSTON-GLEN FORBES ROAD GLEN FORBES 3990",
    "locID": "LOC000086225819",
    "tech": "WIRELESS",
    "upgrade": "NULL_NA",
    "gnaf_pid": "GAVIC420966679",
    "ee": true,
    "tech_change_status": "Not Planned",
    "program_type": "Fixed Wireless and Satellite Upgrade Program",
    "target_eligibility_quarter": "NA"
   }
  },
  {
   "type": "Feature",
   "geometry": {
    "type": "Point",
    "coordinates": [
     145.53540854,
     -38.45145045
    ]
   },
   "properties": {
    "name": "1842 DALYSTON-GLEN FORBES ROAD GLEN FORBES 3990",
    "locID": "LOC000105754236",
    "tech": "WIRELESS",
    "upgrade": "NULL_NA",
    "gnaf_pid": "GAVIC420966680",
    "ee": true,
    "tech_change_status": "Not Planned",
    "program_type": "Fixed Wireless and Satellite Upgrade Program",
    "target_eligibility_quarter": "NA"
   }
  },
  {
   "type": "Feature",
   "geometry": {
    "type": "Point",
    "coordinates": [
     145.53067785,
     -38.44920574
    ]
   },
   "properties": {
    "name": "1920 DALYSTON-GLEN FORBES ROAD GLEN FORBES 3990",
    "locID": "LOC000038579133",
    "tech": "WIRELESS",
    "upgrade": "NULL_NA",
    "gnaf_pid": "GAVIC420966681",
    "ee": true,
    "tech_change_status": "Not Planned",
    "program_type": "Fixed Wireless and Satellite Upgrade Program",
    "target_eligibility_quarter": "NA"
   }
  },
  {
   "type": "Feature",
   "geometry": {
    "type": "Point",
    "coordinates": [
     145.5182415,
     -38.45787576
    ]
   },
   "properties": {
    "name": "335 MCKENZIE ROAD GLEN FORBES 3990",
    "locID": "LOC000082128720",
    "tech": "WIRELESS",
    "upgrade": "NULL_NA",
    "gnaf_pid": "GAVIC420966683",
    "ee": true,
    "tech_change_status": "Not Planned",
    "program_type": "Fixed Wireless and Satellite Upgrade Program",
    "target_eligibility_quarter": "NA"
   }
  },
  {
   "type": "Feature",
   "geometry": {
    "type": "Point",
    "coordinates": [
     145.50032374,
     -38.431925
    ]
   },
   "properties": {
    "name": "1905 BASS HIGHWAY GLEN FORBES 3990",
    "locID": "LOC000065577028",
    "tech": "WIRELESS",
    "upgrade": "NULL_NA",
    "gnaf_pid": "GAVIC420986395",
    "ee": true,
    "tech_change_status": "Not Planned",
    "program_type": "Fixed Wireless and Satellite Upgrade Program",
    "target_eligibility_quarter": "NA"
   }
  },
  {
   "type": "Feature",
   "geometry": {
    "type": "Point",
    "coordinates": [
     145.515999,
     -38.46838298
    ]
   },
   "properties": {
    "name": "350 MCGRATH ROAD GLEN FORBES 3990",
    "locID": "LOC000030157083",
    "tech": "WIRELESS",
    "upgrade": "NULL_NA",
    "gnaf_pid": "GAVIC420989506",
    "ee": true,
    "tech_change_status": "Not Planned",
    "program_type": "Fixed Wireless and Satellite Upgrade Program",
    "target_eligibility_quarter": "NA"
   }
  },
  {
   "type": "Feature",
   "geometry": {
    "type": "Point",
    "coordinates": [
     145.51446605,
     -38.47102615
    ]
   },
   "properties": {
    "name": "340 MCGRATH ROAD GLEN FORBES 3990",
    "locID": "LOC000018666559",
    "tech": "WIRELESS",
    "upgrade": "NULL_NA",
    "gnaf_pid": "GAVIC420989507",
    "ee": true,
    "tech_change_status": "Not Planned",
    "program_type": "Fixed Wireless and Satellite Upgrade Program",
    "target_eligibility_quarter": "NA"
   }
  },
  {
   "type": "Feature",
   "geometry": {
    "type": "Point",
    "coordinates": [
     145.53726756,
     -38.45094748
    ]
   },
   "properties": {
    "name": "1835 DALYSTON-GLEN FORBES ROAD GLEN FORBES 3990",
    "locID": "LOC000045117994",
    "tech": "WIRELESS",
    "upgrade": "NULL_NA",
    "gnaf_pid": "GAVIC421161391",
    "ee": true,
    "tech_change_status": "Not Planned",
    "program_type": "Fixed Wireless and Satellite Upgrade Program",
    "target_eligibility_quarter": "NA"
   }
  },
  {
   "type": "Feature",
   "geometry": {
    "type": "Point",
    "coordinates": [
     145.52411595,
     -38.44760225
    ]
   },
   "properties": {
    "name": "1955 DALYSTON-GLEN FORBES ROAD GLEN FORBES 3990",
    "locID": "LOC000035317419",
    "tech": "WIRELESS",
    "upgrade": "NULL_NA",
    "gnaf_pid": "GAVIC421268627",
    "ee": true,
    "tech_change_status": "Not Planned",
    "program_type": "Fixed Wireless and Satellite Upgrade Program",
    "target_eligibility_quarter": "NA"
   }
  },
  {
   "type": "Feature",
   "geometry": {
    "type": "Point",
    "coordinates": [
     145.52275199,
     -38.44770386
    ]
   },
   "properties": {
    "name": "1974 DALYSTON-GLEN FORBES ROAD GLEN FORBES 3990",
    "locID": "LOC000033541378",
    "tech": "WIRELESS",
    "upgrade": "NULL_NA",
    "gnaf_pid": "GAVIC421268698",
    "ee": true,
    "tech_change_status": "Not Planned",
    "program_type": "Fixed Wireless and Satellite Upgrade Program",
    "target_eligibility_quarter": "NA"
   }
  },
  {
   "type": "Feature",
   "geometry": {
    "type": "Point",
    "coordinates": [
     145.54926735,
     -38.47537799
    ]
   },
   "properties": {
    "name": "1440 DALYSTON-GLEN FORBES ROAD GLEN FORBES 3990",
    "locID": "LOC000066337562",
    "tech": "WIRELESS",
    "upgrade": "NULL_NA",
    "gnaf_pid": "GAVIC421272213",
    "ee": true,
    "tech_change_status": "Not Planned",
    "program_type": "Fixed Wireless and Satellite Upgrade Program",
    "target_eligibility_quarter": "NA"
   }
  },
  {
   "type": "Feature",
   "geometry": {
    "type": "Point",
    "coordinates": [
     145.53630628,
     -38.46682458
    ]
   },
   "properties": {
    "name": "32 EDEN ROAD GLEN FORBES 3990",
    "locID": "LOC000115881106",
    "tech": "WIRELESS",
    "upgrade": "NULL_NA",
    "gnaf_pid": "GAVIC421555420",
    "ee": true,
    "tech_change_status": "Not Planned",
    "program_type": "Fixed Wireless and Satellite Upgrade Program",
    "target_eligibility_quarter": "NA"
   }
  },
  {
   "type": "Feature",
   "geometry": {
    "type": "Point",
    "coordinates": [
     145.51985211,
     -38.45808571
    ]
   },
   "properties": {
    "name": "347 MCKENZIE ROAD GLEN FORBES 3990",
    "locID": "LOC000102411388",
    "tech": "WIRELESS",
    "upgrade": "NULL_NA",
    "gnaf_pid": "GAVIC421558435",
    "ee": true,
    "tech_change_status": "Not Planned",
    "program_type": "Fixed Wireless and Satellite Upgrade Program",
    "target_eligibility_quarter": "NA"
   }
  },
  {
   "type": "Feature",
   "geometry": {
    "type": "Point",
    "coordinates": [
     145.54891947,
     -38.47274131
    ]
   },
   "properties": {
    "name": "175 WATSON ROAD GLEN FORBES 3990",
    "locID": "LOC000072099371",
    "tech": "WIRELESS",
    "upgrade": "NULL_NA",
    "gnaf_pid": "GAVIC421559618",
    "ee": true,
    "tech_change_status": "Not Planned",
    "program_type": "Fixed Wireless and Satellite Upgrade Program",
    "target_eligibility_quarter": "NA"
   }
  },
  {
   "type": "Feature",
   "geometry": {
    "type": "Point",
    "coordinates": [
     145.56775829,
     -38.46992738
    ]
   },
   "properties": {
    "name": "175 JONES ROAD GLEN FORBES 3990",
    "locID": "LOC000056029230",
    "tech": "WIRELESS",
    "upgrade": "NULL_NA",
    "gnaf_pid": "GAVIC421559619",
    "ee": true,
    "tech_change_status": "Not Planned",
    "program_type": "Fixed Wireless and Satellite Upgrade Program",
    "target_eligibility_quarter": "NA"
   }
  },
  {
   "type": "Feature",
   "geometry": {
    "type": "Point",
    "coordinates": [
     145.56312206,
     -38.47769759
    ]
   },
   "properties": {
    "name": "30 WATSON ROAD GLEN FORBES 3990",
    "locID": "LOC000091107740",
    "tech": "WIRELESS",
    "upgrade": "NULL_NA",
    "gnaf_pid": "GAVIC421559620",
    "ee": true,
    "tech_change_status": "Not Planned",
    "program_type": "Fixed Wireless and Satellite Upgrade Program",
    "target_eligibility_quarter": "NA"
   }
  },
  {
   "type": "Feature",
   "geometry": {
    "type": "Point",
    "coordinates": [
     145.54640578,
     -38.46038006
    ]
   },
   "properties": {
    "name": "315 ALMURTA-GLEN FORBES ROAD GLEN FORBES 3990",
    "locID": "LOC000082088720",
    "tech": "WIRELESS",
    "upgrade": "NULL_NA",
    "gnaf_pid": "GAVIC421566457",
    "ee": true,
    "tech_change_status": "Not Planned",
    "program_type": "Fixed Wireless and Satellite Upgrade Program",
    "target_eligibility_quarter": "NA"
   }
  },
  {
   "type": "Feature",
   "geometry": {
    "type": "Point",
    "coordinates": [
     145.4835004,
     -38.44387092
    ]
   },
   "properties": {
    "name": "2135 BASS HIGHWAY GLEN FORBES 3990",
    "locID": "LOC000100435736",
    "tech": "WIRELESS",
    "upgrade": "NULL_NA",
    "gnaf_pid": "GAVIC421585665",
    "ee": true,
    "tech_change_status": "Not Planned",
    "program_type": "Fixed Wireless and Satellite Upgrade Program",
    "target_eligibility_quarter": "NA"
   }
  },
  {
   "type": "Feature",
   "geometry": {
    "type": "Point",
    "coordinates": [
     145.51824338,
     -38.42221583
    ]
   },
   "properties": {
    "name": "1705 BASS HIGHWAY GLEN FORBES 3990",
    "locID": "LOC000090969347",
    "tech": "WIRELESS",
    "upgrade": "NULL_NA",
    "gnaf_pid": "GAVIC421793729",
    "ee": true,
    "tech_change_status": "Not Planned",
    "program_type": "Fixed Wireless and Satellite Upgrade Program",
    "target_eligibility_quarter": "NA"
   }
  },
  {
   "type": "Feature",
   "geometry": {
    "type": "Point",
    "coordinates": [
     145.54120348,
     -38.4527229
    ]
   },
   "properties": {
    "name": "1795 DALYSTON-GLEN FORBES ROAD GLEN FORBES 3990",
    "locID": "LOC000104763905",
    "tech": "WIRELESS",
    "upgrade": "NULL_NA",
    "gnaf_pid": "GAVIC421793735",
    "ee": true,
    "tech_change_status": "Not Planned",
    "program_type": "Fixed Wireless and Satellite Upgrade Program",
    "target_eligibility_quarter": "NA"
   }
  },
  {
   "type": "Feature",
   "geometry": {
    "type": "Point",
    "coordinates": [
     145.51009976,
     -38.44132334
    ]
   },
   "properties": {
    "name": "2100 DALYSTON-GLEN FORBES ROAD GLEN FORBES 3990",
    "locID": "LOC000044817811",
    "tech": "WIRELESS",
    "upgrade": "NULL_NA",
    "gnaf_pid": "GAVIC421825178",
    "ee": true,
    "tech_change_status": "Not Planned",
    "program_type": "Fixed Wireless and Satellite Upgrade Program",
    "target_eligibility_quarter": "NA"
   }
  },
  {
   "type": "Feature",
   "geometry": {
    "type": "Point",
    "coordinates": [
     145.51905619,
     -38.44581918
    ]
   },
   "properties": {
    "name": "2005 DALYSTON-GLEN FORBES ROAD GLEN FORBES 3990",
    "locID": "LOC000030303465",
    "tech": "WIRELESS",
    "upgrade": "NULL_NA",
    "gnaf_pid": "GAVIC421886806",
    "ee": true,
    "tech_change_status": "Not Planned",
    "program_type": "Fixed Wireless and Satellite Upgrade Program",
    "target_eligibility_quarter": "NA"
   }
  },
  {
   "type": "Feature",
   "geometry": {
    "type": "Point",
    "coordinates": [
     145.53199082,
     -38.47045298
    ]
   },
   "properties": {
    "name": "85 EDEN ROAD GLEN FORBES 3990",
    "locID": "LOC000115881134",
    "tech": "WIRELESS",
    "upgrade": "NULL_NA",
    "gnaf_pid": "GAVIC422035516",
    "ee": true,
    "tech_change_status": "Not Planned",
    "program_type": "Fixed Wireless and Satellite Upgrade Program",
    "target_eligibility_quarter": "NA"
   }
  },
  {
   "type": "Feature",
   "geometry": {
    "type": "Point",
    "coordinates": [
     145.5195999,
     -38.4208877
    ]
   },
   "properties": {
    "name": "1685 BASS HIGHWAY GLEN FORBES 3990",
    "locID": "LOC000190082109",
    "tech": "WIRELESS",
    "upgrade": "NULL_NA",
    "gnaf_pid": "GAVIC422126432",
    "ee": true,
    "tech_change_status": "Not Planned",
    "program_type": "Fixed Wireless and Satellite Upgrade Program",
    "target_eligibility_quarter": "NA"
   }
  },
  {
   "type": "Feature",
   "geometry": {
    "type": "Point",
    "coordinates": [
     145.53239281,
     -38.44949369
    ]
   },
   "properties": {
    "name": "1886 DALYSTON-GLEN FORBES ROAD GLEN FORBES 3990",
    "locID": "LOC000105863092",
    "tech": "WIRELESS",
    "upgrade": "NULL_NA",
    "gnaf_pid": "GAVIC422140446",
    "ee": true,
    "tech_change_status": "Not Planned",
    "program_type": "Fixed Wireless and Satellite Upgrade Program",
    "target_eligibility_quarter": "NA"
   }
  },
  {
   "type": "Feature",
   "geometry": {
    "type": "Point",
    "coordinates": [
     145.52015846,
     -38.44616853
    ]
   },
   "properties": {
    "name": "1995 DALYSTON-GLEN FORBES ROAD GLEN FORBES 3990",
    "locID": "LOC000024332108",
    "tech": "WIRELESS",
    "upgrade": "NULL_NA",
    "gnaf_pid": "GAVIC422140447",
    "ee": true,
    "tech_change_status": "Not Planned",
    "program_type": "Fixed Wireless and Satellite Upgrade Program",
    "target_eligibility_quarter": "NA"
   }
  },
  {
   "type": "Feature",
   "geometry": {
    "type": "Point",
    "coordinates": [
     145.50258084,
     -38.43733449
    ]
   },
   "properties": {
    "name": "2185 DALYSTON-GLEN FORBES ROAD GLEN FORBES 3990",
    "locID": "LOC000062502866",
    "tech": "WIRELESS",
    "upgrade": "NULL_NA",
    "gnaf_pid": "GAVIC422140448",
    "ee": true,
    "tech_change_status": "Not Planned",
    "program_type": "Fixed Wireless and Satellite Upgrade Program",
    "target_eligibility_quarter": "NA"
   }
  },
  {
   "type": "Feature",
   "geometry": {
    "type": "Point",
    "coordinates": [
     145.55875573,
     -38.47779513
    ]
   },
   "properties": {
    "name": "70 WATSON ROAD GLEN FORBES 3990",
    "locID": "LOC000093702967",
    "tech": "WIRELESS",
    "upgrade": "NULL_NA",
    "gnaf_pid": "GAVIC422201512",
    "ee": true,
    "tech_change_status": "Not Planned",
    "program_type": "Fixed Wireless and Satellite Upgrade Program",
    "target_eligibility_quarter": "NA"
   }
  },
  {
   "type": "Feature",
   "geometry": {
    "type": "Point",
    "coordinates": [
     145.56778675,
     -38.4728756
    ]
   },
   "properties": {
    "name": "LOT 1 JONES ROAD GLEN FORBES 3990",
    "locID": "LOC000109763172",
    "tech": "WIRELESS",
    "upgrade": "NULL_NA",
    "gnaf_pid": "GAVIC423399663",
    "ee": true,
    "tech_change_status": "Not Planned",
    "program_type": "Fixed Wireless and Satellite Upgrade Program",
    "target_eligibility_quarter": "NA"
   }
  },
  {
   "type": "Feature",
   "geometry": {
    "type": "Point",
    "coordinates": [
     145.54353613,
     -38.45945714
    ]
   },
   "properties": {
    "name": "1715 DALYSTON-GLEN FORBES ROAD GLEN FORBES 3990",
    "locID": "LOC000082090908",
    "tech": "WIRELESS",
    "upgrade": "NULL_NA",
    "gnaf_pid": "GAVIC423505368",
    "ee": true,
    "tech_change_status": "Not Planned",
    "program_type": "Fixed Wireless and Satellite Upgrade Program",
    "target_eligibility_quarter": "NA"
   }
  },
  {
   "type": "Feature",
   "geometry": {
    "type": "Point",
    "coordinates": [
     145.53033032,
     -38.44893471
    ]
   },
   "properties": {
    "name": "1922 DALYSTON-GLEN FORBES ROAD GLEN FORBES 3990",
    "locID": "LOC000070518074",
    "tech": "WIRELESS",
    "upgrade": "NULL_NA",
    "gnaf_pid": "GAVIC423505369",
    "ee": true,
    "tech_change_status": "Not Planned",
    "program_type": "Fixed Wireless and Satellite Upgrade Program",
    "target_eligibility_quarter": "NA"
   }
  },
  {
   "type": "Feature",
   "geometry": {
    "type": "Point",
    "coordinates": [
     145.51693675,
     -38.4447051
    ]
   },
   "properties": {
    "name": "2034 DALYSTON-GLEN FORBES ROAD GLEN FORBES 3990",
    "locID": "LOC000080759906",
    "tech": "WIRELESS",
    "upgrade": "NULL_NA",
    "gnaf_pid": "GAVIC423879014",
    "ee": true,
    "tech_change_status": "Not Planned",
    "program_type": "Fixed Wireless and Satellite Upgrade Program",
    "target_eligibility_quarter": "NA"
   }
  },
  {
   "type": "Feature",
   "geometry": {
    "type": "Point",
    "coordinates": [
     145.5419459,
     -38.43577761
    ]
   },
   "properties": {
    "name": "245 STANLEY ROAD GLEN FORBES 3990",
    "locID": "LOC000040781522",
    "tech": "WIRELESS",
    "upgrade": "NULL_NA",
    "gnaf_pid": "GAVIC423943205",
    "ee": true,
    "tech_change_status": "Not Planned",
    "program_type": "Fixed Wireless and Satellite Upgrade Program",
    "target_eligibility_quarter": "NA"
   }
  },
  {
   "type": "Feature",
   "geometry": {
    "type": "Point",
    "coordinates": [
     145.5269348,
     -38.44857017
    ]
   },
   "properties": {
    "name": "1930 DALYSTON-GLEN FORBES ROAD GLEN FORBES 3990",
    "locID": "LOC000179218475",
    "tech": "WIRELESS",
    "upgrade": "NULL_NA",
    "gnaf_pid": "GAVIC424080093",
    "ee": true,
    "tech_change_status": "Not Planned",
    "program_type": "Fixed Wireless and Satellite Upgrade Program",
    "target_eligibility_quarter": "NA"
   }
  },
  {
   "type": "Feature",
   "geometry": {
    "type": "Point",
    "coordinates": [
     145.54648888,
     -38.4603962
    ]
   },
   "properties": {
    "name": "313 ALMURTA-GLEN FORBES ROAD GLEN FORBES 3990",
    "locID": "LOC000034508566",
    "tech": "WIRELESS",
    "upgrade": "NULL_NA",
    "gnaf_pid": "GAVIC424272084",
    "ee": true,
    "tech_change_status": "Not Planned",
    "program_type": "Fixed Wireless and Satellite Upgrade Program",
    "target_eligibility_quarter": "NA"
   }
  },
  {
   "type": "Feature",
   "geometry": {
    "type": "Point",
    "coordinates": [
     145.5459553,
     -38.45918127
    ]
   },
   "properties": {
    "name": "319 ALMURTA-GLEN FORBES ROAD GLEN FORBES 3990",
    "locID": "LOC000011156570",
    "tech": "WIRELESS",
    "upgrade": "NULL_NA",
    "gnaf_pid": "GAVIC424459930",
    "ee": true,
    "tech_change_status": "Not Planned",
    "program_type": "Fixed Wireless and Satellite Upgrade Program",
    "target_eligibility_quarter": "NA"
   }
  },
  {
   "type": "Feature",
   "geometry": {
    "type": "Point",
    "coordinates": [
     145.53636025,
     -38.46673413
    ]
   },
   "properties": {
    "name": "30 EDEN ROAD GLEN FORBES 3990",
    "locID": "LOC000125752594",
    "tech": "WIRELESS",
    "upgrade": "NULL_NA",
    "gnaf_pid": "GAVIC424490365",
    "ee": true,
    "tech_change_status": "Not Planned",
    "program_type": "Fixed Wireless and Satellite Upgrade Program",
    "target_eligibility_quarter": "NA"
   }
  },
  {
   "type": "Feature",
   "geometry": {
    "type": "Point",
    "coordinates": [
     145.52832608,
     -38.47573365
    ]
   },
   "properties": {
    "name": "15 CLEMATIS ROAD GLEN FORBES 3990",
    "locID": "LOC000125743675",
    "tech": "WIRELESS",
    "upgrade": "NULL_NA",
    "gnaf_pid": "GAVIC424964908",
    "ee": true,
    "tech_change_status": "Not Planned",
    "program_type": "Fixed Wireless and Satellite Upgrade Program",
    "target_eligibility_quarter": "NA"
   }
  },
  {
   "type": "Feature",
   "geometry": {
    "type": "Point",
    "coordinates": [
     145.53020811,
     -38.47597266
    ]
   },
   "properties": {
    "name": "31 CLEMATIS ROAD GLEN FORBES 3990",
    "locID": "LOC000125752616",
    "tech": "WIRELESS",
    "upgrade": "NULL_NA",
    "gnaf_pid": "GAVIC424964909",
    "ee": true,
    "tech_change_status": "Not Planned",
    "program_type": "Fixed Wireless and Satellite Upgrade Program",
    "target_eligibility_quarter": "NA"
   }
  },
  {
   "type": "Feature",
   "geometry": {
    "type": "Point",
    "coordinates": [
     145.48660977,
     -38.43892001
    ]
   },
   "properties": {
    "name": "2103 BASS HIGHWAY GLEN FORBES 3990",
    "locID": "LOC100017703571",
    "tech": "WIRELESS",
    "upgrade": "NULL_NA",
    "gnaf_pid": "GAVIC425308071",
    "ee": true,
    "tech_change_status": "Not Planned",
    "program_type": "Fixed Wireless and Satellite Upgrade Program",
    "target_eligibility_quarter": "NA"
   }
  },
  {
   "type": "Feature",
   "geometry": {
    "type": "Point",
    "coordinates": [
     145.56813928,
     -38.46753644
    ]
   },
   "properties": {
    "name": "201 JONES ROAD GLEN FORBES 3990",
    "locID": "LOC100072048208",
    "tech": "WIRELESS",
    "upgrade": "NULL_NA",
    "gnaf_pid": "GAVIC719794243",
    "ee": true,
    "tech_change_status": "Not Planned",
    "program_type": "Fixed Wireless and Satellite Upgrade Program",
    "target_eligibility_quarter": "NA"
   }
  },
  {
   "type": "Feature",
   "geometry": {
    "type": "Point",
    "coordinates": [
     145.54426343,
     -38.45907584
    ]
   },
   "properties": {
    "name": "1723 DALYSTON-GLEN FORBES ROAD GLEN FORBES 3990",
    "locID": "LOC100076921306",
    "tech": "WIRELESS",
    "upgrade": "NULL_NA",
    "gnaf_pid": "GAVIC720316707",
    "ee": true,
    "tech_change_status": "Not Planned",
    "program_type": "Fixed Wireless and Satellite Upgrade Program",
    "target_eligibility_quarter": "NA"
   }
  }
 ]
}