{
 "type": "FeatureCollection",
 "generated": "2025-06-17T12:27:56.360882",
 "suburb": "GLENISLA",
 "features": [
  {
   "type": "Feature",
   "geometry": {
    "type": "Point",
    "coordinates": [
     142.17485928,
     -37.1773962
    ]
   },
   "properties": {
    "name": "482 BROOKS ROAD GLENISLA 3314",
    "locID": "LOC000016109398",
    "tech": "SATELLITE",
    "upgrade": "NULL_NA",
    "gnaf_pid": "GAVIC411468737",
    "ee": false,
    "tech_change_status": "Not Planned"
   }
  },
  {
   "type": "Feature",
   "geometry": {
    "type": "Point",
    "coordinates": [
     142.193697,
     -37.23763035
    ]
   },
   "properties": {
    "name": "6495 HENTY HIGHWAY GLENISLA 3314",
    "locID": "LOC000057327419",
    "tech": "SATELLITE",
    "upgrade": "NULL_NA",
    "gnaf_pid": "GAVIC411468738",
    "ee": false,
    "tech_change_status": "Not Planned"
   }
  },
  {
   "type": "Feature",
   "geometry": {
    "type": "Point",
    "coordinates": [
     142.11279488,
     -37.22445181
    ]
   },
   "properties": {
    "name": "832 HYNES ROAD GLENISLA 3314",
    "locID": "LOC000071076861",
    "tech": "SATELLITE",
    "upgrade": "NULL_NA",
    "gnaf_pid": "GAVIC420683687",
    "ee": false,
    "tech_change_status": "Not Planned"
   }
  },
  {
   "type": "Feature",
   "geometry": {
    "type": "Point",
    "coordinates": [
     142.22148954,
     -37.21479481
    ]
   },
   "properties": {
    "name": "136 ANDERSONS ROAD GLENISLA 3314",
    "locID": "LOC000096953418",
    "tech": "SATELLITE",
    "upgrade": "NULL_NA",
    "gnaf_pid": "GAVIC421177561",
    "ee": false,
    "tech_change_status": "Not Planned"
   }
  },
  {
   "type": "Feature",
   "geometry": {
    "type": "Point",
    "coordinates": [
     142.22892566,
     -37.21611081
    ]
   },
   "properties": {
    "name": "216 ANDERSONS ROAD GLENISLA 3314",
    "locID": "LOC000124643990",
    "tech": "NULL",
    "upgrade": "NULL_NA",
    "gnaf_pid": "GAVIC421521419",
    "ee": false,
    "tech_change_status": "Not Planned"
   }
  },
  {
   "type": "Feature",
   "geometry": {
    "type": "Point",
    "coordinates": [
     142.10873514,
     -37.2242514
    ]
   },
   "properties": {
    "name": "867 HYNES ROAD GLENISLA 3314",
    "locID": "LOC000070319787",
    "tech": "NULL",
    "upgrade": "NULL_NA",
    "gnaf_pid": "GAVIC421995114",
    "ee": false,
    "tech_change_status": "Not Planned"
   }
  },
  {
   "type": "Feature",
   "geometry": {
    "type": "Point",
    "coordinates": [
     142.2283639,
     -37.21482771
    ]
   },
   "properties": {
    "name": "195 ANDERSONS ROAD GLENISLA 3314",
    "locID": "LOC000083705525",
    "tech": "SATELLITE",
    "upgrade": "NULL_NA",
    "gnaf_pid": "GAVIC422274239",
    "ee": false,
    "tech_change_status": "Not Planned"
   }
  },
  {
   "type": "Feature",
   "geometry": {
    "type": "Point",
    "coordinates": [
     142.19454311,
     -37.2369548
    ]
   },
   "properties": {
    "name": "6502 HENTY HIGHWAY GLENISLA 3314",
    "locID": "LOC000091419985",
    "tech": "NULL",
    "upgrade": "NULL_NA",
    "gnaf_pid": "GAVIC422297661",
    "ee": false,
    "tech_change_status": "Not Planned"
   }
  },
  {
   "type": "Feature",
   "geometry": {
    "type": "Point",
    "coordinates": [
     142.21570282,
     -37.20537639
    ]
   },
   "properties": {
    "name": "6928 HENTY HIGHWAY GLENISLA 3314",
    "locID": "LOC000124657793",
    "tech": "NULL",
    "upgrade": "NULL_NA",
    "gnaf_pid": "GAVIC422297662",
    "ee": false,
    "tech_change_status": "Not Planned"
   }
  },
  {
   "type": "Feature",
   "geometry": {
    "type": "Point",
    "coordinates": [
     142.23026968,
     -37.18221895
    ]
   },
   "properties": {
    "name": "7214 HENTY HIGHWAY GLENISLA 3314",
    "locID": "LOC000046514396",
    "tech": "SATELLITE",
    "upgrade": "NULL_NA",
    "gnaf_pid": "GAVIC422297663",
    "ee": false,
    "tech_change_status": "Not Planned"
   }
  },
  {
   "type": "Feature",
   "geometry": {
    "type": "Point",
    "coordinates": [
     142.21547496,
     -37.16236639
    ]
   },
   "properties": {
    "name": "7481 HENTY HIGHWAY GLENISLA 3314",
    "locID": "LOC000067743199",
    "tech": "NULL",
    "upgrade": "NULL_NA",
    "gnaf_pid": "GAVIC422297664",
    "ee": false,
    "tech_change_status": "Not Planned"
   }
  },
  {
   "type": "Feature",
   "geometry": {
    "type": "Point",
    "coordinates": [
     142.2162941,
     -37.16202733
    ]
   },
   "properties": {
    "name": "7484 HENTY HIGHWAY GLENISLA 3314",
    "locID": "LOC100078147296",
    "tech": "NULL",
    "upgrade": "NULL_NA",
    "gnaf_pid": "GAVIC422297665",
    "ee": false,
    "tech_change_status": "Not Planned"
   }
  },
  {
   "type": "Feature",
   "geometry": {
    "type": "Point",
    "coordinates": [
     142.21502805,
     -37.16183425
    ]
   },
   "properties": {
    "name": "7489 HENTY HIGHWAY GLENISLA 3314",
    "locID": "LOC000072830217",
    "tech": "SATELLITE",
    "upgrade": "NULL_NA",
    "gnaf_pid": "GAVIC422297666",
    "ee": false,
    "tech_change_status": "Not Planned"
   }
  },
  {
   "type": "Feature",
   "geometry": {
    "type": "Point",
    "coordinates": [
     142.15561578,
     -37.22225527
    ]
   },
   "properties": {
    "name": "424 HYNES ROAD GLENISLA 3314",
    "locID": "LOC000124653065",
    "tech": "NULL",
    "upgrade": "NULL_NA",
    "gnaf_pid": "GAVIC422299887",
    "ee": false,
    "tech_change_status": "Not Planned"
   }
  },
  {
   "type": "Feature",
   "geometry": {
    "type": "Point",
    "coordinates": [
     142.14563266,
     -37.22164655
    ]
   },
   "properties": {
    "name": "512 HYNES ROAD GLENISLA 3314",
    "locID": "LOC000041417893",
    "tech": "SATELLITE",
    "upgrade": "NULL_NA",
    "gnaf_pid": "GAVIC422299888",
    "ee": false,
    "tech_change_status": "Not Planned"
   }
  },
  {
   "type": "Feature",
   "geometry": {
    "type": "Point",
    "coordinates": [
     142.11143904,
     -37.22423019
    ]
   },
   "properties": {
    "name": "844 HYNES ROAD GLENISLA 3314",
    "locID": "LOC000016965860",
    "tech": "NULL",
    "upgrade": "NULL_NA",
    "gnaf_pid": "GAVIC422299890",
    "ee": false,
    "tech_change_status": "Not Planned"
   }
  },
  {
   "type": "Feature",
   "geometry": {
    "type": "Point",
    "coordinates": [
     142.18709117,
     -37.22732047
    ]
   },
   "properties": {
    "name": "92 HYNES ROAD GLENISLA 3314",
    "locID": "LOC000046248924",
    "tech": "SATELLITE",
    "upgrade": "NULL_NA",
    "gnaf_pid": "GAVIC422299893",
    "ee": false,
    "tech_change_status": "Not Planned"
   }
  },
  {
   "type": "Feature",
   "geometry": {
    "type": "Point",
    "coordinates": [
     142.2403706,
     -37.16342439
    ]
   },
   "properties": {
    "name": "212 GLENISLA CROSSING ROAD GLENISLA 3314",
    "locID": "LOC000053977583",
    "tech": "SATELLITE",
    "upgrade": "NULL_NA",
    "gnaf_pid": "GAVIC423506461",
    "ee": false,
    "tech_change_status": "Not Planned"
   }
  },
  {
   "type": "Feature",
   "geometry": {
    "type": "Point",
    "coordinates": [
     142.18865301,
     -37.18275215
    ]
   },
   "properties": {
    "name": "55 G MILLERS ROAD GLENISLA 3314",
    "locID": "LOC000124657698",
    "tech": "NULL",
    "upgrade": "NULL_NA",
    "gnaf_pid": "GAVIC423881546",
    "ee": false,
    "tech_change_status": "Not Planned"
   }
  }
 ]
}