{
 "type": "FeatureCollection",
 "generated": "2025-06-17T13:14:33.985427",
 "suburb": "GORMANDALE",
 "features": [
  {
   "type": "Feature",
   "geometry": {
    "type": "Point",
    "coordinates": [
     146.70203929,
     -38.31472365
    ]
   },
   "properties": {
    "name": "176 BANKS ROAD GORMANDALE 3873",
    "locID": "LOC000052970438",
    "tech": "SATELLITE",
    "upgrade": "NULL_NA",
    "gnaf_pid": "GAVIC411482847",
    "ee": true,
    "tech_change_status": "Not Planned"
   }
  },
  {
   "type": "Feature",
   "geometry": {
    "type": "Point",
    "coordinates": [
     146.701385,
     -38.29446483
    ]
   },
   "properties": {
    "name": "41 MAIN ROAD GORMANDALE 3873",
    "locID": "LOC000086980645",
    "tech": "NULL",
    "upgrade": "NULL_NA",
    "gnaf_pid": "GAVIC411483704",
    "ee": true,
    "tech_change_status": "Not Planned"
   }
  },
  {
   "type": "Feature",
   "geometry": {
    "type": "Point",
    "coordinates": [
     146.70003475,
     -38.29428433
    ]
   },
   "properties": {
    "name": "29 MAIN ROAD GORMANDALE 3873",
    "locID": "LOC000019465210",
    "tech": "NULL",
    "upgrade": "NULL_NA",
    "gnaf_pid": "GAVIC411497546",
    "ee": true,
    "tech_change_status": "Not Planned"
   }
  },
  {
   "type": "Feature",
   "geometry": {
    "type": "Point",
    "coordinates": [
     146.69954349,
     -38.30692151
    ]
   },
   "properties": {
    "name": "84 BANKS ROAD GORMANDALE 3873",
    "locID": "LOC000030216182",
    "tech": "SATELLITE",
    "upgrade": "NULL_NA",
    "gnaf_pid": "GAVIC411498561",
    "ee": true,
    "tech_change_status": "Not Planned"
   }
  },
  {
   "type": "Feature",
   "geometry": {
    "type": "Point",
    "coordinates": [
     146.69923679,
     -38.306407
    ]
   },
   "properties": {
    "name": "78 BANKS ROAD GORMANDALE 3873",
    "locID": "LOC000008516311",
    "tech": "NULL",
    "upgrade": "NULL_NA",
    "gnaf_pid": "GAVIC411498562",
    "ee": true,
    "tech_change_status": "Not Planned"
   }
  },
  {
   "type": "Feature",
   "geometry": {
    "type": "Point",
    "coordinates": [
     146.75271948,
     -38.323115
    ]
   },
   "properties": {
    "name": "440 WILLUNG SOUTH ROAD GORMANDALE 3873",
    "locID": "LOC000107811329",
    "tech": "SATELLITE",
    "upgrade": "NULL_NA",
    "gnaf_pid": "GAVIC411498565",
    "ee": true,
    "tech_change_status": "Not Planned"
   }
  },
  {
   "type": "Feature",
   "geometry": {
    "type": "Point",
    "coordinates": [
     146.66584785,
     -38.33681456
    ]
   },
   "properties": {
    "name": "94 MORRISONS CREEK ROAD GORMANDALE 3873",
    "locID": "LOC000060554233",
    "tech": "SATELLITE",
    "upgrade": "NULL_NA",
    "gnaf_pid": "GAVIC411498568",
    "ee": true,
    "tech_change_status": "Not Planned"
   }
  },
  {
   "type": "Feature",
   "geometry": {
    "type": "Point",
    "coordinates": [
     146.7006165,
     -38.29280919
    ]
   },
   "properties": {
    "name": "LOT 7 MAIN ROAD GORMANDALE 3873",
    "locID": "LOC000066828237",
    "tech": "SATELLITE",
    "upgrade": "NULL_NA",
    "gnaf_pid": "GAVIC412689281",
    "ee": true,
    "tech_change_status": "Not Planned"
   }
  },
  {
   "type": "Feature",
   "geometry": {
    "type": "Point",
    "coordinates": [
     146.7006165,
     -38.29280919
    ]
   },
   "properties": {
    "name": "LOT 1 MAIN ROAD GORMANDALE 3873",
    "locID": "LOC000066828237",
    "tech": "SATELLITE",
    "upgrade": "NULL_NA",
    "gnaf_pid": "GAVIC412689342",
    "ee": true,
    "tech_change_status": "Not Planned"
   }
  },
  {
   "type": "Feature",
   "geometry": {
    "type": "Point",
    "coordinates": [
     146.700739,
     -38.2934236
    ]
   },
   "properties": {
    "name": "18 MAIN ROAD GORMANDALE 3873",
    "locID": "LOC000086128747",
    "tech": "NULL",
    "upgrade": "NULL_NA",
    "gnaf_pid": "GAVIC414721227",
    "ee": true,
    "tech_change_status": "Not Planned"
   }
  },
  {
   "type": "Feature",
   "geometry": {
    "type": "Point",
    "coordinates": [
     146.70010575,
     -38.29331985
    ]
   },
   "properties": {
    "name": "19 MAIN ROAD GORMANDALE 3873",
    "locID": "LOC000038731930",
    "tech": "NULL",
    "upgrade": "NULL_NA",
    "gnaf_pid": "GAVIC419668671",
    "ee": true,
    "tech_change_status": "Not Planned"
   }
  },
  {
   "type": "Feature",
   "geometry": {
    "type": "Point",
    "coordinates": [
     146.70470431,
     -38.29488145
    ]
   },
   "properties": {
    "name": "21 GORMANDALE-STRADBROKE ROAD GORMANDALE 3873",
    "locID": "LOC000042716474",
    "tech": "NULL",
    "upgrade": "NULL_NA",
    "gnaf_pid": "GAVIC419756721",
    "ee": true,
    "tech_change_status": "Not Planned"
   }
  },
  {
   "type": "Feature",
   "geometry": {
    "type": "Point",
    "coordinates": [
     146.70423866,
     -38.29581535
    ]
   },
   "properties": {
    "name": "15 CALLADALE COURT GORMANDALE 3873",
    "locID": "LOC000079744698",
    "tech": "NULL",
    "upgrade": "NULL_NA",
    "gnaf_pid": "GAVIC419786357",
    "ee": true,
    "tech_change_status": "Not Planned"
   }
  },
  {
   "type": "Feature",
   "geometry": {
    "type": "Point",
    "coordinates": [
     146.70312511,
     -38.294683
    ]
   },
   "properties": {
    "name": "7 GORMANDALE-STRADBROKE ROAD GORMANDALE 3873",
    "locID": "LOC000083386462",
    "tech": "SATELLITE",
    "upgrade": "NULL_NA",
    "gnaf_pid": "GAVIC419786358",
    "ee": true,
    "tech_change_status": "Not Planned"
   }
  },
  {
   "type": "Feature",
   "geometry": {
    "type": "Point",
    "coordinates": [
     146.70450205,
     -38.2958878
    ]
   },
   "properties": {
    "name": "17 CALLADALE COURT GORMANDALE 3873",
    "locID": "LOC000088715917",
    "tech": "NULL",
    "upgrade": "NULL_NA",
    "gnaf_pid": "GAVIC419786359",
    "ee": true,
    "tech_change_status": "Not Planned"
   }
  },
  {
   "type": "Feature",
   "geometry": {
    "type": "Point",
    "coordinates": [
     146.69999878,
     -38.29385844
    ]
   },
   "properties": {
    "name": "25 MAIN ROAD GORMANDALE 3873",
    "locID": "LOC000062209006",
    "tech": "SATELLITE",
    "upgrade": "NULL_NA",
    "gnaf_pid": "GAVIC419974196",
    "ee": true,
    "tech_change_status": "Not Planned"
   }
  },
  {
   "type": "Feature",
   "geometry": {
    "type": "Point",
    "coordinates": [
     146.7051846,
     -38.29494151
    ]
   },
   "properties": {
    "name": "25 GORMANDALE-STRADBROKE ROAD GORMANDALE 3873",
    "locID": "LOC000010057352",
    "tech": "NULL",
    "upgrade": "NULL_NA",
    "gnaf_pid": "GAVIC419974197",
    "ee": true,
    "tech_change_status": "Not Planned"
   }
  },
  {
   "type": "Feature",
   "geometry": {
    "type": "Point",
    "coordinates": [
     146.70291995,
     -38.29465723
    ]
   },
   "properties": {
    "name": "5 GORMANDALE-STRADBROKE ROAD GORMANDALE 3873",
    "locID": "LOC000071130264",
    "tech": "SATELLITE",
    "upgrade": "NULL_NA",
    "gnaf_pid": "GAVIC420067289",
    "ee": true,
    "tech_change_status": "Not Planned"
   }
  },
  {
   "type": "Feature",
   "geometry": {
    "type": "Point",
    "coordinates": [
     146.70021305,
     -38.2927863
    ]
   },
   "properties": {
    "name": "15 MAIN ROAD GORMANDALE 3873",
    "locID": "LOC000090856332",
    "tech": "NULL",
    "upgrade": "NULL_NA",
    "gnaf_pid": "GAVIC420292594",
    "ee": true,
    "tech_change_status": "Not Planned"
   }
  },
  {
   "type": "Feature",
   "geometry": {
    "type": "Point",
    "coordinates": [
     146.70366283,
     -38.29574261
    ]
   },
   "properties": {
    "name": "13 CALLADALE COURT GORMANDALE 3873",
    "locID": "LOC000065913751",
    "tech": "SATELLITE",
    "upgrade": "NULL_NA",
    "gnaf_pid": "GAVIC420377032",
    "ee": true,
    "tech_change_status": "Not Planned"
   }
  },
  {
   "type": "Feature",
   "geometry": {
    "type": "Point",
    "coordinates": [
     146.70395686,
     -38.29478745
    ]
   },
   "properties": {
    "name": "15 GORMANDALE-STRADBROKE ROAD GORMANDALE 3873",
    "locID": "LOC000006195539",
    "tech": "NULL",
    "upgrade": "NULL_NA",
    "gnaf_pid": "GAVIC420377034",
    "ee": true,
    "tech_change_status": "Not Planned"
   }
  },
  {
   "type": "Feature",
   "geometry": {
    "type": "Point",
    "coordinates": [
     146.70415703,
     -38.29481258
    ]
   },
   "properties": {
    "name": "17 GORMANDALE-STRADBROKE ROAD GORMANDALE 3873",
    "locID": "LOC000101513219",
    "tech": "SATELLITE",
    "upgrade": "NULL_NA",
    "gnaf_pid": "GAVIC420377035",
    "ee": true,
    "tech_change_status": "Not Planned"
   }
  },
  {
   "type": "Feature",
   "geometry": {
    "type": "Point",
    "coordinates": [
     146.7002655,
     -38.29251695
    ]
   },
   "properties": {
    "name": "13 MAIN ROAD GORMANDALE 3873",
    "locID": "LOC000066828237",
    "tech": "SATELLITE",
    "upgrade": "NULL_NA",
    "gnaf_pid": "GAVIC420875863",
    "ee": true,
    "tech_change_status": "Not Planned"
   }
  },
  {
   "type": "Feature",
   "geometry": {
    "type": "Point",
    "coordinates": [
     146.70243154,
     -38.29459566
    ]
   },
   "properties": {
    "name": "3 GORMANDALE-STRADBROKE ROAD GORMANDALE 3873",
    "locID": "LOC000006195539",
    "tech": "NULL",
    "upgrade": "NULL_NA",
    "gnaf_pid": "GAVIC420936175",
    "ee": true,
    "tech_change_status": "Not Planned"
   }
  },
  {
   "type": "Feature",
   "geometry": {
    "type": "Point",
    "coordinates": [
     146.70492217,
     -38.29490859
    ]
   },
   "properties": {
    "name": "23 GORMANDALE-STRADBROKE ROAD GORMANDALE 3873",
    "locID": "LOC000125309377",
    "tech": "SATELLITE",
    "upgrade": "NULL_NA",
    "gnaf_pid": "GAVIC420968675",
    "ee": true,
    "tech_change_status": "Not Planned"
   }
  },
  {
   "type": "Feature",
   "geometry": {
    "type": "Point",
    "coordinates": [
     146.70336429,
     -38.29471304
    ]
   },
   "properties": {
    "name": "9 GORMANDALE-STRADBROKE ROAD GORMANDALE 3873",
    "locID": "LOC000142926540",
    "tech": "SATELLITE",
    "upgrade": "NULL_NA",
    "gnaf_pid": "GAVIC420978187",
    "ee": true,
    "tech_change_status": "Not Planned"
   }
  },
  {
   "type": "Feature",
   "geometry": {
    "type": "Point",
    "coordinates": [
     146.70441975,
     -38.29484556
    ]
   },
   "properties": {
    "name": "19 GORMANDALE-STRADBROKE ROAD GORMANDALE 3873",
    "locID": "LOC000066113032",
    "tech": "NULL",
    "upgrade": "NULL_NA",
    "gnaf_pid": "GAVIC421267773",
    "ee": true,
    "tech_change_status": "Not Planned"
   }
  },
  {
   "type": "Feature",
   "geometry": {
    "type": "Point",
    "coordinates": [
     146.706825,
     -38.318532
    ]
   },
   "properties": {
    "name": "235 BANKS ROAD GORMANDALE 3873",
    "locID": "LOC000071692464",
    "tech": "SATELLITE",
    "upgrade": "NULL_NA",
    "gnaf_pid": "GAVIC421348245",
    "ee": true,
    "tech_change_status": "Not Planned"
   }
  },
  {
   "type": "Feature",
   "geometry": {
    "type": "Point",
    "coordinates": [
     146.70480966,
     -38.29594191
    ]
   },
   "properties": {
    "name": "19 CALLADALE COURT GORMANDALE 3873",
    "locID": "LOC000125305111",
    "tech": "NULL",
    "upgrade": "NULL_NA",
    "gnaf_pid": "GAVIC421592103",
    "ee": true,
    "tech_change_status": "Not Planned"
   }
  },
  {
   "type": "Feature",
   "geometry": {
    "type": "Point",
    "coordinates": [
     146.70238218,
     -38.29509344
    ]
   },
   "properties": {
    "name": "7 CALLADALE COURT GORMANDALE 3873",
    "locID": "LOC000125318135",
    "tech": "NULL",
    "upgrade": "NULL_NA",
    "gnaf_pid": "GAVIC421897580",
    "ee": true,
    "tech_change_status": "Not Planned"
   }
  },
  {
   "type": "Feature",
   "geometry": {
    "type": "Point",
    "coordinates": [
     146.7036696,
     -38.29475138
    ]
   },
   "properties": {
    "name": "11 GORMANDALE-STRADBROKE ROAD GORMANDALE 3873",
    "locID": "LOC000087201244",
    "tech": "NULL",
    "upgrade": "NULL_NA",
    "gnaf_pid": "GAVIC421897581",
    "ee": true,
    "tech_change_status": "Not Planned"
   }
  },
  {
   "type": "Feature",
   "geometry": {
    "type": "Point",
    "coordinates": [
     146.70106795,
     -38.29442523
    ]
   },
   "properties": {
    "name": "39 MAIN ROAD GORMANDALE 3873",
    "locID": "LOC000106608041",
    "tech": "NULL",
    "upgrade": "NULL_NA",
    "gnaf_pid": "GAVIC421982385",
    "ee": true,
    "tech_change_status": "Not Planned"
   }
  },
  {
   "type": "Feature",
   "geometry": {
    "type": "Point",
    "coordinates": [
     146.73314084,
     -38.27447675
    ]
   },
   "properties": {
    "name": "1145 WILLUNG SOUTH ROAD GORMANDALE 3873",
    "locID": "LOC000044201298",
    "tech": "SATELLITE",
    "upgrade": "NULL_NA",
    "gnaf_pid": "GAVIC422030312",
    "ee": true,
    "tech_change_status": "Not Planned"
   }
  },
  {
   "type": "Feature",
   "geometry": {
    "type": "Point",
    "coordinates": [
     146.69855425,
     -38.30274618
    ]
   },
   "properties": {
    "name": "36 BANKS ROAD GORMANDALE 3873",
    "locID": "LOC000106515309",
    "tech": "NULL",
    "upgrade": "NULL_NA",
    "gnaf_pid": "GAVIC422032631",
    "ee": true,
    "tech_change_status": "Not Planned"
   }
  },
  {
   "type": "Feature",
   "geometry": {
    "type": "Point",
    "coordinates": [
     146.70242874,
     -38.31459848
    ]
   },
   "properties": {
    "name": "177 BANKS ROAD GORMANDALE 3873",
    "locID": "LOC000048879768",
    "tech": "NULL",
    "upgrade": "NULL_NA",
    "gnaf_pid": "GAVIC422125685",
    "ee": true,
    "tech_change_status": "Not Planned"
   }
  },
  {
   "type": "Feature",
   "geometry": {
    "type": "Point",
    "coordinates": [
     146.70560668,
     -38.31794111
    ]
   },
   "properties": {
    "name": "222 BANKS ROAD GORMANDALE 3873",
    "locID": "LOC000071663115",
    "tech": "NULL",
    "upgrade": "NULL_NA",
    "gnaf_pid": "GAVIC422125686",
    "ee": true,
    "tech_change_status": "Not Planned"
   }
  },
  {
   "type": "Feature",
   "geometry": {
    "type": "Point",
    "coordinates": [
     146.70689161,
     -38.31985498
    ]
   },
   "properties": {
    "name": "248 BANKS ROAD GORMANDALE 3873",
    "locID": "LOC000028543123",
    "tech": "SATELLITE",
    "upgrade": "NULL_NA",
    "gnaf_pid": "GAVIC422125687",
    "ee": true,
    "tech_change_status": "Not Planned"
   }
  },
  {
   "type": "Feature",
   "geometry": {
    "type": "Point",
    "coordinates": [
     146.70842754,
     -38.3219587
    ]
   },
   "properties": {
    "name": "276 BANKS ROAD GORMANDALE 3873",
    "locID": "LOC000071239868",
    "tech": "NULL",
    "upgrade": "NULL_NA",
    "gnaf_pid": "GAVIC422125688",
    "ee": true,
    "tech_change_status": "Not Planned"
   }
  },
  {
   "type": "Feature",
   "geometry": {
    "type": "Point",
    "coordinates": [
     146.69882345,
     -38.30402664
    ]
   },
   "properties": {
    "name": "51 BANKS ROAD GORMANDALE 3873",
    "locID": "LOC000016495936",
    "tech": "NULL",
    "upgrade": "NULL_NA",
    "gnaf_pid": "GAVIC422125689",
    "ee": true,
    "tech_change_status": "Not Planned"
   }
  },
  {
   "type": "Feature",
   "geometry": {
    "type": "Point",
    "coordinates": [
     146.69891151,
     -38.30485603
    ]
   },
   "properties": {
    "name": "61 BANKS ROAD GORMANDALE 3873",
    "locID": "LOC000096638773",
    "tech": "NULL",
    "upgrade": "NULL_NA",
    "gnaf_pid": "GAVIC422125690",
    "ee": true,
    "tech_change_status": "Not Planned"
   }
  },
  {
   "type": "Feature",
   "geometry": {
    "type": "Point",
    "coordinates": [
     146.6999325,
     -38.30688645
    ]
   },
   "properties": {
    "name": "85 BANKS ROAD GORMANDALE 3873",
    "locID": "LOC000075553292",
    "tech": "SATELLITE",
    "upgrade": "NULL_NA",
    "gnaf_pid": "GAVIC422125691",
    "ee": true,
    "tech_change_status": "Not Planned"
   }
  },
  {
   "type": "Feature",
   "geometry": {
    "type": "Point",
    "coordinates": [
     146.70852244,
     -38.29543525
    ]
   },
   "properties": {
    "name": "8 BUTTS HILL ROAD GORMANDALE 3873",
    "locID": "LOC000005136255",
    "tech": "NULL",
    "upgrade": "NULL_NA",
    "gnaf_pid": "GAVIC422132982",
    "ee": true,
    "tech_change_status": "Not Planned"
   }
  },
  {
   "type": "Feature",
   "geometry": {
    "type": "Point",
    "coordinates": [
     146.66327751,
     -38.33837539
    ]
   },
   "properties": {
    "name": "37 CLUGSTONS ROAD GORMANDALE 3873",
    "locID": "LOC000006105215",
    "tech": "NULL",
    "upgrade": "NULL_NA",
    "gnaf_pid": "GAVIC422137232",
    "ee": true,
    "tech_change_status": "Not Planned"
   }
  },
  {
   "type": "Feature",
   "geometry": {
    "type": "Point",
    "coordinates": [
     146.71408193,
     -38.2921143
    ]
   },
   "properties": {
    "name": "113 GORMANDALE-STRADBROKE ROAD GORMANDALE 3873",
    "locID": "LOC000108450910",
    "tech": "NULL",
    "upgrade": "NULL_NA",
    "gnaf_pid": "GAVIC422150753",
    "ee": true,
    "tech_change_status": "Not Planned"
   }
  },
  {
   "type": "Feature",
   "geometry": {
    "type": "Point",
    "coordinates": [
     146.71497359,
     -38.2921886
    ]
   },
   "properties": {
    "name": "124 GORMANDALE-STRADBROKE ROAD GORMANDALE 3873",
    "locID": "LOC000047524435",
    "tech": "NULL",
    "upgrade": "NULL_NA",
    "gnaf_pid": "GAVIC422150754",
    "ee": true,
    "tech_change_status": "Not Planned"
   }
  },
  {
   "type": "Feature",
   "geometry": {
    "type": "Point",
    "coordinates": [
     146.7159932,
     -38.2917134
    ]
   },
   "properties": {
    "name": "126 GORMANDALE-STRADBROKE ROAD GORMANDALE 3873",
    "locID": "LOC000007806561",
    "tech": "NULL",
    "upgrade": "NULL_NA",
    "gnaf_pid": "GAVIC422150755",
    "ee": true,
    "tech_change_status": "Not Planned"
   }
  },
  {
   "type": "Feature",
   "geometry": {
    "type": "Point",
    "coordinates": [
     146.71652216,
     -38.29095764
    ]
   },
   "properties": {
    "name": "138 GORMANDALE-STRADBROKE ROAD GORMANDALE 3873",
    "locID": "LOC000079460151",
    "tech": "NULL",
    "upgrade": "NULL_NA",
    "gnaf_pid": "GAVIC422150756",
    "ee": true,
    "tech_change_status": "Not Planned"
   }
  },
  {
   "type": "Feature",
   "geometry": {
    "type": "Point",
    "coordinates": [
     146.71662585,
     -38.2907596
    ]
   },
   "properties": {
    "name": "140 GORMANDALE-STRADBROKE ROAD GORMANDALE 3873",
    "locID": "LOC000068389946",
    "tech": "NULL",
    "upgrade": "NULL_NA",
    "gnaf_pid": "GAVIC422150757",
    "ee": true,
    "tech_change_status": "Not Planned"
   }
  },
  {
   "type": "Feature",
   "geometry": {
    "type": "Point",
    "coordinates": [
     146.71722364,
     -38.28992969
    ]
   },
   "properties": {
    "name": "150 GORMANDALE-STRADBROKE ROAD GORMANDALE 3873",
    "locID": "LOC000047430158",
    "tech": "NULL",
    "upgrade": "NULL_NA",
    "gnaf_pid": "GAVIC422150758",
    "ee": true,
    "tech_change_status": "Not Planned"
   }
  },
  {
   "type": "Feature",
   "geometry": {
    "type": "Point",
    "coordinates": [
     146.71691939,
     -38.28933188
    ]
   },
   "properties": {
    "name": "155 GORMANDALE-STRADBROKE ROAD GORMANDALE 3873",
    "locID": "LOC000101277673",
    "tech": "NULL",
    "upgrade": "NULL_NA",
    "gnaf_pid": "GAVIC422150759",
    "ee": true,
    "tech_change_status": "Not Planned"
   }
  },
  {
   "type": "Feature",
   "geometry": {
    "type": "Point",
    "coordinates": [
     146.71975905,
     -38.28643201
    ]
   },
   "properties": {
    "name": "196 GORMANDALE-STRADBROKE ROAD GORMANDALE 3873",
    "locID": "LOC000142979476",
    "tech": "SATELLITE",
    "upgrade": "NULL_NA",
    "gnaf_pid": "GAVIC422150760",
    "ee": true,
    "tech_change_status": "Not Planned"
   }
  },
  {
   "type": "Feature",
   "geometry": {
    "type": "Point",
    "coordinates": [
     146.72034085,
     -38.28517175
    ]
   },
   "properties": {
    "name": "211 GORMANDALE-STRADBROKE ROAD GORMANDALE 3873",
    "locID": "LOC000080208313",
    "tech": "NULL",
    "upgrade": "NULL_NA",
    "gnaf_pid": "GAVIC422150761",
    "ee": true,
    "tech_change_status": "Not Planned"
   }
  },
  {
   "type": "Feature",
   "geometry": {
    "type": "Point",
    "coordinates": [
     146.72354671,
     -38.2810336
    ]
   },
   "properties": {
    "name": "267 GORMANDALE-STRADBROKE ROAD GORMANDALE 3873",
    "locID": "LOC000065710374",
    "tech": "NULL",
    "upgrade": "NULL_NA",
    "gnaf_pid": "GAVIC422150762",
    "ee": true,
    "tech_change_status": "Not Planned"
   }
  },
  {
   "type": "Feature",
   "geometry": {
    "type": "Point",
    "coordinates": [
     146.72656396,
     -38.2783189
    ]
   },
   "properties": {
    "name": "305 GORMANDALE-STRADBROKE ROAD GORMANDALE 3873",
    "locID": "LOC000008801521",
    "tech": "NULL",
    "upgrade": "NULL_NA",
    "gnaf_pid": "GAVIC422150763",
    "ee": true,
    "tech_change_status": "Not Planned"
   }
  },
  {
   "type": "Feature",
   "geometry": {
    "type": "Point",
    "coordinates": [
     146.7106575,
     -38.29343075
    ]
   },
   "properties": {
    "name": "79 GORMANDALE-STRADBROKE ROAD GORMANDALE 3873",
    "locID": "LOC000039610905",
    "tech": "NULL",
    "upgrade": "NULL_NA",
    "gnaf_pid": "GAVIC422150764",
    "ee": true,
    "tech_change_status": "Not Planned"
   }
  },
  {
   "type": "Feature",
   "geometry": {
    "type": "Point",
    "coordinates": [
     146.67648004,
     -38.25660629
    ]
   },
   "properties": {
    "name": "1482 HYLAND HIGHWAY GORMANDALE 3873",
    "locID": "LOC000011066479",
    "tech": "WIRELESS",
    "upgrade": "NULL_NA",
    "gnaf_pid": "GAVIC422158039",
    "ee": true,
    "tech_change_status": "Not Planned",
    "program_type": "Fixed Wireless and Satellite Upgrade Program",
    "target_eligibility_quarter": "NA"
   }
  },
  {
   "type": "Feature",
   "geometry": {
    "type": "Point",
    "coordinates": [
     146.70488185,
     -38.2992294
    ]
   },
   "properties": {
    "name": "2067 HYLAND HIGHWAY GORMANDALE 3873",
    "locID": "LOC100078663229",
    "tech": "NULL",
    "upgrade": "NULL_NA",
    "gnaf_pid": "GAVIC422158040",
    "ee": true,
    "tech_change_status": "Not Planned"
   }
  },
  {
   "type": "Feature",
   "geometry": {
    "type": "Point",
    "coordinates": [
     146.70507513,
     -38.29950928
    ]
   },
   "properties": {
    "name": "2071 HYLAND HIGHWAY GORMANDALE 3873",
    "locID": "LOC000005320035",
    "tech": "SATELLITE",
    "upgrade": "NULL_NA",
    "gnaf_pid": "GAVIC422158041",
    "ee": true,
    "tech_change_status": "Not Planned"
   }
  },
  {
   "type": "Feature",
   "geometry": {
    "type": "Point",
    "coordinates": [
     146.74245015,
     -38.3091507
    ]
   },
   "properties": {
    "name": "380 MARTINS ROAD GORMANDALE 3873",
    "locID": "LOC000047453404",
    "tech": "NULL",
    "upgrade": "NULL_NA",
    "gnaf_pid": "GAVIC422168659",
    "ee": true,
    "tech_change_status": "Not Planned"
   }
  },
  {
   "type": "Feature",
   "geometry": {
    "type": "Point",
    "coordinates": [
     146.74209528,
     -38.29955163
    ]
   },
   "properties": {
    "name": "491 MARTINS ROAD GORMANDALE 3873",
    "locID": "LOC000115857951",
    "tech": "NULL",
    "upgrade": "NULL_NA",
    "gnaf_pid": "GAVIC422168660",
    "ee": true,
    "tech_change_status": "Not Planned"
   }
  },
  {
   "type": "Feature",
   "geometry": {
    "type": "Point",
    "coordinates": [
     146.65896399,
     -38.30430887
    ]
   },
   "properties": {
    "name": "489 ONLEYS ROAD GORMANDALE 3873",
    "locID": "LOC000060636510",
    "tech": "SATELLITE",
    "upgrade": "NULL_NA",
    "gnaf_pid": "GAVIC422179269",
    "ee": true,
    "tech_change_status": "Not Planned"
   }
  },
  {
   "type": "Feature",
   "geometry": {
    "type": "Point",
    "coordinates": [
     146.66038969,
     -38.32239875
    ]
   },
   "properties": {
    "name": "715 ONLEYS ROAD GORMANDALE 3873",
    "locID": "LOC000051236927",
    "tech": "SATELLITE",
    "upgrade": "NULL_NA",
    "gnaf_pid": "GAVIC422179271",
    "ee": true,
    "tech_change_status": "Not Planned"
   }
  },
  {
   "type": "Feature",
   "geometry": {
    "type": "Point",
    "coordinates": [
     146.75205386,
     -38.3237174
    ]
   },
   "properties": {
    "name": "432 WILLUNG SOUTH ROAD GORMANDALE 3873",
    "locID": "LOC000026828317",
    "tech": "NULL",
    "upgrade": "NULL_NA",
    "gnaf_pid": "GAVIC422204080",
    "ee": true,
    "tech_change_status": "Not Planned"
   }
  },
  {
   "type": "Feature",
   "geometry": {
    "type": "Point",
    "coordinates": [
     146.76136485,
     -38.3085985
    ]
   },
   "properties": {
    "name": "638 WILLUNG SOUTH ROAD GORMANDALE 3873",
    "locID": "LOC000084631500",
    "tech": "SATELLITE",
    "upgrade": "NULL_NA",
    "gnaf_pid": "GAVIC422204081",
    "ee": true,
    "tech_change_status": "Not Planned"
   }
  },
  {
   "type": "Feature",
   "geometry": {
    "type": "Point",
    "coordinates": [
     146.75819178,
     -38.30484926
    ]
   },
   "properties": {
    "name": "688 WILLUNG SOUTH ROAD GORMANDALE 3873",
    "locID": "LOC000063625206",
    "tech": "SATELLITE",
    "upgrade": "NULL_NA",
    "gnaf_pid": "GAVIC422204082",
    "ee": true,
    "tech_change_status": "Not Planned"
   }
  },
  {
   "type": "Feature",
   "geometry": {
    "type": "Point",
    "coordinates": [
     146.71883773,
     -38.28652904
    ]
   },
   "properties": {
    "name": "191 GORMANDALE-STRADBROKE ROAD GORMANDALE 3873",
    "locID": "LOC000104417374",
    "tech": "NULL",
    "upgrade": "NULL_NA",
    "gnaf_pid": "GAVIC422294515",
    "ee": true,
    "tech_change_status": "Not Planned"
   }
  },
  {
   "type": "Feature",
   "geometry": {
    "type": "Point",
    "coordinates": [
     146.7274797,
     -38.27803265
    ]
   },
   "properties": {
    "name": "321 GORMANDALE-STRADBROKE ROAD GORMANDALE 3873",
    "locID": "LOC000085375059",
    "tech": "NULL",
    "upgrade": "NULL_NA",
    "gnaf_pid": "GAVIC422294516",
    "ee": true,
    "tech_change_status": "Not Planned"
   }
  },
  {
   "type": "Feature",
   "geometry": {
    "type": "Point",
    "coordinates": [
     146.75652413,
     -38.32118531
    ]
   },
   "properties": {
    "name": "26 JOHNSONS LANE GORMANDALE 3873",
    "locID": "LOC000106541509",
    "tech": "SATELLITE",
    "upgrade": "NULL_NA",
    "gnaf_pid": "GAVIC422300799",
    "ee": true,
    "tech_change_status": "Not Planned"
   }
  },
  {
   "type": "Feature",
   "geometry": {
    "type": "Point",
    "coordinates": [
     146.69426569,
     -38.30266295
    ]
   },
   "properties": {
    "name": "112 MERRIMANS CREEK ROAD GORMANDALE 3873",
    "locID": "LOC000109015509",
    "tech": "NULL",
    "upgrade": "NULL_NA",
    "gnaf_pid": "GAVIC422309508",
    "ee": true,
    "tech_change_status": "Not Planned"
   }
  },
  {
   "type": "Feature",
   "geometry": {
    "type": "Point",
    "coordinates": [
     146.6924004,
     -38.30369651
    ]
   },
   "properties": {
    "name": "130 MERRIMANS CREEK ROAD GORMANDALE 3873",
    "locID": "LOC000048772027",
    "tech": "NULL",
    "upgrade": "NULL_NA",
    "gnaf_pid": "GAVIC422309509",
    "ee": true,
    "tech_change_status": "Not Planned"
   }
  },
  {
   "type": "Feature",
   "geometry": {
    "type": "Point",
    "coordinates": [
     146.68866484,
     -38.30721751
    ]
   },
   "properties": {
    "name": "182 MERRIMANS CREEK ROAD GORMANDALE 3873",
    "locID": "LOC000021112635",
    "tech": "NULL",
    "upgrade": "NULL_NA",
    "gnaf_pid": "GAVIC422309510",
    "ee": true,
    "tech_change_status": "Not Planned"
   }
  },
  {
   "type": "Feature",
   "geometry": {
    "type": "Point",
    "coordinates": [
     146.6842342,
     -38.31082868
    ]
   },
   "properties": {
    "name": "234 MERRIMANS CREEK ROAD GORMANDALE 3873",
    "locID": "LOC000023551499",
    "tech": "SATELLITE",
    "upgrade": "NULL_NA",
    "gnaf_pid": "GAVIC422309511",
    "ee": true,
    "tech_change_status": "Not Planned"
   }
  },
  {
   "type": "Feature",
   "geometry": {
    "type": "Point",
    "coordinates": [
     146.68286407,
     -38.31271946
    ]
   },
   "properties": {
    "name": "263 MERRIMANS CREEK ROAD GORMANDALE 3873",
    "locID": "LOC000025088691",
    "tech": "NULL",
    "upgrade": "NULL_NA",
    "gnaf_pid": "GAVIC422309512",
    "ee": true,
    "tech_change_status": "Not Planned"
   }
  },
  {
   "type": "Feature",
   "geometry": {
    "type": "Point",
    "coordinates": [
     146.6735235,
     -38.31946026
    ]
   },
   "properties": {
    "name": "386 MERRIMANS CREEK ROAD GORMANDALE 3873",
    "locID": "LOC000107904666",
    "tech": "SATELLITE",
    "upgrade": "NULL_NA",
    "gnaf_pid": "GAVIC422309513",
    "ee": true,
    "tech_change_status": "Not Planned"
   }
  },
  {
   "type": "Feature",
   "geometry": {
    "type": "Point",
    "coordinates": [
     146.66935384,
     -38.3207267
    ]
   },
   "properties": {
    "name": "432 MERRIMANS CREEK ROAD GORMANDALE 3873",
    "locID": "LOC000082283485",
    "tech": "NULL",
    "upgrade": "NULL_NA",
    "gnaf_pid": "GAVIC422309514",
    "ee": true,
    "tech_change_status": "Not Planned"
   }
  },
  {
   "type": "Feature",
   "geometry": {
    "type": "Point",
    "coordinates": [
     146.66895885,
     -38.322025
    ]
   },
   "properties": {
    "name": "447 MERRIMANS CREEK ROAD GORMANDALE 3873",
    "locID": "LOC000079431035",
    "tech": "NULL",
    "upgrade": "NULL_NA",
    "gnaf_pid": "GAVIC422309515",
    "ee": true,
    "tech_change_status": "Not Planned"
   }
  },
  {
   "type": "Feature",
   "geometry": {
    "type": "Point",
    "coordinates": [
     146.6661182,
     -38.32527945
    ]
   },
   "properties": {
    "name": "492 MERRIMANS CREEK ROAD GORMANDALE 3873",
    "locID": "LOC000012833122",
    "tech": "SATELLITE",
    "upgrade": "NULL_NA",
    "gnaf_pid": "GAVIC422309516",
    "ee": true,
    "tech_change_status": "Not Planned"
   }
  },
  {
   "type": "Feature",
   "geometry": {
    "type": "Point",
    "coordinates": [
     146.66559995,
     -38.326026
    ]
   },
   "properties": {
    "name": "503 MERRIMANS CREEK ROAD GORMANDALE 3873",
    "locID": "LOC000024352885",
    "tech": "SATELLITE",
    "upgrade": "NULL_NA",
    "gnaf_pid": "GAVIC422309517",
    "ee": true,
    "tech_change_status": "Not Planned"
   }
  },
  {
   "type": "Feature",
   "geometry": {
    "type": "Point",
    "coordinates": [
     146.66531551,
     -38.3256827
    ]
   },
   "properties": {
    "name": "504 MERRIMANS CREEK ROAD GORMANDALE 3873",
    "locID": "LOC000041142651",
    "tech": "SATELLITE",
    "upgrade": "NULL_NA",
    "gnaf_pid": "GAVIC422309518",
    "ee": true,
    "tech_change_status": "Not Planned"
   }
  },
  {
   "type": "Feature",
   "geometry": {
    "type": "Point",
    "coordinates": [
     146.6639152,
     -38.32667009
    ]
   },
   "properties": {
    "name": "516 MERRIMANS CREEK ROAD GORMANDALE 3873",
    "locID": "LOC000045108412",
    "tech": "SATELLITE",
    "upgrade": "NULL_NA",
    "gnaf_pid": "GAVIC422309519",
    "ee": true,
    "tech_change_status": "Not Planned"
   }
  },
  {
   "type": "Feature",
   "geometry": {
    "type": "Point",
    "coordinates": [
     146.6993007,
     -38.29925125
    ]
   },
   "properties": {
    "name": "54 MERRIMANS CREEK ROAD GORMANDALE 3873",
    "locID": "LOC000050641541",
    "tech": "NULL",
    "upgrade": "NULL_NA",
    "gnaf_pid": "GAVIC422309520",
    "ee": true,
    "tech_change_status": "Not Planned"
   }
  },
  {
   "type": "Feature",
   "geometry": {
    "type": "Point",
    "coordinates": [
     146.66048925,
     -38.3302201
    ]
   },
   "properties": {
    "name": "570 MERRIMANS CREEK ROAD GORMANDALE 3873",
    "locID": "LOC000067258805",
    "tech": "NULL",
    "upgrade": "NULL_NA",
    "gnaf_pid": "GAVIC422309521",
    "ee": true,
    "tech_change_status": "Not Planned"
   }
  },
  {
   "type": "Feature",
   "geometry": {
    "type": "Point",
    "coordinates": [
     146.65684935,
     -38.3329763
    ]
   },
   "properties": {
    "name": "623 MERRIMANS CREEK ROAD GORMANDALE 3873",
    "locID": "LOC000048684387",
    "tech": "NULL",
    "upgrade": "NULL_NA",
    "gnaf_pid": "GAVIC422309522",
    "ee": true,
    "tech_change_status": "Not Planned"
   }
  },
  {
   "type": "Feature",
   "geometry": {
    "type": "Point",
    "coordinates": [
     146.65579939,
     -38.33487315
    ]
   },
   "properties": {
    "name": "646 MERRIMANS CREEK ROAD GORMANDALE 3873",
    "locID": "LOC000095008497",
    "tech": "SATELLITE",
    "upgrade": "NULL_NA",
    "gnaf_pid": "GAVIC422309523",
    "ee": true,
    "tech_change_status": "Not Planned"
   }
  },
  {
   "type": "Feature",
   "geometry": {
    "type": "Point",
    "coordinates": [
     146.6965948,
     -38.30089355
    ]
   },
   "properties": {
    "name": "84 MERRIMANS CREEK ROAD GORMANDALE 3873",
    "locID": "LOC000052621015",
    "tech": "SATELLITE",
    "upgrade": "NULL_NA",
    "gnaf_pid": "GAVIC422309527",
    "ee": true,
    "tech_change_status": "Not Planned"
   }
  },
  {
   "type": "Feature",
   "geometry": {
    "type": "Point",
    "coordinates": [
     146.65102598,
     -38.36149226
    ]
   },
   "properties": {
    "name": "983 MERRIMANS CREEK ROAD GORMANDALE 3873",
    "locID": "LOC000010994894",
    "tech": "SATELLITE",
    "upgrade": "NULL_NA",
    "gnaf_pid": "GAVIC422309528",
    "ee": true,
    "tech_change_status": "Not Planned"
   }
  },
  {
   "type": "Feature",
   "geometry": {
    "type": "Point",
    "coordinates": [
     146.66501076,
     -38.33472131
    ]
   },
   "properties": {
    "name": "67 MORRISONS CREEK ROAD GORMANDALE 3873",
    "locID": "LOC000026812415",
    "tech": "NULL",
    "upgrade": "NULL_NA",
    "gnaf_pid": "GAVIC422311021",
    "ee": true,
    "tech_change_status": "Not Planned"
   }
  },
  {
   "type": "Feature",
   "geometry": {
    "type": "Point",
    "coordinates": [
     146.6651016,
     -38.33487478
    ]
   },
   "properties": {
    "name": "69 MORRISONS CREEK ROAD GORMANDALE 3873",
    "locID": "LOC000021095517",
    "tech": "NULL",
    "upgrade": "NULL_NA",
    "gnaf_pid": "GAVIC422311022",
    "ee": true,
    "tech_change_status": "Not Planned"
   }
  },
  {
   "type": "Feature",
   "geometry": {
    "type": "Point",
    "coordinates": [
     146.6733963,
     -38.25099191
    ]
   },
   "properties": {
    "name": "1706 ROSEDALE-FLYNNS CREEK ROAD GORMANDALE 3873",
    "locID": "LOC000004410525",
    "tech": "SATELLITE",
    "upgrade": "NULL_NA",
    "gnaf_pid": "GAVIC422320645",
    "ee": true,
    "tech_change_status": "Not Planned"
   }
  },
  {
   "type": "Feature",
   "geometry": {
    "type": "Point",
    "coordinates": [
     146.70298186,
     -38.29534808
    ]
   },
   "properties": {
    "name": "4 CALLADALE COURT GORMANDALE 3873",
    "locID": "LOC000083426102",
    "tech": "SATELLITE",
    "upgrade": "NULL_NA",
    "gnaf_pid": "GAVIC422384163",
    "ee": true,
    "tech_change_status": "Not Planned"
   }
  },
  {
   "type": "Feature",
   "geometry": {
    "type": "Point",
    "coordinates": [
     146.69823695,
     -38.29321978
    ]
   },
   "properties": {
    "name": "19 MORLEYS LANE GORMANDALE 3873",
    "locID": "LOC000041351581",
    "tech": "NULL",
    "upgrade": "NULL_NA",
    "gnaf_pid": "GAVIC423106052",
    "ee": true,
    "tech_change_status": "Not Planned"
   }
  },
  {
   "type": "Feature",
   "geometry": {
    "type": "Point",
    "coordinates": [
     146.70139248,
     -38.29634183
    ]
   },
   "properties": {
    "name": "12 MERRIMANS CREEK ROAD GORMANDALE 3873",
    "locID": "LOC000013649247",
    "tech": "NULL",
    "upgrade": "NULL_NA",
    "gnaf_pid": "GAVIC423149330",
    "ee": true,
    "tech_change_status": "Not Planned"
   }
  },
  {
   "type": "Feature",
   "geometry": {
    "type": "Point",
    "coordinates": [
     146.69998419,
     -38.29880024
    ]
   },
   "properties": {
    "name": "46 MERRIMANS CREEK ROAD GORMANDALE 3873",
    "locID": "LOC000035035381",
    "tech": "SATELLITE",
    "upgrade": "NULL_NA",
    "gnaf_pid": "GAVIC423149332",
    "ee": true,
    "tech_change_status": "Not Planned"
   }
  },
  {
   "type": "Feature",
   "geometry": {
    "type": "Point",
    "coordinates": [
     146.70225028,
     -38.29457223
    ]
   },
   "properties": {
    "name": "1 GORMANDALE-STRADBROKE ROAD GORMANDALE 3873",
    "locID": "LOC000006195539",
    "tech": "NULL",
    "upgrade": "NULL_NA",
    "gnaf_pid": "GAVIC423375345",
    "ee": true,
    "tech_change_status": "Not Planned"
   }
  },
  {
   "type": "Feature",
   "geometry": {
    "type": "Point",
    "coordinates": [
     146.7003795,
     -38.29193159
    ]
   },
   "properties": {
    "name": "9 MAIN ROAD GORMANDALE 3873",
    "locID": "LOC000079149521",
    "tech": "NULL",
    "upgrade": "NULL_NA",
    "gnaf_pid": "GAVIC423375904",
    "ee": true,
    "tech_change_status": "Not Planned"
   }
  },
  {
   "type": "Feature",
   "geometry": {
    "type": "Point",
    "coordinates": [
     146.7006165,
     -38.29280919
    ]
   },
   "properties": {
    "name": "LOT 8 MAIN ROAD GORMANDALE 3873",
    "locID": "LOC000066828237",
    "tech": "SATELLITE",
    "upgrade": "NULL_NA",
    "gnaf_pid": "GAVIC423401989",
    "ee": true,
    "tech_change_status": "Not Planned"
   }
  },
  {
   "type": "Feature",
   "geometry": {
    "type": "Point",
    "coordinates": [
     146.700053,
     -38.2935855
    ]
   },
   "properties": {
    "name": "23 MAIN ROAD GORMANDALE 3873",
    "locID": "LOC000041003114",
    "tech": "NULL",
    "upgrade": "NULL_NA",
    "gnaf_pid": "GAVIC423641294",
    "ee": true,
    "tech_change_status": "Not Planned"
   }
  },
  {
   "type": "Feature",
   "geometry": {
    "type": "Point",
    "coordinates": [
     146.69372775,
     -38.32720068
    ]
   },
   "properties": {
    "name": "88 PALLOTS ROAD GORMANDALE 3873",
    "locID": "LOC000081130932",
    "tech": "SATELLITE",
    "upgrade": "NULL_NA",
    "gnaf_pid": "GAVIC423643811",
    "ee": true,
    "tech_change_status": "Not Planned"
   }
  },
  {
   "type": "Feature",
   "geometry": {
    "type": "Point",
    "coordinates": [
     146.70494635,
     -38.295765
    ]
   },
   "properties": {
    "name": "21 CALLADALE COURT GORMANDALE 3873",
    "locID": "LOC000175464736",
    "tech": "SATELLITE",
    "upgrade": "NULL_NA",
    "gnaf_pid": "GAVIC423702069",
    "ee": true,
    "tech_change_status": "Not Planned"
   }
  },
  {
   "type": "Feature",
   "geometry": {
    "type": "Point",
    "coordinates": [
     146.70275375,
     -38.29519308
    ]
   },
   "properties": {
    "name": "2 CALLADALE COURT GORMANDALE 3873",
    "locID": "LOC000175464736",
    "tech": "SATELLITE",
    "upgrade": "NULL_NA",
    "gnaf_pid": "GAVIC423702070",
    "ee": true,
    "tech_change_status": "Not Planned"
   }
  },
  {
   "type": "Feature",
   "geometry": {
    "type": "Point",
    "coordinates": [
     146.70273016,
     -38.2956247
    ]
   },
   "properties": {
    "name": "9-11 CALLADALE COURT GORMANDALE 3873",
    "locID": "LOC000125252457",
    "tech": "SATELLITE",
    "upgrade": "NULL_NA",
    "gnaf_pid": "GAVIC423702072",
    "ee": true,
    "tech_change_status": "Not Planned"
   }
  },
  {
   "type": "Feature",
   "geometry": {
    "type": "Point",
    "coordinates": [
     146.72068453,
     -38.28556769
    ]
   },
   "properties": {
    "name": "208 GORMANDALE-STRADBROKE ROAD GORMANDALE 3873",
    "locID": "LOC000143003732",
    "tech": "SATELLITE",
    "upgrade": "NULL_NA",
    "gnaf_pid": "GAVIC423705634",
    "ee": true,
    "tech_change_status": "Not Planned"
   }
  },
  {
   "type": "Feature",
   "geometry": {
    "type": "Point",
    "coordinates": [
     146.70664959,
     -38.29512556
    ]
   },
   "properties": {
    "name": "29 GORMANDALE-STRADBROKE ROAD GORMANDALE 3873",
    "locID": "LOC000125309440",
    "tech": "SATELLITE",
    "upgrade": "NULL_NA",
    "gnaf_pid": "GAVIC423705635",
    "ee": true,
    "tech_change_status": "Not Planned"
   }
  },
  {
   "type": "Feature",
   "geometry": {
    "type": "Point",
    "coordinates": [
     146.75397416,
     -38.31738385
    ]
   },
   "properties": {
    "name": "503 WILLUNG SOUTH ROAD GORMANDALE 3873",
    "locID": "LOC000042355502",
    "tech": "WIRELESS",
    "upgrade": "NULL_NA",
    "gnaf_pid": "GAVIC423715220",
    "ee": true,
    "tech_change_status": "Not Planned",
    "program_type": "Fixed Wireless and Satellite Upgrade Program",
    "target_eligibility_quarter": "NA"
   }
  },
  {
   "type": "Feature",
   "geometry": {
    "type": "Point",
    "coordinates": [
     146.75267239,
     -38.30292971
    ]
   },
   "properties": {
    "name": "744 WILLUNG SOUTH ROAD GORMANDALE 3873",
    "locID": "LOC000009431658",
    "tech": "SATELLITE",
    "upgrade": "NULL_NA",
    "gnaf_pid": "GAVIC423715221",
    "ee": true,
    "tech_change_status": "Not Planned"
   }
  },
  {
   "type": "Feature",
   "geometry": {
    "type": "Point",
    "coordinates": [
     146.73469494,
     -38.2839328
    ]
   },
   "properties": {
    "name": "1033 WILLUNG SOUTH ROAD GORMANDALE 3873",
    "locID": "LOC000070668125",
    "tech": "SATELLITE",
    "upgrade": "NULL_NA",
    "gnaf_pid": "GAVIC423801997",
    "ee": true,
    "tech_change_status": "Not Planned"
   }
  },
  {
   "type": "Feature",
   "geometry": {
    "type": "Point",
    "coordinates": [
     146.70000183,
     -38.28074839
    ]
   },
   "properties": {
    "name": "63 CASSINIA LANE GORMANDALE 3873",
    "locID": "LOC000062681092",
    "tech": "NULL",
    "upgrade": "NULL_NA",
    "gnaf_pid": "GAVIC424022636",
    "ee": true,
    "tech_change_status": "Not Planned"
   }
  },
  {
   "type": "Feature",
   "geometry": {
    "type": "Point",
    "coordinates": [
     146.70127423,
     -38.29148662
    ]
   },
   "properties": {
    "name": "1961 HYLAND HIGHWAY GORMANDALE 3873",
    "locID": "LOC000004285028",
    "tech": "NULL",
    "upgrade": "NULL_NA",
    "gnaf_pid": "GAVIC424028401",
    "ee": true,
    "tech_change_status": "Not Planned"
   }
  },
  {
   "type": "Feature",
   "geometry": {
    "type": "Point",
    "coordinates": [
     146.700791,
     -38.29387594
    ]
   },
   "properties": {
    "name": "20 MAIN ROAD GORMANDALE 3873",
    "locID": "LOC000018533256",
    "tech": "NULL",
    "upgrade": "NULL_NA",
    "gnaf_pid": "GAVIC424040623",
    "ee": true,
    "tech_change_status": "Not Planned"
   }
  },
  {
   "type": "Feature",
   "geometry": {
    "type": "Point",
    "coordinates": [
     146.6986574,
     -38.28606283
    ]
   },
   "properties": {
    "name": "1899 HYLAND HIGHWAY GORMANDALE 3873",
    "locID": "LOC100078663199",
    "tech": "NULL",
    "upgrade": "NULL_NA",
    "gnaf_pid": "GAVIC424064086",
    "ee": true,
    "tech_change_status": "Not Planned"
   }
  },
  {
   "type": "Feature",
   "geometry": {
    "type": "Point",
    "coordinates": [
     146.69953744,
     -38.28616423
    ]
   },
   "properties": {
    "name": "1907 HYLAND HIGHWAY GORMANDALE 3873",
    "locID": "LOC000092069815",
    "tech": "SATELLITE",
    "upgrade": "NULL_NA",
    "gnaf_pid": "GAVIC424064089",
    "ee": true,
    "tech_change_status": "Not Planned"
   }
  },
  {
   "type": "Feature",
   "geometry": {
    "type": "Point",
    "coordinates": [
     146.70113184,
     -38.29391908
    ]
   },
   "properties": {
    "name": "26 MAIN ROAD GORMANDALE 3873",
    "locID": "LOC000109913157",
    "tech": "NULL",
    "upgrade": "NULL_NA",
    "gnaf_pid": "GAVIC424092041",
    "ee": true,
    "tech_change_status": "Not Planned"
   }
  },
  {
   "type": "Feature",
   "geometry": {
    "type": "Point",
    "coordinates": [
     146.70158643,
     -38.2939766
    ]
   },
   "properties": {
    "name": "30 MAIN ROAD GORMANDALE 3873",
    "locID": "LOC000013434833",
    "tech": "NULL",
    "upgrade": "NULL_NA",
    "gnaf_pid": "GAVIC424092042",
    "ee": true,
    "tech_change_status": "Not Planned"
   }
  },
  {
   "type": "Feature",
   "geometry": {
    "type": "Point",
    "coordinates": [
     146.7013596,
     -38.2939479
    ]
   },
   "properties": {
    "name": "28 MAIN ROAD GORMANDALE 3873",
    "locID": "LOC000125309438",
    "tech": "NULL",
    "upgrade": "NULL_NA",
    "gnaf_pid": "GAVIC424242006",
    "ee": true,
    "tech_change_status": "Not Planned"
   }
  },
  {
   "type": "Feature",
   "geometry": {
    "type": "Point",
    "coordinates": [
     146.70230551,
     -38.29406761
    ]
   },
   "properties": {
    "name": "36 MAIN ROAD GORMANDALE 3873",
    "locID": "LOC000032919878",
    "tech": "NULL",
    "upgrade": "NULL_NA",
    "gnaf_pid": "GAVIC424242009",
    "ee": true,
    "tech_change_status": "Not Planned"
   }
  },
  {
   "type": "Feature",
   "geometry": {
    "type": "Point",
    "coordinates": [
     146.68692851,
     -38.35722988
    ]
   },
   "properties": {
    "name": "252 SISTERS ROAD GORMANDALE 3873",
    "locID": "LOC000098147446",
    "tech": "NULL",
    "upgrade": "NULL_NA",
    "gnaf_pid": "GAVIC424269966",
    "ee": true,
    "tech_change_status": "Not Planned"
   }
  },
  {
   "type": "Feature",
   "geometry": {
    "type": "Point",
    "coordinates": [
     146.68802988,
     -38.35395423
    ]
   },
   "properties": {
    "name": "300 SISTERS ROAD GORMANDALE 3873",
    "locID": "LOC000009857958",
    "tech": "SATELLITE",
    "upgrade": "NULL_NA",
    "gnaf_pid": "GAVIC424269967",
    "ee": true,
    "tech_change_status": "Not Planned"
   }
  },
  {
   "type": "Feature",
   "geometry": {
    "type": "Point",
    "coordinates": [
     146.68484748,
     -38.34618605
    ]
   },
   "properties": {
    "name": "411 SISTERS ROAD GORMANDALE 3873",
    "locID": "LOC000098214825",
    "tech": "SATELLITE",
    "upgrade": "NULL_NA",
    "gnaf_pid": "GAVIC424269968",
    "ee": true,
    "tech_change_status": "Not Planned"
   }
  },
  {
   "type": "Feature",
   "geometry": {
    "type": "Point",
    "coordinates": [
     146.68133875,
     -38.34253555
    ]
   },
   "properties": {
    "name": "473 SISTERS ROAD GORMANDALE 3873",
    "locID": "LOC000046349614",
    "tech": "NULL",
    "upgrade": "NULL_NA",
    "gnaf_pid": "GAVIC424269970",
    "ee": true,
    "tech_change_status": "Not Planned"
   }
  },
  {
   "type": "Feature",
   "geometry": {
    "type": "Point",
    "coordinates": [
     146.6810279,
     -38.3403537
    ]
   },
   "properties": {
    "name": "503 SISTERS ROAD GORMANDALE 3873",
    "locID": "LOC000069282283",
    "tech": "NULL",
    "upgrade": "NULL_NA",
    "gnaf_pid": "GAVIC424269971",
    "ee": true,
    "tech_change_status": "Not Planned"
   }
  },
  {
   "type": "Feature",
   "geometry": {
    "type": "Point",
    "coordinates": [
     146.67341299,
     -38.32624631
    ]
   },
   "properties": {
    "name": "789 SISTERS ROAD GORMANDALE 3873",
    "locID": "LOC000084683648",
    "tech": "SATELLITE",
    "upgrade": "NULL_NA",
    "gnaf_pid": "GAVIC424269972",
    "ee": true,
    "tech_change_status": "Not Planned"
   }
  },
  {
   "type": "Feature",
   "geometry": {
    "type": "Point",
    "coordinates": [
     146.68006071,
     -38.31830503
    ]
   },
   "properties": {
    "name": "898 SISTERS ROAD GORMANDALE 3873",
    "locID": "LOC000072944884",
    "tech": "NULL",
    "upgrade": "NULL_NA",
    "gnaf_pid": "GAVIC424269973",
    "ee": true,
    "tech_change_status": "Not Planned"
   }
  },
  {
   "type": "Feature",
   "geometry": {
    "type": "Point",
    "coordinates": [
     146.68063316,
     -38.31557748
    ]
   },
   "properties": {
    "name": "925 SISTERS ROAD GORMANDALE 3873",
    "locID": "LOC000088930569",
    "tech": "NULL",
    "upgrade": "NULL_NA",
    "gnaf_pid": "GAVIC424269974",
    "ee": true,
    "tech_change_status": "Not Planned"
   }
  },
  {
   "type": "Feature",
   "geometry": {
    "type": "Point",
    "coordinates": [
     146.70474495,
     -38.29907421
    ]
   },
   "properties": {
    "name": "2065 HYLAND HIGHWAY GORMANDALE 3873",
    "locID": "LOC000125309280",
    "tech": "NULL",
    "upgrade": "NULL_NA",
    "gnaf_pid": "GAVIC424358587",
    "ee": true,
    "tech_change_status": "Not Planned"
   }
  },
  {
   "type": "Feature",
   "geometry": {
    "type": "Point",
    "coordinates": [
     146.7034708,
     -38.29421245
    ]
   },
   "properties": {
    "name": "2 GORMANDALE-STRADBROKE ROAD GORMANDALE 3873",
    "locID": "LOC000125309377",
    "tech": "SATELLITE",
    "upgrade": "NULL_NA",
    "gnaf_pid": "GAVIC424492925",
    "ee": true,
    "tech_change_status": "Not Planned"
   }
  },
  {
   "type": "Feature",
   "geometry": {
    "type": "Point",
    "coordinates": [
     146.70181442,
     -38.29400552
    ]
   },
   "properties": {
    "name": "32 MAIN ROAD GORMANDALE 3873",
    "locID": "LOC000125313756",
    "tech": "NULL",
    "upgrade": "NULL_NA",
    "gnaf_pid": "GAVIC424498052",
    "ee": true,
    "tech_change_status": "Not Planned"
   }
  },
  {
   "type": "Feature",
   "geometry": {
    "type": "Point",
    "coordinates": [
     146.663453,
     -38.34005945
    ]
   },
   "properties": {
    "name": "57 CLUGSTONS ROAD GORMANDALE 3873",
    "locID": "LOC000125296689",
    "tech": "SATELLITE",
    "upgrade": "NULL_NA",
    "gnaf_pid": "GAVIC424746377",
    "ee": true,
    "tech_change_status": "Not Planned"
   }
  },
  {
   "type": "Feature",
   "geometry": {
    "type": "Point",
    "coordinates": [
     146.68583255,
     -38.34953528
    ]
   },
   "properties": {
    "name": "370 SISTERS ROAD GORMANDALE 3873",
    "locID": "LOC100078156218",
    "tech": "NULL",
    "upgrade": "NULL_NA",
    "gnaf_pid": "GAVIC425569852",
    "ee": true,
    "tech_change_status": "Not Planned"
   }
  },
  {
   "type": "Feature",
   "geometry": {
    "type": "Point",
    "coordinates": [
     146.70554647,
     -38.29498676
    ]
   },
   "properties": {
    "name": "27 GORMANDALE-STRADBROKE ROAD GORMANDALE 3873",
    "locID": "LOC100072046877",
    "tech": "NULL",
    "upgrade": "NULL_NA",
    "gnaf_pid": "GAVIC425675551",
    "ee": true,
    "tech_change_status": "Not Planned"
   }
  },
  {
   "type": "Feature",
   "geometry": {
    "type": "Point",
    "coordinates": [
     146.70094951,
     -38.29234008
    ]
   },
   "properties": {
    "name": "2-12 MAIN ROAD GORMANDALE 3873",
    "locID": "LOC000062209006",
    "tech": "SATELLITE",
    "upgrade": "NULL_NA",
    "gnaf_pid": "GAVIC425825179",
    "ee": true,
    "tech_change_status": "Not Planned"
   }
  },
  {
   "type": "Feature",
   "geometry": {
    "type": "Point",
    "coordinates": [
     146.70343745,
     -38.29420827
    ]
   },
   "properties": {
    "name": "38 MAIN ROAD GORMANDALE 3873",
    "locID": "LOC100070623800",
    "tech": "SATELLITE",
    "upgrade": "NULL_NA",
    "gnaf_pid": "GAVIC425825180",
    "ee": true,
    "tech_change_status": "Not Planned"
   }
  },
  {
   "type": "Feature",
   "geometry": {
    "type": "Point",
    "coordinates": [
     146.70404056,
     -38.29548094
    ]
   },
   "properties": {
    "name": "14-16 CALLADALE COURT GORMANDALE 3873",
    "locID": "LOC100080556481",
    "tech": "NULL",
    "upgrade": "NULL_NA",
    "gnaf_pid": "GAVIC719052717",
    "ee": true,
    "tech_change_status": "Not Planned"
   }
  },
  {
   "type": "Feature",
   "geometry": {
    "type": "Point",
    "coordinates": [
     146.7009021,
     -38.29389001
    ]
   },
   "properties": {
    "name": "22 MAIN ROAD GORMANDALE 3873",
    "locID": "LOC000142997542",
    "tech": "SATELLITE",
    "upgrade": "NULL_NA",
    "gnaf_pid": "GAVIC719116395",
    "ee": true,
    "tech_change_status": "Not Planned"
   }
  },
  {
   "type": "Feature",
   "geometry": {
    "type": "Point",
    "coordinates": [
     146.72201543,
     -38.28362755
    ]
   },
   "properties": {
    "name": "233 GORMANDALE-STRADBROKE ROAD GORMANDALE 3873",
    "locID": "LOC100072046849",
    "tech": "NULL",
    "upgrade": "NULL_NA",
    "gnaf_pid": "GAVIC719416168",
    "ee": true,
    "tech_change_status": "Not Planned"
   }
  },
  {
   "type": "Feature",
   "geometry": {
    "type": "Point",
    "coordinates": [
     146.67977177,
     -38.31899671
    ]
   },
   "properties": {
    "name": "896 SISTERS ROAD GORMANDALE 3873",
    "locID": "LOC000186629107",
    "tech": "SATELLITE",
    "upgrade": "NULL_NA",
    "gnaf_pid": "GAVIC720215219",
    "ee": true,
    "tech_change_status": "Not Planned"
   }
  },
  {
   "type": "Feature",
   "geometry": {
    "type": "Point",
    "coordinates": [
     146.71538533,
     -38.29207083
    ]
   },
   "properties": {
    "name": "124A GORMANDALE-STRADBROKE ROAD GORMANDALE 3873",
    "locID": "LOC000047524435",
    "tech": "NULL",
    "upgrade": "NULL_NA",
    "gnaf_pid": "GAVIC720353868",
    "ee": true,
    "tech_change_status": "Not Planned"
   }
  },
  {
   "type": "Feature",
   "geometry": {
    "type": "Point",
    "coordinates": [
     146.68316534,
     -38.3127704
    ]
   },
   "properties": {
    "name": "261 MERRIMANS CREEK ROAD GORMANDALE 3873",
    "locID": "LOC100080658830",
    "tech": "NULL",
    "upgrade": "NULL_NA",
    "gnaf_pid": "GAVIC721102734",
    "ee": true,
    "tech_change_status": "Not Planned"
   }
  }
 ]
}