{
 "type": "FeatureCollection",
 "generated": "2025-06-17T13:23:03.517161",
 "suburb": "GRANITE FLAT",
 "features": [
  {
   "type": "Feature",
   "geometry": {
    "type": "Point",
    "coordinates": [
     143.147324,
     -36.20372306
    ]
   },
   "properties": {
    "name": "446 GRANITE FLAT ROAD GRANITE FLAT 3525",
    "locID": "LOC000124777621",
    "tech": "WIRELESS",
    "upgrade": "NULL_NA",
    "gnaf_pid": "GAVIC424063095",
    "ee": true,
    "tech_change_status": "Not Planned",
    "program_type": "Fixed Wireless and Satellite Upgrade Program",
    "target_eligibility_quarter": "NA"
   }
  }
 ]
}