{
 "type": "FeatureCollection",
 "generated": "2025-06-17T13:40:25.787562",
 "suburb": "GUNYAH",
 "features": [
  {
   "type": "Feature",
   "geometry": {
    "type": "Point",
    "coordinates": [
     146.25893259,
     -38.52339875
    ]
   },
   "properties": {
    "name": "315 CENTRAL ROAD GUNYAH 3960",
    "locID": "LOC000095216304",
    "tech": "WIRELESS",
    "upgrade": "NULL_NA",
    "gnaf_pid": "GAVIC422385564",
    "ee": true,
    "tech_change_status": "Not Planned",
    "program_type": "Fixed Wireless and Satellite Upgrade Program",
    "target_eligibility_quarter": "NA"
   }
  }
 ]
}