{
 "type": "FeatureCollection",
 "generated": "2025-06-17T18:57:14.406013",
 "suburb": "LAKE TYRRELL",
 "features": [
  {
   "type": "Feature",
   "geometry": {
    "type": "Point",
    "coordinates": [
     142.781232,
     -35.32166341
    ]
   },
   "properties": {
    "name": "100 CHEETHAM SALT ROAD LAKE TYRRELL 3533",
    "locID": "LOC100072012673",
    "tech": "NULL",
    "upgrade": "NULL_NA",
    "gnaf_pid": "GAVIC425775382",
    "ee": true,
    "tech_change_status": "Not Planned"
   }
  }
 ]
}