{
 "type": "FeatureCollection",
 "generated": "2025-06-17T19:39:41.839685",
 "suburb": "LERDERDERG",
 "features": [
  {
   "type": "Feature",
   "geometry": {
    "type": "Point",
    "coordinates": [
     144.280281,
     -37.437498
    ]
   },
   "properties": {
    "name": "1560 GREENDALE-TRENTHAM ROAD LERDERDERG 3458",
    "locID": "LOC000062301918",
    "tech": "NULL",
    "upgrade": "NULL_NA",
    "gnaf_pid": "GAVIC421160375",
    "ee": true,
    "tech_change_status": "Not Planned"
   }
  }
 ]
}