{
 "type": "FeatureCollection",
 "generated": "2025-06-18T03:31:21.369427",
 "suburb": "MOUNT TOOLEBEWONG",
 "features": [
  {
   "type": "Feature",
   "geometry": {
    "type": "Point",
    "coordinates": [
     145.56699288,
     -37.7267352
    ]
   },
   "properties": {
    "name": "19 MOORA ROAD MOUNT TOOLEBEWONG 3777",
    "locID": "LOC000031933749",
    "tech": "WIRELESS",
    "upgrade": "NULL_NA",
    "gnaf_pid": "GAVIC411950424",
    "ee": true,
    "tech_change_status": "Not Planned",
    "program_type": "Fixed Wireless and Satellite Upgrade Program",
    "target_eligibility_quarter": "NA"
   }
  },
  {
   "type": "Feature",
   "geometry": {
    "type": "Point",
    "coordinates": [
     145.56699288,
     -37.7267352
    ]
   },
   "properties": {
    "name": "7 MOORA ROAD MOUNT TOOLEBEWONG 3777",
    "locID": "LOC000080297401",
    "tech": "WIRELESS",
    "upgrade": "NULL_NA",
    "gnaf_pid": "GAVIC411950425",
    "ee": true,
    "tech_change_status": "Not Planned",
    "program_type": "Fixed Wireless and Satellite Upgrade Program",
    "target_eligibility_quarter": "NA"
   }
  },
  {
   "type": "Feature",
   "geometry": {
    "type": "Point",
    "coordinates": [
     145.56705163,
     -37.72672997
    ]
   },
   "properties": {
    "name": "109 MOORA ROAD MOUNT TOOLEBEWONG 3777",
    "locID": "LOC000142441216",
    "tech": "WIRELESS",
    "upgrade": "NULL_NA",
    "gnaf_pid": "GAVIC411950426",
    "ee": true,
    "tech_change_status": "Not Planned",
    "program_type": "Fixed Wireless and Satellite Upgrade Program",
    "target_eligibility_quarter": "NA"
   }
  },
  {
   "type": "Feature",
   "geometry": {
    "type": "Point",
    "coordinates": [
     145.5650736,
     -37.72523553
    ]
   },
   "properties": {
    "name": "19 WESTRIDGE ROAD MOUNT TOOLEBEWONG 3777",
    "locID": "LOC000082264890",
    "tech": "WIRELESS",
    "upgrade": "NULL_NA",
    "gnaf_pid": "GAVIC419553289",
    "ee": true,
    "tech_change_status": "Not Planned",
    "program_type": "Fixed Wireless and Satellite Upgrade Program",
    "target_eligibility_quarter": "NA"
   }
  },
  {
   "type": "Feature",
   "geometry": {
    "type": "Point",
    "coordinates": [
     145.56390697,
     -37.72255212
    ]
   },
   "properties": {
    "name": "41 WESTRIDGE ROAD MOUNT TOOLEBEWONG 3777",
    "locID": "LOC000104924628",
    "tech": "WIRELESS",
    "upgrade": "NULL_NA",
    "gnaf_pid": "GAVIC419553290",
    "ee": true,
    "tech_change_status": "Not Planned",
    "program_type": "Fixed Wireless and Satellite Upgrade Program",
    "target_eligibility_quarter": "NA"
   }
  },
  {
   "type": "Feature",
   "geometry": {
    "type": "Point",
    "coordinates": [
     145.5674428,
     -37.7194688
    ]
   },
   "properties": {
    "name": "88 MOORA ROAD MOUNT TOOLEBEWONG 3777",
    "locID": "LOC000018123840",
    "tech": "WIRELESS",
    "upgrade": "NULL_NA",
    "gnaf_pid": "GAVIC419555722",
    "ee": true,
    "tech_change_status": "Not Planned",
    "program_type": "Fixed Wireless and Satellite Upgrade Program",
    "target_eligibility_quarter": "NA"
   }
  },
  {
   "type": "Feature",
   "geometry": {
    "type": "Point",
    "coordinates": [
     145.55808098,
     -37.71504206
    ]
   },
   "properties": {
    "name": "2 CHAPMAN ROAD MOUNT TOOLEBEWONG 3777",
    "locID": "LOC000092297479",
    "tech": "SATELLITE",
    "upgrade": "NULL_NA",
    "gnaf_pid": "GAVIC419557003",
    "ee": true,
    "tech_change_status": "Not Planned"
   }
  },
  {
   "type": "Feature",
   "geometry": {
    "type": "Point",
    "coordinates": [
     145.55996116,
     -37.70471552
    ]
   },
   "properties": {
    "name": "138 NYORA ROAD MOUNT TOOLEBEWONG 3777",
    "locID": "LOC000018732732",
    "tech": "SATELLITE",
    "upgrade": "NULL_NA",
    "gnaf_pid": "GAVIC419836243",
    "ee": true,
    "tech_change_status": "Not Planned"
   }
  },
  {
   "type": "Feature",
   "geometry": {
    "type": "Point",
    "coordinates": [
     145.56162442,
     -37.7061924
    ]
   },
   "properties": {
    "name": "140 NYORA ROAD MOUNT TOOLEBEWONG 3777",
    "locID": "LOC000125129082",
    "tech": "NULL",
    "upgrade": "NULL_NA",
    "gnaf_pid": "GAVIC419836244",
    "ee": true,
    "tech_change_status": "Not Planned"
   }
  },
  {
   "type": "Feature",
   "geometry": {
    "type": "Point",
    "coordinates": [
     145.55774673,
     -37.7218191
    ]
   },
   "properties": {
    "name": "59 CHAPMAN ROAD MOUNT TOOLEBEWONG 3777",
    "locID": "LOC000029196984",
    "tech": "SATELLITE",
    "upgrade": "WIRELESS",
    "gnaf_pid": "GAVIC419859931",
    "ee": true,
    "tech_change_status": "Eligible to Order",
    "program_type": "Fixed Wireless and Satellite Upgrade Program",
    "target_eligibility_quarter": "NA"
   }
  },
  {
   "type": "Feature",
   "geometry": {
    "type": "Point",
    "coordinates": [
     145.56292459,
     -37.71497782
    ]
   },
   "properties": {
    "name": "304 NYORA ROAD MOUNT TOOLEBEWONG 3777",
    "locID": "LOC000030941318",
    "tech": "WIRELESS",
    "upgrade": "NULL_NA",
    "gnaf_pid": "GAVIC420459709",
    "ee": true,
    "tech_change_status": "Not Planned",
    "program_type": "Fixed Wireless and Satellite Upgrade Program",
    "target_eligibility_quarter": "NA"
   }
  },
  {
   "type": "Feature",
   "geometry": {
    "type": "Point",
    "coordinates": [
     145.56419359,
     -37.71537293
    ]
   },
   "properties": {
    "name": "310 NYORA ROAD MOUNT TOOLEBEWONG 3777",
    "locID": "LOC000102694165",
    "tech": "WIRELESS",
    "upgrade": "NULL_NA",
    "gnaf_pid": "GAVIC420459710",
    "ee": true,
    "tech_change_status": "Not Planned",
    "program_type": "Fixed Wireless and Satellite Upgrade Program",
    "target_eligibility_quarter": "NA"
   }
  },
  {
   "type": "Feature",
   "geometry": {
    "type": "Point",
    "coordinates": [
     145.56503104,
     -37.71488808
    ]
   },
   "properties": {
    "name": "317 NYORA ROAD MOUNT TOOLEBEWONG 3777",
    "locID": "LOC000104521214",
    "tech": "WIRELESS",
    "upgrade": "NULL_NA",
    "gnaf_pid": "GAVIC420459711",
    "ee": true,
    "tech_change_status": "Not Planned",
    "program_type": "Fixed Wireless and Satellite Upgrade Program",
    "target_eligibility_quarter": "NA"
   }
  },
  {
   "type": "Feature",
   "geometry": {
    "type": "Point",
    "coordinates": [
     145.56551058,
     -37.7154652
    ]
   },
   "properties": {
    "name": "322 NYORA ROAD MOUNT TOOLEBEWONG 3777",
    "locID": "LOC000125517387",
    "tech": "WIRELESS",
    "upgrade": "NULL_NA",
    "gnaf_pid": "GAVIC420459712",
    "ee": true,
    "tech_change_status": "Not Planned",
    "program_type": "Fixed Wireless and Satellite Upgrade Program",
    "target_eligibility_quarter": "NA"
   }
  },
  {
   "type": "Feature",
   "geometry": {
    "type": "Point",
    "coordinates": [
     145.55944793,
     -37.71430436
    ]
   },
   "properties": {
    "name": "258 NYORA ROAD MOUNT TOOLEBEWONG 3777",
    "locID": "LOC000125504916",
    "tech": "WIRELESS",
    "upgrade": "NULL_NA",
    "gnaf_pid": "GAVIC420680603",
    "ee": true,
    "tech_change_status": "Previous Tech Disconnected",
    "program_type": "Fixed Wireless and Satellite Upgrade Program",
    "target_eligibility_quarter": "NA"
   }
  },
  {
   "type": "Feature",
   "geometry": {
    "type": "Point",
    "coordinates": [
     145.56154392,
     -37.70561442
    ]
   },
   "properties": {
    "name": "139 NYORA ROAD MOUNT TOOLEBEWONG 3777",
    "locID": "LOC000025943537",
    "tech": "SATELLITE",
    "upgrade": "NULL_NA",
    "gnaf_pid": "GAVIC420761383",
    "ee": true,
    "tech_change_status": "Not Planned"
   }
  },
  {
   "type": "Feature",
   "geometry": {
    "type": "Point",
    "coordinates": [
     145.56676466,
     -37.71554213
    ]
   },
   "properties": {
    "name": "348 NYORA ROAD MOUNT TOOLEBEWONG 3777",
    "locID": "LOC000060373589",
    "tech": "WIRELESS",
    "upgrade": "NULL_NA",
    "gnaf_pid": "GAVIC420761384",
    "ee": true,
    "tech_change_status": "Not Planned",
    "program_type": "Fixed Wireless and Satellite Upgrade Program",
    "target_eligibility_quarter": "NA"
   }
  },
  {
   "type": "Feature",
   "geometry": {
    "type": "Point",
    "coordinates": [
     145.56692282,
     -37.72386963
    ]
   },
   "properties": {
    "name": "140 MOORA ROAD MOUNT TOOLEBEWONG 3777",
    "locID": "LOC000072973092",
    "tech": "WIRELESS",
    "upgrade": "NULL_NA",
    "gnaf_pid": "GAVIC420777270",
    "ee": true,
    "tech_change_status": "Previous Tech Disconnected",
    "program_type": "Fixed Wireless and Satellite Upgrade Program",
    "target_eligibility_quarter": "NA"
   }
  },
  {
   "type": "Feature",
   "geometry": {
    "type": "Point",
    "coordinates": [
     145.56055902,
     -37.70759576
    ]
   },
   "properties": {
    "name": "147 NYORA ROAD MOUNT TOOLEBEWONG 3777",
    "locID": "LOC000027061412",
    "tech": "WIRELESS",
    "upgrade": "NULL_NA",
    "gnaf_pid": "GAVIC421078782",
    "ee": true,
    "tech_change_status": "Not Planned",
    "program_type": "Fixed Wireless and Satellite Upgrade Program",
    "target_eligibility_quarter": "NA"
   }
  },
  {
   "type": "Feature",
   "geometry": {
    "type": "Point",
    "coordinates": [
     145.56813873,
     -37.71169353
    ]
   },
   "properties": {
    "name": "279 NYORA ROAD MOUNT TOOLEBEWONG 3777",
    "locID": "LOC000093922409",
    "tech": "WIRELESS",
    "upgrade": "NULL_NA",
    "gnaf_pid": "GAVIC421078783",
    "ee": true,
    "tech_change_status": "Not Planned",
    "program_type": "Fixed Wireless and Satellite Upgrade Program",
    "target_eligibility_quarter": "NA"
   }
  },
  {
   "type": "Feature",
   "geometry": {
    "type": "Point",
    "coordinates": [
     145.56617541,
     -37.72542457
    ]
   },
   "properties": {
    "name": "9 WESTRIDGE ROAD MOUNT TOOLEBEWONG 3777",
    "locID": "LOC000037512256",
    "tech": "SATELLITE",
    "upgrade": "WIRELESS",
    "gnaf_pid": "GAVIC421088716",
    "ee": true,
    "tech_change_status": "Eligible to Order",
    "program_type": "Fixed Wireless and Satellite Upgrade Program",
    "target_eligibility_quarter": "NA"
   }
  },
  {
   "type": "Feature",
   "geometry": {
    "type": "Point",
    "coordinates": [
     145.55712515,
     -37.71993364
    ]
   },
   "properties": {
    "name": "60 CHAPMAN ROAD MOUNT TOOLEBEWONG 3777",
    "locID": "LOC000037855351",
    "tech": "SATELLITE",
    "upgrade": "WIRELESS",
    "gnaf_pid": "GAVIC421356432",
    "ee": true,
    "tech_change_status": "Eligible to Order",
    "program_type": "Fixed Wireless and Satellite Upgrade Program",
    "target_eligibility_quarter": "NA"
   }
  },
  {
   "type": "Feature",
   "geometry": {
    "type": "Point",
    "coordinates": [
     145.56699288,
     -37.7267352
    ]
   },
   "properties": {
    "name": "3 MOORA ROAD MOUNT TOOLEBEWONG 3777",
    "locID": "LOC000115822129",
    "tech": "WIRELESS",
    "upgrade": "NULL_NA",
    "gnaf_pid": "GAVIC421360194",
    "ee": true,
    "tech_change_status": "Not Planned",
    "program_type": "Fixed Wireless and Satellite Upgrade Program",
    "target_eligibility_quarter": "NA"
   }
  },
  {
   "type": "Feature",
   "geometry": {
    "type": "Point",
    "coordinates": [
     145.56710887,
     -37.72123898
    ]
   },
   "properties": {
    "name": "112 MOORA ROAD MOUNT TOOLEBEWONG 3777",
    "locID": "LOC000028398266",
    "tech": "WIRELESS",
    "upgrade": "NULL_NA",
    "gnaf_pid": "GAVIC421360195",
    "ee": true,
    "tech_change_status": "Not Planned",
    "program_type": "Fixed Wireless and Satellite Upgrade Program",
    "target_eligibility_quarter": "NA"
   }
  },
  {
   "type": "Feature",
   "geometry": {
    "type": "Point",
    "coordinates": [
     145.56449104,
     -37.72469489
    ]
   },
   "properties": {
    "name": "23 WESTRIDGE ROAD MOUNT TOOLEBEWONG 3777",
    "locID": "LOC000025967552",
    "tech": "SATELLITE",
    "upgrade": "WIRELESS",
    "gnaf_pid": "GAVIC421377190",
    "ee": true,
    "tech_change_status": "Eligible to Order",
    "program_type": "Fixed Wireless and Satellite Upgrade Program",
    "target_eligibility_quarter": "NA"
   }
  },
  {
   "type": "Feature",
   "geometry": {
    "type": "Point",
    "coordinates": [
     145.5641763,
     -37.7219027
    ]
   },
   "properties": {
    "name": "51 WESTRIDGE ROAD MOUNT TOOLEBEWONG 3777",
    "locID": "LOC000013690967",
    "tech": "WIRELESS",
    "upgrade": "NULL_NA",
    "gnaf_pid": "GAVIC421673643",
    "ee": true,
    "tech_change_status": "Eligible to Order",
    "program_type": "Fixed Wireless and Satellite Upgrade Program",
    "target_eligibility_quarter": "NA"
   }
  },
  {
   "type": "Feature",
   "geometry": {
    "type": "Point",
    "coordinates": [
     145.56689146,
     -37.72243425
    ]
   },
   "properties": {
    "name": "122 MOORA ROAD MOUNT TOOLEBEWONG 3777",
    "locID": "LOC000030207699",
    "tech": "WIRELESS",
    "upgrade": "NULL_NA",
    "gnaf_pid": "GAVIC421687983",
    "ee": true,
    "tech_change_status": "Previous Tech Disconnected",
    "program_type": "Fixed Wireless and Satellite Upgrade Program",
    "target_eligibility_quarter": "NA"
   }
  },
  {
   "type": "Feature",
   "geometry": {
    "type": "Point",
    "coordinates": [
     145.56179099,
     -37.71498778
    ]
   },
   "properties": {
    "name": "292 NYORA ROAD MOUNT TOOLEBEWONG 3777",
    "locID": "LOC000022498992",
    "tech": "WIRELESS",
    "upgrade": "NULL_NA",
    "gnaf_pid": "GAVIC421691626",
    "ee": true,
    "tech_change_status": "Not Planned",
    "program_type": "Fixed Wireless and Satellite Upgrade Program",
    "target_eligibility_quarter": "NA"
   }
  },
  {
   "type": "Feature",
   "geometry": {
    "type": "Point",
    "coordinates": [
     145.56059835,
     -37.71489411
    ]
   },
   "properties": {
    "name": "260 NYORA ROAD MOUNT TOOLEBEWONG 3777",
    "locID": "LOC100078151345",
    "tech": "WIRELESS",
    "upgrade": "NULL_NA",
    "gnaf_pid": "GAVIC422416444",
    "ee": true,
    "tech_change_status": "Not Planned",
    "program_type": "Fixed Wireless and Satellite Upgrade Program",
    "target_eligibility_quarter": "NA"
   }
  },
  {
   "type": "Feature",
   "geometry": {
    "type": "Point",
    "coordinates": [
     145.57199344,
     -37.70218762
    ]
   },
   "properties": {
    "name": "972 DON ROAD MOUNT TOOLEBEWONG 3777",
    "locID": "LOC000069747766",
    "tech": "SATELLITE",
    "upgrade": "NULL_NA",
    "gnaf_pid": "GAVIC423381870",
    "ee": true,
    "tech_change_status": "Not Planned"
   }
  },
  {
   "type": "Feature",
   "geometry": {
    "type": "Point",
    "coordinates": [
     145.56029758,
     -37.73508163
    ]
   },
   "properties": {
    "name": "30 MOORA ROAD MOUNT TOOLEBEWONG 3777",
    "locID": "LOC000091945844",
    "tech": "WIRELESS",
    "upgrade": "NULL_NA",
    "gnaf_pid": "GAVIC423476182",
    "ee": true,
    "tech_change_status": "Not Planned",
    "program_type": "Fixed Wireless and Satellite Upgrade Program",
    "target_eligibility_quarter": "NA"
   }
  },
  {
   "type": "Feature",
   "geometry": {
    "type": "Point",
    "coordinates": [
     145.55960848,
     -37.71360398
    ]
   },
   "properties": {
    "name": "281 NYORA ROAD MOUNT TOOLEBEWONG 3777",
    "locID": "LOC000041230496",
    "tech": "WIRELESS",
    "upgrade": "NULL_NA",
    "gnaf_pid": "GAVIC423478877",
    "ee": true,
    "tech_change_status": "Not Planned",
    "program_type": "Fixed Wireless and Satellite Upgrade Program",
    "target_eligibility_quarter": "NA"
   }
  },
  {
   "type": "Feature",
   "geometry": {
    "type": "Point",
    "coordinates": [
     145.56662354,
     -37.72409131
    ]
   },
   "properties": {
    "name": "140B MOORA ROAD MOUNT TOOLEBEWONG 3777",
    "locID": "LOC100076805741",
    "tech": "WIRELESS",
    "upgrade": "NULL_NA",
    "gnaf_pid": "GAVIC718995350",
    "ee": true,
    "tech_change_status": "Not Planned",
    "program_type": "Fixed Wireless and Satellite Upgrade Program",
    "target_eligibility_quarter": "NA"
   }
  },
  {
   "type": "Feature",
   "geometry": {
    "type": "Point",
    "coordinates": [
     145.56671672,
     -37.72396626
    ]
   },
   "properties": {
    "name": "140A MOORA ROAD MOUNT TOOLEBEWONG 3777",
    "locID": "LOC100076805739",
    "tech": "WIRELESS",
    "upgrade": "NULL_NA",
    "gnaf_pid": "GAVIC719000450",
    "ee": true,
    "tech_change_status": "Not Planned",
    "program_type": "Fixed Wireless and Satellite Upgrade Program",
    "target_eligibility_quarter": "NA"
   }
  },
  {
   "type": "Feature",
   "geometry": {
    "type": "Point",
    "coordinates": [
     145.56705163,
     -37.72672997
    ]
   },
   "properties": {
    "name": "UNIT 5, 109 MOORA ROAD MOUNT TOOLEBEWONG 3777",
    "locID": "LOC000142441216",
    "tech": "WIRELESS",
    "upgrade": "NULL_NA",
    "gnaf_pid": "GAVIC721210966",
    "ee": true,
    "tech_change_status": "Not Planned",
    "program_type": "Fixed Wireless and Satellite Upgrade Program",
    "target_eligibility_quarter": "NA"
   }
  },
  {
   "type": "Feature",
   "geometry": {
    "type": "Point",
    "coordinates": [
     145.56705163,
     -37.72672997
    ]
   },
   "properties": {
    "name": "UNIT 1, 109 MOORA ROAD MOUNT TOOLEBEWONG 3777",
    "locID": "LOC000155345930",
    "tech": "WIRELESS",
    "upgrade": "NULL_NA",
    "gnaf_pid": "GAVIC721212009",
    "ee": true,
    "tech_change_status": "Not Planned",
    "program_type": "Fixed Wireless and Satellite Upgrade Program",
    "target_eligibility_quarter": "NA"
   }
  },
  {
   "type": "Feature",
   "geometry": {
    "type": "Point",
    "coordinates": [
     145.56705163,
     -37.72672997
    ]
   },
   "properties": {
    "name": "UNIT 9, 109 MOORA ROAD MOUNT TOOLEBEWONG 3777",
    "locID": "LOC000142441216",
    "tech": "WIRELESS",
    "upgrade": "NULL_NA",
    "gnaf_pid": "GAVIC721212472",
    "ee": true,
    "tech_change_status": "Not Planned",
    "program_type": "Fixed Wireless and Satellite Upgrade Program",
    "target_eligibility_quarter": "NA"
   }
  },
  {
   "type": "Feature",
   "geometry": {
    "type": "Point",
    "coordinates": [
     145.56705163,
     -37.72672997
    ]
   },
   "properties": {
    "name": "UNIT 10, 109 MOORA ROAD MOUNT TOOLEBEWONG 3777",
    "locID": "LOC000155345930",
    "tech": "WIRELESS",
    "upgrade": "NULL_NA",
    "gnaf_pid": "GAVIC721212480",
    "ee": true,
    "tech_change_status": "Not Planned",
    "program_type": "Fixed Wireless and Satellite Upgrade Program",
    "target_eligibility_quarter": "NA"
   }
  },
  {
   "type": "Feature",
   "geometry": {
    "type": "Point",
    "coordinates": [
     145.56705163,
     -37.72672997
    ]
   },
   "properties": {
    "name": "UNIT 17, 109 MOORA ROAD MOUNT TOOLEBEWONG 3777",
    "locID": "LOC000155345930",
    "tech": "WIRELESS",
    "upgrade": "NULL_NA",
    "gnaf_pid": "GAVIC721214630",
    "ee": true,
    "tech_change_status": "Not Planned",
    "program_type": "Fixed Wireless and Satellite Upgrade Program",
    "target_eligibility_quarter": "NA"
   }
  },
  {
   "type": "Feature",
   "geometry": {
    "type": "Point",
    "coordinates": [
     145.56705163,
     -37.72672997
    ]
   },
   "properties": {
    "name": "UNIT 14, 109 MOORA ROAD MOUNT TOOLEBEWONG 3777",
    "locID": "LOC000142441216",
    "tech": "WIRELESS",
    "upgrade": "NULL_NA",
    "gnaf_pid": "GAVIC721216427",
    "ee": true,
    "tech_change_status": "Not Planned",
    "program_type": "Fixed Wireless and Satellite Upgrade Program",
    "target_eligibility_quarter": "NA"
   }
  },
  {
   "type": "Feature",
   "geometry": {
    "type": "Point",
    "coordinates": [
     145.56705163,
     -37.72672997
    ]
   },
   "properties": {
    "name": "UNIT 22, 109 MOORA ROAD MOUNT TOOLEBEWONG 3777",
    "locID": "LOC000142441216",
    "tech": "WIRELESS",
    "upgrade": "NULL_NA",
    "gnaf_pid": "GAVIC721216583",
    "ee": true,
    "tech_change_status": "Not Planned",
    "program_type": "Fixed Wireless and Satellite Upgrade Program",
    "target_eligibility_quarter": "NA"
   }
  },
  {
   "type": "Feature",
   "geometry": {
    "type": "Point",
    "coordinates": [
     145.56705163,
     -37.72672997
    ]
   },
   "properties": {
    "name": "UNIT 24, 109 MOORA ROAD MOUNT TOOLEBEWONG 3777",
    "locID": "LOC000142441216",
    "tech": "WIRELESS",
    "upgrade": "NULL_NA",
    "gnaf_pid": "GAVIC721217597",
    "ee": true,
    "tech_change_status": "Not Planned",
    "program_type": "Fixed Wireless and Satellite Upgrade Program",
    "target_eligibility_quarter": "NA"
   }
  },
  {
   "type": "Feature",
   "geometry": {
    "type": "Point",
    "coordinates": [
     145.56705163,
     -37.72672997
    ]
   },
   "properties": {
    "name": "UNIT 6, 109 MOORA ROAD MOUNT TOOLEBEWONG 3777",
    "locID": "LOC000142441216",
    "tech": "WIRELESS",
    "upgrade": "NULL_NA",
    "gnaf_pid": "GAVIC721217624",
    "ee": true,
    "tech_change_status": "Not Planned",
    "program_type": "Fixed Wireless and Satellite Upgrade Program",
    "target_eligibility_quarter": "NA"
   }
  },
  {
   "type": "Feature",
   "geometry": {
    "type": "Point",
    "coordinates": [
     145.56705163,
     -37.72672997
    ]
   },
   "properties": {
    "name": "UNIT 28, 109 MOORA ROAD MOUNT TOOLEBEWONG 3777",
    "locID": "LOC000142441216",
    "tech": "WIRELESS",
    "upgrade": "NULL_NA",
    "gnaf_pid": "GAVIC721218833",
    "ee": true,
    "tech_change_status": "Not Planned",
    "program_type": "Fixed Wireless and Satellite Upgrade Program",
    "target_eligibility_quarter": "NA"
   }
  },
  {
   "type": "Feature",
   "geometry": {
    "type": "Point",
    "coordinates": [
     145.56705163,
     -37.72672997
    ]
   },
   "properties": {
    "name": "UNIT 2, 109 MOORA ROAD MOUNT TOOLEBEWONG 3777",
    "locID": "LOC000142441216",
    "tech": "WIRELESS",
    "upgrade": "NULL_NA",
    "gnaf_pid": "GAVIC721219838",
    "ee": true,
    "tech_change_status": "Not Planned",
    "program_type": "Fixed Wireless and Satellite Upgrade Program",
    "target_eligibility_quarter": "NA"
   }
  },
  {
   "type": "Feature",
   "geometry": {
    "type": "Point",
    "coordinates": [
     145.56705163,
     -37.72672997
    ]
   },
   "properties": {
    "name": "UNIT 3, 109 MOORA ROAD MOUNT TOOLEBEWONG 3777",
    "locID": "LOC000155345930",
    "tech": "WIRELESS",
    "upgrade": "NULL_NA",
    "gnaf_pid": "GAVIC721220232",
    "ee": true,
    "tech_change_status": "Not Planned",
    "program_type": "Fixed Wireless and Satellite Upgrade Program",
    "target_eligibility_quarter": "NA"
   }
  },
  {
   "type": "Feature",
   "geometry": {
    "type": "Point",
    "coordinates": [
     145.56705163,
     -37.72672997
    ]
   },
   "properties": {
    "name": "UNIT 11, 109 MOORA ROAD MOUNT TOOLEBEWONG 3777",
    "locID": "LOC000142441216",
    "tech": "WIRELESS",
    "upgrade": "NULL_NA",
    "gnaf_pid": "GAVIC721220327",
    "ee": true,
    "tech_change_status": "Not Planned",
    "program_type": "Fixed Wireless and Satellite Upgrade Program",
    "target_eligibility_quarter": "NA"
   }
  },
  {
   "type": "Feature",
   "geometry": {
    "type": "Point",
    "coordinates": [
     145.56705163,
     -37.72672997
    ]
   },
   "properties": {
    "name": "UNIT 12, 109 MOORA ROAD MOUNT TOOLEBEWONG 3777",
    "locID": "LOC000142441216",
    "tech": "WIRELESS",
    "upgrade": "NULL_NA",
    "gnaf_pid": "GAVIC721221727",
    "ee": true,
    "tech_change_status": "Not Planned",
    "program_type": "Fixed Wireless and Satellite Upgrade Program",
    "target_eligibility_quarter": "NA"
   }
  },
  {
   "type": "Feature",
   "geometry": {
    "type": "Point",
    "coordinates": [
     145.56705163,
     -37.72672997
    ]
   },
   "properties": {
    "name": "UNIT 25, 109 MOORA ROAD MOUNT TOOLEBEWONG 3777",
    "locID": "LOC000142441216",
    "tech": "WIRELESS",
    "upgrade": "NULL_NA",
    "gnaf_pid": "GAVIC721222778",
    "ee": true,
    "tech_change_status": "Not Planned",
    "program_type": "Fixed Wireless and Satellite Upgrade Program",
    "target_eligibility_quarter": "NA"
   }
  },
  {
   "type": "Feature",
   "geometry": {
    "type": "Point",
    "coordinates": [
     145.56705163,
     -37.72672997
    ]
   },
   "properties": {
    "name": "UNIT 20, 109 MOORA ROAD MOUNT TOOLEBEWONG 3777",
    "locID": "LOC000142441216",
    "tech": "WIRELESS",
    "upgrade": "NULL_NA",
    "gnaf_pid": "GAVIC721223831",
    "ee": true,
    "tech_change_status": "Not Planned",
    "program_type": "Fixed Wireless and Satellite Upgrade Program",
    "target_eligibility_quarter": "NA"
   }
  },
  {
   "type": "Feature",
   "geometry": {
    "type": "Point",
    "coordinates": [
     145.56705163,
     -37.72672997
    ]
   },
   "properties": {
    "name": "UNIT 23, 109 MOORA ROAD MOUNT TOOLEBEWONG 3777",
    "locID": "LOC000142441216",
    "tech": "WIRELESS",
    "upgrade": "NULL_NA",
    "gnaf_pid": "GAVIC721224060",
    "ee": true,
    "tech_change_status": "Not Planned",
    "program_type": "Fixed Wireless and Satellite Upgrade Program",
    "target_eligibility_quarter": "NA"
   }
  },
  {
   "type": "Feature",
   "geometry": {
    "type": "Point",
    "coordinates": [
     145.56705163,
     -37.72672997
    ]
   },
   "properties": {
    "name": "UNIT 32, 109 MOORA ROAD MOUNT TOOLEBEWONG 3777",
    "locID": "LOC000142441216",
    "tech": "WIRELESS",
    "upgrade": "NULL_NA",
    "gnaf_pid": "GAVIC721224445",
    "ee": true,
    "tech_change_status": "Not Planned",
    "program_type": "Fixed Wireless and Satellite Upgrade Program",
    "target_eligibility_quarter": "NA"
   }
  },
  {
   "type": "Feature",
   "geometry": {
    "type": "Point",
    "coordinates": [
     145.56705163,
     -37.72672997
    ]
   },
   "properties": {
    "name": "UNIT 15, 109 MOORA ROAD MOUNT TOOLEBEWONG 3777",
    "locID": "LOC000142441216",
    "tech": "WIRELESS",
    "upgrade": "NULL_NA",
    "gnaf_pid": "GAVIC721225270",
    "ee": true,
    "tech_change_status": "Not Planned",
    "program_type": "Fixed Wireless and Satellite Upgrade Program",
    "target_eligibility_quarter": "NA"
   }
  },
  {
   "type": "Feature",
   "geometry": {
    "type": "Point",
    "coordinates": [
     145.56705163,
     -37.72672997
    ]
   },
   "properties": {
    "name": "UNIT 29, 109 MOORA ROAD MOUNT TOOLEBEWONG 3777",
    "locID": "LOC000142441216",
    "tech": "WIRELESS",
    "upgrade": "NULL_NA",
    "gnaf_pid": "GAVIC721225690",
    "ee": true,
    "tech_change_status": "Not Planned",
    "program_type": "Fixed Wireless and Satellite Upgrade Program",
    "target_eligibility_quarter": "NA"
   }
  },
  {
   "type": "Feature",
   "geometry": {
    "type": "Point",
    "coordinates": [
     145.56705163,
     -37.72672997
    ]
   },
   "properties": {
    "name": "UNIT 26, 109 MOORA ROAD MOUNT TOOLEBEWONG 3777",
    "locID": "LOC000142441216",
    "tech": "WIRELESS",
    "upgrade": "NULL_NA",
    "gnaf_pid": "GAVIC721226173",
    "ee": true,
    "tech_change_status": "Not Planned",
    "program_type": "Fixed Wireless and Satellite Upgrade Program",
    "target_eligibility_quarter": "NA"
   }
  }
 ]
}