{
 "type": "FeatureCollection",
 "generated": "2025-06-18T04:42:46.257299",
 "suburb": "NEUARPURR",
 "features": [
  {
   "type": "Feature",
   "geometry": {
    "type": "Point",
    "coordinates": [
     141.020026,
     -36.71346
    ]
   },
   "properties": {
    "name": "251 BIRDS ROAD NEUARPURR 3413",
    "locID": "LOC100078660449",
    "tech": "NULL",
    "upgrade": "NULL_NA",
    "gnaf_pid": "GAVIC419670097",
    "ee": false,
    "tech_change_status": "Not Planned"
   }
  },
  {
   "type": "Feature",
   "geometry": {
    "type": "Point",
    "coordinates": [
     141.10886927,
     -36.76739633
    ]
   },
   "properties": {
    "name": "7788 NATIMUK-FRANCES ROAD NEUARPURR 3413",
    "locID": "LOC000003486229",
    "tech": "NULL",
    "upgrade": "NULL_NA",
    "gnaf_pid": "GAVIC419673648",
    "ee": false,
    "tech_change_status": "Not Planned"
   }
  },
  {
   "type": "Feature",
   "geometry": {
    "type": "Point",
    "coordinates": [
     140.999121,
     -36.68813
    ]
   },
   "properties": {
    "name": "80 KELLYS AND RAPSONS ROAD NEUARPURR 3413",
    "locID": "LOC100078141754",
    "tech": "NULL",
    "upgrade": "NULL_NA",
    "gnaf_pid": "GAVIC419774598",
    "ee": false,
    "tech_change_status": "Not Planned"
   }
  },
  {
   "type": "Feature",
   "geometry": {
    "type": "Point",
    "coordinates": [
     141.09695537,
     -36.76610218
    ]
   },
   "properties": {
    "name": "7894 NATIMUK-FRANCES ROAD NEUARPURR 3413",
    "locID": "LOC000075671917",
    "tech": "NULL",
    "upgrade": "NULL_NA",
    "gnaf_pid": "GAVIC419972268",
    "ee": false,
    "tech_change_status": "Not Planned"
   }
  },
  {
   "type": "Feature",
   "geometry": {
    "type": "Point",
    "coordinates": [
     141.038543,
     -36.771834
    ]
   },
   "properties": {
    "name": "22 TRANTERS ROAD NEUARPURR 3413",
    "locID": "LOC000124685726",
    "tech": "SATELLITE",
    "upgrade": "NULL_NA",
    "gnaf_pid": "GAVIC420080066",
    "ee": true,
    "tech_change_status": "Not Planned"
   }
  },
  {
   "type": "Feature",
   "geometry": {
    "type": "Point",
    "coordinates": [
     141.07036,
     -36.740593
    ]
   },
   "properties": {
    "name": "28 W BURNS ROAD NEUARPURR 3413",
    "locID": "LOC000106275259",
    "tech": "SATELLITE",
    "upgrade": "NULL_NA",
    "gnaf_pid": "GAVIC420270763",
    "ee": true,
    "tech_change_status": "Not Planned"
   }
  },
  {
   "type": "Feature",
   "geometry": {
    "type": "Point",
    "coordinates": [
     141.04653818,
     -36.70991651
    ]
   },
   "properties": {
    "name": "138 BURNS EXTENSION ROAD NEUARPURR 3413",
    "locID": "LOC000003964713",
    "tech": "NULL",
    "upgrade": "NULL_NA",
    "gnaf_pid": "GAVIC420580296",
    "ee": false,
    "tech_change_status": "Not Planned"
   }
  },
  {
   "type": "Feature",
   "geometry": {
    "type": "Point",
    "coordinates": [
     141.03577516,
     -36.77485594
    ]
   },
   "properties": {
    "name": "514 BENAYEO-NEUARPURR ROAD NEUARPURR 3413",
    "locID": "LOC000027083098",
    "tech": "SATELLITE",
    "upgrade": "NULL_NA",
    "gnaf_pid": "GAVIC420670879",
    "ee": true,
    "tech_change_status": "Not Planned"
   }
  },
  {
   "type": "Feature",
   "geometry": {
    "type": "Point",
    "coordinates": [
     141.03808518,
     -36.73824783
    ]
   },
   "properties": {
    "name": "8573 NATIMUK-FRANCES ROAD NEUARPURR 3413",
    "locID": "LOC000079116283",
    "tech": "NULL",
    "upgrade": "NULL_NA",
    "gnaf_pid": "GAVIC420868280",
    "ee": false,
    "tech_change_status": "Not Planned"
   }
  },
  {
   "type": "Feature",
   "geometry": {
    "type": "Point",
    "coordinates": [
     140.97266585,
     -36.72234523
    ]
   },
   "properties": {
    "name": "9212 NATIMUK-FRANCES ROAD NEUARPURR 3413",
    "locID": "LOC000124614571",
    "tech": "WIRELESS",
    "upgrade": "NULL_NA",
    "gnaf_pid": "GAVIC421500356",
    "ee": true,
    "tech_change_status": "Not Planned",
    "program_type": "Fixed Wireless and Satellite Upgrade Program",
    "target_eligibility_quarter": "NA"
   }
  },
  {
   "type": "Feature",
   "geometry": {
    "type": "Point",
    "coordinates": [
     141.016446,
     -36.727406
    ]
   },
   "properties": {
    "name": "89 BIRDS ROAD NEUARPURR 3413",
    "locID": "LOC000051621209",
    "tech": "SATELLITE",
    "upgrade": "NULL_NA",
    "gnaf_pid": "GAVIC421510668",
    "ee": false,
    "tech_change_status": "Not Planned"
   }
  },
  {
   "type": "Feature",
   "geometry": {
    "type": "Point",
    "coordinates": [
     141.03347595,
     -36.73923722
    ]
   },
   "properties": {
    "name": "18 BENAYEO-NEUARPURR ROAD NEUARPURR 3413",
    "locID": "LOC000103221446",
    "tech": "SATELLITE",
    "upgrade": "NULL_NA",
    "gnaf_pid": "GAVIC421510669",
    "ee": false,
    "tech_change_status": "Not Planned"
   }
  },
  {
   "type": "Feature",
   "geometry": {
    "type": "Point",
    "coordinates": [
     141.070539,
     -36.740764
    ]
   },
   "properties": {
    "name": "26 W BURNS ROAD NEUARPURR 3413",
    "locID": "LOC000066306159",
    "tech": "NULL",
    "upgrade": "NULL_NA",
    "gnaf_pid": "GAVIC421510670",
    "ee": true,
    "tech_change_status": "Not Planned"
   }
  },
  {
   "type": "Feature",
   "geometry": {
    "type": "Point",
    "coordinates": [
     140.998259,
     -36.694124
    ]
   },
   "properties": {
    "name": "15 KELLYS AND RAPSONS ROAD NEUARPURR 3413",
    "locID": "LOC000030929282",
    "tech": "WIRELESS",
    "upgrade": "NULL_NA",
    "gnaf_pid": "GAVIC421592136",
    "ee": false,
    "tech_change_status": "Not Planned",
    "program_type": "Fixed Wireless and Satellite Upgrade Program",
    "target_eligibility_quarter": "NA"
   }
  },
  {
   "type": "Feature",
   "geometry": {
    "type": "Point",
    "coordinates": [
     141.08579508,
     -36.76515026
    ]
   },
   "properties": {
    "name": "1102 BRIPPICK ROAD NEUARPURR 3413",
    "locID": "LOC000022575563",
    "tech": "NULL",
    "upgrade": "NULL_NA",
    "gnaf_pid": "GAVIC422081154",
    "ee": true,
    "tech_change_status": "Not Planned"
   }
  },
  {
   "type": "Feature",
   "geometry": {
    "type": "Point",
    "coordinates": [
     140.97437179,
     -36.70487573
    ]
   },
   "properties": {
    "name": "2777 MINIMAY-FRANCES ROAD NEUARPURR 3413",
    "locID": "LOC000124610201",
    "tech": "WIRELESS",
    "upgrade": "NULL_NA",
    "gnaf_pid": "GAVIC424585681",
    "ee": true,
    "tech_change_status": "Not Planned",
    "program_type": "Fixed Wireless and Satellite Upgrade Program",
    "target_eligibility_quarter": "NA"
   }
  },
  {
   "type": "Feature",
   "geometry": {
    "type": "Point",
    "coordinates": [
     140.97384628,
     -36.70439778
    ]
   },
   "properties": {
    "name": "2780 MINIMAY-FRANCES ROAD NEUARPURR 3413",
    "locID": "LOC000124610217",
    "tech": "WIRELESS",
    "upgrade": "NULL_NA",
    "gnaf_pid": "GAVIC424585682",
    "ee": true,
    "tech_change_status": "Not Planned",
    "program_type": "Fixed Wireless and Satellite Upgrade Program",
    "target_eligibility_quarter": "NA"
   }
  },
  {
   "type": "Feature",
   "geometry": {
    "type": "Point",
    "coordinates": [
     141.01989929,
     -36.69763153
    ]
   },
   "properties": {
    "name": "LOT 68 MINIMAY-FRANCES ROAD NEUARPURR 3413",
    "locID": "LOC000124610217",
    "tech": "WIRELESS",
    "upgrade": "NULL_NA",
    "gnaf_pid": "GAVIC425096999",
    "ee": true,
    "tech_change_status": "Not Planned",
    "program_type": "Fixed Wireless and Satellite Upgrade Program",
    "target_eligibility_quarter": "NA"
   }
  }
 ]
}