{
 "type": "FeatureCollection",
 "generated": "2025-06-18T05:40:14.671345",
 "suburb": "NOWIE",
 "features": [
  {
   "type": "Feature",
   "geometry": {
    "type": "Point",
    "coordinates": [
     143.32828037,
     -35.39603877
    ]
   },
   "properties": {
    "name": "92 WAITCHIE ROAD NOWIE 3585",
    "locID": "LOC000010230872",
    "tech": "NULL",
    "upgrade": "NULL_NA",
    "gnaf_pid": "GAVIC412060056",
    "ee": true,
    "tech_change_status": "Not Planned"
   }
  },
  {
   "type": "Feature",
   "geometry": {
    "type": "Point",
    "coordinates": [
     143.24278095,
     -35.30422
    ]
   },
   "properties": {
    "name": "2242 BULGA ROAD NOWIE 3585",
    "locID": "LOC000056049596",
    "tech": "NULL",
    "upgrade": "NULL_NA",
    "gnaf_pid": "GAVIC412063739",
    "ee": true,
    "tech_change_status": "Not Planned"
   }
  },
  {
   "type": "Feature",
   "geometry": {
    "type": "Point",
    "coordinates": [
     143.22768945,
     -35.32613435
    ]
   },
   "properties": {
    "name": "656 ROBERTS ROAD NOWIE 3585",
    "locID": "LOC000011107898",
    "tech": "NULL",
    "upgrade": "NULL_NA",
    "gnaf_pid": "GAVIC421984045",
    "ee": true,
    "tech_change_status": "Not Planned"
   }
  },
  {
   "type": "Feature",
   "geometry": {
    "type": "Point",
    "coordinates": [
     143.27489571,
     -35.25784425
    ]
   },
   "properties": {
    "name": "2167 CHILLINGOLLAH ROAD NOWIE 3585",
    "locID": "LOC000020187972",
    "tech": "SATELLITE",
    "upgrade": "NULL_NA",
    "gnaf_pid": "GAVIC422136245",
    "ee": true,
    "tech_change_status": "Not Planned"
   }
  },
  {
   "type": "Feature",
   "geometry": {
    "type": "Point",
    "coordinates": [
     143.3417416,
     -35.34834475
    ]
   },
   "properties": {
    "name": "547 FRENCH ROAD NOWIE 3585",
    "locID": "LOC000124807591",
    "tech": "NULL",
    "upgrade": "NULL_NA",
    "gnaf_pid": "GAVIC422148013",
    "ee": true,
    "tech_change_status": "Not Planned"
   }
  },
  {
   "type": "Feature",
   "geometry": {
    "type": "Point",
    "coordinates": [
     143.30236233,
     -35.2649652
    ]
   },
   "properties": {
    "name": "60 MAHER ROAD NOWIE 3585",
    "locID": "LOC000032588340",
    "tech": "SATELLITE",
    "upgrade": "FW_NA",
    "gnaf_pid": "GAVIC422166882",
    "ee": true,
    "tech_change_status": "Build Finalised"
   }
  },
  {
   "type": "Feature",
   "geometry": {
    "type": "Point",
    "coordinates": [
     143.30665895,
     -35.26367233
    ]
   },
   "properties": {
    "name": "71 MAHER ROAD NOWIE 3585",
    "locID": "LOC000025122730",
    "tech": "NULL",
    "upgrade": "NULL_NA",
    "gnaf_pid": "GAVIC422166883",
    "ee": true,
    "tech_change_status": "Not Planned"
   }
  },
  {
   "type": "Feature",
   "geometry": {
    "type": "Point",
    "coordinates": [
     143.26482015,
     -35.27507948
    ]
   },
   "properties": {
    "name": "702 STANDEN ROAD NOWIE 3585",
    "locID": "LOC000004778042",
    "tech": "NULL",
    "upgrade": "NULL_NA",
    "gnaf_pid": "GAVIC422192563",
    "ee": true,
    "tech_change_status": "Not Planned"
   }
  },
  {
   "type": "Feature",
   "geometry": {
    "type": "Point",
    "coordinates": [
     143.24540525,
     -35.27501779
    ]
   },
   "properties": {
    "name": "882 STANDEN ROAD NOWIE 3585",
    "locID": "LOC000124857184",
    "tech": "NULL",
    "upgrade": "NULL_NA",
    "gnaf_pid": "GAVIC422192564",
    "ee": true,
    "tech_change_status": "Not Planned"
   }
  },
  {
   "type": "Feature",
   "geometry": {
    "type": "Point",
    "coordinates": [
     143.24008701,
     -35.3863213
    ]
   },
   "properties": {
    "name": "906 WAITCHIE ROAD NOWIE 3585",
    "locID": "LOC000069846211",
    "tech": "SATELLITE",
    "upgrade": "FW_NA",
    "gnaf_pid": "GAVIC422200103",
    "ee": true,
    "tech_change_status": "Build Finalised"
   }
  }
 ]
}