{
 "type": "FeatureCollection",
 "generated": "2025-06-18T08:48:51.931133",
 "suburb": "PUCKAPUNYAL",
 "features": [
  {
   "type": "Feature",
   "geometry": {
    "type": "Point",
    "coordinates": [
     145.0313805,
     -37.00100433
    ]
   },
   "properties": {
    "name": "5A SANANANDA ROAD PUCKAPUNYAL 3662",
    "locID": "LOC100074082703",
    "tech": "FTTP",
    "upgrade": "NULL_NA",
    "gnaf_pid": "GAVIC412136977",
    "ee": true
   }
  },
  {
   "type": "Feature",
   "geometry": {
    "type": "Point",
    "coordinates": [
     145.03121418,
     -36.99990656
    ]
   },
   "properties": {
    "name": "7 SANANANDA ROAD PUCKAPUNYAL 3662",
    "locID": "LOC100074082598",
    "tech": "FTTP",
    "upgrade": "NULL_NA",
    "gnaf_pid": "GAVIC412137925",
    "ee": true
   }
  },
  {
   "type": "Feature",
   "geometry": {
    "type": "Point",
    "coordinates": [
     145.03870007,
     -37.00131102
    ]
   },
   "properties": {
    "name": "6A BUNA CRESCENT PUCKAPUNYAL 3662",
    "locID": "LOC000033767758",
    "tech": "FTTP",
    "upgrade": "NULL_NA",
    "gnaf_pid": "GAVIC412137926",
    "ee": true
   }
  },
  {
   "type": "Feature",
   "geometry": {
    "type": "Point",
    "coordinates": [
     145.03734165,
     -37.00128856
    ]
   },
   "properties": {
    "name": "18 BUNA CRESCENT PUCKAPUNYAL 3662",
    "locID": "LOC000028655179",
    "tech": "FTTP",
    "upgrade": "NULL_NA",
    "gnaf_pid": "GAVIC412137928",
    "ee": true
   }
  },
  {
   "type": "Feature",
   "geometry": {
    "type": "Point",
    "coordinates": [
     145.03622538,
     -36.99984705
    ]
   },
   "properties": {
    "name": "29 MALAYA ROAD PUCKAPUNYAL 3662",
    "locID": "LOC000059972935",
    "tech": "FTTP",
    "upgrade": "NULL_NA",
    "gnaf_pid": "GAVIC412137931",
    "ee": true
   }
  },
  {
   "type": "Feature",
   "geometry": {
    "type": "Point",
    "coordinates": [
     145.03833288,
     -37.00072503
    ]
   },
   "properties": {
    "name": "34A BUNA CRESCENT PUCKAPUNYAL 3662",
    "locID": "LOC100074083038",
    "tech": "FTTP",
    "upgrade": "NULL_NA",
    "gnaf_pid": "GAVIC412137933",
    "ee": true
   }
  },
  {
   "type": "Feature",
   "geometry": {
    "type": "Point",
    "coordinates": [
     145.03232768,
     -37.00180486
    ]
   },
   "properties": {
    "name": "26 ALAMEIN ROAD PUCKAPUNYAL 3662",
    "locID": "LOC000100821797",
    "tech": "FTTP",
    "upgrade": "NULL_NA",
    "gnaf_pid": "GAVIC412137935",
    "ee": true
   }
  },
  {
   "type": "Feature",
   "geometry": {
    "type": "Point",
    "coordinates": [
     145.03013999,
     -37.00059201
    ]
   },
   "properties": {
    "name": "9 CRETE STREET PUCKAPUNYAL 3662",
    "locID": "LOC100074083072",
    "tech": "FTTP",
    "upgrade": "NULL_NA",
    "gnaf_pid": "GAVIC412137936",
    "ee": true
   }
  },
  {
   "type": "Feature",
   "geometry": {
    "type": "Point",
    "coordinates": [
     145.04032745,
     -37.00316006
    ]
   },
   "properties": {
    "name": "10 VIVI STREET PUCKAPUNYAL 3662",
    "locID": "LOC000094016901",
    "tech": "FTTP",
    "upgrade": "NULL_NA",
    "gnaf_pid": "GAVIC412137941",
    "ee": true
   }
  },
  {
   "type": "Feature",
   "geometry": {
    "type": "Point",
    "coordinates": [
     145.04407312,
     -37.00407026
    ]
   },
   "properties": {
    "name": "3 COLENZO CRESCENT PUCKAPUNYAL 3662",
    "locID": "LOC000036402150",
    "tech": "FTTP",
    "upgrade": "NULL_NA",
    "gnaf_pid": "GAVIC412138723",
    "ee": true
   }
  },
  {
   "type": "Feature",
   "geometry": {
    "type": "Point",
    "coordinates": [
     145.04121018,
     -37.00383216
    ]
   },
   "properties": {
    "name": "5 PERONNE STREET PUCKAPUNYAL 3662",
    "locID": "LOC000093995269",
    "tech": "FTTP",
    "upgrade": "NULL_NA",
    "gnaf_pid": "GAVIC412138724",
    "ee": true
   }
  },
  {
   "type": "Feature",
   "geometry": {
    "type": "Point",
    "coordinates": [
     145.03854204,
     -37.00129697
    ]
   },
   "properties": {
    "name": "6B BUNA CRESCENT PUCKAPUNYAL 3662",
    "locID": "LOC000033767599",
    "tech": "FTTP",
    "upgrade": "NULL_NA",
    "gnaf_pid": "GAVIC412138761",
    "ee": true
   }
  },
  {
   "type": "Feature",
   "geometry": {
    "type": "Point",
    "coordinates": [
     145.04219629,
     -37.00438244
    ]
   },
   "properties": {
    "name": "27 COLENZO CRESCENT PUCKAPUNYAL 3662",
    "locID": "LOC000073315377",
    "tech": "FTTP",
    "upgrade": "NULL_NA",
    "gnaf_pid": "GAVIC412138770",
    "ee": true
   }
  },
  {
   "type": "Feature",
   "geometry": {
    "type": "Point",
    "coordinates": [
     145.04272934,
     -37.0033763
    ]
   },
   "properties": {
    "name": "39 COLENZO CRESCENT PUCKAPUNYAL 3662",
    "locID": "LOC100074082420",
    "tech": "FTTP",
    "upgrade": "NULL_NA",
    "gnaf_pid": "GAVIC412139620",
    "ee": true
   }
  },
  {
   "type": "Feature",
   "geometry": {
    "type": "Point",
    "coordinates": [
     145.02738888,
     -37.00076102
    ]
   },
   "properties": {
    "name": "11 CHAUVEL CLOSE PUCKAPUNYAL 3662",
    "locID": "LOC100074082145",
    "tech": "FTTP",
    "upgrade": "NULL_NA",
    "gnaf_pid": "GAVIC412139622",
    "ee": true
   }
  },
  {
   "type": "Feature",
   "geometry": {
    "type": "Point",
    "coordinates": [
     145.04252375,
     -37.00365521
    ]
   },
   "properties": {
    "name": "35 COLENZO CRESCENT PUCKAPUNYAL 3662",
    "locID": "LOC000007869477",
    "tech": "FTTP",
    "upgrade": "NULL_NA",
    "gnaf_pid": "GAVIC412139625",
    "ee": true
   }
  },
  {
   "type": "Feature",
   "geometry": {
    "type": "Point",
    "coordinates": [
     145.03179091,
     -37.00093265
    ]
   },
   "properties": {
    "name": "8 SANANANDA ROAD PUCKAPUNYAL 3662",
    "locID": "LOC100074082607",
    "tech": "FTTP",
    "upgrade": "NULL_NA",
    "gnaf_pid": "GAVIC412143244",
    "ee": true
   }
  },
  {
   "type": "Feature",
   "geometry": {
    "type": "Point",
    "coordinates": [
     145.04108482,
     -37.00395838
    ]
   },
   "properties": {
    "name": "3 PERONNE STREET PUCKAPUNYAL 3662",
    "locID": "LOC000013763139",
    "tech": "FTTP",
    "upgrade": "NULL_NA",
    "gnaf_pid": "GAVIC412143247",
    "ee": true
   }
  },
  {
   "type": "Feature",
   "geometry": {
    "type": "Point",
    "coordinates": [
     145.03526162,
     -36.99983851
    ]
   },
   "properties": {
    "name": "35 MALAYA ROAD PUCKAPUNYAL 3662",
    "locID": "LOC000055088035",
    "tech": "FTTP",
    "upgrade": "NULL_NA",
    "gnaf_pid": "GAVIC412143250",
    "ee": true
   }
  },
  {
   "type": "Feature",
   "geometry": {
    "type": "Point",
    "coordinates": [
     145.02932568,
     -37.00129258
    ]
   },
   "properties": {
    "name": "7 GAZA ROAD PUCKAPUNYAL 3662",
    "locID": "LOC000072894462",
    "tech": "FTTP",
    "upgrade": "NULL_NA",
    "gnaf_pid": "GAVIC412143254",
    "ee": true
   }
  },
  {
   "type": "Feature",
   "geometry": {
    "type": "Point",
    "coordinates": [
     145.03834403,
     -37.00087802
    ]
   },
   "properties": {
    "name": "32B BUNA CRESCENT PUCKAPUNYAL 3662",
    "locID": "LOC000096967645",
    "tech": "FTTP",
    "upgrade": "NULL_NA",
    "gnaf_pid": "GAVIC412143255",
    "ee": true
   }
  },
  {
   "type": "Feature",
   "geometry": {
    "type": "Point",
    "coordinates": [
     145.04226912,
     -37.00411398
    ]
   },
   "properties": {
    "name": "29 COLENZO CRESCENT PUCKAPUNYAL 3662",
    "locID": "LOC000014590171",
    "tech": "FTTP",
    "upgrade": "NULL_NA",
    "gnaf_pid": "GAVIC412145739",
    "ee": true
   }
  },
  {
   "type": "Feature",
   "geometry": {
    "type": "Point",
    "coordinates": [
     145.03801309,
     -36.99985321
    ]
   },
   "properties": {
    "name": "13 MALAYA ROAD PUCKAPUNYAL 3662",
    "locID": "LOC000055660203",
    "tech": "FTTP",
    "upgrade": "NULL_NA",
    "gnaf_pid": "GAVIC412145746",
    "ee": true
   }
  },
  {
   "type": "Feature",
   "geometry": {
    "type": "Point",
    "coordinates": [
     145.03843115,
     -37.001286
    ]
   },
   "properties": {
    "name": "8 BUNA CRESCENT PUCKAPUNYAL 3662",
    "locID": "LOC100074083001",
    "tech": "FTTP",
    "upgrade": "NULL_NA",
    "gnaf_pid": "GAVIC412145749",
    "ee": true
   }
  },
  {
   "type": "Feature",
   "geometry": {
    "type": "Point",
    "coordinates": [
     145.03142707,
     -36.99937374
    ]
   },
   "properties": {
    "name": "104 MALAYA ROAD PUCKAPUNYAL 3662",
    "locID": "LOC000099175865",
    "tech": "FTTP",
    "upgrade": "NULL_NA",
    "gnaf_pid": "GAVIC412145750",
    "ee": true
   }
  },
  {
   "type": "Feature",
   "geometry": {
    "type": "Point",
    "coordinates": [
     145.03131853,
     -37.00006109
    ]
   },
   "properties": {
    "name": "5 SANANANDA ROAD PUCKAPUNYAL 3662",
    "locID": "LOC100074082648",
    "tech": "FTTP",
    "upgrade": "NULL_NA",
    "gnaf_pid": "GAVIC412145751",
    "ee": true
   }
  },
  {
   "type": "Feature",
   "geometry": {
    "type": "Point",
    "coordinates": [
     145.03793291,
     -37.00344203
    ]
   },
   "properties": {
    "name": "11 ALAMEIN ROAD PUCKAPUNYAL 3662",
    "locID": "LOC000054488295",
    "tech": "FTTP",
    "upgrade": "NULL_NA",
    "gnaf_pid": "GAVIC412145754",
    "ee": true
   }
  },
  {
   "type": "Feature",
   "geometry": {
    "type": "Point",
    "coordinates": [
     145.04463335,
     -37.00445213
    ]
   },
   "properties": {
    "name": "7 NADZAB ROAD PUCKAPUNYAL 3662",
    "locID": "LOC000002074364",
    "tech": "FTTP",
    "upgrade": "NULL_NA",
    "gnaf_pid": "GAVIC412146550",
    "ee": true
   }
  },
  {
   "type": "Feature",
   "geometry": {
    "type": "Point",
    "coordinates": [
     145.04178663,
     -37.003704
    ]
   },
   "properties": {
    "name": "10 PERONNE STREET PUCKAPUNYAL 3662",
    "locID": "LOC000106295334",
    "tech": "FTTP",
    "upgrade": "NULL_NA",
    "gnaf_pid": "GAVIC412146551",
    "ee": true
   }
  },
  {
   "type": "Feature",
   "geometry": {
    "type": "Point",
    "coordinates": [
     145.02934294,
     -37.00038546
    ]
   },
   "properties": {
    "name": "17 GAZA ROAD PUCKAPUNYAL 3662",
    "locID": "LOC000042058744",
    "tech": "FTTP",
    "upgrade": "NULL_NA",
    "gnaf_pid": "GAVIC412146590",
    "ee": true
   }
  },
  {
   "type": "Feature",
   "geometry": {
    "type": "Point",
    "coordinates": [
     145.03028763,
     -36.99969917
    ]
   },
   "properties": {
    "name": "8 MENIN STREET PUCKAPUNYAL 3662",
    "locID": "LOC100074083208",
    "tech": "FTTP",
    "upgrade": "NULL_NA",
    "gnaf_pid": "GAVIC412146591",
    "ee": true
   }
  },
  {
   "type": "Feature",
   "geometry": {
    "type": "Point",
    "coordinates": [
     145.03715585,
     -37.00095586
    ]
   },
   "properties": {
    "name": "22 BUNA CRESCENT PUCKAPUNYAL 3662",
    "locID": "LOC000038548569",
    "tech": "FTTP",
    "upgrade": "NULL_NA",
    "gnaf_pid": "GAVIC412146593",
    "ee": true
   }
  },
  {
   "type": "Feature",
   "geometry": {
    "type": "Point",
    "coordinates": [
     145.03734555,
     -37.00024555
    ]
   },
   "properties": {
    "name": "41 BUNA CRESCENT PUCKAPUNYAL 3662",
    "locID": "LOC000042351889",
    "tech": "FTTP",
    "upgrade": "NULL_NA",
    "gnaf_pid": "GAVIC412146594",
    "ee": true
   }
  },
  {
   "type": "Feature",
   "geometry": {
    "type": "Point",
    "coordinates": [
     145.04266011,
     -37.00352633
    ]
   },
   "properties": {
    "name": "37 COLENZO CRESCENT PUCKAPUNYAL 3662",
    "locID": "LOC000043560772",
    "tech": "FTTP",
    "upgrade": "NULL_NA",
    "gnaf_pid": "GAVIC412146595",
    "ee": true
   }
  },
  {
   "type": "Feature",
   "geometry": {
    "type": "Point",
    "coordinates": [
     145.03720276,
     -37.00073622
    ]
   },
   "properties": {
    "name": "24 BUNA CRESCENT PUCKAPUNYAL 3662",
    "locID": "LOC000014545263",
    "tech": "WIRELESS",
    "upgrade": "NULL_NA",
    "gnaf_pid": "GAVIC412146596",
    "ee": true,
    "tech_change_status": "Not Planned",
    "program_type": "Fixed Wireless and Satellite Upgrade Program",
    "target_eligibility_quarter": "NA"
   }
  },
  {
   "type": "Feature",
   "geometry": {
    "type": "Point",
    "coordinates": [
     145.03012948,
     -36.99961121
    ]
   },
   "properties": {
    "name": "10 GAZA ROAD PUCKAPUNYAL 3662",
    "locID": "LOC100074083086",
    "tech": "FTTP",
    "upgrade": "NULL_NA",
    "gnaf_pid": "GAVIC412146597",
    "ee": true
   }
  },
  {
   "type": "Feature",
   "geometry": {
    "type": "Point",
    "coordinates": [
     145.04072872,
     -37.00259519
    ]
   },
   "properties": {
    "name": "2 VIVI STREET PUCKAPUNYAL 3662",
    "locID": "LOC000048555414",
    "tech": "FTTP",
    "upgrade": "NULL_NA",
    "gnaf_pid": "GAVIC412146598",
    "ee": true
   }
  },
  {
   "type": "Feature",
   "geometry": {
    "type": "Point",
    "coordinates": [
     145.040667,
     -37.00238343
    ]
   },
   "properties": {
    "name": "11 MALAYA ROAD PUCKAPUNYAL 3662",
    "locID": "LOC000029722854",
    "tech": "FTTP",
    "upgrade": "NULL_NA",
    "gnaf_pid": "GAVIC412146779",
    "ee": true
   }
  },
  {
   "type": "Feature",
   "geometry": {
    "type": "Point",
    "coordinates": [
     145.03865291,
     -37.00373103
    ]
   },
   "properties": {
    "name": "3 ALAMEIN ROAD PUCKAPUNYAL 3662",
    "locID": "LOC000079038399",
    "tech": "FTTP",
    "upgrade": "NULL_NA",
    "gnaf_pid": "GAVIC412146781",
    "ee": true
   }
  },
  {
   "type": "Feature",
   "geometry": {
    "type": "Point",
    "coordinates": [
     145.04270142,
     -37.00458698
    ]
   },
   "properties": {
    "name": "21 COLENZO CRESCENT PUCKAPUNYAL 3662",
    "locID": "LOC000072963751",
    "tech": "FTTP",
    "upgrade": "NULL_NA",
    "gnaf_pid": "GAVIC412146783",
    "ee": true
   }
  },
  {
   "type": "Feature",
   "geometry": {
    "type": "Point",
    "coordinates": [
     145.04062647,
     -37.00271258
    ]
   },
   "properties": {
    "name": "4 VIVI STREET PUCKAPUNYAL 3662",
    "locID": "LOC000066288602",
    "tech": "FTTP",
    "upgrade": "NULL_NA",
    "gnaf_pid": "GAVIC412146784",
    "ee": true
   }
  },
  {
   "type": "Feature",
   "geometry": {
    "type": "Point",
    "coordinates": [
     145.03881249,
     -37.00128814
    ]
   },
   "properties": {
    "name": "4A BUNA CRESCENT PUCKAPUNYAL 3662",
    "locID": "LOC000098835689",
    "tech": "WIRELESS",
    "upgrade": "NULL_NA",
    "gnaf_pid": "GAVIC412146785",
    "ee": true,
    "tech_change_status": "Not Planned",
    "program_type": "Fixed Wireless and Satellite Upgrade Program",
    "target_eligibility_quarter": "NA"
   }
  },
  {
   "type": "Feature",
   "geometry": {
    "type": "Point",
    "coordinates": [
     145.02927599,
     -37.00074303
    ]
   },
   "properties": {
    "name": "13 GAZA ROAD PUCKAPUNYAL 3662",
    "locID": "LOC000063191834",
    "tech": "FTTP",
    "upgrade": "NULL_NA",
    "gnaf_pid": "GAVIC412146846",
    "ee": true
   }
  },
  {
   "type": "Feature",
   "geometry": {
    "type": "Point",
    "coordinates": [
     145.02945046,
     -36.99964244
    ]
   },
   "properties": {
    "name": "25 GAZA ROAD PUCKAPUNYAL 3662",
    "locID": "LOC000079658603",
    "tech": "FTTP",
    "upgrade": "NULL_NA",
    "gnaf_pid": "GAVIC412146847",
    "ee": true
   }
  },
  {
   "type": "Feature",
   "geometry": {
    "type": "Point",
    "coordinates": [
     145.041514,
     -37.00412325
    ]
   },
   "properties": {
    "name": "4 PERONNE STREET PUCKAPUNYAL 3662",
    "locID": "LOC000091228856",
    "tech": "FTTP",
    "upgrade": "NULL_NA",
    "gnaf_pid": "GAVIC412146849",
    "ee": true
   }
  },
  {
   "type": "Feature",
   "geometry": {
    "type": "Point",
    "coordinates": [
     145.03112668,
     -36.99978178
    ]
   },
   "properties": {
    "name": "9 SANANANDA ROAD PUCKAPUNYAL 3662",
    "locID": "LOC100074082611",
    "tech": "FTTP",
    "upgrade": "NULL_NA",
    "gnaf_pid": "GAVIC412146850",
    "ee": true
   }
  },
  {
   "type": "Feature",
   "geometry": {
    "type": "Point",
    "coordinates": [
     145.03723123,
     -37.0004609
    ]
   },
   "properties": {
    "name": "39 BUNA CRESCENT PUCKAPUNYAL 3662",
    "locID": "LOC000045798225",
    "tech": "FTTP",
    "upgrade": "NULL_NA",
    "gnaf_pid": "GAVIC412146851",
    "ee": true
   }
  },
  {
   "type": "Feature",
   "geometry": {
    "type": "Point",
    "coordinates": [
     145.04482209,
     -37.00361377
    ]
   },
   "properties": {
    "name": "4 MALAYA ROAD PUCKAPUNYAL 3662",
    "locID": "LOC000092258984",
    "tech": "FTTP",
    "upgrade": "NULL_NA",
    "gnaf_pid": "GAVIC412146871",
    "ee": true
   }
  },
  {
   "type": "Feature",
   "geometry": {
    "type": "Point",
    "coordinates": [
     145.04315153,
     -37.00480918
    ]
   },
   "properties": {
    "name": "17 COLENZO CRESCENT PUCKAPUNYAL 3662",
    "locID": "LOC000031187022",
    "tech": "FTTP",
    "upgrade": "NULL_NA",
    "gnaf_pid": "GAVIC412150173",
    "ee": true
   }
  },
  {
   "type": "Feature",
   "geometry": {
    "type": "Point",
    "coordinates": [
     145.03177999,
     -37.00180124
    ]
   },
   "properties": {
    "name": "2 SANANANDA ROAD PUCKAPUNYAL 3662",
    "locID": "LOC100074082579",
    "tech": "FTTP",
    "upgrade": "NULL_NA",
    "gnaf_pid": "GAVIC412150224",
    "ee": true
   }
  },
  {
   "type": "Feature",
   "geometry": {
    "type": "Point",
    "coordinates": [
     145.03832207,
     -37.00108601
    ]
   },
   "properties": {
    "name": "10B BUNA CRESCENT PUCKAPUNYAL 3662",
    "locID": "LOC000054560667",
    "tech": "FTTP",
    "upgrade": "NULL_NA",
    "gnaf_pid": "GAVIC412150225",
    "ee": true
   }
  },
  {
   "type": "Feature",
   "geometry": {
    "type": "Point",
    "coordinates": [
     145.03048811,
     -36.99928098
    ]
   },
   "properties": {
    "name": "12 GAZA ROAD PUCKAPUNYAL 3662",
    "locID": "LOC000038998563",
    "tech": "FTTP",
    "upgrade": "NULL_NA",
    "gnaf_pid": "GAVIC412150503",
    "ee": true
   }
  },
  {
   "type": "Feature",
   "geometry": {
    "type": "Point",
    "coordinates": [
     145.03679582,
     -37.0009993
    ]
   },
   "properties": {
    "name": "31 BUNA CRESCENT PUCKAPUNYAL 3662",
    "locID": "LOC000100451140",
    "tech": "FTTP",
    "upgrade": "NULL_NA",
    "gnaf_pid": "GAVIC412150504",
    "ee": true
   }
  },
  {
   "type": "Feature",
   "geometry": {
    "type": "Point",
    "coordinates": [
     145.04419144,
     -37.00511058
    ]
   },
   "properties": {
    "name": "2 NADZAB ROAD PUCKAPUNYAL 3662",
    "locID": "LOC000027801524",
    "tech": "FTTP",
    "upgrade": "NULL_NA",
    "gnaf_pid": "GAVIC412150507",
    "ee": true
   }
  },
  {
   "type": "Feature",
   "geometry": {
    "type": "Point",
    "coordinates": [
     145.04141088,
     -37.00338803
    ]
   },
   "properties": {
    "name": "11 PERONNE STREET PUCKAPUNYAL 3662",
    "locID": "LOC000047532433",
    "tech": "FTTP",
    "upgrade": "NULL_NA",
    "gnaf_pid": "GAVIC412151506",
    "ee": true
   }
  },
  {
   "type": "Feature",
   "geometry": {
    "type": "Point",
    "coordinates": [
     145.02979142,
     -36.99941116
    ]
   },
   "properties": {
    "name": "29 GAZA ROAD PUCKAPUNYAL 3662",
    "locID": "LOC000085420621",
    "tech": "FTTP",
    "upgrade": "NULL_NA",
    "gnaf_pid": "GAVIC412151508",
    "ee": true
   }
  },
  {
   "type": "Feature",
   "geometry": {
    "type": "Point",
    "coordinates": [
     145.04383156,
     -37.00324631
    ]
   },
   "properties": {
    "name": "14 MALAYA ROAD PUCKAPUNYAL 3662",
    "locID": "LOC000024804653",
    "tech": "FTTP",
    "upgrade": "NULL_NA",
    "gnaf_pid": "GAVIC412153530",
    "ee": true,
    "tech_change_status": "Eligible to Order"
   }
  },
  {
   "type": "Feature",
   "geometry": {
    "type": "Point",
    "coordinates": [
     145.02981384,
     -37.00050399
    ]
   },
   "properties": {
    "name": "11 CRETE STREET PUCKAPUNYAL 3662",
    "locID": "LOC000032708270",
    "tech": "FTTP",
    "upgrade": "NULL_NA",
    "gnaf_pid": "GAVIC412153535",
    "ee": true
   }
  },
  {
   "type": "Feature",
   "geometry": {
    "type": "Point",
    "coordinates": [
     145.03755044,
     -37.0008014
    ]
   },
   "properties": {
    "name": "26 BUNA CRESCENT PUCKAPUNYAL 3662",
    "locID": "LOC000036589038",
    "tech": "FTTP",
    "upgrade": "NULL_NA",
    "gnaf_pid": "GAVIC412153536",
    "ee": true
   }
  },
  {
   "type": "Feature",
   "geometry": {
    "type": "Point",
    "coordinates": [
     145.03569262,
     -37.00188705
    ]
   },
   "properties": {
    "name": "1 RETIMO CRESCENT PUCKAPUNYAL 3662",
    "locID": "LOC100074083231",
    "tech": "FTTP",
    "upgrade": "NULL_NA",
    "gnaf_pid": "GAVIC412153538",
    "ee": true
   }
  },
  {
   "type": "Feature",
   "geometry": {
    "type": "Point",
    "coordinates": [
     145.03072684,
     -37.00006125
    ]
   },
   "properties": {
    "name": "2 MENIN STREET PUCKAPUNYAL 3662",
    "locID": "LOC000017032202",
    "tech": "WIRELESS",
    "upgrade": "NULL_NA",
    "gnaf_pid": "GAVIC412155174",
    "ee": true,
    "tech_change_status": "Not Planned"
   }
  },
  {
   "type": "Feature",
   "geometry": {
    "type": "Point",
    "coordinates": [
     145.04516577,
     -37.00429222
    ]
   },
   "properties": {
    "name": "11 NADZAB ROAD PUCKAPUNYAL 3662",
    "locID": "LOC000029676835",
    "tech": "FTTP",
    "upgrade": "NULL_NA",
    "gnaf_pid": "GAVIC412162231",
    "ee": true
   }
  },
  {
   "type": "Feature",
   "geometry": {
    "type": "Point",
    "coordinates": [
     145.0325089,
     -37.00131861
    ]
   },
   "properties": {
    "name": "12 LONE PINE CRESCENT PUCKAPUNYAL 3662",
    "locID": "LOC100074083119",
    "tech": "FTTP",
    "upgrade": "NULL_NA",
    "gnaf_pid": "GAVIC412162233",
    "ee": true
   }
  },
  {
   "type": "Feature",
   "geometry": {
    "type": "Point",
    "coordinates": [
     145.04298644,
     -37.004706
    ]
   },
   "properties": {
    "name": "19 COLENZO CRESCENT PUCKAPUNYAL 3662",
    "locID": "LOC000014525252",
    "tech": "FTTP",
    "upgrade": "NULL_NA",
    "gnaf_pid": "GAVIC412162239",
    "ee": true
   }
  },
  {
   "type": "Feature",
   "geometry": {
    "type": "Point",
    "coordinates": [
     145.02933028,
     -37.00179732
    ]
   },
   "properties": {
    "name": "1 GAZA ROAD PUCKAPUNYAL 3662",
    "locID": "LOC000069382163",
    "tech": "FTTP",
    "upgrade": "NULL_NA",
    "gnaf_pid": "GAVIC412162240",
    "ee": true
   }
  },
  {
   "type": "Feature",
   "geometry": {
    "type": "Point",
    "coordinates": [
     145.03673225,
     -37.00150759
    ]
   },
   "properties": {
    "name": "25 BUNA CRESCENT PUCKAPUNYAL 3662",
    "locID": "LOC000077164330",
    "tech": "FTTP",
    "upgrade": "NULL_NA",
    "gnaf_pid": "GAVIC412165053",
    "ee": true
   }
  },
  {
   "type": "Feature",
   "geometry": {
    "type": "Point",
    "coordinates": [
     145.03653657,
     -37.00106606
    ]
   },
   "properties": {
    "name": "29 BUNA CRESCENT PUCKAPUNYAL 3662",
    "locID": "LOC000107795839",
    "tech": "FTTP",
    "upgrade": "NULL_NA",
    "gnaf_pid": "GAVIC412165063",
    "ee": true
   }
  },
  {
   "type": "Feature",
   "geometry": {
    "type": "Point",
    "coordinates": [
     145.03640796,
     -37.00291896
    ]
   },
   "properties": {
    "name": "25 ALAMEIN ROAD PUCKAPUNYAL 3662",
    "locID": "LOC000077924968",
    "tech": "FTTP",
    "upgrade": "NULL_NA",
    "gnaf_pid": "GAVIC412165064",
    "ee": true
   }
  },
  {
   "type": "Feature",
   "geometry": {
    "type": "Point",
    "coordinates": [
     145.04111524,
     -37.00273692
    ]
   },
   "properties": {
    "name": "3 VIVI STREET PUCKAPUNYAL 3662",
    "locID": "LOC000043560786",
    "tech": "FTTP",
    "upgrade": "NULL_NA",
    "gnaf_pid": "GAVIC412165065",
    "ee": true
   }
  },
  {
   "type": "Feature",
   "geometry": {
    "type": "Point",
    "coordinates": [
     145.02994099,
     -36.99928582
    ]
   },
   "properties": {
    "name": "31 GAZA ROAD PUCKAPUNYAL 3662",
    "locID": "LOC000021188791",
    "tech": "FTTP",
    "upgrade": "NULL_NA",
    "gnaf_pid": "GAVIC412165066",
    "ee": true
   }
  },
  {
   "type": "Feature",
   "geometry": {
    "type": "Point",
    "coordinates": [
     145.03869395,
     -37.00072196
    ]
   },
   "properties": {
    "name": "36B BUNA CRESCENT PUCKAPUNYAL 3662",
    "locID": "LOC000045499461",
    "tech": "FTTP",
    "upgrade": "NULL_NA",
    "gnaf_pid": "GAVIC412165069",
    "ee": true
   }
  },
  {
   "type": "Feature",
   "geometry": {
    "type": "Point",
    "coordinates": [
     145.03881888,
     -37.00105002
    ]
   },
   "properties": {
    "name": "11B MALAYA ROAD PUCKAPUNYAL 3662",
    "locID": "LOC000029689673",
    "tech": "FTTP",
    "upgrade": "NULL_NA",
    "gnaf_pid": "GAVIC412165071",
    "ee": true
   }
  },
  {
   "type": "Feature",
   "geometry": {
    "type": "Point",
    "coordinates": [
     145.03088511,
     -36.99902659
    ]
   },
   "properties": {
    "name": "110 MALAYA ROAD PUCKAPUNYAL 3662",
    "locID": "LOC000098421757",
    "tech": "FTTP",
    "upgrade": "NULL_NA",
    "gnaf_pid": "GAVIC412165073",
    "ee": true
   }
  },
  {
   "type": "Feature",
   "geometry": {
    "type": "Point",
    "coordinates": [
     145.03719995,
     -37.00316402
    ]
   },
   "properties": {
    "name": "19 ALAMEIN ROAD PUCKAPUNYAL 3662",
    "locID": "LOC000081290786",
    "tech": "FTTP",
    "upgrade": "NULL_NA",
    "gnaf_pid": "GAVIC412165074",
    "ee": true
   }
  },
  {
   "type": "Feature",
   "geometry": {
    "type": "Point",
    "coordinates": [
     145.03119126,
     -36.99927198
    ]
   },
   "properties": {
    "name": "106 MALAYA ROAD PUCKAPUNYAL 3662",
    "locID": "LOC000018178998",
    "tech": "FTTP",
    "upgrade": "NULL_NA",
    "gnaf_pid": "GAVIC412165075",
    "ee": true
   }
  },
  {
   "type": "Feature",
   "geometry": {
    "type": "Point",
    "coordinates": [
     145.03701095,
     -37.00308897
    ]
   },
   "properties": {
    "name": "21 ALAMEIN ROAD PUCKAPUNYAL 3662",
    "locID": "LOC000049152482",
    "tech": "FTTP",
    "upgrade": "NULL_NA",
    "gnaf_pid": "GAVIC412165077",
    "ee": true
   }
  },
  {
   "type": "Feature",
   "geometry": {
    "type": "Point",
    "coordinates": [
     145.0364432,
     -36.9998258
    ]
   },
   "properties": {
    "name": "27 MALAYA ROAD PUCKAPUNYAL 3662",
    "locID": "LOC000007858856",
    "tech": "FTTP",
    "upgrade": "NULL_NA",
    "gnaf_pid": "GAVIC412165078",
    "ee": true
   }
  },
  {
   "type": "Feature",
   "geometry": {
    "type": "Point",
    "coordinates": [
     145.02930581,
     -37.00110905
    ]
   },
   "properties": {
    "name": "9 GAZA ROAD PUCKAPUNYAL 3662",
    "locID": "LOC000042296253",
    "tech": "FTTP",
    "upgrade": "NULL_NA",
    "gnaf_pid": "GAVIC412165808",
    "ee": true
   }
  },
  {
   "type": "Feature",
   "geometry": {
    "type": "Point",
    "coordinates": [
     145.04200864,
     -37.0032689
    ]
   },
   "properties": {
    "name": "16 PERONNE STREET PUCKAPUNYAL 3662",
    "locID": "LOC000085499103",
    "tech": "FTTP",
    "upgrade": "NULL_NA",
    "gnaf_pid": "GAVIC412165809",
    "ee": true
   }
  },
  {
   "type": "Feature",
   "geometry": {
    "type": "Point",
    "coordinates": [
     145.03739687,
     -37.00323099
    ]
   },
   "properties": {
    "name": "17 ALAMEIN ROAD PUCKAPUNYAL 3662",
    "locID": "LOC000042617655",
    "tech": "FTTP",
    "upgrade": "NULL_NA",
    "gnaf_pid": "GAVIC412165813",
    "ee": true
   }
  },
  {
   "type": "Feature",
   "geometry": {
    "type": "Point",
    "coordinates": [
     145.04463058,
     -37.00349384
    ]
   },
   "properties": {
    "name": "6 MALAYA ROAD PUCKAPUNYAL 3662",
    "locID": "LOC100074083157",
    "tech": "FTTP",
    "upgrade": "NULL_NA",
    "gnaf_pid": "GAVIC412168704",
    "ee": true
   }
  },
  {
   "type": "Feature",
   "geometry": {
    "type": "Point",
    "coordinates": [
     145.03444318,
     -37.00178343
    ]
   },
   "properties": {
    "name": "22 ALAMEIN ROAD PUCKAPUNYAL 3662",
    "locID": "LOC000095710664",
    "tech": "FTTP",
    "upgrade": "NULL_NA",
    "gnaf_pid": "GAVIC412168705",
    "ee": true
   }
  },
  {
   "type": "Feature",
   "geometry": {
    "type": "Point",
    "coordinates": [
     145.03105292,
     -36.99914655
    ]
   },
   "properties": {
    "name": "108 MALAYA ROAD PUCKAPUNYAL 3662",
    "locID": "LOC000018100078",
    "tech": "FTTP",
    "upgrade": "NULL_NA",
    "gnaf_pid": "GAVIC412168707",
    "ee": true
   }
  },
  {
   "type": "Feature",
   "geometry": {
    "type": "Point",
    "coordinates": [
     145.02927491,
     -37.00056204
    ]
   },
   "properties": {
    "name": "15 GAZA ROAD PUCKAPUNYAL 3662",
    "locID": "LOC000004718549",
    "tech": "FTTP",
    "upgrade": "NULL_NA",
    "gnaf_pid": "GAVIC412168708",
    "ee": true
   }
  },
  {
   "type": "Feature",
   "geometry": {
    "type": "Point",
    "coordinates": [
     145.0293449,
     -36.99979248
    ]
   },
   "properties": {
    "name": "23 GAZA ROAD PUCKAPUNYAL 3662",
    "locID": "LOC000056829671",
    "tech": "FTTP",
    "upgrade": "NULL_NA",
    "gnaf_pid": "GAVIC412168713",
    "ee": true
   }
  },
  {
   "type": "Feature",
   "geometry": {
    "type": "Point",
    "coordinates": [
     145.04403714,
     -37.00331886
    ]
   },
   "properties": {
    "name": "12 MALAYA ROAD PUCKAPUNYAL 3662",
    "locID": "LOC100074083161",
    "tech": "FTTP",
    "upgrade": "NULL_NA",
    "gnaf_pid": "GAVIC412168715",
    "ee": true
   }
  },
  {
   "type": "Feature",
   "geometry": {
    "type": "Point",
    "coordinates": [
     145.03253737,
     -37.0014922
    ]
   },
   "properties": {
    "name": "14 LONE PINE CRESCENT PUCKAPUNYAL 3662",
    "locID": "LOC100074083126",
    "tech": "FTTP",
    "upgrade": "NULL_NA",
    "gnaf_pid": "GAVIC412169224",
    "ee": true
   }
  },
  {
   "type": "Feature",
   "geometry": {
    "type": "Point",
    "coordinates": [
     145.04211528,
     -37.00312062
    ]
   },
   "properties": {
    "name": "18 PERONNE STREET PUCKAPUNYAL 3662",
    "locID": "LOC000037971404",
    "tech": "FTTP",
    "upgrade": "NULL_NA",
    "gnaf_pid": "GAVIC412169228",
    "ee": true
   }
  },
  {
   "type": "Feature",
   "geometry": {
    "type": "Point",
    "coordinates": [
     145.03859999,
     -37.00071702
    ]
   },
   "properties": {
    "name": "36A BUNA CRESCENT PUCKAPUNYAL 3662",
    "locID": "LOC000045624065",
    "tech": "FTTP",
    "upgrade": "NULL_NA",
    "gnaf_pid": "GAVIC412169231",
    "ee": true
   }
  },
  {
   "type": "Feature",
   "geometry": {
    "type": "Point",
    "coordinates": [
     145.03075488,
     -37.00059399
    ]
   },
   "properties": {
    "name": "3 CRETE STREET PUCKAPUNYAL 3662",
    "locID": "LOC100074083055",
    "tech": "FTTP",
    "upgrade": "NULL_NA",
    "gnaf_pid": "GAVIC412169233",
    "ee": true
   }
  },
  {
   "type": "Feature",
   "geometry": {
    "type": "Point",
    "coordinates": [
     145.0435806,
     -37.00475695
    ]
   },
   "properties": {
    "name": "11 COLENZO CRESCENT PUCKAPUNYAL 3662",
    "locID": "LOC000031943444",
    "tech": "FTTP",
    "upgrade": "NULL_NA",
    "gnaf_pid": "GAVIC412169310",
    "ee": true
   }
  },
  {
   "type": "Feature",
   "geometry": {
    "type": "Point",
    "coordinates": [
     145.02930154,
     -37.00145142
    ]
   },
   "properties": {
    "name": "5 GAZA ROAD PUCKAPUNYAL 3662",
    "locID": "LOC000034562549",
    "tech": "FTTP",
    "upgrade": "NULL_NA",
    "gnaf_pid": "GAVIC412169314",
    "ee": true
   }
  },
  {
   "type": "Feature",
   "geometry": {
    "type": "Point",
    "coordinates": [
     145.02961323,
     -36.99950827
    ]
   },
   "properties": {
    "name": "27 GAZA ROAD PUCKAPUNYAL 3662",
    "locID": "LOC100074083135",
    "tech": "FTTP",
    "upgrade": "NULL_NA",
    "gnaf_pid": "GAVIC412169315",
    "ee": true
   }
  },
  {
   "type": "Feature",
   "geometry": {
    "type": "Point",
    "coordinates": [
     145.04142127,
     -37.00354972
    ]
   },
   "properties": {
    "name": "9 PERONNE STREET PUCKAPUNYAL 3662",
    "locID": "LOC000002886257",
    "tech": "FTTP",
    "upgrade": "NULL_NA",
    "gnaf_pid": "GAVIC412169316",
    "ee": true
   }
  },
  {
   "type": "Feature",
   "geometry": {
    "type": "Point",
    "coordinates": [
     145.03712971,
     -36.99982559
    ]
   },
   "properties": {
    "name": "21 MALAYA ROAD PUCKAPUNYAL 3662",
    "locID": "LOC000070598516",
    "tech": "FTTP",
    "upgrade": "NULL_NA",
    "gnaf_pid": "GAVIC412170296",
    "ee": true
   }
  },
  {
   "type": "Feature",
   "geometry": {
    "type": "Point",
    "coordinates": [
     145.03774392,
     -37.00336698
    ]
   },
   "properties": {
    "name": "13 ALAMEIN ROAD PUCKAPUNYAL 3662",
    "locID": "LOC000052012709",
    "tech": "FTTP",
    "upgrade": "NULL_NA",
    "gnaf_pid": "GAVIC412170297",
    "ee": true
   }
  },
  {
   "type": "Feature",
   "geometry": {
    "type": "Point",
    "coordinates": [
     145.04390604,
     -37.00436063
    ]
   },
   "properties": {
    "name": "7 COLENZO CRESCENT PUCKAPUNYAL 3662",
    "locID": "LOC000014596327",
    "tech": "FTTP",
    "upgrade": "NULL_NA",
    "gnaf_pid": "GAVIC412170337",
    "ee": true
   }
  },
  {
   "type": "Feature",
   "geometry": {
    "type": "Point",
    "coordinates": [
     145.027404,
     -37.00093896
    ]
   },
   "properties": {
    "name": "9 CHAUVEL CLOSE PUCKAPUNYAL 3662",
    "locID": "LOC100074082132",
    "tech": "FTTP",
    "upgrade": "NULL_NA",
    "gnaf_pid": "GAVIC412172047",
    "ee": true
   }
  },
  {
   "type": "Feature",
   "geometry": {
    "type": "Point",
    "coordinates": [
     145.03758149,
     -37.00129378
    ]
   },
   "properties": {
    "name": "16 BUNA CRESCENT PUCKAPUNYAL 3662",
    "locID": "LOC000098084114",
    "tech": "FTTP",
    "upgrade": "NULL_NA",
    "gnaf_pid": "GAVIC412172049",
    "ee": true
   }
  },
  {
   "type": "Feature",
   "geometry": {
    "type": "Point",
    "coordinates": [
     145.03833612,
     -37.00100601
    ]
   },
   "properties": {
    "name": "32A BUNA CRESCENT PUCKAPUNYAL 3662",
    "locID": "LOC000097310635",
    "tech": "FTTP",
    "upgrade": "NULL_NA",
    "gnaf_pid": "GAVIC412172050",
    "ee": true,
    "tech_change_status": "Eligible to Order"
   }
  },
  {
   "type": "Feature",
   "geometry": {
    "type": "Point",
    "coordinates": [
     145.03899383,
     -37.00105803
    ]
   },
   "properties": {
    "name": "11A MALAYA ROAD PUCKAPUNYAL 3662",
    "locID": "LOC000029689639",
    "tech": "FTTP",
    "upgrade": "NULL_NA",
    "gnaf_pid": "GAVIC412172051",
    "ee": true
   }
  },
  {
   "type": "Feature",
   "geometry": {
    "type": "Point",
    "coordinates": [
     145.03890931,
     -37.00128811
    ]
   },
   "properties": {
    "name": "4B BUNA CRESCENT PUCKAPUNYAL 3662",
    "locID": "LOC000099135521",
    "tech": "FTTP",
    "upgrade": "NULL_NA",
    "gnaf_pid": "GAVIC412172052",
    "ee": true
   }
  },
  {
   "type": "Feature",
   "geometry": {
    "type": "Point",
    "coordinates": [
     145.03845599,
     -37.00071899
    ]
   },
   "properties": {
    "name": "34B BUNA CRESCENT PUCKAPUNYAL 3662",
    "locID": "LOC000055088710",
    "tech": "FTTP",
    "upgrade": "NULL_NA",
    "gnaf_pid": "GAVIC412172054",
    "ee": true
   }
  },
  {
   "type": "Feature",
   "geometry": {
    "type": "Point",
    "coordinates": [
     145.02929501,
     -37.0016332
    ]
   },
   "properties": {
    "name": "3 GAZA ROAD PUCKAPUNYAL 3662",
    "locID": "LOC000016448078",
    "tech": "FTTP",
    "upgrade": "NULL_NA",
    "gnaf_pid": "GAVIC412172098",
    "ee": true
   }
  },
  {
   "type": "Feature",
   "geometry": {
    "type": "Point",
    "coordinates": [
     145.04217792,
     -37.00298294
    ]
   },
   "properties": {
    "name": "20 PERONNE STREET PUCKAPUNYAL 3662",
    "locID": "LOC000028679327",
    "tech": "FTTP",
    "upgrade": "NULL_NA",
    "gnaf_pid": "GAVIC412172278",
    "ee": true
   }
  },
  {
   "type": "Feature",
   "geometry": {
    "type": "Point",
    "coordinates": [
     145.04248902,
     -37.00450852
    ]
   },
   "properties": {
    "name": "23 COLENZO CRESCENT PUCKAPUNYAL 3662",
    "locID": "LOC000030668447",
    "tech": "FTTP",
    "upgrade": "NULL_NA",
    "gnaf_pid": "GAVIC412172283",
    "ee": true
   }
  },
  {
   "type": "Feature",
   "geometry": {
    "type": "Point",
    "coordinates": [
     145.03682807,
     -37.00301903
    ]
   },
   "properties": {
    "name": "23 ALAMEIN ROAD PUCKAPUNYAL 3662",
    "locID": "LOC000079700863",
    "tech": "FTTP",
    "upgrade": "NULL_NA",
    "gnaf_pid": "GAVIC412172946",
    "ee": true
   }
  },
  {
   "type": "Feature",
   "geometry": {
    "type": "Point",
    "coordinates": [
     145.038294,
     -37.00359198
    ]
   },
   "properties": {
    "name": "7 ALAMEIN ROAD PUCKAPUNYAL 3662",
    "locID": "LOC000032860355",
    "tech": "FTTP",
    "upgrade": "NULL_NA",
    "gnaf_pid": "GAVIC412172947",
    "ee": true
   }
  },
  {
   "type": "Feature",
   "geometry": {
    "type": "Point",
    "coordinates": [
     145.038323,
     -37.00126531
    ]
   },
   "properties": {
    "name": "10A BUNA CRESCENT PUCKAPUNYAL 3662",
    "locID": "LOC000054560680",
    "tech": "FTTP",
    "upgrade": "NULL_NA",
    "gnaf_pid": "GAVIC412172948",
    "ee": true
   }
  },
  {
   "type": "Feature",
   "geometry": {
    "type": "Point",
    "coordinates": [
     145.0375839,
     -36.99985982
    ]
   },
   "properties": {
    "name": "17 MALAYA ROAD PUCKAPUNYAL 3662",
    "locID": "LOC000088430461",
    "tech": "FTTP",
    "upgrade": "NULL_NA",
    "gnaf_pid": "GAVIC412172973",
    "ee": true
   }
  },
  {
   "type": "Feature",
   "geometry": {
    "type": "Point",
    "coordinates": [
     145.02930134,
     -37.0009361
    ]
   },
   "properties": {
    "name": "11 GAZA ROAD PUCKAPUNYAL 3662",
    "locID": "LOC000105627799",
    "tech": "FTTP",
    "upgrade": "NULL_NA",
    "gnaf_pid": "GAVIC412172976",
    "ee": true
   }
  },
  {
   "type": "Feature",
   "geometry": {
    "type": "Point",
    "coordinates": [
     145.03667644,
     -36.99985396
    ]
   },
   "properties": {
    "name": "25 MALAYA ROAD PUCKAPUNYAL 3662",
    "locID": "LOC000084856841",
    "tech": "FTTP",
    "upgrade": "NULL_NA",
    "gnaf_pid": "GAVIC412172981",
    "ee": true
   }
  },
  {
   "type": "Feature",
   "geometry": {
    "type": "Point",
    "coordinates": [
     145.03058397,
     -36.99992673
    ]
   },
   "properties": {
    "name": "4 MENIN STREET PUCKAPUNYAL 3662",
    "locID": "LOC000100351185",
    "tech": "FTTP",
    "upgrade": "NULL_NA",
    "gnaf_pid": "GAVIC412172985",
    "ee": true
   }
  },
  {
   "type": "Feature",
   "geometry": {
    "type": "Point",
    "coordinates": [
     145.04013835,
     -37.00341515
    ]
   },
   "properties": {
    "name": "14 VIVI STREET PUCKAPUNYAL 3662",
    "locID": "LOC000106491198",
    "tech": "FTTP",
    "upgrade": "NULL_NA",
    "gnaf_pid": "GAVIC412174659",
    "ee": true
   }
  },
  {
   "type": "Feature",
   "geometry": {
    "type": "Point",
    "coordinates": [
     145.03810283,
     -37.003508
    ]
   },
   "properties": {
    "name": "9 ALAMEIN ROAD PUCKAPUNYAL 3662",
    "locID": "LOC000007907203",
    "tech": "FTTP",
    "upgrade": "NULL_NA",
    "gnaf_pid": "GAVIC412174677",
    "ee": true
   }
  },
  {
   "type": "Feature",
   "geometry": {
    "type": "Point",
    "coordinates": [
     145.03689867,
     -36.99982743
    ]
   },
   "properties": {
    "name": "23 MALAYA ROAD PUCKAPUNYAL 3662",
    "locID": "LOC000091033460",
    "tech": "FTTP",
    "upgrade": "NULL_NA",
    "gnaf_pid": "GAVIC412174680",
    "ee": true
   }
  },
  {
   "type": "Feature",
   "geometry": {
    "type": "Point",
    "coordinates": [
     145.03826977,
     -37.00041998
    ]
   },
   "properties": {
    "name": "49 BUNA CRESCENT PUCKAPUNYAL 3662",
    "locID": "LOC000104421296",
    "tech": "FTTP",
    "upgrade": "NULL_NA",
    "gnaf_pid": "GAVIC412174682",
    "ee": true
   }
  },
  {
   "type": "Feature",
   "geometry": {
    "type": "Point",
    "coordinates": [
     145.03772455,
     -37.00134139
    ]
   },
   "properties": {
    "name": "14 BUNA CRESCENT PUCKAPUNYAL 3662",
    "locID": "LOC000058451394",
    "tech": "FTTP",
    "upgrade": "NULL_NA",
    "gnaf_pid": "GAVIC412174683",
    "ee": true
   }
  },
  {
   "type": "Feature",
   "geometry": {
    "type": "Point",
    "coordinates": [
     145.04436947,
     -37.00474961
    ]
   },
   "properties": {
    "name": "4 NADZAB ROAD PUCKAPUNYAL 3662",
    "locID": "LOC100074083212",
    "tech": "FTTP",
    "upgrade": "NULL_NA",
    "gnaf_pid": "GAVIC412174685",
    "ee": true
   }
  },
  {
   "type": "Feature",
   "geometry": {
    "type": "Point",
    "coordinates": [
     145.03714584,
     -37.00133628
    ]
   },
   "properties": {
    "name": "20 BUNA CRESCENT PUCKAPUNYAL 3662",
    "locID": "LOC100074082121",
    "tech": "FTTP",
    "upgrade": "NULL_NA",
    "gnaf_pid": "GAVIC412174687",
    "ee": true
   }
  },
  {
   "type": "Feature",
   "geometry": {
    "type": "Point",
    "coordinates": [
     145.0316848,
     -36.99942703
    ]
   },
   "properties": {
    "name": "98 MALAYA ROAD PUCKAPUNYAL 3662",
    "locID": "LOC000084944828",
    "tech": "FTTP",
    "upgrade": "NULL_NA",
    "gnaf_pid": "GAVIC412174692",
    "ee": true
   }
  },
  {
   "type": "Feature",
   "geometry": {
    "type": "Point",
    "coordinates": [
     145.03779365,
     -36.99985845
    ]
   },
   "properties": {
    "name": "15 MALAYA ROAD PUCKAPUNYAL 3662",
    "locID": "LOC000033592683",
    "tech": "FTTP",
    "upgrade": "NULL_NA",
    "gnaf_pid": "GAVIC412174695",
    "ee": true
   }
  },
  {
   "type": "Feature",
   "geometry": {
    "type": "Point",
    "coordinates": [
     145.03078359,
     -37.0002467
    ]
   },
   "properties": {
    "name": "4 CRETE STREET PUCKAPUNYAL 3662",
    "locID": "LOC000019504249",
    "tech": "FTTP",
    "upgrade": "NULL_NA",
    "gnaf_pid": "GAVIC412175702",
    "ee": true
   }
  },
  {
   "type": "Feature",
   "geometry": {
    "type": "Point",
    "coordinates": [
     145.04244572,
     -37.0037929
    ]
   },
   "properties": {
    "name": "33 COLENZO CRESCENT PUCKAPUNYAL 3662",
    "locID": "LOC000046360564",
    "tech": "FTTP",
    "upgrade": "NULL_NA",
    "gnaf_pid": "GAVIC412175704",
    "ee": true
   }
  },
  {
   "type": "Feature",
   "geometry": {
    "type": "Point",
    "coordinates": [
     145.03755247,
     -37.00044138
    ]
   },
   "properties": {
    "name": "43 BUNA CRESCENT PUCKAPUNYAL 3662",
    "locID": "LOC000069125338",
    "tech": "FTTP",
    "upgrade": "NULL_NA",
    "gnaf_pid": "GAVIC412175707",
    "ee": true
   }
  },
  {
   "type": "Feature",
   "geometry": {
    "type": "Point",
    "coordinates": [
     145.04120237,
     -37.002616
    ]
   },
   "properties": {
    "name": "1 VIVI STREET PUCKAPUNYAL 3662",
    "locID": "LOC000014600223",
    "tech": "FTTP",
    "upgrade": "NULL_NA",
    "gnaf_pid": "GAVIC412175708",
    "ee": true
   }
  },
  {
   "type": "Feature",
   "geometry": {
    "type": "Point",
    "coordinates": [
     145.04466816,
     -37.00421901
    ]
   },
   "properties": {
    "name": "8 NADZAB ROAD PUCKAPUNYAL 3662",
    "locID": "LOC000042284105",
    "tech": "FTTP",
    "upgrade": "NULL_NA",
    "gnaf_pid": "GAVIC412175709",
    "ee": true
   }
  },
  {
   "type": "Feature",
   "geometry": {
    "type": "Point",
    "coordinates": [
     145.02787415,
     -37.00073997
    ]
   },
   "properties": {
    "name": "12 CHAUVEL CLOSE PUCKAPUNYAL 3662",
    "locID": "LOC100074082150",
    "tech": "FTTP",
    "upgrade": "NULL_NA",
    "gnaf_pid": "GAVIC412175710",
    "ee": true
   }
  },
  {
   "type": "Feature",
   "geometry": {
    "type": "Point",
    "coordinates": [
     145.03137075,
     -37.00024836
    ]
   },
   "properties": {
    "name": "2 CRETE STREET PUCKAPUNYAL 3662",
    "locID": "LOC000038984007",
    "tech": "FTTP",
    "upgrade": "NULL_NA",
    "gnaf_pid": "GAVIC412175714",
    "ee": true
   }
  },
  {
   "type": "Feature",
   "geometry": {
    "type": "Point",
    "coordinates": [
     145.03054895,
     -37.000593
    ]
   },
   "properties": {
    "name": "5 CRETE STREET PUCKAPUNYAL 3662",
    "locID": "LOC000007003892",
    "tech": "FTTP",
    "upgrade": "NULL_NA",
    "gnaf_pid": "GAVIC412176496",
    "ee": true
   }
  },
  {
   "type": "Feature",
   "geometry": {
    "type": "Point",
    "coordinates": [
     145.03098509,
     -36.99960479
    ]
   },
   "properties": {
    "name": "55 MALAYA ROAD PUCKAPUNYAL 3662",
    "locID": "LOC000023624563",
    "tech": "FTTP",
    "upgrade": "NULL_NA",
    "gnaf_pid": "GAVIC412176497",
    "ee": true
   }
  },
  {
   "type": "Feature",
   "geometry": {
    "type": "Point",
    "coordinates": [
     145.04510158,
     -37.00365956
    ]
   },
   "properties": {
    "name": "2 MALAYA ROAD PUCKAPUNYAL 3662",
    "locID": "LOC100074083142",
    "tech": "FTTP",
    "upgrade": "NULL_NA",
    "gnaf_pid": "GAVIC412176507",
    "ee": true
   }
  },
  {
   "type": "Feature",
   "geometry": {
    "type": "Point",
    "coordinates": [
     145.04029121,
     -37.00329067
    ]
   },
   "properties": {
    "name": "12 VIVI STREET PUCKAPUNYAL 3662",
    "locID": "LOC000075030969",
    "tech": "FTTP",
    "upgrade": "NULL_NA",
    "gnaf_pid": "GAVIC412176508",
    "ee": true
   }
  },
  {
   "type": "Feature",
   "geometry": {
    "type": "Point",
    "coordinates": [
     145.04233356,
     -37.00393236
    ]
   },
   "properties": {
    "name": "31 COLENZO CRESCENT PUCKAPUNYAL 3662",
    "locID": "LOC000010644290",
    "tech": "FTTP",
    "upgrade": "NULL_NA",
    "gnaf_pid": "GAVIC412176599",
    "ee": true
   }
  },
  {
   "type": "Feature",
   "geometry": {
    "type": "Point",
    "coordinates": [
     145.04432665,
     -37.00492434
    ]
   },
   "properties": {
    "name": "3 NADZAB ROAD PUCKAPUNYAL 3662",
    "locID": "LOC000090482767",
    "tech": "FTTP",
    "upgrade": "NULL_NA",
    "gnaf_pid": "GAVIC412176601",
    "ee": true
   }
  },
  {
   "type": "Feature",
   "geometry": {
    "type": "Point",
    "coordinates": [
     145.03029734,
     -36.99902453
    ]
   },
   "properties": {
    "name": "35 GAZA ROAD PUCKAPUNYAL 3662",
    "locID": "LOC000070818774",
    "tech": "FTTP",
    "upgrade": "NULL_NA",
    "gnaf_pid": "GAVIC412176603",
    "ee": true
   }
  },
  {
   "type": "Feature",
   "geometry": {
    "type": "Point",
    "coordinates": [
     145.03846103,
     -37.00365597
    ]
   },
   "properties": {
    "name": "5 ALAMEIN ROAD PUCKAPUNYAL 3662",
    "locID": "LOC000073819104",
    "tech": "FTTP",
    "upgrade": "NULL_NA",
    "gnaf_pid": "GAVIC412176606",
    "ee": true
   }
  },
  {
   "type": "Feature",
   "geometry": {
    "type": "Point",
    "coordinates": [
     145.03042296,
     -36.99981403
    ]
   },
   "properties": {
    "name": "6 MENIN STREET PUCKAPUNYAL 3662",
    "locID": "LOC000059409838",
    "tech": "FTTP",
    "upgrade": "NULL_NA",
    "gnaf_pid": "GAVIC412176607",
    "ee": true
   }
  },
  {
   "type": "Feature",
   "geometry": {
    "type": "Point",
    "coordinates": [
     145.04149584,
     -37.00324899
    ]
   },
   "properties": {
    "name": "13 PERONNE STREET PUCKAPUNYAL 3662",
    "locID": "LOC000096020289",
    "tech": "FTTP",
    "upgrade": "NULL_NA",
    "gnaf_pid": "GAVIC412179268",
    "ee": true
   }
  },
  {
   "type": "Feature",
   "geometry": {
    "type": "Point",
    "coordinates": [
     145.0427411,
     -37.00318594
    ]
   },
   "properties": {
    "name": "7 MALAYA ROAD PUCKAPUNYAL 3662",
    "locID": "LOC100074083188",
    "tech": "FTTP",
    "upgrade": "NULL_NA",
    "gnaf_pid": "GAVIC412179270",
    "ee": true
   }
  },
  {
   "type": "Feature",
   "geometry": {
    "type": "Point",
    "coordinates": [
     145.03712182,
     -37.00172631
    ]
   },
   "properties": {
    "name": "21 BUNA CRESCENT PUCKAPUNYAL 3662",
    "locID": "LOC000061692561",
    "tech": "FTTP",
    "upgrade": "NULL_NA",
    "gnaf_pid": "GAVIC412179276",
    "ee": true
   }
  },
  {
   "type": "Feature",
   "geometry": {
    "type": "Point",
    "coordinates": [
     145.04045169,
     -37.00301265
    ]
   },
   "properties": {
    "name": "8 VIVI STREET PUCKAPUNYAL 3662",
    "locID": "LOC000036768409",
    "tech": "FTTP",
    "upgrade": "NULL_NA",
    "gnaf_pid": "GAVIC412179282",
    "ee": true
   }
  },
  {
   "type": "Feature",
   "geometry": {
    "type": "Point",
    "coordinates": [
     145.03034483,
     -37.000592
    ]
   },
   "properties": {
    "name": "7 CRETE STREET PUCKAPUNYAL 3662",
    "locID": "LOC100074083064",
    "tech": "FTTP",
    "upgrade": "NULL_NA",
    "gnaf_pid": "GAVIC412179285",
    "ee": true
   }
  },
  {
   "type": "Feature",
   "geometry": {
    "type": "Point",
    "coordinates": [
     145.03884239,
     -37.00379702
    ]
   },
   "properties": {
    "name": "1 ALAMEIN ROAD PUCKAPUNYAL 3662",
    "locID": "LOC000019561364",
    "tech": "FTTP",
    "upgrade": "NULL_NA",
    "gnaf_pid": "GAVIC412179286",
    "ee": true
   }
  },
  {
   "type": "Feature",
   "geometry": {
    "type": "Point",
    "coordinates": [
     145.03809419,
     -37.00132186
    ]
   },
   "properties": {
    "name": "12 BUNA CRESCENT PUCKAPUNYAL 3662",
    "locID": "LOC000058122029",
    "tech": "FTTP",
    "upgrade": "NULL_NA",
    "gnaf_pid": "GAVIC412180554",
    "ee": true
   }
  },
  {
   "type": "Feature",
   "geometry": {
    "type": "Point",
    "coordinates": [
     145.03011476,
     -36.9991446
    ]
   },
   "properties": {
    "name": "33 GAZA ROAD PUCKAPUNYAL 3662",
    "locID": "LOC000077325167",
    "tech": "FTTP",
    "upgrade": "NULL_NA",
    "gnaf_pid": "GAVIC412180555",
    "ee": true
   }
  },
  {
   "type": "Feature",
   "geometry": {
    "type": "Point",
    "coordinates": [
     145.04483225,
     -37.00403821
    ]
   },
   "properties": {
    "name": "9 NADZAB ROAD PUCKAPUNYAL 3662",
    "locID": "LOC000054603745",
    "tech": "FTTP",
    "upgrade": "NULL_NA",
    "gnaf_pid": "GAVIC412180556",
    "ee": true
   }
  },
  {
   "type": "Feature",
   "geometry": {
    "type": "Point",
    "coordinates": [
     145.02975558,
     -37.0007071
    ]
   },
   "properties": {
    "name": "6 GAZA ROAD PUCKAPUNYAL 3662",
    "locID": "LOC000027031884",
    "tech": "FTTP",
    "upgrade": "NULL_NA",
    "gnaf_pid": "GAVIC412180557",
    "ee": true
   }
  },
  {
   "type": "Feature",
   "geometry": {
    "type": "Point",
    "coordinates": [
     145.04049784,
     -37.00287675
    ]
   },
   "properties": {
    "name": "6 VIVI STREET PUCKAPUNYAL 3662",
    "locID": "LOC000065704613",
    "tech": "FTTP",
    "upgrade": "NULL_NA",
    "gnaf_pid": "GAVIC412180558",
    "ee": true
   }
  },
  {
   "type": "Feature",
   "geometry": {
    "type": "Point",
    "coordinates": [
     145.02974919,
     -37.00085463
    ]
   },
   "properties": {
    "name": "4 GAZA ROAD PUCKAPUNYAL 3662",
    "locID": "LOC000084494188",
    "tech": "FTTP",
    "upgrade": "NULL_NA",
    "gnaf_pid": "GAVIC412180560",
    "ee": true
   }
  },
  {
   "type": "Feature",
   "geometry": {
    "type": "Point",
    "coordinates": [
     145.03756391,
     -37.003311
    ]
   },
   "properties": {
    "name": "15 ALAMEIN ROAD PUCKAPUNYAL 3662",
    "locID": "LOC000065773493",
    "tech": "FTTP",
    "upgrade": "NULL_NA",
    "gnaf_pid": "GAVIC412184335",
    "ee": true
   }
  },
  {
   "type": "Feature",
   "geometry": {
    "type": "Point",
    "coordinates": [
     145.0377637,
     -37.00044661
    ]
   },
   "properties": {
    "name": "45 BUNA CRESCENT PUCKAPUNYAL 3662",
    "locID": "LOC000094139671",
    "tech": "FTTP",
    "upgrade": "NULL_NA",
    "gnaf_pid": "GAVIC412185009",
    "ee": true
   }
  },
  {
   "type": "Feature",
   "geometry": {
    "type": "Point",
    "coordinates": [
     145.0308581,
     -36.99949936
    ]
   },
   "properties": {
    "name": "57 MALAYA ROAD PUCKAPUNYAL 3662",
    "locID": "LOC000051798109",
    "tech": "FTTP",
    "upgrade": "NULL_NA",
    "gnaf_pid": "GAVIC412185012",
    "ee": true
   }
  },
  {
   "type": "Feature",
   "geometry": {
    "type": "Point",
    "coordinates": [
     145.04413568,
     -37.00380463
    ]
   },
   "properties": {
    "name": "1 COLENZO CRESCENT PUCKAPUNYAL 3662",
    "locID": "LOC000104242746",
    "tech": "FTTP",
    "upgrade": "NULL_NA",
    "gnaf_pid": "GAVIC412185013",
    "ee": true
   }
  },
  {
   "type": "Feature",
   "geometry": {
    "type": "Point",
    "coordinates": [
     145.0359971,
     -37.00225049
    ]
   },
   "properties": {
    "name": "14 ALAMEIN ROAD PUCKAPUNYAL 3662",
    "locID": "LOC000066109557",
    "tech": "FTTP",
    "upgrade": "NULL_NA",
    "gnaf_pid": "GAVIC412185015",
    "ee": true
   }
  },
  {
   "type": "Feature",
   "geometry": {
    "type": "Point",
    "coordinates": [
     145.03802399,
     -37.00422099
    ]
   },
   "properties": {
    "name": "5 MARKHAM ROAD PUCKAPUNYAL 3662",
    "locID": "LOC000024812320",
    "tech": "FTTP",
    "upgrade": "NULL_NA",
    "gnaf_pid": "GAVIC414475617",
    "ee": true
   }
  },
  {
   "type": "Feature",
   "geometry": {
    "type": "Point",
    "coordinates": [
     145.03841208,
     -37.00436201
    ]
   },
   "properties": {
    "name": "1 MARKHAM ROAD PUCKAPUNYAL 3662",
    "locID": "LOC000102423041",
    "tech": "FTTP",
    "upgrade": "NULL_NA",
    "gnaf_pid": "GAVIC414475619",
    "ee": true
   }
  },
  {
   "type": "Feature",
   "geometry": {
    "type": "Point",
    "coordinates": [
     145.03826807,
     -37.00430099
    ]
   },
   "properties": {
    "name": "3 MARKHAM ROAD PUCKAPUNYAL 3662",
    "locID": "LOC000034499631",
    "tech": "FTTP",
    "upgrade": "NULL_NA",
    "gnaf_pid": "GAVIC414475620",
    "ee": true
   }
  },
  {
   "type": "Feature",
   "geometry": {
    "type": "Point",
    "coordinates": [
     145.03767804,
     -37.00407401
    ]
   },
   "properties": {
    "name": "7 MARKHAM ROAD PUCKAPUNYAL 3662",
    "locID": "LOC000086740935",
    "tech": "FTTP",
    "upgrade": "NULL_NA",
    "gnaf_pid": "GAVIC414475622",
    "ee": true
   }
  },
  {
   "type": "Feature",
   "geometry": {
    "type": "Point",
    "coordinates": [
     145.03909715,
     -37.00423997
    ]
   },
   "properties": {
    "name": "4 MORESBY TERRACE PUCKAPUNYAL 3662",
    "locID": "LOC000004758262",
    "tech": "WIRELESS",
    "upgrade": "NULL_NA",
    "gnaf_pid": "GAVIC414475834",
    "ee": true,
    "tech_change_status": "Not Planned",
    "program_type": "Fixed Wireless and Satellite Upgrade Program",
    "target_eligibility_quarter": "NA"
   }
  },
  {
   "type": "Feature",
   "geometry": {
    "type": "Point",
    "coordinates": [
     145.03428516,
     -37.00057918
    ]
   },
   "properties": {
    "name": "2 TIMOR COURT PUCKAPUNYAL 3662",
    "locID": "LOC100074082676",
    "tech": "FTTP",
    "upgrade": "NULL_NA",
    "gnaf_pid": "GAVIC414477252",
    "ee": true
   }
  },
  {
   "type": "Feature",
   "geometry": {
    "type": "Point",
    "coordinates": [
     145.03551651,
     -37.00105261
    ]
   },
   "properties": {
    "name": "16 RETIMO CRESCENT PUCKAPUNYAL 3662",
    "locID": "LOC000032105395",
    "tech": "FTTP",
    "upgrade": "NULL_NA",
    "gnaf_pid": "GAVIC414481792",
    "ee": true,
    "tech_change_status": "Previous Tech Disconnected"
   }
  },
  {
   "type": "Feature",
   "geometry": {
    "type": "Point",
    "coordinates": [
     145.03603022,
     -37.00203992
    ]
   },
   "properties": {
    "name": "2 RETIMO CRESCENT PUCKAPUNYAL 3662",
    "locID": "LOC100074083265",
    "tech": "FTTP",
    "upgrade": "NULL_NA",
    "gnaf_pid": "GAVIC414481793",
    "ee": true
   }
  },
  {
   "type": "Feature",
   "geometry": {
    "type": "Point",
    "coordinates": [
     145.03605348,
     -37.00139364
    ]
   },
   "properties": {
    "name": "10 RETIMO CRESCENT PUCKAPUNYAL 3662",
    "locID": "LOC000090451876",
    "tech": "FTTP",
    "upgrade": "NULL_NA",
    "gnaf_pid": "GAVIC414481794",
    "ee": true
   }
  },
  {
   "type": "Feature",
   "geometry": {
    "type": "Point",
    "coordinates": [
     145.03506753,
     -37.00104244
    ]
   },
   "properties": {
    "name": "20 RETIMO CRESCENT PUCKAPUNYAL 3662",
    "locID": "LOC100074083265",
    "tech": "FTTP",
    "upgrade": "NULL_NA",
    "gnaf_pid": "GAVIC414481797",
    "ee": true
   }
  },
  {
   "type": "Feature",
   "geometry": {
    "type": "Point",
    "coordinates": [
     145.03606197,
     -37.0012123
    ]
   },
   "properties": {
    "name": "12 RETIMO CRESCENT PUCKAPUNYAL 3662",
    "locID": "LOC000031912225",
    "tech": "FTTP",
    "upgrade": "NULL_NA",
    "gnaf_pid": "GAVIC414481798",
    "ee": true
   }
  },
  {
   "type": "Feature",
   "geometry": {
    "type": "Point",
    "coordinates": [
     145.03567755,
     -37.00172549
    ]
   },
   "properties": {
    "name": "3 RETIMO CRESCENT PUCKAPUNYAL 3662",
    "locID": "LOC000054927526",
    "tech": "FTTP",
    "upgrade": "NULL_NA",
    "gnaf_pid": "GAVIC414481799",
    "ee": true
   }
  },
  {
   "type": "Feature",
   "geometry": {
    "type": "Point",
    "coordinates": [
     145.0352872,
     -37.00105097
    ]
   },
   "properties": {
    "name": "18 RETIMO CRESCENT PUCKAPUNYAL 3662",
    "locID": "LOC100074083249",
    "tech": "FTTP",
    "upgrade": "NULL_NA",
    "gnaf_pid": "GAVIC414481800",
    "ee": true
   }
  },
  {
   "type": "Feature",
   "geometry": {
    "type": "Point",
    "coordinates": [
     145.03566246,
     -37.00154931
    ]
   },
   "properties": {
    "name": "5 RETIMO CRESCENT PUCKAPUNYAL 3662",
    "locID": "LOC000068467954",
    "tech": "FTTP",
    "upgrade": "NULL_NA",
    "gnaf_pid": "GAVIC414481801",
    "ee": true
   }
  },
  {
   "type": "Feature",
   "geometry": {
    "type": "Point",
    "coordinates": [
     145.03567096,
     -37.00138774
    ]
   },
   "properties": {
    "name": "7 RETIMO CRESCENT PUCKAPUNYAL 3662",
    "locID": "LOC000089155621",
    "tech": "FTTP",
    "upgrade": "NULL_NA",
    "gnaf_pid": "GAVIC414481802",
    "ee": true
   }
  },
  {
   "type": "Feature",
   "geometry": {
    "type": "Point",
    "coordinates": [
     145.03576295,
     -37.0010345
    ]
   },
   "properties": {
    "name": "14 RETIMO CRESCENT PUCKAPUNYAL 3662",
    "locID": "LOC000012075736",
    "tech": "FTTP",
    "upgrade": "NULL_NA",
    "gnaf_pid": "GAVIC414481803",
    "ee": true
   }
  },
  {
   "type": "Feature",
   "geometry": {
    "type": "Point",
    "coordinates": [
     145.03178513,
     -37.00058431
    ]
   },
   "properties": {
    "name": "10 SANANANDA ROAD PUCKAPUNYAL 3662",
    "locID": "LOC100074082653",
    "tech": "FTTP",
    "upgrade": "NULL_NA",
    "gnaf_pid": "GAVIC414481806",
    "ee": true
   }
  },
  {
   "type": "Feature",
   "geometry": {
    "type": "Point",
    "coordinates": [
     145.03178313,
     -37.00039366
    ]
   },
   "properties": {
    "name": "12 SANANANDA ROAD PUCKAPUNYAL 3662",
    "locID": "LOC100074083277",
    "tech": "FTTP",
    "upgrade": "NULL_NA",
    "gnaf_pid": "GAVIC414481807",
    "ee": true
   }
  },
  {
   "type": "Feature",
   "geometry": {
    "type": "Point",
    "coordinates": [
     145.03178817,
     -37.00112491
    ]
   },
   "properties": {
    "name": "6 SANANANDA ROAD PUCKAPUNYAL 3662",
    "locID": "LOC100074082580",
    "tech": "FTTP",
    "upgrade": "NULL_NA",
    "gnaf_pid": "GAVIC414481809",
    "ee": true
   }
  },
  {
   "type": "Feature",
   "geometry": {
    "type": "Point",
    "coordinates": [
     145.03177986,
     -37.00147552
    ]
   },
   "properties": {
    "name": "4 SANANANDA ROAD PUCKAPUNYAL 3662",
    "locID": "LOC100074082567",
    "tech": "FTTP",
    "upgrade": "NULL_NA",
    "gnaf_pid": "GAVIC414481810",
    "ee": true
   }
  },
  {
   "type": "Feature",
   "geometry": {
    "type": "Point",
    "coordinates": [
     145.03178496,
     -37.00018847
    ]
   },
   "properties": {
    "name": "14 SANANANDA ROAD PUCKAPUNYAL 3662",
    "locID": "LOC100074082624",
    "tech": "FTTP",
    "upgrade": "NULL_NA",
    "gnaf_pid": "GAVIC414481811",
    "ee": true
   }
  },
  {
   "type": "Feature",
   "geometry": {
    "type": "Point",
    "coordinates": [
     145.039599,
     -37.00413504
    ]
   },
   "properties": {
    "name": "1 SEPIK STREET PUCKAPUNYAL 3662",
    "locID": "LOC000050106502",
    "tech": "FTTP",
    "upgrade": "NULL_NA",
    "gnaf_pid": "GAVIC414481824",
    "ee": true
   }
  },
  {
   "type": "Feature",
   "geometry": {
    "type": "Point",
    "coordinates": [
     145.03940603,
     -37.00436103
    ]
   },
   "properties": {
    "name": "3 SEPIK STREET PUCKAPUNYAL 3662",
    "locID": "LOC000011154586",
    "tech": "FTTP",
    "upgrade": "NULL_NA",
    "gnaf_pid": "GAVIC414481826",
    "ee": true
   }
  },
  {
   "type": "Feature",
   "geometry": {
    "type": "Point",
    "coordinates": [
     145.03313389,
     -36.99981442
    ]
   },
   "properties": {
    "name": "47 MALAYA ROAD PUCKAPUNYAL 3662",
    "locID": "LOC000043291798",
    "tech": "FTTP",
    "upgrade": "NULL_NA",
    "gnaf_pid": "GAVIC414485495",
    "ee": true
   }
  },
  {
   "type": "Feature",
   "geometry": {
    "type": "Point",
    "coordinates": [
     145.0350658,
     -36.9998421
    ]
   },
   "properties": {
    "name": "37 MALAYA ROAD PUCKAPUNYAL 3662",
    "locID": "LOC000042617664",
    "tech": "FTTP",
    "upgrade": "NULL_NA",
    "gnaf_pid": "GAVIC414485496",
    "ee": true
   }
  },
  {
   "type": "Feature",
   "geometry": {
    "type": "Point",
    "coordinates": [
     145.03547285,
     -36.99984198
    ]
   },
   "properties": {
    "name": "33 MALAYA ROAD PUCKAPUNYAL 3662",
    "locID": "LOC000044515540",
    "tech": "FTTP",
    "upgrade": "NULL_NA",
    "gnaf_pid": "GAVIC414485501",
    "ee": true
   }
  },
  {
   "type": "Feature",
   "geometry": {
    "type": "Point",
    "coordinates": [
     145.03735156,
     -36.99985989
    ]
   },
   "properties": {
    "name": "19 MALAYA ROAD PUCKAPUNYAL 3662",
    "locID": "LOC000044388680",
    "tech": "FTTP",
    "upgrade": "NULL_NA",
    "gnaf_pid": "GAVIC414485515",
    "ee": true
   }
  },
  {
   "type": "Feature",
   "geometry": {
    "type": "Point",
    "coordinates": [
     145.03748292,
     -37.00399499
    ]
   },
   "properties": {
    "name": "9 MARKHAM ROAD PUCKAPUNYAL 3662",
    "locID": "LOC000058045827",
    "tech": "FTTP",
    "upgrade": "NULL_NA",
    "gnaf_pid": "GAVIC414485528",
    "ee": true
   }
  },
  {
   "type": "Feature",
   "geometry": {
    "type": "Point",
    "coordinates": [
     145.03919508,
     -37.00397997
    ]
   },
   "properties": {
    "name": "2 MORESBY TERRACE PUCKAPUNYAL 3662",
    "locID": "LOC000015577214",
    "tech": "FTTP",
    "upgrade": "NULL_NA",
    "gnaf_pid": "GAVIC414485548",
    "ee": true
   }
  },
  {
   "type": "Feature",
   "geometry": {
    "type": "Point",
    "coordinates": [
     145.03898807,
     -37.00441503
    ]
   },
   "properties": {
    "name": "6 MORESBY TERRACE PUCKAPUNYAL 3662",
    "locID": "LOC000016960911",
    "tech": "FTTP",
    "upgrade": "NULL_NA",
    "gnaf_pid": "GAVIC414485556",
    "ee": true
   }
  },
  {
   "type": "Feature",
   "geometry": {
    "type": "Point",
    "coordinates": [
     145.03929804,
     -37.00453598
    ]
   },
   "properties": {
    "name": "5 SEPIK STREET PUCKAPUNYAL 3662",
    "locID": "LOC000071730572",
    "tech": "FTTP",
    "upgrade": "NULL_NA",
    "gnaf_pid": "GAVIC414486387",
    "ee": true
   }
  },
  {
   "type": "Feature",
   "geometry": {
    "type": "Point",
    "coordinates": [
     145.03432064,
     -37.00091718
    ]
   },
   "properties": {
    "name": "1 TIMOR COURT PUCKAPUNYAL 3662",
    "locID": "LOC100074082669",
    "tech": "FTTP",
    "upgrade": "NULL_NA",
    "gnaf_pid": "GAVIC414486390",
    "ee": true
   }
  },
  {
   "type": "Feature",
   "geometry": {
    "type": "Point",
    "coordinates": [
     145.03408919,
     -37.00090694
    ]
   },
   "properties": {
    "name": "3 TIMOR COURT PUCKAPUNYAL 3662",
    "locID": "LOC100074082742",
    "tech": "FTTP",
    "upgrade": "NULL_NA",
    "gnaf_pid": "GAVIC414486391",
    "ee": true
   }
  },
  {
   "type": "Feature",
   "geometry": {
    "type": "Point",
    "coordinates": [
     145.03408567,
     -37.00058651
    ]
   },
   "properties": {
    "name": "4 TIMOR COURT PUCKAPUNYAL 3662",
    "locID": "LOC100074082682",
    "tech": "FTTP",
    "upgrade": "NULL_NA",
    "gnaf_pid": "GAVIC414486392",
    "ee": true
   }
  },
  {
   "type": "Feature",
   "geometry": {
    "type": "Point",
    "coordinates": [
     145.03441229,
     -36.99983876
    ]
   },
   "properties": {
    "name": "41 MALAYA ROAD PUCKAPUNYAL 3662",
    "locID": "LOC000015664002",
    "tech": "FTTP",
    "upgrade": "NULL_NA",
    "gnaf_pid": "GAVIC414492502",
    "ee": true
   }
  },
  {
   "type": "Feature",
   "geometry": {
    "type": "Point",
    "coordinates": [
     145.03204162,
     -36.99984452
    ]
   },
   "properties": {
    "name": "53 MALAYA ROAD PUCKAPUNYAL 3662",
    "locID": "LOC000106503813",
    "tech": "FTTP",
    "upgrade": "NULL_NA",
    "gnaf_pid": "GAVIC414492507",
    "ee": true
   }
  },
  {
   "type": "Feature",
   "geometry": {
    "type": "Point",
    "coordinates": [
     145.03464113,
     -36.99984752
    ]
   },
   "properties": {
    "name": "39 MALAYA ROAD PUCKAPUNYAL 3662",
    "locID": "LOC100074083220",
    "tech": "FTTP",
    "upgrade": "NULL_NA",
    "gnaf_pid": "GAVIC414492508",
    "ee": true
   }
  },
  {
   "type": "Feature",
   "geometry": {
    "type": "Point",
    "coordinates": [
     145.03355196,
     -36.99983019
    ]
   },
   "properties": {
    "name": "45 MALAYA ROAD PUCKAPUNYAL 3662",
    "locID": "LOC000062960251",
    "tech": "FTTP",
    "upgrade": "NULL_NA",
    "gnaf_pid": "GAVIC414500129",
    "ee": true
   }
  },
  {
   "type": "Feature",
   "geometry": {
    "type": "Point",
    "coordinates": [
     145.03230687,
     -36.99985354
    ]
   },
   "properties": {
    "name": "51 MALAYA ROAD PUCKAPUNYAL 3662",
    "locID": "LOC000089139254",
    "tech": "FTTP",
    "upgrade": "NULL_NA",
    "gnaf_pid": "GAVIC414500130",
    "ee": true
   }
  },
  {
   "type": "Feature",
   "geometry": {
    "type": "Point",
    "coordinates": [
     145.03251996,
     -36.99984621
    ]
   },
   "properties": {
    "name": "49 MALAYA ROAD PUCKAPUNYAL 3662",
    "locID": "LOC000040156722",
    "tech": "FTTP",
    "upgrade": "NULL_NA",
    "gnaf_pid": "GAVIC414500139",
    "ee": true
   }
  },
  {
   "type": "Feature",
   "geometry": {
    "type": "Point",
    "coordinates": [
     145.03396562,
     -36.99983007
    ]
   },
   "properties": {
    "name": "43 MALAYA ROAD PUCKAPUNYAL 3662",
    "locID": "LOC000084566567",
    "tech": "FTTP",
    "upgrade": "NULL_NA",
    "gnaf_pid": "GAVIC414500142",
    "ee": true
   }
  },
  {
   "type": "Feature",
   "geometry": {
    "type": "Point",
    "coordinates": [
     145.03566544,
     -36.99984877
    ]
   },
   "properties": {
    "name": "31 MALAYA ROAD PUCKAPUNYAL 3662",
    "locID": "LOC000006160345",
    "tech": "FTTP",
    "upgrade": "NULL_NA",
    "gnaf_pid": "GAVIC414500143",
    "ee": true
   }
  },
  {
   "type": "Feature",
   "geometry": {
    "type": "Point",
    "coordinates": [
     145.03248396,
     -37.00016
    ]
   },
   "properties": {
    "name": "11 LITANI CRESCENT PUCKAPUNYAL 3662",
    "locID": "LOC100074082408",
    "tech": "FTTP",
    "upgrade": "NULL_NA",
    "gnaf_pid": "GAVIC414501009",
    "ee": true
   }
  },
  {
   "type": "Feature",
   "geometry": {
    "type": "Point",
    "coordinates": [
     145.03260859,
     -37.00035713
    ]
   },
   "properties": {
    "name": "9 LITANI CRESCENT PUCKAPUNYAL 3662",
    "locID": "LOC100074082449",
    "tech": "FTTP",
    "upgrade": "NULL_NA",
    "gnaf_pid": "GAVIC414501010",
    "ee": true
   }
  },
  {
   "type": "Feature",
   "geometry": {
    "type": "Point",
    "coordinates": [
     145.03364025,
     -37.00047256
    ]
   },
   "properties": {
    "name": "5 LITANI CRESCENT PUCKAPUNYAL 3662",
    "locID": "LOC100074082386",
    "tech": "FTTP",
    "upgrade": "NULL_NA",
    "gnaf_pid": "GAVIC414501012",
    "ee": true
   }
  },
  {
   "type": "Feature",
   "geometry": {
    "type": "Point",
    "coordinates": [
     145.03347225,
     -37.00016051
    ]
   },
   "properties": {
    "name": "2 LITANI CRESCENT PUCKAPUNYAL 3662",
    "locID": "LOC100074082355",
    "tech": "FTTP",
    "upgrade": "NULL_NA",
    "gnaf_pid": "GAVIC414501014",
    "ee": true
   }
  },
  {
   "type": "Feature",
   "geometry": {
    "type": "Point",
    "coordinates": [
     145.03300751,
     -37.00016428
    ]
   },
   "properties": {
    "name": "4 LITANI CRESCENT PUCKAPUNYAL 3662",
    "locID": "LOC100074082372",
    "tech": "FTTP",
    "upgrade": "NULL_NA",
    "gnaf_pid": "GAVIC414501016",
    "ee": true
   }
  },
  {
   "type": "Feature",
   "geometry": {
    "type": "Point",
    "coordinates": [
     145.03396532,
     -37.00014651
    ]
   },
   "properties": {
    "name": "1 LITANI CRESCENT PUCKAPUNYAL 3662",
    "locID": "LOC100074082338",
    "tech": "FTTP",
    "upgrade": "NULL_NA",
    "gnaf_pid": "GAVIC414501017",
    "ee": true
   }
  },
  {
   "type": "Feature",
   "geometry": {
    "type": "Point",
    "coordinates": [
     145.03281721,
     -37.00046435
    ]
   },
   "properties": {
    "name": "7 LITANI CRESCENT PUCKAPUNYAL 3662",
    "locID": "LOC100074082393",
    "tech": "FTTP",
    "upgrade": "NULL_NA",
    "gnaf_pid": "GAVIC414501018",
    "ee": true
   }
  },
  {
   "type": "Feature",
   "geometry": {
    "type": "Point",
    "coordinates": [
     145.03384981,
     -37.00039292
    ]
   },
   "properties": {
    "name": "3 LITANI CRESCENT PUCKAPUNYAL 3662",
    "locID": "LOC100074082364",
    "tech": "FTTP",
    "upgrade": "NULL_NA",
    "gnaf_pid": "GAVIC414501019",
    "ee": true
   }
  },
  {
   "type": "Feature",
   "geometry": {
    "type": "Point",
    "coordinates": [
     145.033963,
     -37.00147246
    ]
   },
   "properties": {
    "name": "2 LONE PINE CRESCENT PUCKAPUNYAL 3662",
    "locID": "LOC000055232997",
    "tech": "FTTP",
    "upgrade": "NULL_NA",
    "gnaf_pid": "GAVIC414501025",
    "ee": true
   }
  },
  {
   "type": "Feature",
   "geometry": {
    "type": "Point",
    "coordinates": [
     145.03284014,
     -37.00105894
    ]
   },
   "properties": {
    "name": "8 LONE PINE CRESCENT PUCKAPUNYAL 3662",
    "locID": "LOC000009798668",
    "tech": "FTTP",
    "upgrade": "NULL_NA",
    "gnaf_pid": "GAVIC414501028",
    "ee": true
   }
  },
  {
   "type": "Feature",
   "geometry": {
    "type": "Point",
    "coordinates": [
     145.03262479,
     -37.00114082
    ]
   },
   "properties": {
    "name": "10 LONE PINE CRESCENT PUCKAPUNYAL 3662",
    "locID": "LOC100074083103",
    "tech": "FTTP",
    "upgrade": "NULL_NA",
    "gnaf_pid": "GAVIC414501031",
    "ee": true
   }
  },
  {
   "type": "Feature",
   "geometry": {
    "type": "Point",
    "coordinates": [
     145.03381925,
     -37.00108921
    ]
   },
   "properties": {
    "name": "6 LONE PINE CRESCENT PUCKAPUNYAL 3662",
    "locID": "LOC000072708144",
    "tech": "FTTP",
    "upgrade": "NULL_NA",
    "gnaf_pid": "GAVIC414501033",
    "ee": true
   }
  },
  {
   "type": "Feature",
   "geometry": {
    "type": "Point",
    "coordinates": [
     145.03401222,
     -37.00129541
    ]
   },
   "properties": {
    "name": "4 LONE PINE CRESCENT PUCKAPUNYAL 3662",
    "locID": "LOC100074083093",
    "tech": "FTTP",
    "upgrade": "NULL_NA",
    "gnaf_pid": "GAVIC414501034",
    "ee": true
   }
  },
  {
   "type": "Feature",
   "geometry": {
    "type": "Point",
    "coordinates": [
     145.03525948,
     -37.00045495
    ]
   },
   "properties": {
    "name": "9 LAE CRESCENT PUCKAPUNYAL 3662",
    "locID": "LOC100074082317",
    "tech": "FTTP",
    "upgrade": "NULL_NA",
    "gnaf_pid": "GAVIC414505827",
    "ee": true
   }
  },
  {
   "type": "Feature",
   "geometry": {
    "type": "Point",
    "coordinates": [
     145.03595159,
     -37.00042969
    ]
   },
   "properties": {
    "name": "3 LAE CRESCENT PUCKAPUNYAL 3662",
    "locID": "LOC100074082289",
    "tech": "FTTP",
    "upgrade": "NULL_NA",
    "gnaf_pid": "GAVIC414505829",
    "ee": true
   }
  },
  {
   "type": "Feature",
   "geometry": {
    "type": "Point",
    "coordinates": [
     145.03505775,
     -37.00046583
    ]
   },
   "properties": {
    "name": "11 LAE CRESCENT PUCKAPUNYAL 3662",
    "locID": "LOC100074082329",
    "tech": "FTTP",
    "upgrade": "NULL_NA",
    "gnaf_pid": "GAVIC414505832",
    "ee": true
   }
  },
  {
   "type": "Feature",
   "geometry": {
    "type": "Point",
    "coordinates": [
     145.03564785,
     -37.00015419
    ]
   },
   "properties": {
    "name": "2 LAE CRESCENT PUCKAPUNYAL 3662",
    "locID": "LOC100074082340",
    "tech": "FTTP",
    "upgrade": "NULL_NA",
    "gnaf_pid": "GAVIC414505833",
    "ee": true
   }
  },
  {
   "type": "Feature",
   "geometry": {
    "type": "Point",
    "coordinates": [
     145.03549919,
     -37.00046435
    ]
   },
   "properties": {
    "name": "7 LAE CRESCENT PUCKAPUNYAL 3662",
    "locID": "LOC100074082301",
    "tech": "FTTP",
    "upgrade": "NULL_NA",
    "gnaf_pid": "GAVIC414505834",
    "ee": true
   }
  },
  {
   "type": "Feature",
   "geometry": {
    "type": "Point",
    "coordinates": [
     145.03604943,
     -37.00027328
    ]
   },
   "properties": {
    "name": "1 LAE CRESCENT PUCKAPUNYAL 3662",
    "locID": "LOC100074082270",
    "tech": "FTTP",
    "upgrade": "NULL_NA",
    "gnaf_pid": "GAVIC414505835",
    "ee": true
   }
  },
  {
   "type": "Feature",
   "geometry": {
    "type": "Point",
    "coordinates": [
     145.03571443,
     -37.00045549
    ]
   },
   "properties": {
    "name": "5 LAE CRESCENT PUCKAPUNYAL 3662",
    "locID": "LOC100074082291",
    "tech": "FTTP",
    "upgrade": "NULL_NA",
    "gnaf_pid": "GAVIC414505836",
    "ee": true
   }
  },
  {
   "type": "Feature",
   "geometry": {
    "type": "Point",
    "coordinates": [
     145.0364215,
     -37.0024274
    ]
   },
   "properties": {
    "name": "10 ALAMEIN ROAD PUCKAPUNYAL 3662",
    "locID": "LOC100074082113",
    "tech": "FTTP",
    "upgrade": "NULL_NA",
    "gnaf_pid": "GAVIC414513261",
    "ee": true
   }
  },
  {
   "type": "Feature",
   "geometry": {
    "type": "Point",
    "coordinates": [
     145.03464462,
     -37.00179197
    ]
   },
   "properties": {
    "name": "20 ALAMEIN ROAD PUCKAPUNYAL 3662",
    "locID": "LOC000070709369",
    "tech": "FTTP",
    "upgrade": "NULL_NA",
    "gnaf_pid": "GAVIC414513263",
    "ee": true
   }
  },
  {
   "type": "Feature",
   "geometry": {
    "type": "Point",
    "coordinates": [
     145.03623502,
     -37.0023398
    ]
   },
   "properties": {
    "name": "12 ALAMEIN ROAD PUCKAPUNYAL 3662",
    "locID": "LOC000027036008",
    "tech": "FTTP",
    "upgrade": "NULL_NA",
    "gnaf_pid": "GAVIC414513272",
    "ee": true
   }
  },
  {
   "type": "Feature",
   "geometry": {
    "type": "Point",
    "coordinates": [
     145.03507329,
     -37.00191216
    ]
   },
   "properties": {
    "name": "18 ALAMEIN ROAD PUCKAPUNYAL 3662",
    "locID": "LOC000045469680",
    "tech": "FTTP",
    "upgrade": "NULL_NA",
    "gnaf_pid": "GAVIC414513292",
    "ee": true
   }
  },
  {
   "type": "Feature",
   "geometry": {
    "type": "Point",
    "coordinates": [
     145.0460453,
     -37.00504281
    ]
   },
   "properties": {
    "name": "1 CORAL CLOSE PUCKAPUNYAL 3662",
    "locID": "LOC100074082178",
    "tech": "FTTP",
    "upgrade": "NULL_NA",
    "gnaf_pid": "GAVIC414514918",
    "ee": true
   }
  },
  {
   "type": "Feature",
   "geometry": {
    "type": "Point",
    "coordinates": [
     145.04603888,
     -37.00534371
    ]
   },
   "properties": {
    "name": "3 CORAL CLOSE PUCKAPUNYAL 3662",
    "locID": "LOC100074082197",
    "tech": "FTTP",
    "upgrade": "NULL_NA",
    "gnaf_pid": "GAVIC414514919",
    "ee": true
   }
  },
  {
   "type": "Feature",
   "geometry": {
    "type": "Point",
    "coordinates": [
     145.04604538,
     -37.00517076
    ]
   },
   "properties": {
    "name": "2 CORAL CLOSE PUCKAPUNYAL 3662",
    "locID": "LOC100074082184",
    "tech": "FTTP",
    "upgrade": "NULL_NA",
    "gnaf_pid": "GAVIC414514920",
    "ee": true
   }
  },
  {
   "type": "Feature",
   "geometry": {
    "type": "Point",
    "coordinates": [
     145.04297265,
     -37.01497845
    ]
   },
   "properties": {
    "name": "820 SEYMOUR-TOOBORAC ROAD PUCKAPUNYAL 3662",
    "locID": "LOC000029293694",
    "tech": "WIRELESS",
    "upgrade": "NULL_NA",
    "gnaf_pid": "GAVIC421194284",
    "ee": true,
    "tech_change_status": "Not Planned",
    "program_type": "Fixed Wireless and Satellite Upgrade Program",
    "target_eligibility_quarter": "NA"
   }
  },
  {
   "type": "Feature",
   "geometry": {
    "type": "Point",
    "coordinates": [
     145.04604085,
     -37.01660771
    ]
   },
   "properties": {
    "name": "790 SEYMOUR-TOOBORAC ROAD PUCKAPUNYAL 3662",
    "locID": "LOC000031915669",
    "tech": "WIRELESS",
    "upgrade": "NULL_NA",
    "gnaf_pid": "GAVIC421807564",
    "ee": true,
    "tech_change_status": "Not Planned",
    "program_type": "Fixed Wireless and Satellite Upgrade Program",
    "target_eligibility_quarter": "NA"
   }
  },
  {
   "type": "Feature",
   "geometry": {
    "type": "Point",
    "coordinates": [
     145.0415931,
     -37.00389556
    ]
   },
   "properties": {
    "name": "8 PERONNE STREET PUCKAPUNYAL 3662",
    "locID": "LOC000059496105",
    "tech": "FTTP",
    "upgrade": "NULL_NA",
    "gnaf_pid": "GAVIC422000445",
    "ee": true
   }
  },
  {
   "type": "Feature",
   "geometry": {
    "type": "Point",
    "coordinates": [
     145.03684398,
     -37.00050161
    ]
   },
   "properties": {
    "name": "35 BUNA CRESCENT PUCKAPUNYAL 3662",
    "locID": "LOC000056565245",
    "tech": "FTTP",
    "upgrade": "NULL_NA",
    "gnaf_pid": "GAVIC423101616",
    "ee": true
   }
  },
  {
   "type": "Feature",
   "geometry": {
    "type": "Point",
    "coordinates": [
     145.03415199,
     -36.99983497
    ]
   },
   "properties": {
    "name": "41A MALAYA ROAD PUCKAPUNYAL 3662",
    "locID": "LOC000015578958",
    "tech": "FTTP",
    "upgrade": "NULL_NA",
    "gnaf_pid": "GAVIC423281527",
    "ee": true
   }
  },
  {
   "type": "Feature",
   "geometry": {
    "type": "Point",
    "coordinates": [
     145.03333192,
     -36.99982848
    ]
   },
   "properties": {
    "name": "45A MALAYA ROAD PUCKAPUNYAL 3662",
    "locID": "LOC000062576138",
    "tech": "FTTP",
    "upgrade": "NULL_NA",
    "gnaf_pid": "GAVIC423663359",
    "ee": true
   }
  },
  {
   "type": "Feature",
   "geometry": {
    "type": "Point",
    "coordinates": [
     145.03675286,
     -37.00074285
    ]
   },
   "properties": {
    "name": "33 BUNA CRESCENT PUCKAPUNYAL 3662",
    "locID": "LOC000096751566",
    "tech": "FTTP",
    "upgrade": "NULL_NA",
    "gnaf_pid": "GAVIC423717119",
    "ee": true
   }
  },
  {
   "type": "Feature",
   "geometry": {
    "type": "Point",
    "coordinates": [
     145.03186377,
     -36.99980617
    ]
   },
   "properties": {
    "name": "53A MALAYA ROAD PUCKAPUNYAL 3662",
    "locID": "LOC000106378271",
    "tech": "FTTP",
    "upgrade": "NULL_NA",
    "gnaf_pid": "GAVIC423721380",
    "ee": true
   }
  },
  {
   "type": "Feature",
   "geometry": {
    "type": "Point",
    "coordinates": [
     145.03254876,
     -37.00180459
    ]
   },
   "properties": {
    "name": "24 ALAMEIN ROAD PUCKAPUNYAL 3662",
    "locID": "LOC000012039578",
    "tech": "FTTP",
    "upgrade": "NULL_NA",
    "gnaf_pid": "GAVIC423901294",
    "ee": true
   }
  },
  {
   "type": "Feature",
   "geometry": {
    "type": "Point",
    "coordinates": [
     145.03294466,
     -36.99982153
    ]
   },
   "properties": {
    "name": "47A MALAYA ROAD PUCKAPUNYAL 3662",
    "locID": "LOC000043309423",
    "tech": "FTTP",
    "upgrade": "NULL_NA",
    "gnaf_pid": "GAVIC423904129",
    "ee": true
   }
  },
  {
   "type": "Feature",
   "geometry": {
    "type": "Point",
    "coordinates": [
     145.03177993,
     -37.00164969
    ]
   },
   "properties": {
    "name": "2A SANANANDA ROAD PUCKAPUNYAL 3662",
    "locID": "LOC100074082630",
    "tech": "FTTP",
    "upgrade": "NULL_NA",
    "gnaf_pid": "GAVIC423905120",
    "ee": true
   }
  },
  {
   "type": "Feature",
   "geometry": {
    "type": "Point",
    "coordinates": [
     145.03722191,
     -37.00388601
    ]
   },
   "properties": {
    "name": "11 MARKHAM ROAD PUCKAPUNYAL 3662",
    "locID": "LOC000018590241",
    "tech": "FTTP",
    "upgrade": "NULL_NA",
    "gnaf_pid": "GAVIC423982876",
    "ee": true
   }
  },
  {
   "type": "Feature",
   "geometry": {
    "type": "Point",
    "coordinates": [
     145.03178542,
     -37.00128777
    ]
   },
   "properties": {
    "name": "4A SANANANDA ROAD PUCKAPUNYAL 3662",
    "locID": "LOC000011152415",
    "tech": "WIRELESS",
    "upgrade": "NULL_NA",
    "gnaf_pid": "GAVIC423984286",
    "ee": true,
    "tech_change_status": "Not Planned",
    "program_type": "Fixed Wireless and Satellite Upgrade Program",
    "target_eligibility_quarter": "NA"
   }
  },
  {
   "type": "Feature",
   "geometry": {
    "type": "Point",
    "coordinates": [
     145.03557492,
     -37.00205604
    ]
   },
   "properties": {
    "name": "16 ALAMEIN ROAD PUCKAPUNYAL 3662",
    "locID": "LOC100074082994",
    "tech": "FTTP",
    "upgrade": "NULL_NA",
    "gnaf_pid": "GAVIC423985310",
    "ee": true
   }
  },
  {
   "type": "Feature",
   "geometry": {
    "type": "Point",
    "coordinates": [
     145.03640796,
     -37.00291896
    ]
   },
   "properties": {
    "name": "25A ALAMEIN ROAD PUCKAPUNYAL 3662",
    "locID": "LOC000078203254",
    "tech": "FTTP",
    "upgrade": "NULL_NA",
    "gnaf_pid": "GAVIC423985311",
    "ee": true
   }
  },
  {
   "type": "Feature",
   "geometry": {
    "type": "Point",
    "coordinates": [
     145.04963584,
     -37.01783927
    ]
   },
   "properties": {
    "name": "5 BLAMEY AVENUE PUCKAPUNYAL 3662",
    "locID": "LOC000125241669",
    "tech": "WIRELESS",
    "upgrade": "NULL_NA",
    "gnaf_pid": "GAVIC423986112",
    "ee": true,
    "tech_change_status": "Not Planned",
    "program_type": "Fixed Wireless and Satellite Upgrade Program",
    "target_eligibility_quarter": "NA"
   }
  },
  {
   "type": "Feature",
   "geometry": {
    "type": "Point",
    "coordinates": [
     145.04963584,
     -37.01783927
    ]
   },
   "properties": {
    "name": "780 SEYMOUR-TOOBORAC ROAD PUCKAPUNYAL 3662",
    "locID": "LOC000039056319",
    "tech": "WIRELESS",
    "upgrade": "NULL_NA",
    "gnaf_pid": "GAVIC424504464",
    "ee": true,
    "tech_change_status": "Not Planned",
    "program_type": "Fixed Wireless and Satellite Upgrade Program",
    "target_eligibility_quarter": "NA"
   }
  },
  {
   "type": "Feature",
   "geometry": {
    "type": "Point",
    "coordinates": [
     145.03884239,
     -37.00379702
    ]
   },
   "properties": {
    "name": "1C ALAMEIN ROAD PUCKAPUNYAL 3662",
    "locID": "LOC000019620426",
    "tech": "FTTP",
    "upgrade": "NULL_NA",
    "gnaf_pid": "GAVIC424548811",
    "ee": true
   }
  },
  {
   "type": "Feature",
   "geometry": {
    "type": "Point",
    "coordinates": [
     145.03821191,
     -37.00466397
    ]
   },
   "properties": {
    "name": "16 MORESBY TERRACE PUCKAPUNYAL 3662",
    "locID": "LOC000017034756",
    "tech": "FTTP",
    "upgrade": "NULL_NA",
    "gnaf_pid": "GAVIC424549952",
    "ee": true
   }
  },
  {
   "type": "Feature",
   "geometry": {
    "type": "Point",
    "coordinates": [
     145.03014107,
     -37.00096001
    ]
   },
   "properties": {
    "name": "10 FLEURBAIX STREET PUCKAPUNYAL 3662",
    "locID": "LOC100074082243",
    "tech": "FTTP",
    "upgrade": "NULL_NA",
    "gnaf_pid": "GAVIC425324970",
    "ee": true
   }
  },
  {
   "type": "Feature",
   "geometry": {
    "type": "Point",
    "coordinates": [
     145.02973473,
     -37.00104099
    ]
   },
   "properties": {
    "name": "12 FLEURBAIX STREET PUCKAPUNYAL 3662",
    "locID": "LOC100074082258",
    "tech": "FTTP",
    "upgrade": "NULL_NA",
    "gnaf_pid": "GAVIC425324971",
    "ee": true
   }
  },
  {
   "type": "Feature",
   "geometry": {
    "type": "Point",
    "coordinates": [
     145.03096188,
     -37.00096199
    ]
   },
   "properties": {
    "name": "2 FLEURBAIX STREET PUCKAPUNYAL 3662",
    "locID": "LOC100074082215",
    "tech": "FTTP",
    "upgrade": "NULL_NA",
    "gnaf_pid": "GAVIC425324972",
    "ee": true
   }
  },
  {
   "type": "Feature",
   "geometry": {
    "type": "Point",
    "coordinates": [
     145.03116267,
     -37.00098757
    ]
   },
   "properties": {
    "name": "2A FLEURBAIX STREET PUCKAPUNYAL 3662",
    "locID": "LOC100074082262",
    "tech": "FTTP",
    "upgrade": "NULL_NA",
    "gnaf_pid": "GAVIC425324973",
    "ee": true
   }
  },
  {
   "type": "Feature",
   "geometry": {
    "type": "Point",
    "coordinates": [
     145.03075596,
     -37.00096101
    ]
   },
   "properties": {
    "name": "4 FLEURBAIX STREET PUCKAPUNYAL 3662",
    "locID": "LOC100074082204",
    "tech": "FTTP",
    "upgrade": "NULL_NA",
    "gnaf_pid": "GAVIC425324974",
    "ee": true
   }
  },
  {
   "type": "Feature",
   "geometry": {
    "type": "Point",
    "coordinates": [
     145.03055112,
     -37.00096101
    ]
   },
   "properties": {
    "name": "6 FLEURBAIX STREET PUCKAPUNYAL 3662",
    "locID": "LOC100074082227",
    "tech": "FTTP",
    "upgrade": "NULL_NA",
    "gnaf_pid": "GAVIC425324975",
    "ee": true
   }
  },
  {
   "type": "Feature",
   "geometry": {
    "type": "Point",
    "coordinates": [
     145.03034808,
     -37.00096001
    ]
   },
   "properties": {
    "name": "8 FLEURBAIX STREET PUCKAPUNYAL 3662",
    "locID": "LOC100074082236",
    "tech": "FTTP",
    "upgrade": "NULL_NA",
    "gnaf_pid": "GAVIC425324976",
    "ee": true
   }
  },
  {
   "type": "Feature",
   "geometry": {
    "type": "Point",
    "coordinates": [
     145.04967796,
     -37.00937073
    ]
   },
   "properties": {
    "name": "105 BLAMEY AVENUE PUCKAPUNYAL 3662",
    "locID": "LOC100073321311",
    "tech": "FTTB",
    "upgrade": "NULL_NA",
    "gnaf_pid": "GAVIC425668253",
    "ee": true
   }
  },
  {
   "type": "Feature",
   "geometry": {
    "type": "Point",
    "coordinates": [
     145.03738212,
     -37.004373
    ]
   },
   "properties": {
    "name": "4 MADANG COURT PUCKAPUNYAL 3662",
    "locID": "LOC100074082412",
    "tech": "FTTP",
    "upgrade": "NULL_NA",
    "gnaf_pid": "GAVIC720212505",
    "ee": true
   }
  },
  {
   "type": "Feature",
   "geometry": {
    "type": "Point",
    "coordinates": [
     145.03320792,
     -37.00164204
    ]
   },
   "properties": {
    "name": "1 LONE PINE CRESCENT PUCKAPUNYAL 3662",
    "locID": "LOC100074083126",
    "tech": "FTTP",
    "upgrade": "NULL_NA",
    "gnaf_pid": "GAVIC720219251",
    "ee": true
   }
  },
  {
   "type": "Feature",
   "geometry": {
    "type": "Point",
    "coordinates": [
     145.05020677,
     -37.0052127
    ]
   },
   "properties": {
    "name": "148 BLAMEY AVENUE PUCKAPUNYAL 3662",
    "locID": "LOC100073321733",
    "tech": "FTTB",
    "upgrade": "NULL_NA",
    "gnaf_pid": "GAVIC720224204",
    "ee": true
   }
  },
  {
   "type": "Feature",
   "geometry": {
    "type": "Point",
    "coordinates": [
     145.04355764,
     -37.0050164
    ]
   },
   "properties": {
    "name": "15 COLENZO CRESCENT PUCKAPUNYAL 3662",
    "locID": "LOC100074082166",
    "tech": "FTTP",
    "upgrade": "NULL_NA",
    "gnaf_pid": "GAVIC720224653",
    "ee": true
   }
  },
  {
   "type": "Feature",
   "geometry": {
    "type": "Point",
    "coordinates": [
     145.04851587,
     -37.00326421
    ]
   },
   "properties": {
    "name": "175 BLAMEY AVENUE PUCKAPUNYAL 3662",
    "locID": "LOC100073321952",
    "tech": "FTTB",
    "upgrade": "NULL_NA",
    "gnaf_pid": "GAVIC720225000",
    "ee": true
   }
  },
  {
   "type": "Feature",
   "geometry": {
    "type": "Point",
    "coordinates": [
     145.04963584,
     -37.01783927
    ]
   },
   "properties": {
    "name": "15 BLAMEY AVENUE PUCKAPUNYAL 3662",
    "locID": "LOC100073321808",
    "tech": "FTTB",
    "upgrade": "NULL_NA",
    "gnaf_pid": "GAVIC720227148",
    "ee": true
   }
  },
  {
   "type": "Feature",
   "geometry": {
    "type": "Point",
    "coordinates": [
     145.03728995,
     -37.00457603
    ]
   },
   "properties": {
    "name": "5 MADANG COURT PUCKAPUNYAL 3662",
    "locID": "LOC100074082465",
    "tech": "FTTP",
    "upgrade": "NULL_NA",
    "gnaf_pid": "GAVIC720231540",
    "ee": true
   }
  },
  {
   "type": "Feature",
   "geometry": {
    "type": "Point",
    "coordinates": [
     145.03467296,
     -37.00093415
    ]
   },
   "properties": {
    "name": "4A WAU STREET PUCKAPUNYAL 3662",
    "locID": "LOC100074082828",
    "tech": "FTTP",
    "upgrade": "NULL_NA",
    "gnaf_pid": "GAVIC720280784",
    "ee": true
   }
  },
  {
   "type": "Feature",
   "geometry": {
    "type": "Point",
    "coordinates": [
     145.0460726,
     -37.00469778
    ]
   },
   "properties": {
    "name": "3 POZIERES PARADE PUCKAPUNYAL 3662",
    "locID": "LOC100074082454",
    "tech": "FTTP",
    "upgrade": "NULL_NA",
    "gnaf_pid": "GAVIC720283712",
    "ee": true
   }
  },
  {
   "type": "Feature",
   "geometry": {
    "type": "Point",
    "coordinates": [
     145.04533103,
     -37.00468307
    ]
   },
   "properties": {
    "name": "9 POZIERES PARADE PUCKAPUNYAL 3662",
    "locID": "LOC100074082483",
    "tech": "FTTP",
    "upgrade": "NULL_NA",
    "gnaf_pid": "GAVIC720286378",
    "ee": true
   }
  },
  {
   "type": "Feature",
   "geometry": {
    "type": "Point",
    "coordinates": [
     145.03468788,
     -37.00016249
    ]
   },
   "properties": {
    "name": "10 WAU STREET PUCKAPUNYAL 3662",
    "locID": "LOC100074082800",
    "tech": "FTTP",
    "upgrade": "NULL_NA",
    "gnaf_pid": "GAVIC720287577",
    "ee": true
   }
  },
  {
   "type": "Feature",
   "geometry": {
    "type": "Point",
    "coordinates": [
     145.03504924,
     -37.00015695
    ]
   },
   "properties": {
    "name": "7 WAU STREET PUCKAPUNYAL 3662",
    "locID": "LOC100074082788",
    "tech": "FTTP",
    "upgrade": "NULL_NA",
    "gnaf_pid": "GAVIC720288693",
    "ee": true
   }
  },
  {
   "type": "Feature",
   "geometry": {
    "type": "Point",
    "coordinates": [
     145.03465022,
     -37.00130773
    ]
   },
   "properties": {
    "name": "2A WAU STREET PUCKAPUNYAL 3662",
    "locID": "LOC100074082816",
    "tech": "FTTP",
    "upgrade": "NULL_NA",
    "gnaf_pid": "GAVIC720288846",
    "ee": true
   }
  },
  {
   "type": "Feature",
   "geometry": {
    "type": "Point",
    "coordinates": [
     145.03468544,
     -37.00039113
    ]
   },
   "properties": {
    "name": "8 WAU STREET PUCKAPUNYAL 3662",
    "locID": "LOC100074082790",
    "tech": "FTTP",
    "upgrade": "NULL_NA",
    "gnaf_pid": "GAVIC720291079",
    "ee": true
   }
  },
  {
   "type": "Feature",
   "geometry": {
    "type": "Point",
    "coordinates": [
     145.03506784,
     -37.00174243
    ]
   },
   "properties": {
    "name": "1 WAU STREET PUCKAPUNYAL 3662",
    "locID": "LOC100074082719",
    "tech": "FTTP",
    "upgrade": "NULL_NA",
    "gnaf_pid": "GAVIC720294090",
    "ee": true
   }
  },
  {
   "type": "Feature",
   "geometry": {
    "type": "Point",
    "coordinates": [
     145.04587456,
     -37.00469609
    ]
   },
   "properties": {
    "name": "5 POZIERES PARADE PUCKAPUNYAL 3662",
    "locID": "LOC100074082522",
    "tech": "FTTP",
    "upgrade": "NULL_NA",
    "gnaf_pid": "GAVIC720294312",
    "ee": true
   }
  },
  {
   "type": "Feature",
   "geometry": {
    "type": "Point",
    "coordinates": [
     145.03468848,
     -37.00147512
    ]
   },
   "properties": {
    "name": "2 WAU STREET PUCKAPUNYAL 3662",
    "locID": "LOC100074082726",
    "tech": "FTTP",
    "upgrade": "NULL_NA",
    "gnaf_pid": "GAVIC720296446",
    "ee": true
   }
  },
  {
   "type": "Feature",
   "geometry": {
    "type": "Point",
    "coordinates": [
     145.03468323,
     -37.00111991
    ]
   },
   "properties": {
    "name": "4 WAU STREET PUCKAPUNYAL 3662",
    "locID": "LOC100074082757",
    "tech": "FTTP",
    "upgrade": "NULL_NA",
    "gnaf_pid": "GAVIC720297403",
    "ee": true
   }
  },
  {
   "type": "Feature",
   "geometry": {
    "type": "Point",
    "coordinates": [
     145.03507277,
     -37.00137906
    ]
   },
   "properties": {
    "name": "5 WAU STREET PUCKAPUNYAL 3662",
    "locID": "LOC100074082761",
    "tech": "FTTP",
    "upgrade": "NULL_NA",
    "gnaf_pid": "GAVIC720297868",
    "ee": true
   }
  },
  {
   "type": "Feature",
   "geometry": {
    "type": "Point",
    "coordinates": [
     145.03508048,
     -37.00155461
    ]
   },
   "properties": {
    "name": "3 WAU STREET PUCKAPUNYAL 3662",
    "locID": "LOC100074082735",
    "tech": "FTTP",
    "upgrade": "NULL_NA",
    "gnaf_pid": "GAVIC720298032",
    "ee": true
   }
  },
  {
   "type": "Feature",
   "geometry": {
    "type": "Point",
    "coordinates": [
     145.0456105,
     -37.00469531
    ]
   },
   "properties": {
    "name": "7 POZIERES PARADE PUCKAPUNYAL 3662",
    "locID": "LOC100074082477",
    "tech": "FTTP",
    "upgrade": "NULL_NA",
    "gnaf_pid": "GAVIC720298659",
    "ee": true
   }
  },
  {
   "type": "Feature",
   "geometry": {
    "type": "Point",
    "coordinates": [
     145.03468043,
     -37.00058507
    ]
   },
   "properties": {
    "name": "6 WAU STREET PUCKAPUNYAL 3662",
    "locID": "LOC100074082774",
    "tech": "FTTP",
    "upgrade": "NULL_NA",
    "gnaf_pid": "GAVIC720298829",
    "ee": true
   }
  },
  {
   "type": "Feature",
   "geometry": {
    "type": "Point",
    "coordinates": [
     145.0472274,
     -37.00488669
    ]
   },
   "properties": {
    "name": "10 POZIERES PARADE PUCKAPUNYAL 3662",
    "locID": "LOC100074082505",
    "tech": "FTTP",
    "upgrade": "NULL_NA",
    "gnaf_pid": "GAVIC720307365",
    "ee": true
   }
  },
  {
   "type": "Feature",
   "geometry": {
    "type": "Point",
    "coordinates": [
     145.03220076,
     -37.00090273
    ]
   },
   "properties": {
    "name": "2 RABAUL COURT PUCKAPUNYAL 3662",
    "locID": "LOC100074082533",
    "tech": "FTTP",
    "upgrade": "NULL_NA",
    "gnaf_pid": "GAVIC720347499",
    "ee": true
   }
  },
  {
   "type": "Feature",
   "geometry": {
    "type": "Point",
    "coordinates": [
     145.03240932,
     -37.00089722
    ]
   },
   "properties": {
    "name": "4 RABAUL COURT PUCKAPUNYAL 3662",
    "locID": "LOC100074082551",
    "tech": "FTTP",
    "upgrade": "NULL_NA",
    "gnaf_pid": "GAVIC720353400",
    "ee": true
   }
  },
  {
   "type": "Feature",
   "geometry": {
    "type": "Point",
    "coordinates": [
     145.03239333,
     -37.00060447
    ]
   },
   "properties": {
    "name": "3 RABAUL COURT PUCKAPUNYAL 3662",
    "locID": "LOC100074082546",
    "tech": "FTTP",
    "upgrade": "NULL_NA",
    "gnaf_pid": "GAVIC720356836",
    "ee": true
   }
  },
  {
   "type": "Feature",
   "geometry": {
    "type": "Point",
    "coordinates": [
     145.03220742,
     -37.00058635
    ]
   },
   "properties": {
    "name": "1 RABAUL COURT PUCKAPUNYAL 3662",
    "locID": "LOC100074082514",
    "tech": "FTTP",
    "upgrade": "NULL_NA",
    "gnaf_pid": "GAVIC720356911",
    "ee": true
   }
  }
 ]
}