{
 "type": "FeatureCollection",
 "generated": "2025-06-18T09:13:49.321572",
 "suburb": "REEDY DAM",
 "features": [
  {
   "type": "Feature",
   "geometry": {
    "type": "Point",
    "coordinates": [
     142.69466804,
     -35.96492213
    ]
   },
   "properties": {
    "name": "931 BIRCHIP-RAINBOW ROAD REEDY DAM 3395",
    "locID": "LOC000015185026",
    "tech": "NULL",
    "upgrade": "NULL_NA",
    "gnaf_pid": "GAVIC422036295",
    "ee": false,
    "tech_change_status": "Not Planned"
   }
  },
  {
   "type": "Feature",
   "geometry": {
    "type": "Point",
    "coordinates": [
     142.60277183,
     -35.9890983
    ]
   },
   "properties": {
    "name": "94 BELLS ROAD REEDY DAM 3395",
    "locID": "LOC000124796478",
    "tech": "WIRELESS",
    "upgrade": "NULL_NA",
    "gnaf_pid": "GAVIC422127547",
    "ee": false,
    "tech_change_status": "Not Planned",
    "program_type": "Fixed Wireless and Satellite Upgrade Program",
    "target_eligibility_quarter": "NA"
   }
  },
  {
   "type": "Feature",
   "geometry": {
    "type": "Point",
    "coordinates": [
     142.68025621,
     -35.9656184
    ]
   },
   "properties": {
    "name": "1061 BIRCHIP-RAINBOW ROAD REEDY DAM 3395",
    "locID": "LOC000102696356",
    "tech": "SATELLITE",
    "upgrade": "NULL_NA",
    "gnaf_pid": "GAVIC422128584",
    "ee": false,
    "tech_change_status": "Not Planned"
   }
  },
  {
   "type": "Feature",
   "geometry": {
    "type": "Point",
    "coordinates": [
     142.64347027,
     -35.96496166
    ]
   },
   "properties": {
    "name": "1393 BIRCHIP-RAINBOW ROAD REEDY DAM 3395",
    "locID": "LOC000013573539",
    "tech": "WIRELESS",
    "upgrade": "NULL_NA",
    "gnaf_pid": "GAVIC422128585",
    "ee": false,
    "tech_change_status": "Not Planned",
    "program_type": "Fixed Wireless and Satellite Upgrade Program",
    "target_eligibility_quarter": "NA"
   }
  },
  {
   "type": "Feature",
   "geometry": {
    "type": "Point",
    "coordinates": [
     142.62588656,
     -35.96461147
    ]
   },
   "properties": {
    "name": "1552 BIRCHIP-RAINBOW ROAD REEDY DAM 3395",
    "locID": "LOC000124926200",
    "tech": "NULL",
    "upgrade": "NULL_NA",
    "gnaf_pid": "GAVIC422128586",
    "ee": false,
    "tech_change_status": "Not Planned"
   }
  },
  {
   "type": "Feature",
   "geometry": {
    "type": "Point",
    "coordinates": [
     142.6022611,
     -35.9566965
    ]
   },
   "properties": {
    "name": "1854 BIRCHIP-RAINBOW ROAD REEDY DAM 3395",
    "locID": "LOC000023008748",
    "tech": "WIRELESS",
    "upgrade": "NULL_NA",
    "gnaf_pid": "GAVIC422128588",
    "ee": false,
    "tech_change_status": "Not Planned",
    "program_type": "Fixed Wireless and Satellite Upgrade Program",
    "target_eligibility_quarter": "NA"
   }
  },
  {
   "type": "Feature",
   "geometry": {
    "type": "Point",
    "coordinates": [
     142.6234948,
     -35.99677974
    ]
   },
   "properties": {
    "name": "1961 GALAQUIL EAST ROAD REEDY DAM 3395",
    "locID": "LOC000103864874",
    "tech": "WIRELESS",
    "upgrade": "NULL_NA",
    "gnaf_pid": "GAVIC422148277",
    "ee": false,
    "tech_change_status": "Not Planned",
    "program_type": "Fixed Wireless and Satellite Upgrade Program",
    "target_eligibility_quarter": "NA"
   }
  },
  {
   "type": "Feature",
   "geometry": {
    "type": "Point",
    "coordinates": [
     142.66673051,
     -35.98801035
    ]
   },
   "properties": {
    "name": "114 HUNT ROAD REEDY DAM 3395",
    "locID": "LOC000024427235",
    "tech": "WIRELESS",
    "upgrade": "NULL_NA",
    "gnaf_pid": "GAVIC422157843",
    "ee": false,
    "tech_change_status": "Not Planned",
    "program_type": "Fixed Wireless and Satellite Upgrade Program",
    "target_eligibility_quarter": "NA"
   }
  },
  {
   "type": "Feature",
   "geometry": {
    "type": "Point",
    "coordinates": [
     142.6370428,
     -35.94050506
    ]
   },
   "properties": {
    "name": "1202 RUPANYUP ROAD REEDY DAM 3395",
    "locID": "LOC000027616414",
    "tech": "WIRELESS",
    "upgrade": "NULL_NA",
    "gnaf_pid": "GAVIC422187559",
    "ee": false,
    "tech_change_status": "Not Planned",
    "program_type": "Fixed Wireless and Satellite Upgrade Program",
    "target_eligibility_quarter": "NA"
   }
  },
  {
   "type": "Feature",
   "geometry": {
    "type": "Point",
    "coordinates": [
     142.6340784,
     -35.98657548
    ]
   },
   "properties": {
    "name": "694 RUPANYUP ROAD REEDY DAM 3395",
    "locID": "LOC000102507070",
    "tech": "WIRELESS",
    "upgrade": "NULL_NA",
    "gnaf_pid": "GAVIC422187560",
    "ee": false,
    "tech_change_status": "Not Planned",
    "program_type": "Fixed Wireless and Satellite Upgrade Program",
    "target_eligibility_quarter": "NA"
   }
  },
  {
   "type": "Feature",
   "geometry": {
    "type": "Point",
    "coordinates": [
     142.69866261,
     -35.96588309
    ]
   },
   "properties": {
    "name": "1585 WILKUR-WATCHUPGA ROAD REEDY DAM 3395",
    "locID": "LOC000124926216",
    "tech": "NULL",
    "upgrade": "NULL_NA",
    "gnaf_pid": "GAVIC422203504",
    "ee": false,
    "tech_change_status": "Not Planned"
   }
  },
  {
   "type": "Feature",
   "geometry": {
    "type": "Point",
    "coordinates": [
     142.61992545,
     -35.93204018
    ]
   },
   "properties": {
    "name": "207 BEULAH EAST ROAD REEDY DAM 3395",
    "locID": "LOC000062049702",
    "tech": "WIRELESS",
    "upgrade": "NULL_NA",
    "gnaf_pid": "GAVIC424059866",
    "ee": false,
    "tech_change_status": "Not Planned",
    "program_type": "Fixed Wireless and Satellite Upgrade Program",
    "target_eligibility_quarter": "NA"
   }
  },
  {
   "type": "Feature",
   "geometry": {
    "type": "Point",
    "coordinates": [
     142.6433413,
     -35.93148523
    ]
   },
   "properties": {
    "name": "425 BEULAH EAST ROAD REEDY DAM 3395",
    "locID": "LOC000013003302",
    "tech": "WIRELESS",
    "upgrade": "NULL_NA",
    "gnaf_pid": "GAVIC424059867",
    "ee": false,
    "tech_change_status": "Not Planned",
    "program_type": "Fixed Wireless and Satellite Upgrade Program",
    "target_eligibility_quarter": "NA"
   }
  },
  {
   "type": "Feature",
   "geometry": {
    "type": "Point",
    "coordinates": [
     142.60164583,
     -35.91456028
    ]
   },
   "properties": {
    "name": "192 WARREN ROAD REEDY DAM 3395",
    "locID": "LOC000115785303",
    "tech": "SATELLITE",
    "upgrade": "NULL_NA",
    "gnaf_pid": "GAVIC424070084",
    "ee": false,
    "tech_change_status": "Not Planned"
   }
  }
 ]
}