{
 "type": "FeatureCollection",
 "generated": "2025-06-18T09:59:02.003441",
 "suburb": "ROCKY POINT",
 "features": [
  {
   "type": "Feature",
   "geometry": {
    "type": "Point",
    "coordinates": [
     142.855446,
     -37.33959218
    ]
   },
   "properties": {
    "name": "371 ROCKY POINT ROAD ROCKY POINT 3377",
    "locID": "LOC000019409873",
    "tech": "SATELLITE",
    "upgrade": "NULL_NA",
    "gnaf_pid": "GAVIC422186740",
    "ee": true,
    "tech_change_status": "Not Planned"
   }
  },
  {
   "type": "Feature",
   "geometry": {
    "type": "Point",
    "coordinates": [
     142.84262685,
     -37.34695286
    ]
   },
   "properties": {
    "name": "474 WILLS HILL ROAD ROCKY POINT 3377",
    "locID": "LOC000022016028",
    "tech": "WIRELESS",
    "upgrade": "NULL_NA",
    "gnaf_pid": "GAVIC422204047",
    "ee": true,
    "tech_change_status": "Not Planned",
    "program_type": "Fixed Wireless and Satellite Upgrade Program",
    "target_eligibility_quarter": "NA"
   }
  }
 ]
}