{
 "type": "FeatureCollection",
 "generated": "2025-06-18T11:58:35.728537",
 "suburb": "SOUTH WHARF",
 "features": [
  {
   "type": "Feature",
   "geometry": {
    "type": "Point",
    "coordinates": [
     144.95610946,
     -37.82421039
    ]
   },
   "properties": {
    "name": "2 CLARENDON STREET SOUTH WHARF 3006",
    "locID": "LOC100066007875",
    "tech": "FTTB",
    "upgrade": "NULL_NA",
    "gnaf_pid": "GAVIC424079477",
    "ee": true
   }
  },
  {
   "type": "Feature",
   "geometry": {
    "type": "Point",
    "coordinates": [
     144.95602309,
     -37.82379544
    ]
   },
   "properties": {
    "name": "2-26 CLARENDON STREET SOUTH WHARF 3006",
    "locID": "LOC000176511156",
    "tech": "FTTP",
    "upgrade": "NULL_NA",
    "gnaf_pid": "GAVIC424079478",
    "ee": true
   }
  },
  {
   "type": "Feature",
   "geometry": {
    "type": "Point",
    "coordinates": [
     144.95602309,
     -37.82379544
    ]
   },
   "properties": {
    "name": "UNIT 2, 4 CLARENDON STREET SOUTH WHARF 3006",
    "locID": "LOC000034949968",
    "tech": "FTTB",
    "upgrade": "NULL_NA",
    "gnaf_pid": "GAVIC424126828",
    "ee": true
   }
  },
  {
   "type": "Feature",
   "geometry": {
    "type": "Point",
    "coordinates": [
     144.94917455,
     -37.82739351
    ]
   },
   "properties": {
    "name": "1-5 BRADY STREET SOUTH WHARF 3006",
    "locID": "LOC000122540163",
    "tech": "FTTC",
    "upgrade": "NULL_NA",
    "gnaf_pid": "GAVIC424126840",
    "ee": true
   }
  },
  {
   "type": "Feature",
   "geometry": {
    "type": "Point",
    "coordinates": [
     144.95202765,
     -37.82413755
    ]
   },
   "properties": {
    "name": "30 SOUTH WHARF PROMENADE SOUTH WHARF 3006",
    "locID": "LOC000122554611",
    "tech": "FTTB",
    "upgrade": "NULL_NA",
    "gnaf_pid": "GAVIC424258285",
    "ee": true
   }
  },
  {
   "type": "Feature",
   "geometry": {
    "type": "Point",
    "coordinates": [
     144.95202765,
     -37.82413755
    ]
   },
   "properties": {
    "name": "6 SOUTH WHARF PROMENADE SOUTH WHARF 3006",
    "locID": "LOC000122557332",
    "tech": "FTTB",
    "upgrade": "NULL_NA",
    "gnaf_pid": "GAVIC424258286",
    "ee": true
   }
  },
  {
   "type": "Feature",
   "geometry": {
    "type": "Point",
    "coordinates": [
     144.94888939,
     -37.82538274
    ]
   },
   "properties": {
    "name": "15 CONVENTION CENTRE PLACE SOUTH WHARF 3006",
    "locID": "LOC000178170112",
    "tech": "FTTB",
    "upgrade": "NULL_NA",
    "gnaf_pid": "GAVIC424372993",
    "ee": true
   }
  },
  {
   "type": "Feature",
   "geometry": {
    "type": "Point",
    "coordinates": [
     144.95157089,
     -37.8252576
    ]
   },
   "properties": {
    "name": "1 CONVENTION CENTRE PLACE SOUTH WHARF 3006",
    "locID": "LOC100058186464",
    "tech": "FTTB",
    "upgrade": "NULL_NA",
    "gnaf_pid": "GAVIC424372994",
    "ee": true
   }
  },
  {
   "type": "Feature",
   "geometry": {
    "type": "Point",
    "coordinates": [
     144.94888939,
     -37.82538274
    ]
   },
   "properties": {
    "name": "20 CONVENTION CENTRE PLACE SOUTH WHARF 3006",
    "locID": "LOC100058789345",
    "tech": "FTTB",
    "upgrade": "NULL_NA",
    "gnaf_pid": "GAVIC424372995",
    "ee": true
   }
  },
  {
   "type": "Feature",
   "geometry": {
    "type": "Point",
    "coordinates": [
     144.95105278,
     -37.82502661
    ]
   },
   "properties": {
    "name": "2 CONVENTION CENTRE PLACE SOUTH WHARF 3006",
    "locID": "LOC000052240951",
    "tech": "NULL",
    "upgrade": "NULL_NA",
    "gnaf_pid": "GAVIC424372997",
    "ee": true
   }
  },
  {
   "type": "Feature",
   "geometry": {
    "type": "Point",
    "coordinates": [
     144.94885388,
     -37.82437633
    ]
   },
   "properties": {
    "name": "30 CONVENTION CENTRE PLACE SOUTH WHARF 3006",
    "locID": "LOC000122541748",
    "tech": "FTTB",
    "upgrade": "NULL_NA",
    "gnaf_pid": "GAVIC424372998",
    "ee": true
   }
  },
  {
   "type": "Feature",
   "geometry": {
    "type": "Point",
    "coordinates": [
     144.95602309,
     -37.82379544
    ]
   },
   "properties": {
    "name": "4 CLARENDON STREET SOUTH WHARF 3006",
    "locID": "LOC000170787161",
    "tech": "FTTB",
    "upgrade": "NULL_NA",
    "gnaf_pid": "GAVIC424418272",
    "ee": true
   }
  },
  {
   "type": "Feature",
   "geometry": {
    "type": "Point",
    "coordinates": [
     144.94888939,
     -37.82538274
    ]
   },
   "properties": {
    "name": "20-30 CONVENTION CENTRE PLACE SOUTH WHARF 3006",
    "locID": "LOC100058789345",
    "tech": "FTTB",
    "upgrade": "NULL_NA",
    "gnaf_pid": "GAVIC424488553",
    "ee": true
   }
  },
  {
   "type": "Feature",
   "geometry": {
    "type": "Point",
    "coordinates": [
     144.94888939,
     -37.82538274
    ]
   },
   "properties": {
    "name": "SHOP 1, 20 CONVENTION CENTRE PLACE SOUTH WHARF 3006",
    "locID": "LOC000190431439",
    "tech": "FTTB",
    "upgrade": "NULL_NA",
    "gnaf_pid": "GAVIC424579440",
    "ee": true
   }
  },
  {
   "type": "Feature",
   "geometry": {
    "type": "Point",
    "coordinates": [
     144.94888939,
     -37.82538274
    ]
   },
   "properties": {
    "name": "SHOP 2, 20 CONVENTION CENTRE PLACE SOUTH WHARF 3006",
    "locID": "LOC000190431439",
    "tech": "FTTB",
    "upgrade": "NULL_NA",
    "gnaf_pid": "GAVIC424579442",
    "ee": true
   }
  },
  {
   "type": "Feature",
   "geometry": {
    "type": "Point",
    "coordinates": [
     144.94888939,
     -37.82538274
    ]
   },
   "properties": {
    "name": "SHOP 4, 20 CONVENTION CENTRE PLACE SOUTH WHARF 3006",
    "locID": "LOC000178169793",
    "tech": "FTTB",
    "upgrade": "NULL_NA",
    "gnaf_pid": "GAVIC424579444",
    "ee": true
   }
  },
  {
   "type": "Feature",
   "geometry": {
    "type": "Point",
    "coordinates": [
     144.94888939,
     -37.82538274
    ]
   },
   "properties": {
    "name": "LEVEL 1, 20 CONVENTION CENTRE PLACE SOUTH WHARF 3006",
    "locID": "LOC100076222619",
    "tech": "FTTB",
    "upgrade": "NULL_NA",
    "gnaf_pid": "GAVIC424579449",
    "ee": true
   }
  },
  {
   "type": "Feature",
   "geometry": {
    "type": "Point",
    "coordinates": [
     144.94991878,
     -37.82448442
    ]
   },
   "properties": {
    "name": "OFFICE 209, 20 CONVENTION CENTRE PLACE SOUTH WHARF 3006",
    "locID": "LOC000178169304",
    "tech": "FTTB",
    "upgrade": "NULL_NA",
    "gnaf_pid": "GAVIC424614373",
    "ee": true
   }
  },
  {
   "type": "Feature",
   "geometry": {
    "type": "Point",
    "coordinates": [
     144.95105278,
     -37.82502661
    ]
   },
   "properties": {
    "name": "LEVEL 4, 2 CONVENTION CENTRE PLACE SOUTH WHARF 3006",
    "locID": "LOC000122556904",
    "tech": "NULL",
    "upgrade": "NULL_NA",
    "gnaf_pid": "GAVIC424614375",
    "ee": true
   }
  },
  {
   "type": "Feature",
   "geometry": {
    "type": "Point",
    "coordinates": [
     144.94991878,
     -37.82448442
    ]
   },
   "properties": {
    "name": "OFFICE 201, LEVEL 2, 20 CONVENTION CENTRE PLACE SOUTH WHARF 3006",
    "locID": "LOC100058789345",
    "tech": "FTTB",
    "upgrade": "NULL_NA",
    "gnaf_pid": "GAVIC424727376",
    "ee": true
   }
  },
  {
   "type": "Feature",
   "geometry": {
    "type": "Point",
    "coordinates": [
     144.94991878,
     -37.82448442
    ]
   },
   "properties": {
    "name": "OFFICE 202, LEVEL 2, 20 CONVENTION CENTRE PLACE SOUTH WHARF 3006",
    "locID": "LOC100058789345",
    "tech": "FTTB",
    "upgrade": "NULL_NA",
    "gnaf_pid": "GAVIC424727377",
    "ee": true
   }
  },
  {
   "type": "Feature",
   "geometry": {
    "type": "Point",
    "coordinates": [
     144.94991878,
     -37.82448442
    ]
   },
   "properties": {
    "name": "OFFICE 203, LEVEL 2, 20 CONVENTION CENTRE PLACE SOUTH WHARF 3006",
    "locID": "LOC100058789345",
    "tech": "FTTB",
    "upgrade": "NULL_NA",
    "gnaf_pid": "GAVIC424727378",
    "ee": true
   }
  },
  {
   "type": "Feature",
   "geometry": {
    "type": "Point",
    "coordinates": [
     144.94991878,
     -37.82448442
    ]
   },
   "properties": {
    "name": "OFFICE 204, LEVEL 2, 20 CONVENTION CENTRE PLACE SOUTH WHARF 3006",
    "locID": "LOC100058789345",
    "tech": "FTTB",
    "upgrade": "NULL_NA",
    "gnaf_pid": "GAVIC424727379",
    "ee": true
   }
  },
  {
   "type": "Feature",
   "geometry": {
    "type": "Point",
    "coordinates": [
     144.94991878,
     -37.82448442
    ]
   },
   "properties": {
    "name": "OFFICE 205, LEVEL 2, 20 CONVENTION CENTRE PLACE SOUTH WHARF 3006",
    "locID": "LOC100058789345",
    "tech": "FTTB",
    "upgrade": "NULL_NA",
    "gnaf_pid": "GAVIC424727380",
    "ee": true
   }
  },
  {
   "type": "Feature",
   "geometry": {
    "type": "Point",
    "coordinates": [
     144.94991878,
     -37.82448442
    ]
   },
   "properties": {
    "name": "OFFICE 206, LEVEL 2, 20 CONVENTION CENTRE PLACE SOUTH WHARF 3006",
    "locID": "LOC100058789345",
    "tech": "FTTB",
    "upgrade": "NULL_NA",
    "gnaf_pid": "GAVIC424727381",
    "ee": true
   }
  },
  {
   "type": "Feature",
   "geometry": {
    "type": "Point",
    "coordinates": [
     144.94991878,
     -37.82448442
    ]
   },
   "properties": {
    "name": "OFFICE 207, LEVEL 2, 20 CONVENTION CENTRE PLACE SOUTH WHARF 3006",
    "locID": "LOC100058789345",
    "tech": "FTTB",
    "upgrade": "NULL_NA",
    "gnaf_pid": "GAVIC424727382",
    "ee": true
   }
  },
  {
   "type": "Feature",
   "geometry": {
    "type": "Point",
    "coordinates": [
     144.94991878,
     -37.82448442
    ]
   },
   "properties": {
    "name": "OFFICE 208, LEVEL 2, 20 CONVENTION CENTRE PLACE SOUTH WHARF 3006",
    "locID": "LOC100058789345",
    "tech": "FTTB",
    "upgrade": "NULL_NA",
    "gnaf_pid": "GAVIC424727383",
    "ee": true
   }
  },
  {
   "type": "Feature",
   "geometry": {
    "type": "Point",
    "coordinates": [
     144.94885388,
     -37.82437633
    ]
   },
   "properties": {
    "name": "OFFICE 209, LEVEL 2, 20 CONVENTION CENTRE PLACE SOUTH WHARF 3006",
    "locID": "LOC100058789345",
    "tech": "FTTB",
    "upgrade": "NULL_NA",
    "gnaf_pid": "GAVIC424727384",
    "ee": true
   }
  },
  {
   "type": "Feature",
   "geometry": {
    "type": "Point",
    "coordinates": [
     144.94885388,
     -37.82437633
    ]
   },
   "properties": {
    "name": "OFFICE 210, LEVEL 2, 20 CONVENTION CENTRE PLACE SOUTH WHARF 3006",
    "locID": "LOC100058789345",
    "tech": "FTTB",
    "upgrade": "NULL_NA",
    "gnaf_pid": "GAVIC424727385",
    "ee": true
   }
  },
  {
   "type": "Feature",
   "geometry": {
    "type": "Point",
    "coordinates": [
     144.94885388,
     -37.82437633
    ]
   },
   "properties": {
    "name": "UNIT 301, LEVEL 3, 20 CONVENTION CENTRE PLACE SOUTH WHARF 3006",
    "locID": "LOC100058789345",
    "tech": "FTTB",
    "upgrade": "NULL_NA",
    "gnaf_pid": "GAVIC424727386",
    "ee": true
   }
  },
  {
   "type": "Feature",
   "geometry": {
    "type": "Point",
    "coordinates": [
     144.94885388,
     -37.82437633
    ]
   },
   "properties": {
    "name": "UNIT 302, LEVEL 3, 20 CONVENTION CENTRE PLACE SOUTH WHARF 3006",
    "locID": "LOC100058789345",
    "tech": "FTTB",
    "upgrade": "NULL_NA",
    "gnaf_pid": "GAVIC424727387",
    "ee": true
   }
  },
  {
   "type": "Feature",
   "geometry": {
    "type": "Point",
    "coordinates": [
     144.94885388,
     -37.82437633
    ]
   },
   "properties": {
    "name": "UNIT 303, LEVEL 3, 20 CONVENTION CENTRE PLACE SOUTH WHARF 3006",
    "locID": "LOC100058789345",
    "tech": "FTTB",
    "upgrade": "NULL_NA",
    "gnaf_pid": "GAVIC424727388",
    "ee": true
   }
  },
  {
   "type": "Feature",
   "geometry": {
    "type": "Point",
    "coordinates": [
     144.94885388,
     -37.82437633
    ]
   },
   "properties": {
    "name": "UNIT 304, LEVEL 3, 20 CONVENTION CENTRE PLACE SOUTH WHARF 3006",
    "locID": "LOC100058789345",
    "tech": "FTTB",
    "upgrade": "NULL_NA",
    "gnaf_pid": "GAVIC424727389",
    "ee": true
   }
  },
  {
   "type": "Feature",
   "geometry": {
    "type": "Point",
    "coordinates": [
     144.94885388,
     -37.82437633
    ]
   },
   "properties": {
    "name": "UNIT 305, LEVEL 3, 20 CONVENTION CENTRE PLACE SOUTH WHARF 3006",
    "locID": "LOC100058789345",
    "tech": "FTTB",
    "upgrade": "NULL_NA",
    "gnaf_pid": "GAVIC424727390",
    "ee": true
   }
  },
  {
   "type": "Feature",
   "geometry": {
    "type": "Point",
    "coordinates": [
     144.94885388,
     -37.82437633
    ]
   },
   "properties": {
    "name": "UNIT 306, LEVEL 3, 20 CONVENTION CENTRE PLACE SOUTH WHARF 3006",
    "locID": "LOC100058789345",
    "tech": "FTTB",
    "upgrade": "NULL_NA",
    "gnaf_pid": "GAVIC424727391",
    "ee": true
   }
  },
  {
   "type": "Feature",
   "geometry": {
    "type": "Point",
    "coordinates": [
     144.94885388,
     -37.82437633
    ]
   },
   "properties": {
    "name": "UNIT 307, LEVEL 3, 20 CONVENTION CENTRE PLACE SOUTH WHARF 3006",
    "locID": "LOC100058789345",
    "tech": "FTTB",
    "upgrade": "NULL_NA",
    "gnaf_pid": "GAVIC424727392",
    "ee": true
   }
  },
  {
   "type": "Feature",
   "geometry": {
    "type": "Point",
    "coordinates": [
     144.94885388,
     -37.82437633
    ]
   },
   "properties": {
    "name": "UNIT 308, LEVEL 3, 20 CONVENTION CENTRE PLACE SOUTH WHARF 3006",
    "locID": "LOC100058789345",
    "tech": "FTTB",
    "upgrade": "NULL_NA",
    "gnaf_pid": "GAVIC424727393",
    "ee": true
   }
  },
  {
   "type": "Feature",
   "geometry": {
    "type": "Point",
    "coordinates": [
     144.94885388,
     -37.82437633
    ]
   },
   "properties": {
    "name": "UNIT 309, LEVEL 3, 20 CONVENTION CENTRE PLACE SOUTH WHARF 3006",
    "locID": "LOC100058789345",
    "tech": "FTTB",
    "upgrade": "NULL_NA",
    "gnaf_pid": "GAVIC424727394",
    "ee": true
   }
  },
  {
   "type": "Feature",
   "geometry": {
    "type": "Point",
    "coordinates": [
     144.94885388,
     -37.82437633
    ]
   },
   "properties": {
    "name": "UNIT 310, LEVEL 3, 20 CONVENTION CENTRE PLACE SOUTH WHARF 3006",
    "locID": "LOC100058789345",
    "tech": "FTTB",
    "upgrade": "NULL_NA",
    "gnaf_pid": "GAVIC424727395",
    "ee": true
   }
  },
  {
   "type": "Feature",
   "geometry": {
    "type": "Point",
    "coordinates": [
     144.94885388,
     -37.82437633
    ]
   },
   "properties": {
    "name": "UNIT 311, LEVEL 3, 20 CONVENTION CENTRE PLACE SOUTH WHARF 3006",
    "locID": "LOC100058789345",
    "tech": "FTTB",
    "upgrade": "NULL_NA",
    "gnaf_pid": "GAVIC424727396",
    "ee": true
   }
  },
  {
   "type": "Feature",
   "geometry": {
    "type": "Point",
    "coordinates": [
     144.94885388,
     -37.82437633
    ]
   },
   "properties": {
    "name": "UNIT 312, LEVEL 3, 20 CONVENTION CENTRE PLACE SOUTH WHARF 3006",
    "locID": "LOC100058789345",
    "tech": "FTTB",
    "upgrade": "NULL_NA",
    "gnaf_pid": "GAVIC424727397",
    "ee": true
   }
  },
  {
   "type": "Feature",
   "geometry": {
    "type": "Point",
    "coordinates": [
     144.94885388,
     -37.82437633
    ]
   },
   "properties": {
    "name": "UNIT 313, LEVEL 3, 20 CONVENTION CENTRE PLACE SOUTH WHARF 3006",
    "locID": "LOC100058789345",
    "tech": "FTTB",
    "upgrade": "NULL_NA",
    "gnaf_pid": "GAVIC424727398",
    "ee": true
   }
  },
  {
   "type": "Feature",
   "geometry": {
    "type": "Point",
    "coordinates": [
     144.94885388,
     -37.82437633
    ]
   },
   "properties": {
    "name": "UNIT 314, LEVEL 3, 20 CONVENTION CENTRE PLACE SOUTH WHARF 3006",
    "locID": "LOC100058789345",
    "tech": "FTTB",
    "upgrade": "NULL_NA",
    "gnaf_pid": "GAVIC424727399",
    "ee": true
   }
  },
  {
   "type": "Feature",
   "geometry": {
    "type": "Point",
    "coordinates": [
     144.94885388,
     -37.82437633
    ]
   },
   "properties": {
    "name": "UNIT 315, LEVEL 3, 20 CONVENTION CENTRE PLACE SOUTH WHARF 3006",
    "locID": "LOC100058789345",
    "tech": "FTTB",
    "upgrade": "NULL_NA",
    "gnaf_pid": "GAVIC424727400",
    "ee": true
   }
  },
  {
   "type": "Feature",
   "geometry": {
    "type": "Point",
    "coordinates": [
     144.94885388,
     -37.82437633
    ]
   },
   "properties": {
    "name": "UNIT 316, LEVEL 3, 20 CONVENTION CENTRE PLACE SOUTH WHARF 3006",
    "locID": "LOC100058789345",
    "tech": "FTTB",
    "upgrade": "NULL_NA",
    "gnaf_pid": "GAVIC424727401",
    "ee": true
   }
  },
  {
   "type": "Feature",
   "geometry": {
    "type": "Point",
    "coordinates": [
     144.94885388,
     -37.82437633
    ]
   },
   "properties": {
    "name": "UNIT 317, LEVEL 3, 20 CONVENTION CENTRE PLACE SOUTH WHARF 3006",
    "locID": "LOC100058789345",
    "tech": "FTTB",
    "upgrade": "NULL_NA",
    "gnaf_pid": "GAVIC424727402",
    "ee": true
   }
  },
  {
   "type": "Feature",
   "geometry": {
    "type": "Point",
    "coordinates": [
     144.94885388,
     -37.82437633
    ]
   },
   "properties": {
    "name": "UNIT 318, LEVEL 3, 20 CONVENTION CENTRE PLACE SOUTH WHARF 3006",
    "locID": "LOC100058789345",
    "tech": "FTTB",
    "upgrade": "NULL_NA",
    "gnaf_pid": "GAVIC424727403",
    "ee": true
   }
  },
  {
   "type": "Feature",
   "geometry": {
    "type": "Point",
    "coordinates": [
     144.94885388,
     -37.82437633
    ]
   },
   "properties": {
    "name": "UNIT 319, LEVEL 3, 20 CONVENTION CENTRE PLACE SOUTH WHARF 3006",
    "locID": "LOC100058789345",
    "tech": "FTTB",
    "upgrade": "NULL_NA",
    "gnaf_pid": "GAVIC424727404",
    "ee": true
   }
  },
  {
   "type": "Feature",
   "geometry": {
    "type": "Point",
    "coordinates": [
     144.94885388,
     -37.82437633
    ]
   },
   "properties": {
    "name": "UNIT 320, LEVEL 3, 20 CONVENTION CENTRE PLACE SOUTH WHARF 3006",
    "locID": "LOC100058789345",
    "tech": "FTTB",
    "upgrade": "NULL_NA",
    "gnaf_pid": "GAVIC424727405",
    "ee": true
   }
  },
  {
   "type": "Feature",
   "geometry": {
    "type": "Point",
    "coordinates": [
     144.94885388,
     -37.82437633
    ]
   },
   "properties": {
    "name": "UNIT 321, LEVEL 3, 20 CONVENTION CENTRE PLACE SOUTH WHARF 3006",
    "locID": "LOC000178169370",
    "tech": "FTTB",
    "upgrade": "NULL_NA",
    "gnaf_pid": "GAVIC424727406",
    "ee": true
   }
  },
  {
   "type": "Feature",
   "geometry": {
    "type": "Point",
    "coordinates": [
     144.94885388,
     -37.82437633
    ]
   },
   "properties": {
    "name": "UNIT 322, LEVEL 3, 20 CONVENTION CENTRE PLACE SOUTH WHARF 3006",
    "locID": "LOC100058789345",
    "tech": "FTTB",
    "upgrade": "NULL_NA",
    "gnaf_pid": "GAVIC424727407",
    "ee": true
   }
  },
  {
   "type": "Feature",
   "geometry": {
    "type": "Point",
    "coordinates": [
     144.94885388,
     -37.82437633
    ]
   },
   "properties": {
    "name": "UNIT 323, LEVEL 3, 20 CONVENTION CENTRE PLACE SOUTH WHARF 3006",
    "locID": "LOC100058789345",
    "tech": "FTTB",
    "upgrade": "NULL_NA",
    "gnaf_pid": "GAVIC424727408",
    "ee": true
   }
  },
  {
   "type": "Feature",
   "geometry": {
    "type": "Point",
    "coordinates": [
     144.94885388,
     -37.82437633
    ]
   },
   "properties": {
    "name": "UNIT 324, LEVEL 3, 20 CONVENTION CENTRE PLACE SOUTH WHARF 3006",
    "locID": "LOC100058789345",
    "tech": "FTTB",
    "upgrade": "NULL_NA",
    "gnaf_pid": "GAVIC424727409",
    "ee": true
   }
  },
  {
   "type": "Feature",
   "geometry": {
    "type": "Point",
    "coordinates": [
     144.94885388,
     -37.82437633
    ]
   },
   "properties": {
    "name": "UNIT 325, LEVEL 3, 20 CONVENTION CENTRE PLACE SOUTH WHARF 3006",
    "locID": "LOC100058789345",
    "tech": "FTTB",
    "upgrade": "NULL_NA",
    "gnaf_pid": "GAVIC424727410",
    "ee": true
   }
  },
  {
   "type": "Feature",
   "geometry": {
    "type": "Point",
    "coordinates": [
     144.94885388,
     -37.82437633
    ]
   },
   "properties": {
    "name": "UNIT 326, LEVEL 3, 20 CONVENTION CENTRE PLACE SOUTH WHARF 3006",
    "locID": "LOC100058789345",
    "tech": "FTTB",
    "upgrade": "NULL_NA",
    "gnaf_pid": "GAVIC424727411",
    "ee": true
   }
  },
  {
   "type": "Feature",
   "geometry": {
    "type": "Point",
    "coordinates": [
     144.94885388,
     -37.82437633
    ]
   },
   "properties": {
    "name": "UNIT 327, LEVEL 3, 20 CONVENTION CENTRE PLACE SOUTH WHARF 3006",
    "locID": "LOC100058789345",
    "tech": "FTTB",
    "upgrade": "NULL_NA",
    "gnaf_pid": "GAVIC424727412",
    "ee": true
   }
  },
  {
   "type": "Feature",
   "geometry": {
    "type": "Point",
    "coordinates": [
     144.94885388,
     -37.82437633
    ]
   },
   "properties": {
    "name": "UNIT 328, LEVEL 3, 20 CONVENTION CENTRE PLACE SOUTH WHARF 3006",
    "locID": "LOC100058789345",
    "tech": "FTTB",
    "upgrade": "NULL_NA",
    "gnaf_pid": "GAVIC424727413",
    "ee": true
   }
  },
  {
   "type": "Feature",
   "geometry": {
    "type": "Point",
    "coordinates": [
     144.94885388,
     -37.82437633
    ]
   },
   "properties": {
    "name": "OFFICE 10, LEVEL 5, 30 CONVENTION CENTRE PLACE SOUTH WHARF 3006",
    "locID": "LOC000122541748",
    "tech": "FTTB",
    "upgrade": "NULL_NA",
    "gnaf_pid": "GAVIC424746738",
    "ee": true
   }
  },
  {
   "type": "Feature",
   "geometry": {
    "type": "Point",
    "coordinates": [
     144.94885388,
     -37.82437633
    ]
   },
   "properties": {
    "name": "OFFICE 12, LEVEL 7, 30 CONVENTION CENTRE PLACE SOUTH WHARF 3006",
    "locID": "LOC000122541748",
    "tech": "FTTB",
    "upgrade": "NULL_NA",
    "gnaf_pid": "GAVIC424746739",
    "ee": true
   }
  },
  {
   "type": "Feature",
   "geometry": {
    "type": "Point",
    "coordinates": [
     144.94885388,
     -37.82437633
    ]
   },
   "properties": {
    "name": "OFFICE 14, LEVEL 8, 30 CONVENTION CENTRE PLACE SOUTH WHARF 3006",
    "locID": "LOC000122541748",
    "tech": "FTTB",
    "upgrade": "NULL_NA",
    "gnaf_pid": "GAVIC424746740",
    "ee": true
   }
  },
  {
   "type": "Feature",
   "geometry": {
    "type": "Point",
    "coordinates": [
     144.94885388,
     -37.82437633
    ]
   },
   "properties": {
    "name": "OFFICE 15, LEVEL 9, 30 CONVENTION CENTRE PLACE SOUTH WHARF 3006",
    "locID": "LOC000122541748",
    "tech": "FTTB",
    "upgrade": "NULL_NA",
    "gnaf_pid": "GAVIC424746741",
    "ee": true
   }
  },
  {
   "type": "Feature",
   "geometry": {
    "type": "Point",
    "coordinates": [
     144.94885388,
     -37.82437633
    ]
   },
   "properties": {
    "name": "OFFICE 16, LEVEL 10, 30 CONVENTION CENTRE PLACE SOUTH WHARF 3006",
    "locID": "LOC000122541748",
    "tech": "FTTB",
    "upgrade": "NULL_NA",
    "gnaf_pid": "GAVIC424746742",
    "ee": true
   }
  },
  {
   "type": "Feature",
   "geometry": {
    "type": "Point",
    "coordinates": [
     144.94885388,
     -37.82437633
    ]
   },
   "properties": {
    "name": "OFFICE 9, LEVEL 4, 30 CONVENTION CENTRE PLACE SOUTH WHARF 3006",
    "locID": "LOC000122541748",
    "tech": "FTTB",
    "upgrade": "NULL_NA",
    "gnaf_pid": "GAVIC424746743",
    "ee": true
   }
  },
  {
   "type": "Feature",
   "geometry": {
    "type": "Point",
    "coordinates": [
     144.94885388,
     -37.82437633
    ]
   },
   "properties": {
    "name": "LEVEL 2, 30 CONVENTION CENTRE PLACE SOUTH WHARF 3006",
    "locID": "LOC000122556904",
    "tech": "NULL",
    "upgrade": "NULL_NA",
    "gnaf_pid": "GAVIC424746744",
    "ee": true
   }
  },
  {
   "type": "Feature",
   "geometry": {
    "type": "Point",
    "coordinates": [
     144.94885388,
     -37.82437633
    ]
   },
   "properties": {
    "name": "SHOP 10, 20 CONVENTION CENTRE PLACE SOUTH WHARF 3006",
    "locID": "LOC000122551995",
    "tech": "FTTB",
    "upgrade": "NULL_NA",
    "gnaf_pid": "GAVIC424780795",
    "ee": true
   }
  },
  {
   "type": "Feature",
   "geometry": {
    "type": "Point",
    "coordinates": [
     144.94885388,
     -37.82437633
    ]
   },
   "properties": {
    "name": "SHOP 11, 20 CONVENTION CENTRE PLACE SOUTH WHARF 3006",
    "locID": "LOC000190431378",
    "tech": "FTTB",
    "upgrade": "NULL_NA",
    "gnaf_pid": "GAVIC424780796",
    "ee": true
   }
  },
  {
   "type": "Feature",
   "geometry": {
    "type": "Point",
    "coordinates": [
     144.94885388,
     -37.82437633
    ]
   },
   "properties": {
    "name": "SHOP 12, 20 CONVENTION CENTRE PLACE SOUTH WHARF 3006",
    "locID": "LOC000178169900",
    "tech": "FTTB",
    "upgrade": "NULL_NA",
    "gnaf_pid": "GAVIC424780797",
    "ee": true
   }
  },
  {
   "type": "Feature",
   "geometry": {
    "type": "Point",
    "coordinates": [
     144.94888939,
     -37.82538274
    ]
   },
   "properties": {
    "name": "UNIT 13, 20 CONVENTION CENTRE PLACE SOUTH WHARF 3006",
    "locID": "LOC100058789345",
    "tech": "FTTB",
    "upgrade": "NULL_NA",
    "gnaf_pid": "GAVIC424780798",
    "ee": true
   }
  },
  {
   "type": "Feature",
   "geometry": {
    "type": "Point",
    "coordinates": [
     144.94885388,
     -37.82437633
    ]
   },
   "properties": {
    "name": "SHOP 14, 20 CONVENTION CENTRE PLACE SOUTH WHARF 3006",
    "locID": "LOC000113030587",
    "tech": "FTTB",
    "upgrade": "NULL_NA",
    "gnaf_pid": "GAVIC424780799",
    "ee": true
   }
  },
  {
   "type": "Feature",
   "geometry": {
    "type": "Point",
    "coordinates": [
     144.94885388,
     -37.82437633
    ]
   },
   "properties": {
    "name": "UNIT 15, 20 CONVENTION CENTRE PLACE SOUTH WHARF 3006",
    "locID": "LOC100058789345",
    "tech": "FTTB",
    "upgrade": "NULL_NA",
    "gnaf_pid": "GAVIC424780800",
    "ee": true
   }
  },
  {
   "type": "Feature",
   "geometry": {
    "type": "Point",
    "coordinates": [
     144.94885388,
     -37.82437633
    ]
   },
   "properties": {
    "name": "UNIT 16, 20 CONVENTION CENTRE PLACE SOUTH WHARF 3006",
    "locID": "LOC100058789345",
    "tech": "FTTB",
    "upgrade": "NULL_NA",
    "gnaf_pid": "GAVIC424780801",
    "ee": true
   }
  },
  {
   "type": "Feature",
   "geometry": {
    "type": "Point",
    "coordinates": [
     144.94885388,
     -37.82437633
    ]
   },
   "properties": {
    "name": "SHOP 17, 20 CONVENTION CENTRE PLACE SOUTH WHARF 3006",
    "locID": "LOC100072175483",
    "tech": "FTTB",
    "upgrade": "NULL_NA",
    "gnaf_pid": "GAVIC424780802",
    "ee": true
   }
  },
  {
   "type": "Feature",
   "geometry": {
    "type": "Point",
    "coordinates": [
     144.94885388,
     -37.82437633
    ]
   },
   "properties": {
    "name": "UNIT 18, 20 CONVENTION CENTRE PLACE SOUTH WHARF 3006",
    "locID": "LOC100058789345",
    "tech": "FTTB",
    "upgrade": "NULL_NA",
    "gnaf_pid": "GAVIC424780803",
    "ee": true
   }
  },
  {
   "type": "Feature",
   "geometry": {
    "type": "Point",
    "coordinates": [
     144.94885388,
     -37.82437633
    ]
   },
   "properties": {
    "name": "SHOP 19, 20 CONVENTION CENTRE PLACE SOUTH WHARF 3006",
    "locID": "LOC000114388345",
    "tech": "FTTB",
    "upgrade": "NULL_NA",
    "gnaf_pid": "GAVIC424780804",
    "ee": true
   }
  },
  {
   "type": "Feature",
   "geometry": {
    "type": "Point",
    "coordinates": [
     144.94888939,
     -37.82538274
    ]
   },
   "properties": {
    "name": "KIOSK 20, 20 CONVENTION CENTRE PLACE SOUTH WHARF 3006",
    "locID": "LOC100058789345",
    "tech": "FTTB",
    "upgrade": "NULL_NA",
    "gnaf_pid": "GAVIC424780805",
    "ee": true
   }
  },
  {
   "type": "Feature",
   "geometry": {
    "type": "Point",
    "coordinates": [
     144.94885388,
     -37.82437633
    ]
   },
   "properties": {
    "name": "UNIT 21, 20 CONVENTION CENTRE PLACE SOUTH WHARF 3006",
    "locID": "LOC100058789345",
    "tech": "FTTB",
    "upgrade": "NULL_NA",
    "gnaf_pid": "GAVIC424780806",
    "ee": true
   }
  },
  {
   "type": "Feature",
   "geometry": {
    "type": "Point",
    "coordinates": [
     144.94885388,
     -37.82437633
    ]
   },
   "properties": {
    "name": "SHOP 22, 20 CONVENTION CENTRE PLACE SOUTH WHARF 3006",
    "locID": "LOC000113197924",
    "tech": "FTTB",
    "upgrade": "NULL_NA",
    "gnaf_pid": "GAVIC424780807",
    "ee": true
   }
  },
  {
   "type": "Feature",
   "geometry": {
    "type": "Point",
    "coordinates": [
     144.94885388,
     -37.82437633
    ]
   },
   "properties": {
    "name": "SHOP 23, 20 CONVENTION CENTRE PLACE SOUTH WHARF 3006",
    "locID": "LOC000178223366",
    "tech": "FTTB",
    "upgrade": "NULL_NA",
    "gnaf_pid": "GAVIC424780808",
    "ee": true
   }
  },
  {
   "type": "Feature",
   "geometry": {
    "type": "Point",
    "coordinates": [
     144.94885388,
     -37.82437633
    ]
   },
   "properties": {
    "name": "SHOP 24, 20 CONVENTION CENTRE PLACE SOUTH WHARF 3006",
    "locID": "LOC000115106781",
    "tech": "FTTB",
    "upgrade": "NULL_NA",
    "gnaf_pid": "GAVIC424780809",
    "ee": true
   }
  },
  {
   "type": "Feature",
   "geometry": {
    "type": "Point",
    "coordinates": [
     144.94885388,
     -37.82437633
    ]
   },
   "properties": {
    "name": "SHOP 25, 20 CONVENTION CENTRE PLACE SOUTH WHARF 3006",
    "locID": "LOC100058789345",
    "tech": "FTTB",
    "upgrade": "NULL_NA",
    "gnaf_pid": "GAVIC424780810",
    "ee": true
   }
  },
  {
   "type": "Feature",
   "geometry": {
    "type": "Point",
    "coordinates": [
     144.94885388,
     -37.82437633
    ]
   },
   "properties": {
    "name": "SHOP 26, 20 CONVENTION CENTRE PLACE SOUTH WHARF 3006",
    "locID": "LOC100058789345",
    "tech": "FTTB",
    "upgrade": "NULL_NA",
    "gnaf_pid": "GAVIC424780811",
    "ee": true
   }
  },
  {
   "type": "Feature",
   "geometry": {
    "type": "Point",
    "coordinates": [
     144.94885388,
     -37.82437633
    ]
   },
   "properties": {
    "name": "SHOP 27, 20 CONVENTION CENTRE PLACE SOUTH WHARF 3006",
    "locID": "LOC000178169565",
    "tech": "FTTB",
    "upgrade": "NULL_NA",
    "gnaf_pid": "GAVIC424780812",
    "ee": true
   }
  },
  {
   "type": "Feature",
   "geometry": {
    "type": "Point",
    "coordinates": [
     144.94885388,
     -37.82437633
    ]
   },
   "properties": {
    "name": "SHOP 5, 20 CONVENTION CENTRE PLACE SOUTH WHARF 3006",
    "locID": "LOC100075346913",
    "tech": "FTTB",
    "upgrade": "NULL_NA",
    "gnaf_pid": "GAVIC424780813",
    "ee": true
   }
  },
  {
   "type": "Feature",
   "geometry": {
    "type": "Point",
    "coordinates": [
     144.94885388,
     -37.82437633
    ]
   },
   "properties": {
    "name": "SHOP 6, 20 CONVENTION CENTRE PLACE SOUTH WHARF 3006",
    "locID": "LOC000112861102",
    "tech": "FTTB",
    "upgrade": "NULL_NA",
    "gnaf_pid": "GAVIC424780814",
    "ee": true
   }
  },
  {
   "type": "Feature",
   "geometry": {
    "type": "Point",
    "coordinates": [
     144.94885388,
     -37.82437633
    ]
   },
   "properties": {
    "name": "SHOP 7, 20 CONVENTION CENTRE PLACE SOUTH WHARF 3006",
    "locID": "LOC000114624624",
    "tech": "FTTB",
    "upgrade": "NULL_NA",
    "gnaf_pid": "GAVIC424780815",
    "ee": true
   }
  },
  {
   "type": "Feature",
   "geometry": {
    "type": "Point",
    "coordinates": [
     144.94885388,
     -37.82437633
    ]
   },
   "properties": {
    "name": "SHOP 8, 20 CONVENTION CENTRE PLACE SOUTH WHARF 3006",
    "locID": "LOC000114681190",
    "tech": "FTTB",
    "upgrade": "NULL_NA",
    "gnaf_pid": "GAVIC424780816",
    "ee": true
   }
  },
  {
   "type": "Feature",
   "geometry": {
    "type": "Point",
    "coordinates": [
     144.94885388,
     -37.82437633
    ]
   },
   "properties": {
    "name": "UNIT 9, 20 CONVENTION CENTRE PLACE SOUTH WHARF 3006",
    "locID": "LOC100058789345",
    "tech": "FTTB",
    "upgrade": "NULL_NA",
    "gnaf_pid": "GAVIC424780817",
    "ee": true
   }
  },
  {
   "type": "Feature",
   "geometry": {
    "type": "Point",
    "coordinates": [
     144.94885388,
     -37.82437633
    ]
   },
   "properties": {
    "name": "SHOP 100, 20 CONVENTION CENTRE PLACE SOUTH WHARF 3006",
    "locID": "LOC000122551995",
    "tech": "FTTB",
    "upgrade": "NULL_NA",
    "gnaf_pid": "GAVIC424791959",
    "ee": true
   }
  },
  {
   "type": "Feature",
   "geometry": {
    "type": "Point",
    "coordinates": [
     144.94885388,
     -37.82437633
    ]
   },
   "properties": {
    "name": "SHOP 100A, 20 CONVENTION CENTRE PLACE SOUTH WHARF 3006",
    "locID": "LOC000122551995",
    "tech": "FTTB",
    "upgrade": "NULL_NA",
    "gnaf_pid": "GAVIC424791960",
    "ee": true
   }
  },
  {
   "type": "Feature",
   "geometry": {
    "type": "Point",
    "coordinates": [
     144.94885388,
     -37.82437633
    ]
   },
   "properties": {
    "name": "SHOP 101, 20 CONVENTION CENTRE PLACE SOUTH WHARF 3006",
    "locID": "LOC000178169447",
    "tech": "FTTB",
    "upgrade": "NULL_NA",
    "gnaf_pid": "GAVIC424791961",
    "ee": true
   }
  },
  {
   "type": "Feature",
   "geometry": {
    "type": "Point",
    "coordinates": [
     144.94885388,
     -37.82437633
    ]
   },
   "properties": {
    "name": "SHOP 102, 20 CONVENTION CENTRE PLACE SOUTH WHARF 3006",
    "locID": "LOC100058789345",
    "tech": "FTTB",
    "upgrade": "NULL_NA",
    "gnaf_pid": "GAVIC424791962",
    "ee": true
   }
  },
  {
   "type": "Feature",
   "geometry": {
    "type": "Point",
    "coordinates": [
     144.94885388,
     -37.82437633
    ]
   },
   "properties": {
    "name": "SHOP 103, 20 CONVENTION CENTRE PLACE SOUTH WHARF 3006",
    "locID": "LOC000114420274",
    "tech": "FTTB",
    "upgrade": "NULL_NA",
    "gnaf_pid": "GAVIC424791963",
    "ee": true
   }
  },
  {
   "type": "Feature",
   "geometry": {
    "type": "Point",
    "coordinates": [
     144.94885388,
     -37.82437633
    ]
   },
   "properties": {
    "name": "SHOP 104, 20 CONVENTION CENTRE PLACE SOUTH WHARF 3006",
    "locID": "LOC100058789345",
    "tech": "FTTB",
    "upgrade": "NULL_NA",
    "gnaf_pid": "GAVIC424791964",
    "ee": true
   }
  },
  {
   "type": "Feature",
   "geometry": {
    "type": "Point",
    "coordinates": [
     144.94885388,
     -37.82437633
    ]
   },
   "properties": {
    "name": "SHOP 10, LEVEL 1, 20 CONVENTION CENTRE PLACE SOUTH WHARF 3006",
    "locID": "LOC100058789345",
    "tech": "FTTB",
    "upgrade": "NULL_NA",
    "gnaf_pid": "GAVIC424791965",
    "ee": true
   }
  },
  {
   "type": "Feature",
   "geometry": {
    "type": "Point",
    "coordinates": [
     144.94885388,
     -37.82437633
    ]
   },
   "properties": {
    "name": "SHOP 10A, 20 CONVENTION CENTRE PLACE SOUTH WHARF 3006",
    "locID": "LOC100058789345",
    "tech": "FTTB",
    "upgrade": "NULL_NA",
    "gnaf_pid": "GAVIC424791966",
    "ee": true
   }
  },
  {
   "type": "Feature",
   "geometry": {
    "type": "Point",
    "coordinates": [
     144.94885388,
     -37.82437633
    ]
   },
   "properties": {
    "name": "SHOP 11, LEVEL 1, 20 CONVENTION CENTRE PLACE SOUTH WHARF 3006",
    "locID": "LOC100076222619",
    "tech": "FTTB",
    "upgrade": "NULL_NA",
    "gnaf_pid": "GAVIC424791967",
    "ee": true
   }
  },
  {
   "type": "Feature",
   "geometry": {
    "type": "Point",
    "coordinates": [
     144.94885388,
     -37.82437633
    ]
   },
   "properties": {
    "name": "SHOP 11A, 20 CONVENTION CENTRE PLACE SOUTH WHARF 3006",
    "locID": "LOC100058789345",
    "tech": "FTTB",
    "upgrade": "NULL_NA",
    "gnaf_pid": "GAVIC424791968",
    "ee": true
   }
  },
  {
   "type": "Feature",
   "geometry": {
    "type": "Point",
    "coordinates": [
     144.94885388,
     -37.82437633
    ]
   },
   "properties": {
    "name": "SHOP 12, LEVEL 1, 20 CONVENTION CENTRE PLACE SOUTH WHARF 3006",
    "locID": "LOC000178169225",
    "tech": "FTTB",
    "upgrade": "NULL_NA",
    "gnaf_pid": "GAVIC424791969",
    "ee": true
   }
  },
  {
   "type": "Feature",
   "geometry": {
    "type": "Point",
    "coordinates": [
     144.94885388,
     -37.82437633
    ]
   },
   "properties": {
    "name": "SHOP 13, LEVEL 1, 20 CONVENTION CENTRE PLACE SOUTH WHARF 3006",
    "locID": "LOC100058789345",
    "tech": "FTTB",
    "upgrade": "NULL_NA",
    "gnaf_pid": "GAVIC424791970",
    "ee": true
   }
  },
  {
   "type": "Feature",
   "geometry": {
    "type": "Point",
    "coordinates": [
     144.94885388,
     -37.82437633
    ]
   },
   "properties": {
    "name": "SHOP 14, LEVEL 1, 20 CONVENTION CENTRE PLACE SOUTH WHARF 3006",
    "locID": "LOC100058789345",
    "tech": "FTTB",
    "upgrade": "NULL_NA",
    "gnaf_pid": "GAVIC424791971",
    "ee": true
   }
  },
  {
   "type": "Feature",
   "geometry": {
    "type": "Point",
    "coordinates": [
     144.94885388,
     -37.82437633
    ]
   },
   "properties": {
    "name": "SHOP 15, LEVEL 1, 20 CONVENTION CENTRE PLACE SOUTH WHARF 3006",
    "locID": "LOC100058789345",
    "tech": "FTTB",
    "upgrade": "NULL_NA",
    "gnaf_pid": "GAVIC424791972",
    "ee": true
   }
  },
  {
   "type": "Feature",
   "geometry": {
    "type": "Point",
    "coordinates": [
     144.94885388,
     -37.82437633
    ]
   },
   "properties": {
    "name": "SHOP 15A, 20 CONVENTION CENTRE PLACE SOUTH WHARF 3006",
    "locID": "LOC000190416621",
    "tech": "FTTB",
    "upgrade": "NULL_NA",
    "gnaf_pid": "GAVIC424791973",
    "ee": true
   }
  },
  {
   "type": "Feature",
   "geometry": {
    "type": "Point",
    "coordinates": [
     144.94885388,
     -37.82437633
    ]
   },
   "properties": {
    "name": "SHOP 16, LEVEL 1, 20 CONVENTION CENTRE PLACE SOUTH WHARF 3006",
    "locID": "LOC100058789345",
    "tech": "FTTB",
    "upgrade": "NULL_NA",
    "gnaf_pid": "GAVIC424791974",
    "ee": true
   }
  },
  {
   "type": "Feature",
   "geometry": {
    "type": "Point",
    "coordinates": [
     144.94885388,
     -37.82437633
    ]
   },
   "properties": {
    "name": "SHOP 17, LEVEL 1, 20 CONVENTION CENTRE PLACE SOUTH WHARF 3006",
    "locID": "LOC100058789345",
    "tech": "FTTB",
    "upgrade": "NULL_NA",
    "gnaf_pid": "GAVIC424791975",
    "ee": true
   }
  },
  {
   "type": "Feature",
   "geometry": {
    "type": "Point",
    "coordinates": [
     144.94885388,
     -37.82437633
    ]
   },
   "properties": {
    "name": "SHOP 17A, 20 CONVENTION CENTRE PLACE SOUTH WHARF 3006",
    "locID": "LOC100072175483",
    "tech": "FTTB",
    "upgrade": "NULL_NA",
    "gnaf_pid": "GAVIC424791976",
    "ee": true
   }
  },
  {
   "type": "Feature",
   "geometry": {
    "type": "Point",
    "coordinates": [
     144.94885388,
     -37.82437633
    ]
   },
   "properties": {
    "name": "SHOP 18, LEVEL 1, 20 CONVENTION CENTRE PLACE SOUTH WHARF 3006",
    "locID": "LOC100058789345",
    "tech": "FTTB",
    "upgrade": "NULL_NA",
    "gnaf_pid": "GAVIC424791977",
    "ee": true
   }
  },
  {
   "type": "Feature",
   "geometry": {
    "type": "Point",
    "coordinates": [
     144.94885388,
     -37.82437633
    ]
   },
   "properties": {
    "name": "SHOP 19, LEVEL 1, 20 CONVENTION CENTRE PLACE SOUTH WHARF 3006",
    "locID": "LOC100058789345",
    "tech": "FTTB",
    "upgrade": "NULL_NA",
    "gnaf_pid": "GAVIC424791978",
    "ee": true
   }
  },
  {
   "type": "Feature",
   "geometry": {
    "type": "Point",
    "coordinates": [
     144.94885388,
     -37.82437633
    ]
   },
   "properties": {
    "name": "SHOP 1, LEVEL 1, 20 CONVENTION CENTRE PLACE SOUTH WHARF 3006",
    "locID": "LOC100076222619",
    "tech": "FTTB",
    "upgrade": "NULL_NA",
    "gnaf_pid": "GAVIC424791979",
    "ee": true
   }
  },
  {
   "type": "Feature",
   "geometry": {
    "type": "Point",
    "coordinates": [
     144.94885388,
     -37.82437633
    ]
   },
   "properties": {
    "name": "SHOP 1A, 20 CONVENTION CENTRE PLACE SOUTH WHARF 3006",
    "locID": "LOC100058789345",
    "tech": "FTTB",
    "upgrade": "NULL_NA",
    "gnaf_pid": "GAVIC424791980",
    "ee": true
   }
  },
  {
   "type": "Feature",
   "geometry": {
    "type": "Point",
    "coordinates": [
     144.94885388,
     -37.82437633
    ]
   },
   "properties": {
    "name": "SHOP 1F, LEVEL 1, 20 CONVENTION CENTRE PLACE SOUTH WHARF 3006",
    "locID": "LOC100058789345",
    "tech": "FTTB",
    "upgrade": "NULL_NA",
    "gnaf_pid": "GAVIC424791981",
    "ee": true
   }
  },
  {
   "type": "Feature",
   "geometry": {
    "type": "Point",
    "coordinates": [
     144.94885388,
     -37.82437633
    ]
   },
   "properties": {
    "name": "SHOP 1F, 20 CONVENTION CENTRE PLACE SOUTH WHARF 3006",
    "locID": "LOC100058789345",
    "tech": "FTTB",
    "upgrade": "NULL_NA",
    "gnaf_pid": "GAVIC424791982",
    "ee": true
   }
  },
  {
   "type": "Feature",
   "geometry": {
    "type": "Point",
    "coordinates": [
     144.94885388,
     -37.82437633
    ]
   },
   "properties": {
    "name": "SHOP 20, LEVEL 1, 20 CONVENTION CENTRE PLACE SOUTH WHARF 3006",
    "locID": "LOC100076222619",
    "tech": "FTTB",
    "upgrade": "NULL_NA",
    "gnaf_pid": "GAVIC424791983",
    "ee": true
   }
  },
  {
   "type": "Feature",
   "geometry": {
    "type": "Point",
    "coordinates": [
     144.94885388,
     -37.82437633
    ]
   },
   "properties": {
    "name": "SHOP 21, LEVEL 1, 20 CONVENTION CENTRE PLACE SOUTH WHARF 3006",
    "locID": "LOC100058789345",
    "tech": "FTTB",
    "upgrade": "NULL_NA",
    "gnaf_pid": "GAVIC424791984",
    "ee": true
   }
  },
  {
   "type": "Feature",
   "geometry": {
    "type": "Point",
    "coordinates": [
     144.94885388,
     -37.82437633
    ]
   },
   "properties": {
    "name": "SHOP 22, LEVEL 1, 20 CONVENTION CENTRE PLACE SOUTH WHARF 3006",
    "locID": "LOC100058789345",
    "tech": "FTTB",
    "upgrade": "NULL_NA",
    "gnaf_pid": "GAVIC424791985",
    "ee": true
   }
  },
  {
   "type": "Feature",
   "geometry": {
    "type": "Point",
    "coordinates": [
     144.94885388,
     -37.82437633
    ]
   },
   "properties": {
    "name": "SHOP 28, 20 CONVENTION CENTRE PLACE SOUTH WHARF 3006",
    "locID": "LOC100058789345",
    "tech": "FTTB",
    "upgrade": "NULL_NA",
    "gnaf_pid": "GAVIC424791986",
    "ee": true
   }
  },
  {
   "type": "Feature",
   "geometry": {
    "type": "Point",
    "coordinates": [
     144.94885388,
     -37.82437633
    ]
   },
   "properties": {
    "name": "SHOP 29, 20 CONVENTION CENTRE PLACE SOUTH WHARF 3006",
    "locID": "LOC100058789345",
    "tech": "FTTB",
    "upgrade": "NULL_NA",
    "gnaf_pid": "GAVIC424791987",
    "ee": true
   }
  },
  {
   "type": "Feature",
   "geometry": {
    "type": "Point",
    "coordinates": [
     144.94885388,
     -37.82437633
    ]
   },
   "properties": {
    "name": "SHOP 2, LEVEL 1, 20 CONVENTION CENTRE PLACE SOUTH WHARF 3006",
    "locID": "LOC100076222619",
    "tech": "FTTB",
    "upgrade": "NULL_NA",
    "gnaf_pid": "GAVIC424791988",
    "ee": true
   }
  },
  {
   "type": "Feature",
   "geometry": {
    "type": "Point",
    "coordinates": [
     144.94885388,
     -37.82437633
    ]
   },
   "properties": {
    "name": "SHOP 2F, 20 CONVENTION CENTRE PLACE SOUTH WHARF 3006",
    "locID": "LOC100058789345",
    "tech": "FTTB",
    "upgrade": "NULL_NA",
    "gnaf_pid": "GAVIC424791989",
    "ee": true
   }
  },
  {
   "type": "Feature",
   "geometry": {
    "type": "Point",
    "coordinates": [
     144.94885388,
     -37.82437633
    ]
   },
   "properties": {
    "name": "SHOP 30, 20 CONVENTION CENTRE PLACE SOUTH WHARF 3006",
    "locID": "LOC000190431439",
    "tech": "FTTB",
    "upgrade": "NULL_NA",
    "gnaf_pid": "GAVIC424791990",
    "ee": true
   }
  },
  {
   "type": "Feature",
   "geometry": {
    "type": "Point",
    "coordinates": [
     144.94885388,
     -37.82437633
    ]
   },
   "properties": {
    "name": "SHOP 30A, 20 CONVENTION CENTRE PLACE SOUTH WHARF 3006",
    "locID": "LOC100058789345",
    "tech": "FTTB",
    "upgrade": "NULL_NA",
    "gnaf_pid": "GAVIC424791991",
    "ee": true
   }
  },
  {
   "type": "Feature",
   "geometry": {
    "type": "Point",
    "coordinates": [
     144.94885388,
     -37.82437633
    ]
   },
   "properties": {
    "name": "SHOP 31, 20 CONVENTION CENTRE PLACE SOUTH WHARF 3006",
    "locID": "LOC000178169406",
    "tech": "FTTB",
    "upgrade": "NULL_NA",
    "gnaf_pid": "GAVIC424791992",
    "ee": true
   }
  },
  {
   "type": "Feature",
   "geometry": {
    "type": "Point",
    "coordinates": [
     144.94885388,
     -37.82437633
    ]
   },
   "properties": {
    "name": "SHOP 31A, 20 CONVENTION CENTRE PLACE SOUTH WHARF 3006",
    "locID": "LOC100058789345",
    "tech": "FTTB",
    "upgrade": "NULL_NA",
    "gnaf_pid": "GAVIC424791993",
    "ee": true
   }
  },
  {
   "type": "Feature",
   "geometry": {
    "type": "Point",
    "coordinates": [
     144.94885388,
     -37.82437633
    ]
   },
   "properties": {
    "name": "SHOP 32, 20 CONVENTION CENTRE PLACE SOUTH WHARF 3006",
    "locID": "LOC000114944515",
    "tech": "FTTB",
    "upgrade": "NULL_NA",
    "gnaf_pid": "GAVIC424791994",
    "ee": true
   }
  },
  {
   "type": "Feature",
   "geometry": {
    "type": "Point",
    "coordinates": [
     144.94885388,
     -37.82437633
    ]
   },
   "properties": {
    "name": "SHOP 33, 20 CONVENTION CENTRE PLACE SOUTH WHARF 3006",
    "locID": "LOC100058789345",
    "tech": "FTTB",
    "upgrade": "NULL_NA",
    "gnaf_pid": "GAVIC424791995",
    "ee": true
   }
  },
  {
   "type": "Feature",
   "geometry": {
    "type": "Point",
    "coordinates": [
     144.94885388,
     -37.82437633
    ]
   },
   "properties": {
    "name": "SHOP 34, 20 CONVENTION CENTRE PLACE SOUTH WHARF 3006",
    "locID": "LOC100058789345",
    "tech": "FTTB",
    "upgrade": "NULL_NA",
    "gnaf_pid": "GAVIC424791996",
    "ee": true
   }
  },
  {
   "type": "Feature",
   "geometry": {
    "type": "Point",
    "coordinates": [
     144.94885388,
     -37.82437633
    ]
   },
   "properties": {
    "name": "SHOP 35, 20 CONVENTION CENTRE PLACE SOUTH WHARF 3006",
    "locID": "LOC100058789345",
    "tech": "FTTB",
    "upgrade": "NULL_NA",
    "gnaf_pid": "GAVIC424791997",
    "ee": true
   }
  },
  {
   "type": "Feature",
   "geometry": {
    "type": "Point",
    "coordinates": [
     144.94885388,
     -37.82437633
    ]
   },
   "properties": {
    "name": "SHOP 36, 20 CONVENTION CENTRE PLACE SOUTH WHARF 3006",
    "locID": "LOC000178169944",
    "tech": "FTTB",
    "upgrade": "NULL_NA",
    "gnaf_pid": "GAVIC424791998",
    "ee": true
   }
  },
  {
   "type": "Feature",
   "geometry": {
    "type": "Point",
    "coordinates": [
     144.94885388,
     -37.82437633
    ]
   },
   "properties": {
    "name": "SHOP 37, 20 CONVENTION CENTRE PLACE SOUTH WHARF 3006",
    "locID": "LOC100058789345",
    "tech": "FTTB",
    "upgrade": "NULL_NA",
    "gnaf_pid": "GAVIC424791999",
    "ee": true
   }
  },
  {
   "type": "Feature",
   "geometry": {
    "type": "Point",
    "coordinates": [
     144.94885388,
     -37.82437633
    ]
   },
   "properties": {
    "name": "SHOP 38, 20 CONVENTION CENTRE PLACE SOUTH WHARF 3006",
    "locID": "LOC000168828518",
    "tech": "FTTB",
    "upgrade": "NULL_NA",
    "gnaf_pid": "GAVIC424792000",
    "ee": true
   }
  },
  {
   "type": "Feature",
   "geometry": {
    "type": "Point",
    "coordinates": [
     144.94885388,
     -37.82437633
    ]
   },
   "properties": {
    "name": "SHOP 39, 20 CONVENTION CENTRE PLACE SOUTH WHARF 3006",
    "locID": "LOC100058789345",
    "tech": "FTTB",
    "upgrade": "NULL_NA",
    "gnaf_pid": "GAVIC424792001",
    "ee": true
   }
  },
  {
   "type": "Feature",
   "geometry": {
    "type": "Point",
    "coordinates": [
     144.94885388,
     -37.82437633
    ]
   },
   "properties": {
    "name": "SHOP 3, LEVEL 1, 20 CONVENTION CENTRE PLACE SOUTH WHARF 3006",
    "locID": "LOC100076222619",
    "tech": "FTTB",
    "upgrade": "NULL_NA",
    "gnaf_pid": "GAVIC424792002",
    "ee": true
   }
  },
  {
   "type": "Feature",
   "geometry": {
    "type": "Point",
    "coordinates": [
     144.94885388,
     -37.82437633
    ]
   },
   "properties": {
    "name": "SHOP 3A, 20 CONVENTION CENTRE PLACE SOUTH WHARF 3006",
    "locID": "LOC100058789345",
    "tech": "FTTB",
    "upgrade": "NULL_NA",
    "gnaf_pid": "GAVIC424792003",
    "ee": true
   }
  },
  {
   "type": "Feature",
   "geometry": {
    "type": "Point",
    "coordinates": [
     144.94885388,
     -37.82437633
    ]
   },
   "properties": {
    "name": "SHOP 3F, 20 CONVENTION CENTRE PLACE SOUTH WHARF 3006",
    "locID": "LOC100058789345",
    "tech": "FTTB",
    "upgrade": "NULL_NA",
    "gnaf_pid": "GAVIC424792004",
    "ee": true
   }
  },
  {
   "type": "Feature",
   "geometry": {
    "type": "Point",
    "coordinates": [
     144.94885388,
     -37.82437633
    ]
   },
   "properties": {
    "name": "SHOP 40, 20 CONVENTION CENTRE PLACE SOUTH WHARF 3006",
    "locID": "LOC100058789345",
    "tech": "FTTB",
    "upgrade": "NULL_NA",
    "gnaf_pid": "GAVIC424792005",
    "ee": true
   }
  },
  {
   "type": "Feature",
   "geometry": {
    "type": "Point",
    "coordinates": [
     144.94885388,
     -37.82437633
    ]
   },
   "properties": {
    "name": "SHOP 41, 20 CONVENTION CENTRE PLACE SOUTH WHARF 3006",
    "locID": "LOC100058789345",
    "tech": "FTTB",
    "upgrade": "NULL_NA",
    "gnaf_pid": "GAVIC424792006",
    "ee": true
   }
  },
  {
   "type": "Feature",
   "geometry": {
    "type": "Point",
    "coordinates": [
     144.94885388,
     -37.82437633
    ]
   },
   "properties": {
    "name": "SHOP 42, 20 CONVENTION CENTRE PLACE SOUTH WHARF 3006",
    "locID": "LOC100058789345",
    "tech": "FTTB",
    "upgrade": "NULL_NA",
    "gnaf_pid": "GAVIC424792007",
    "ee": true
   }
  },
  {
   "type": "Feature",
   "geometry": {
    "type": "Point",
    "coordinates": [
     144.94885388,
     -37.82437633
    ]
   },
   "properties": {
    "name": "SHOP 44, 20 CONVENTION CENTRE PLACE SOUTH WHARF 3006",
    "locID": "LOC100058789345",
    "tech": "FTTB",
    "upgrade": "NULL_NA",
    "gnaf_pid": "GAVIC424792008",
    "ee": true
   }
  },
  {
   "type": "Feature",
   "geometry": {
    "type": "Point",
    "coordinates": [
     144.94885388,
     -37.82437633
    ]
   },
   "properties": {
    "name": "SHOP 45, 20 CONVENTION CENTRE PLACE SOUTH WHARF 3006",
    "locID": "LOC100058789345",
    "tech": "FTTB",
    "upgrade": "NULL_NA",
    "gnaf_pid": "GAVIC424792009",
    "ee": true
   }
  },
  {
   "type": "Feature",
   "geometry": {
    "type": "Point",
    "coordinates": [
     144.94885388,
     -37.82437633
    ]
   },
   "properties": {
    "name": "SHOP 46, 20 CONVENTION CENTRE PLACE SOUTH WHARF 3006",
    "locID": "LOC100058789345",
    "tech": "FTTB",
    "upgrade": "NULL_NA",
    "gnaf_pid": "GAVIC424792010",
    "ee": true
   }
  },
  {
   "type": "Feature",
   "geometry": {
    "type": "Point",
    "coordinates": [
     144.94885388,
     -37.82437633
    ]
   },
   "properties": {
    "name": "SHOP 47, 20 CONVENTION CENTRE PLACE SOUTH WHARF 3006",
    "locID": "LOC100058789345",
    "tech": "FTTB",
    "upgrade": "NULL_NA",
    "gnaf_pid": "GAVIC424792011",
    "ee": true
   }
  },
  {
   "type": "Feature",
   "geometry": {
    "type": "Point",
    "coordinates": [
     144.94885388,
     -37.82437633
    ]
   },
   "properties": {
    "name": "SHOP 48, 20 CONVENTION CENTRE PLACE SOUTH WHARF 3006",
    "locID": "LOC100058789345",
    "tech": "FTTB",
    "upgrade": "NULL_NA",
    "gnaf_pid": "GAVIC424792012",
    "ee": true
   }
  },
  {
   "type": "Feature",
   "geometry": {
    "type": "Point",
    "coordinates": [
     144.94885388,
     -37.82437633
    ]
   },
   "properties": {
    "name": "SHOP 49, 20 CONVENTION CENTRE PLACE SOUTH WHARF 3006",
    "locID": "LOC100058789345",
    "tech": "FTTB",
    "upgrade": "NULL_NA",
    "gnaf_pid": "GAVIC424792013",
    "ee": true
   }
  },
  {
   "type": "Feature",
   "geometry": {
    "type": "Point",
    "coordinates": [
     144.94885388,
     -37.82437633
    ]
   },
   "properties": {
    "name": "SHOP 4, LEVEL 1, 20 CONVENTION CENTRE PLACE SOUTH WHARF 3006",
    "locID": "LOC100058789345",
    "tech": "FTTB",
    "upgrade": "NULL_NA",
    "gnaf_pid": "GAVIC424792014",
    "ee": true
   }
  },
  {
   "type": "Feature",
   "geometry": {
    "type": "Point",
    "coordinates": [
     144.94885388,
     -37.82437633
    ]
   },
   "properties": {
    "name": "SHOP 4A, 20 CONVENTION CENTRE PLACE SOUTH WHARF 3006",
    "locID": "LOC100058789345",
    "tech": "FTTB",
    "upgrade": "NULL_NA",
    "gnaf_pid": "GAVIC424792015",
    "ee": true
   }
  },
  {
   "type": "Feature",
   "geometry": {
    "type": "Point",
    "coordinates": [
     144.94885388,
     -37.82437633
    ]
   },
   "properties": {
    "name": "SHOP 4F, 20 CONVENTION CENTRE PLACE SOUTH WHARF 3006",
    "locID": "LOC100058789345",
    "tech": "FTTB",
    "upgrade": "NULL_NA",
    "gnaf_pid": "GAVIC424792016",
    "ee": true
   }
  },
  {
   "type": "Feature",
   "geometry": {
    "type": "Point",
    "coordinates": [
     144.94885388,
     -37.82437633
    ]
   },
   "properties": {
    "name": "SHOP 50, 20 CONVENTION CENTRE PLACE SOUTH WHARF 3006",
    "locID": "LOC100058789345",
    "tech": "FTTB",
    "upgrade": "NULL_NA",
    "gnaf_pid": "GAVIC424792017",
    "ee": true
   }
  },
  {
   "type": "Feature",
   "geometry": {
    "type": "Point",
    "coordinates": [
     144.94885388,
     -37.82437633
    ]
   },
   "properties": {
    "name": "SHOP 51, 20 CONVENTION CENTRE PLACE SOUTH WHARF 3006",
    "locID": "LOC100058789345",
    "tech": "FTTB",
    "upgrade": "NULL_NA",
    "gnaf_pid": "GAVIC424792018",
    "ee": true
   }
  },
  {
   "type": "Feature",
   "geometry": {
    "type": "Point",
    "coordinates": [
     144.94885388,
     -37.82437633
    ]
   },
   "properties": {
    "name": "SHOP 52, 20 CONVENTION CENTRE PLACE SOUTH WHARF 3006",
    "locID": "LOC100058789345",
    "tech": "FTTB",
    "upgrade": "NULL_NA",
    "gnaf_pid": "GAVIC424792019",
    "ee": true
   }
  },
  {
   "type": "Feature",
   "geometry": {
    "type": "Point",
    "coordinates": [
     144.94885388,
     -37.82437633
    ]
   },
   "properties": {
    "name": "SHOP 53, 20 CONVENTION CENTRE PLACE SOUTH WHARF 3006",
    "locID": "LOC100075346913",
    "tech": "FTTB",
    "upgrade": "NULL_NA",
    "gnaf_pid": "GAVIC424792020",
    "ee": true
   }
  },
  {
   "type": "Feature",
   "geometry": {
    "type": "Point",
    "coordinates": [
     144.94885388,
     -37.82437633
    ]
   },
   "properties": {
    "name": "SHOP 53A, 20 CONVENTION CENTRE PLACE SOUTH WHARF 3006",
    "locID": "LOC100075346913",
    "tech": "FTTB",
    "upgrade": "NULL_NA",
    "gnaf_pid": "GAVIC424792021",
    "ee": true
   }
  },
  {
   "type": "Feature",
   "geometry": {
    "type": "Point",
    "coordinates": [
     144.94885388,
     -37.82437633
    ]
   },
   "properties": {
    "name": "SHOP 54, 20 CONVENTION CENTRE PLACE SOUTH WHARF 3006",
    "locID": "LOC100058789345",
    "tech": "FTTB",
    "upgrade": "NULL_NA",
    "gnaf_pid": "GAVIC424792022",
    "ee": true
   }
  },
  {
   "type": "Feature",
   "geometry": {
    "type": "Point",
    "coordinates": [
     144.94885388,
     -37.82437633
    ]
   },
   "properties": {
    "name": "SHOP 55, 20 CONVENTION CENTRE PLACE SOUTH WHARF 3006",
    "locID": "LOC100058789345",
    "tech": "FTTB",
    "upgrade": "NULL_NA",
    "gnaf_pid": "GAVIC424792023",
    "ee": true
   }
  },
  {
   "type": "Feature",
   "geometry": {
    "type": "Point",
    "coordinates": [
     144.94885388,
     -37.82437633
    ]
   },
   "properties": {
    "name": "SHOP 56, 20 CONVENTION CENTRE PLACE SOUTH WHARF 3006",
    "locID": "LOC100058789345",
    "tech": "FTTB",
    "upgrade": "NULL_NA",
    "gnaf_pid": "GAVIC424792024",
    "ee": true
   }
  },
  {
   "type": "Feature",
   "geometry": {
    "type": "Point",
    "coordinates": [
     144.94885388,
     -37.82437633
    ]
   },
   "properties": {
    "name": "SHOP 57, 20 CONVENTION CENTRE PLACE SOUTH WHARF 3006",
    "locID": "LOC100058789345",
    "tech": "FTTB",
    "upgrade": "NULL_NA",
    "gnaf_pid": "GAVIC424792025",
    "ee": true
   }
  },
  {
   "type": "Feature",
   "geometry": {
    "type": "Point",
    "coordinates": [
     144.94885388,
     -37.82437633
    ]
   },
   "properties": {
    "name": "SHOP 58, 20 CONVENTION CENTRE PLACE SOUTH WHARF 3006",
    "locID": "LOC100058789345",
    "tech": "FTTB",
    "upgrade": "NULL_NA",
    "gnaf_pid": "GAVIC424792026",
    "ee": true
   }
  },
  {
   "type": "Feature",
   "geometry": {
    "type": "Point",
    "coordinates": [
     144.94885388,
     -37.82437633
    ]
   },
   "properties": {
    "name": "SHOP 59, 20 CONVENTION CENTRE PLACE SOUTH WHARF 3006",
    "locID": "LOC100058789345",
    "tech": "FTTB",
    "upgrade": "NULL_NA",
    "gnaf_pid": "GAVIC424792027",
    "ee": true
   }
  },
  {
   "type": "Feature",
   "geometry": {
    "type": "Point",
    "coordinates": [
     144.94885388,
     -37.82437633
    ]
   },
   "properties": {
    "name": "SHOP 5, LEVEL 1, 20 CONVENTION CENTRE PLACE SOUTH WHARF 3006",
    "locID": "LOC100058789345",
    "tech": "FTTB",
    "upgrade": "NULL_NA",
    "gnaf_pid": "GAVIC424792028",
    "ee": true
   }
  },
  {
   "type": "Feature",
   "geometry": {
    "type": "Point",
    "coordinates": [
     144.94885388,
     -37.82437633
    ]
   },
   "properties": {
    "name": "SHOP 60, 20 CONVENTION CENTRE PLACE SOUTH WHARF 3006",
    "locID": "LOC100058789345",
    "tech": "FTTB",
    "upgrade": "NULL_NA",
    "gnaf_pid": "GAVIC424792029",
    "ee": true
   }
  },
  {
   "type": "Feature",
   "geometry": {
    "type": "Point",
    "coordinates": [
     144.94885388,
     -37.82437633
    ]
   },
   "properties": {
    "name": "SHOP 61, 20 CONVENTION CENTRE PLACE SOUTH WHARF 3006",
    "locID": "LOC100058789345",
    "tech": "FTTB",
    "upgrade": "NULL_NA",
    "gnaf_pid": "GAVIC424792030",
    "ee": true
   }
  },
  {
   "type": "Feature",
   "geometry": {
    "type": "Point",
    "coordinates": [
     144.94885388,
     -37.82437633
    ]
   },
   "properties": {
    "name": "SHOP 62, 20 CONVENTION CENTRE PLACE SOUTH WHARF 3006",
    "locID": "LOC100058789345",
    "tech": "FTTB",
    "upgrade": "NULL_NA",
    "gnaf_pid": "GAVIC424792031",
    "ee": true
   }
  },
  {
   "type": "Feature",
   "geometry": {
    "type": "Point",
    "coordinates": [
     144.94885388,
     -37.82437633
    ]
   },
   "properties": {
    "name": "SHOP 63, 20 CONVENTION CENTRE PLACE SOUTH WHARF 3006",
    "locID": "LOC100058789345",
    "tech": "FTTB",
    "upgrade": "NULL_NA",
    "gnaf_pid": "GAVIC424792032",
    "ee": true
   }
  },
  {
   "type": "Feature",
   "geometry": {
    "type": "Point",
    "coordinates": [
     144.94885388,
     -37.82437633
    ]
   },
   "properties": {
    "name": "SHOP 64, 20 CONVENTION CENTRE PLACE SOUTH WHARF 3006",
    "locID": "LOC100058789345",
    "tech": "FTTB",
    "upgrade": "NULL_NA",
    "gnaf_pid": "GAVIC424792033",
    "ee": true
   }
  },
  {
   "type": "Feature",
   "geometry": {
    "type": "Point",
    "coordinates": [
     144.94885388,
     -37.82437633
    ]
   },
   "properties": {
    "name": "SHOP 65, 20 CONVENTION CENTRE PLACE SOUTH WHARF 3006",
    "locID": "LOC100058789345",
    "tech": "FTTB",
    "upgrade": "NULL_NA",
    "gnaf_pid": "GAVIC424792034",
    "ee": true
   }
  },
  {
   "type": "Feature",
   "geometry": {
    "type": "Point",
    "coordinates": [
     144.94885388,
     -37.82437633
    ]
   },
   "properties": {
    "name": "SHOP 66, 20 CONVENTION CENTRE PLACE SOUTH WHARF 3006",
    "locID": "LOC100058789345",
    "tech": "FTTB",
    "upgrade": "NULL_NA",
    "gnaf_pid": "GAVIC424792035",
    "ee": true
   }
  },
  {
   "type": "Feature",
   "geometry": {
    "type": "Point",
    "coordinates": [
     144.94885388,
     -37.82437633
    ]
   },
   "properties": {
    "name": "SHOP 67, 20 CONVENTION CENTRE PLACE SOUTH WHARF 3006",
    "locID": "LOC100058789345",
    "tech": "FTTB",
    "upgrade": "NULL_NA",
    "gnaf_pid": "GAVIC424792036",
    "ee": true
   }
  },
  {
   "type": "Feature",
   "geometry": {
    "type": "Point",
    "coordinates": [
     144.94885388,
     -37.82437633
    ]
   },
   "properties": {
    "name": "SHOP 68, 20 CONVENTION CENTRE PLACE SOUTH WHARF 3006",
    "locID": "LOC100058789345",
    "tech": "FTTB",
    "upgrade": "NULL_NA",
    "gnaf_pid": "GAVIC424792037",
    "ee": true
   }
  },
  {
   "type": "Feature",
   "geometry": {
    "type": "Point",
    "coordinates": [
     144.94885388,
     -37.82437633
    ]
   },
   "properties": {
    "name": "SHOP 69, 20 CONVENTION CENTRE PLACE SOUTH WHARF 3006",
    "locID": "LOC100058789345",
    "tech": "FTTB",
    "upgrade": "NULL_NA",
    "gnaf_pid": "GAVIC424792038",
    "ee": true
   }
  },
  {
   "type": "Feature",
   "geometry": {
    "type": "Point",
    "coordinates": [
     144.94885388,
     -37.82437633
    ]
   },
   "properties": {
    "name": "SHOP 6, LEVEL 1, 20 CONVENTION CENTRE PLACE SOUTH WHARF 3006",
    "locID": "LOC100058789345",
    "tech": "FTTB",
    "upgrade": "NULL_NA",
    "gnaf_pid": "GAVIC424792039",
    "ee": true
   }
  },
  {
   "type": "Feature",
   "geometry": {
    "type": "Point",
    "coordinates": [
     144.94885388,
     -37.82437633
    ]
   },
   "properties": {
    "name": "SHOP 6F, 20 CONVENTION CENTRE PLACE SOUTH WHARF 3006",
    "locID": "LOC100058789345",
    "tech": "FTTB",
    "upgrade": "NULL_NA",
    "gnaf_pid": "GAVIC424792040",
    "ee": true
   }
  },
  {
   "type": "Feature",
   "geometry": {
    "type": "Point",
    "coordinates": [
     144.94885388,
     -37.82437633
    ]
   },
   "properties": {
    "name": "SHOP 70, 20 CONVENTION CENTRE PLACE SOUTH WHARF 3006",
    "locID": "LOC100058789345",
    "tech": "FTTB",
    "upgrade": "NULL_NA",
    "gnaf_pid": "GAVIC424792041",
    "ee": true
   }
  },
  {
   "type": "Feature",
   "geometry": {
    "type": "Point",
    "coordinates": [
     144.94885388,
     -37.82437633
    ]
   },
   "properties": {
    "name": "SHOP 71, 20 CONVENTION CENTRE PLACE SOUTH WHARF 3006",
    "locID": "LOC100058789345",
    "tech": "FTTB",
    "upgrade": "NULL_NA",
    "gnaf_pid": "GAVIC424792042",
    "ee": true
   }
  },
  {
   "type": "Feature",
   "geometry": {
    "type": "Point",
    "coordinates": [
     144.94885388,
     -37.82437633
    ]
   },
   "properties": {
    "name": "SHOP 72, 20 CONVENTION CENTRE PLACE SOUTH WHARF 3006",
    "locID": "LOC100058789345",
    "tech": "FTTB",
    "upgrade": "NULL_NA",
    "gnaf_pid": "GAVIC424792043",
    "ee": true
   }
  },
  {
   "type": "Feature",
   "geometry": {
    "type": "Point",
    "coordinates": [
     144.94885388,
     -37.82437633
    ]
   },
   "properties": {
    "name": "SHOP 73, 20 CONVENTION CENTRE PLACE SOUTH WHARF 3006",
    "locID": "LOC100058789345",
    "tech": "FTTB",
    "upgrade": "NULL_NA",
    "gnaf_pid": "GAVIC424792044",
    "ee": true
   }
  },
  {
   "type": "Feature",
   "geometry": {
    "type": "Point",
    "coordinates": [
     144.94885388,
     -37.82437633
    ]
   },
   "properties": {
    "name": "SHOP 74, 20 CONVENTION CENTRE PLACE SOUTH WHARF 3006",
    "locID": "LOC000114860850",
    "tech": "FTTB",
    "upgrade": "NULL_NA",
    "gnaf_pid": "GAVIC424792045",
    "ee": true
   }
  },
  {
   "type": "Feature",
   "geometry": {
    "type": "Point",
    "coordinates": [
     144.94885388,
     -37.82437633
    ]
   },
   "properties": {
    "name": "SHOP 75, 20 CONVENTION CENTRE PLACE SOUTH WHARF 3006",
    "locID": "LOC100058789345",
    "tech": "FTTB",
    "upgrade": "NULL_NA",
    "gnaf_pid": "GAVIC424792046",
    "ee": true
   }
  },
  {
   "type": "Feature",
   "geometry": {
    "type": "Point",
    "coordinates": [
     144.94885388,
     -37.82437633
    ]
   },
   "properties": {
    "name": "SHOP 76, 20 CONVENTION CENTRE PLACE SOUTH WHARF 3006",
    "locID": "LOC100058789345",
    "tech": "FTTB",
    "upgrade": "NULL_NA",
    "gnaf_pid": "GAVIC424792047",
    "ee": true
   }
  },
  {
   "type": "Feature",
   "geometry": {
    "type": "Point",
    "coordinates": [
     144.94885388,
     -37.82437633
    ]
   },
   "properties": {
    "name": "SHOP 77, 20 CONVENTION CENTRE PLACE SOUTH WHARF 3006",
    "locID": "LOC100058789345",
    "tech": "FTTB",
    "upgrade": "NULL_NA",
    "gnaf_pid": "GAVIC424792048",
    "ee": true
   }
  },
  {
   "type": "Feature",
   "geometry": {
    "type": "Point",
    "coordinates": [
     144.94885388,
     -37.82437633
    ]
   },
   "properties": {
    "name": "SHOP 78, 20 CONVENTION CENTRE PLACE SOUTH WHARF 3006",
    "locID": "LOC100058789345",
    "tech": "FTTB",
    "upgrade": "NULL_NA",
    "gnaf_pid": "GAVIC424792049",
    "ee": true
   }
  },
  {
   "type": "Feature",
   "geometry": {
    "type": "Point",
    "coordinates": [
     144.94885388,
     -37.82437633
    ]
   },
   "properties": {
    "name": "SHOP 79, 20 CONVENTION CENTRE PLACE SOUTH WHARF 3006",
    "locID": "LOC100058789345",
    "tech": "FTTB",
    "upgrade": "NULL_NA",
    "gnaf_pid": "GAVIC424792050",
    "ee": true
   }
  },
  {
   "type": "Feature",
   "geometry": {
    "type": "Point",
    "coordinates": [
     144.94885388,
     -37.82437633
    ]
   },
   "properties": {
    "name": "SHOP 7, LEVEL 1, 20 CONVENTION CENTRE PLACE SOUTH WHARF 3006",
    "locID": "LOC100058789345",
    "tech": "FTTB",
    "upgrade": "NULL_NA",
    "gnaf_pid": "GAVIC424792051",
    "ee": true
   }
  },
  {
   "type": "Feature",
   "geometry": {
    "type": "Point",
    "coordinates": [
     144.94885388,
     -37.82437633
    ]
   },
   "properties": {
    "name": "SHOP 7F, 20 CONVENTION CENTRE PLACE SOUTH WHARF 3006",
    "locID": "LOC100058789345",
    "tech": "FTTB",
    "upgrade": "NULL_NA",
    "gnaf_pid": "GAVIC424792052",
    "ee": true
   }
  },
  {
   "type": "Feature",
   "geometry": {
    "type": "Point",
    "coordinates": [
     144.94885388,
     -37.82437633
    ]
   },
   "properties": {
    "name": "SHOP 80, 20 CONVENTION CENTRE PLACE SOUTH WHARF 3006",
    "locID": "LOC100058789345",
    "tech": "FTTB",
    "upgrade": "NULL_NA",
    "gnaf_pid": "GAVIC424792053",
    "ee": true
   }
  },
  {
   "type": "Feature",
   "geometry": {
    "type": "Point",
    "coordinates": [
     144.94885388,
     -37.82437633
    ]
   },
   "properties": {
    "name": "SHOP 81, 20 CONVENTION CENTRE PLACE SOUTH WHARF 3006",
    "locID": "LOC100058789345",
    "tech": "FTTB",
    "upgrade": "NULL_NA",
    "gnaf_pid": "GAVIC424792054",
    "ee": true
   }
  },
  {
   "type": "Feature",
   "geometry": {
    "type": "Point",
    "coordinates": [
     144.94885388,
     -37.82437633
    ]
   },
   "properties": {
    "name": "SHOP 82, 20 CONVENTION CENTRE PLACE SOUTH WHARF 3006",
    "locID": "LOC100058789345",
    "tech": "FTTB",
    "upgrade": "NULL_NA",
    "gnaf_pid": "GAVIC424792055",
    "ee": true
   }
  },
  {
   "type": "Feature",
   "geometry": {
    "type": "Point",
    "coordinates": [
     144.94885388,
     -37.82437633
    ]
   },
   "properties": {
    "name": "SHOP 83, 20 CONVENTION CENTRE PLACE SOUTH WHARF 3006",
    "locID": "LOC100058789345",
    "tech": "FTTB",
    "upgrade": "NULL_NA",
    "gnaf_pid": "GAVIC424792056",
    "ee": true
   }
  },
  {
   "type": "Feature",
   "geometry": {
    "type": "Point",
    "coordinates": [
     144.94885388,
     -37.82437633
    ]
   },
   "properties": {
    "name": "SHOP 84, 20 CONVENTION CENTRE PLACE SOUTH WHARF 3006",
    "locID": "LOC000113027785",
    "tech": "FTTB",
    "upgrade": "NULL_NA",
    "gnaf_pid": "GAVIC424792057",
    "ee": true
   }
  },
  {
   "type": "Feature",
   "geometry": {
    "type": "Point",
    "coordinates": [
     144.94885388,
     -37.82437633
    ]
   },
   "properties": {
    "name": "SHOP 85, 20 CONVENTION CENTRE PLACE SOUTH WHARF 3006",
    "locID": "LOC100058789345",
    "tech": "FTTB",
    "upgrade": "NULL_NA",
    "gnaf_pid": "GAVIC424792058",
    "ee": true
   }
  },
  {
   "type": "Feature",
   "geometry": {
    "type": "Point",
    "coordinates": [
     144.94885388,
     -37.82437633
    ]
   },
   "properties": {
    "name": "SHOP 86, 20 CONVENTION CENTRE PLACE SOUTH WHARF 3006",
    "locID": "LOC000183849612",
    "tech": "FTTB",
    "upgrade": "NULL_NA",
    "gnaf_pid": "GAVIC424792059",
    "ee": true
   }
  },
  {
   "type": "Feature",
   "geometry": {
    "type": "Point",
    "coordinates": [
     144.94885388,
     -37.82437633
    ]
   },
   "properties": {
    "name": "SHOP 87, 20 CONVENTION CENTRE PLACE SOUTH WHARF 3006",
    "locID": "LOC100058789345",
    "tech": "FTTB",
    "upgrade": "NULL_NA",
    "gnaf_pid": "GAVIC424792060",
    "ee": true
   }
  },
  {
   "type": "Feature",
   "geometry": {
    "type": "Point",
    "coordinates": [
     144.94885388,
     -37.82437633
    ]
   },
   "properties": {
    "name": "SHOP 88, 20 CONVENTION CENTRE PLACE SOUTH WHARF 3006",
    "locID": "LOC100058789345",
    "tech": "FTTB",
    "upgrade": "NULL_NA",
    "gnaf_pid": "GAVIC424792061",
    "ee": true
   }
  },
  {
   "type": "Feature",
   "geometry": {
    "type": "Point",
    "coordinates": [
     144.94885388,
     -37.82437633
    ]
   },
   "properties": {
    "name": "SHOP 89, 20 CONVENTION CENTRE PLACE SOUTH WHARF 3006",
    "locID": "LOC100058789345",
    "tech": "FTTB",
    "upgrade": "NULL_NA",
    "gnaf_pid": "GAVIC424792062",
    "ee": true
   }
  },
  {
   "type": "Feature",
   "geometry": {
    "type": "Point",
    "coordinates": [
     144.94885388,
     -37.82437633
    ]
   },
   "properties": {
    "name": "SHOP 8, LEVEL 1, 20 CONVENTION CENTRE PLACE SOUTH WHARF 3006",
    "locID": "LOC100058789345",
    "tech": "FTTB",
    "upgrade": "NULL_NA",
    "gnaf_pid": "GAVIC424792063",
    "ee": true
   }
  },
  {
   "type": "Feature",
   "geometry": {
    "type": "Point",
    "coordinates": [
     144.94885388,
     -37.82437633
    ]
   },
   "properties": {
    "name": "SHOP 90, 20 CONVENTION CENTRE PLACE SOUTH WHARF 3006",
    "locID": "LOC100058789345",
    "tech": "FTTB",
    "upgrade": "NULL_NA",
    "gnaf_pid": "GAVIC424792064",
    "ee": true
   }
  },
  {
   "type": "Feature",
   "geometry": {
    "type": "Point",
    "coordinates": [
     144.94885388,
     -37.82437633
    ]
   },
   "properties": {
    "name": "SHOP 91, 20 CONVENTION CENTRE PLACE SOUTH WHARF 3006",
    "locID": "LOC100058789345",
    "tech": "FTTB",
    "upgrade": "NULL_NA",
    "gnaf_pid": "GAVIC424792065",
    "ee": true
   }
  },
  {
   "type": "Feature",
   "geometry": {
    "type": "Point",
    "coordinates": [
     144.94885388,
     -37.82437633
    ]
   },
   "properties": {
    "name": "SHOP 92, 20 CONVENTION CENTRE PLACE SOUTH WHARF 3006",
    "locID": "LOC100058789345",
    "tech": "FTTB",
    "upgrade": "NULL_NA",
    "gnaf_pid": "GAVIC424792066",
    "ee": true
   }
  },
  {
   "type": "Feature",
   "geometry": {
    "type": "Point",
    "coordinates": [
     144.94885388,
     -37.82437633
    ]
   },
   "properties": {
    "name": "SHOP 93, 20 CONVENTION CENTRE PLACE SOUTH WHARF 3006",
    "locID": "LOC100058789345",
    "tech": "FTTB",
    "upgrade": "NULL_NA",
    "gnaf_pid": "GAVIC424792067",
    "ee": true
   }
  },
  {
   "type": "Feature",
   "geometry": {
    "type": "Point",
    "coordinates": [
     144.94885388,
     -37.82437633
    ]
   },
   "properties": {
    "name": "SHOP 93A, 20 CONVENTION CENTRE PLACE SOUTH WHARF 3006",
    "locID": "LOC100058789345",
    "tech": "FTTB",
    "upgrade": "NULL_NA",
    "gnaf_pid": "GAVIC424792068",
    "ee": true
   }
  },
  {
   "type": "Feature",
   "geometry": {
    "type": "Point",
    "coordinates": [
     144.94885388,
     -37.82437633
    ]
   },
   "properties": {
    "name": "SHOP 94, 20 CONVENTION CENTRE PLACE SOUTH WHARF 3006",
    "locID": "LOC100058789345",
    "tech": "FTTB",
    "upgrade": "NULL_NA",
    "gnaf_pid": "GAVIC424792069",
    "ee": true
   }
  },
  {
   "type": "Feature",
   "geometry": {
    "type": "Point",
    "coordinates": [
     144.94885388,
     -37.82437633
    ]
   },
   "properties": {
    "name": "SHOP 95, 20 CONVENTION CENTRE PLACE SOUTH WHARF 3006",
    "locID": "LOC100058789345",
    "tech": "FTTB",
    "upgrade": "NULL_NA",
    "gnaf_pid": "GAVIC424792070",
    "ee": true
   }
  },
  {
   "type": "Feature",
   "geometry": {
    "type": "Point",
    "coordinates": [
     144.94885388,
     -37.82437633
    ]
   },
   "properties": {
    "name": "SHOP 96, 20 CONVENTION CENTRE PLACE SOUTH WHARF 3006",
    "locID": "LOC100058789345",
    "tech": "FTTB",
    "upgrade": "NULL_NA",
    "gnaf_pid": "GAVIC424792071",
    "ee": true
   }
  },
  {
   "type": "Feature",
   "geometry": {
    "type": "Point",
    "coordinates": [
     144.94885388,
     -37.82437633
    ]
   },
   "properties": {
    "name": "SHOP 97, 20 CONVENTION CENTRE PLACE SOUTH WHARF 3006",
    "locID": "LOC100058789345",
    "tech": "FTTB",
    "upgrade": "NULL_NA",
    "gnaf_pid": "GAVIC424792072",
    "ee": true
   }
  },
  {
   "type": "Feature",
   "geometry": {
    "type": "Point",
    "coordinates": [
     144.94885388,
     -37.82437633
    ]
   },
   "properties": {
    "name": "SHOP 98, 20 CONVENTION CENTRE PLACE SOUTH WHARF 3006",
    "locID": "LOC100058789345",
    "tech": "FTTB",
    "upgrade": "NULL_NA",
    "gnaf_pid": "GAVIC424792073",
    "ee": true
   }
  },
  {
   "type": "Feature",
   "geometry": {
    "type": "Point",
    "coordinates": [
     144.94885388,
     -37.82437633
    ]
   },
   "properties": {
    "name": "SHOP 99, 20 CONVENTION CENTRE PLACE SOUTH WHARF 3006",
    "locID": "LOC000114947668",
    "tech": "FTTB",
    "upgrade": "NULL_NA",
    "gnaf_pid": "GAVIC424792074",
    "ee": true
   }
  },
  {
   "type": "Feature",
   "geometry": {
    "type": "Point",
    "coordinates": [
     144.94885388,
     -37.82437633
    ]
   },
   "properties": {
    "name": "SHOP 9, LEVEL 1, 20 CONVENTION CENTRE PLACE SOUTH WHARF 3006",
    "locID": "LOC100058789345",
    "tech": "FTTB",
    "upgrade": "NULL_NA",
    "gnaf_pid": "GAVIC424792075",
    "ee": true
   }
  },
  {
   "type": "Feature",
   "geometry": {
    "type": "Point",
    "coordinates": [
     144.94885388,
     -37.82437633
    ]
   },
   "properties": {
    "name": "CARSPACE 10C, 20 CONVENTION CENTRE PLACE SOUTH WHARF 3006",
    "locID": "LOC100058789345",
    "tech": "FTTB",
    "upgrade": "NULL_NA",
    "gnaf_pid": "GAVIC424875828",
    "ee": true
   }
  },
  {
   "type": "Feature",
   "geometry": {
    "type": "Point",
    "coordinates": [
     144.94885388,
     -37.82437633
    ]
   },
   "properties": {
    "name": "CARSPACE 11C, 20 CONVENTION CENTRE PLACE SOUTH WHARF 3006",
    "locID": "LOC100058789345",
    "tech": "FTTB",
    "upgrade": "NULL_NA",
    "gnaf_pid": "GAVIC424875829",
    "ee": true
   }
  },
  {
   "type": "Feature",
   "geometry": {
    "type": "Point",
    "coordinates": [
     144.94885388,
     -37.82437633
    ]
   },
   "properties": {
    "name": "CARSPACE 12C, 20 CONVENTION CENTRE PLACE SOUTH WHARF 3006",
    "locID": "LOC100058789345",
    "tech": "FTTB",
    "upgrade": "NULL_NA",
    "gnaf_pid": "GAVIC424875830",
    "ee": true
   }
  },
  {
   "type": "Feature",
   "geometry": {
    "type": "Point",
    "coordinates": [
     144.94885388,
     -37.82437633
    ]
   },
   "properties": {
    "name": "CARSPACE 13C, 20 CONVENTION CENTRE PLACE SOUTH WHARF 3006",
    "locID": "LOC100058789345",
    "tech": "FTTB",
    "upgrade": "NULL_NA",
    "gnaf_pid": "GAVIC424875831",
    "ee": true
   }
  },
  {
   "type": "Feature",
   "geometry": {
    "type": "Point",
    "coordinates": [
     144.94885388,
     -37.82437633
    ]
   },
   "properties": {
    "name": "CARSPACE 14C, 20 CONVENTION CENTRE PLACE SOUTH WHARF 3006",
    "locID": "LOC100058789345",
    "tech": "FTTB",
    "upgrade": "NULL_NA",
    "gnaf_pid": "GAVIC424875832",
    "ee": true
   }
  },
  {
   "type": "Feature",
   "geometry": {
    "type": "Point",
    "coordinates": [
     144.94885388,
     -37.82437633
    ]
   },
   "properties": {
    "name": "CARSPACE 15C, 20 CONVENTION CENTRE PLACE SOUTH WHARF 3006",
    "locID": "LOC100058789345",
    "tech": "FTTB",
    "upgrade": "NULL_NA",
    "gnaf_pid": "GAVIC424875833",
    "ee": true
   }
  },
  {
   "type": "Feature",
   "geometry": {
    "type": "Point",
    "coordinates": [
     144.94885388,
     -37.82437633
    ]
   },
   "properties": {
    "name": "CARSPACE 16C, 20 CONVENTION CENTRE PLACE SOUTH WHARF 3006",
    "locID": "LOC100058789345",
    "tech": "FTTB",
    "upgrade": "NULL_NA",
    "gnaf_pid": "GAVIC424875834",
    "ee": true
   }
  },
  {
   "type": "Feature",
   "geometry": {
    "type": "Point",
    "coordinates": [
     144.94885388,
     -37.82437633
    ]
   },
   "properties": {
    "name": "CARSPACE 17C, 20 CONVENTION CENTRE PLACE SOUTH WHARF 3006",
    "locID": "LOC100058789345",
    "tech": "FTTB",
    "upgrade": "NULL_NA",
    "gnaf_pid": "GAVIC424875835",
    "ee": true
   }
  },
  {
   "type": "Feature",
   "geometry": {
    "type": "Point",
    "coordinates": [
     144.94885388,
     -37.82437633
    ]
   },
   "properties": {
    "name": "CARSPACE 18C, 20 CONVENTION CENTRE PLACE SOUTH WHARF 3006",
    "locID": "LOC100058789345",
    "tech": "FTTB",
    "upgrade": "NULL_NA",
    "gnaf_pid": "GAVIC424875836",
    "ee": true
   }
  },
  {
   "type": "Feature",
   "geometry": {
    "type": "Point",
    "coordinates": [
     144.94885388,
     -37.82437633
    ]
   },
   "properties": {
    "name": "CARSPACE 19C, 20 CONVENTION CENTRE PLACE SOUTH WHARF 3006",
    "locID": "LOC100058789345",
    "tech": "FTTB",
    "upgrade": "NULL_NA",
    "gnaf_pid": "GAVIC424875837",
    "ee": true
   }
  },
  {
   "type": "Feature",
   "geometry": {
    "type": "Point",
    "coordinates": [
     144.94885388,
     -37.82437633
    ]
   },
   "properties": {
    "name": "CARSPACE 1C, 20 CONVENTION CENTRE PLACE SOUTH WHARF 3006",
    "locID": "LOC100058789345",
    "tech": "FTTB",
    "upgrade": "NULL_NA",
    "gnaf_pid": "GAVIC424875838",
    "ee": true
   }
  },
  {
   "type": "Feature",
   "geometry": {
    "type": "Point",
    "coordinates": [
     144.94885388,
     -37.82437633
    ]
   },
   "properties": {
    "name": "CARSPACE 20C, 20 CONVENTION CENTRE PLACE SOUTH WHARF 3006",
    "locID": "LOC100058789345",
    "tech": "FTTB",
    "upgrade": "NULL_NA",
    "gnaf_pid": "GAVIC424875839",
    "ee": true
   }
  },
  {
   "type": "Feature",
   "geometry": {
    "type": "Point",
    "coordinates": [
     144.94885388,
     -37.82437633
    ]
   },
   "properties": {
    "name": "CARSPACE 21C, 20 CONVENTION CENTRE PLACE SOUTH WHARF 3006",
    "locID": "LOC100058789345",
    "tech": "FTTB",
    "upgrade": "NULL_NA",
    "gnaf_pid": "GAVIC424875840",
    "ee": true
   }
  },
  {
   "type": "Feature",
   "geometry": {
    "type": "Point",
    "coordinates": [
     144.94885388,
     -37.82437633
    ]
   },
   "properties": {
    "name": "CARSPACE 22C, 20 CONVENTION CENTRE PLACE SOUTH WHARF 3006",
    "locID": "LOC100058789345",
    "tech": "FTTB",
    "upgrade": "NULL_NA",
    "gnaf_pid": "GAVIC424875841",
    "ee": true
   }
  },
  {
   "type": "Feature",
   "geometry": {
    "type": "Point",
    "coordinates": [
     144.94885388,
     -37.82437633
    ]
   },
   "properties": {
    "name": "CARSPACE 23C, 20 CONVENTION CENTRE PLACE SOUTH WHARF 3006",
    "locID": "LOC100058789345",
    "tech": "FTTB",
    "upgrade": "NULL_NA",
    "gnaf_pid": "GAVIC424875842",
    "ee": true
   }
  },
  {
   "type": "Feature",
   "geometry": {
    "type": "Point",
    "coordinates": [
     144.94885388,
     -37.82437633
    ]
   },
   "properties": {
    "name": "CARSPACE 24C, 20 CONVENTION CENTRE PLACE SOUTH WHARF 3006",
    "locID": "LOC100058789345",
    "tech": "FTTB",
    "upgrade": "NULL_NA",
    "gnaf_pid": "GAVIC424875843",
    "ee": true
   }
  },
  {
   "type": "Feature",
   "geometry": {
    "type": "Point",
    "coordinates": [
     144.94885388,
     -37.82437633
    ]
   },
   "properties": {
    "name": "CARSPACE 25C, 20 CONVENTION CENTRE PLACE SOUTH WHARF 3006",
    "locID": "LOC100058789345",
    "tech": "FTTB",
    "upgrade": "NULL_NA",
    "gnaf_pid": "GAVIC424875844",
    "ee": true
   }
  },
  {
   "type": "Feature",
   "geometry": {
    "type": "Point",
    "coordinates": [
     144.94885388,
     -37.82437633
    ]
   },
   "properties": {
    "name": "CARSPACE 26C, 20 CONVENTION CENTRE PLACE SOUTH WHARF 3006",
    "locID": "LOC100058789345",
    "tech": "FTTB",
    "upgrade": "NULL_NA",
    "gnaf_pid": "GAVIC424875845",
    "ee": true
   }
  },
  {
   "type": "Feature",
   "geometry": {
    "type": "Point",
    "coordinates": [
     144.94885388,
     -37.82437633
    ]
   },
   "properties": {
    "name": "CARSPACE 27C, 20 CONVENTION CENTRE PLACE SOUTH WHARF 3006",
    "locID": "LOC100058789345",
    "tech": "FTTB",
    "upgrade": "NULL_NA",
    "gnaf_pid": "GAVIC424875846",
    "ee": true
   }
  },
  {
   "type": "Feature",
   "geometry": {
    "type": "Point",
    "coordinates": [
     144.94885388,
     -37.82437633
    ]
   },
   "properties": {
    "name": "CARSPACE 2C, 20 CONVENTION CENTRE PLACE SOUTH WHARF 3006",
    "locID": "LOC100058789345",
    "tech": "FTTB",
    "upgrade": "NULL_NA",
    "gnaf_pid": "GAVIC424875847",
    "ee": true
   }
  },
  {
   "type": "Feature",
   "geometry": {
    "type": "Point",
    "coordinates": [
     144.94885388,
     -37.82437633
    ]
   },
   "properties": {
    "name": "CARSPACE 3C, 20 CONVENTION CENTRE PLACE SOUTH WHARF 3006",
    "locID": "LOC100058789345",
    "tech": "FTTB",
    "upgrade": "NULL_NA",
    "gnaf_pid": "GAVIC424875848",
    "ee": true
   }
  },
  {
   "type": "Feature",
   "geometry": {
    "type": "Point",
    "coordinates": [
     144.94885388,
     -37.82437633
    ]
   },
   "properties": {
    "name": "CARSPACE 4C, 20 CONVENTION CENTRE PLACE SOUTH WHARF 3006",
    "locID": "LOC100058789345",
    "tech": "FTTB",
    "upgrade": "NULL_NA",
    "gnaf_pid": "GAVIC424875849",
    "ee": true
   }
  },
  {
   "type": "Feature",
   "geometry": {
    "type": "Point",
    "coordinates": [
     144.94885388,
     -37.82437633
    ]
   },
   "properties": {
    "name": "CARSPACE 5C, 20 CONVENTION CENTRE PLACE SOUTH WHARF 3006",
    "locID": "LOC100058789345",
    "tech": "FTTB",
    "upgrade": "NULL_NA",
    "gnaf_pid": "GAVIC424875850",
    "ee": true
   }
  },
  {
   "type": "Feature",
   "geometry": {
    "type": "Point",
    "coordinates": [
     144.94885388,
     -37.82437633
    ]
   },
   "properties": {
    "name": "CARSPACE 6C, 20 CONVENTION CENTRE PLACE SOUTH WHARF 3006",
    "locID": "LOC100058789345",
    "tech": "FTTB",
    "upgrade": "NULL_NA",
    "gnaf_pid": "GAVIC424875851",
    "ee": true
   }
  },
  {
   "type": "Feature",
   "geometry": {
    "type": "Point",
    "coordinates": [
     144.94885388,
     -37.82437633
    ]
   },
   "properties": {
    "name": "CARSPACE 7C, 20 CONVENTION CENTRE PLACE SOUTH WHARF 3006",
    "locID": "LOC100058789345",
    "tech": "FTTB",
    "upgrade": "NULL_NA",
    "gnaf_pid": "GAVIC424875852",
    "ee": true
   }
  },
  {
   "type": "Feature",
   "geometry": {
    "type": "Point",
    "coordinates": [
     144.94885388,
     -37.82437633
    ]
   },
   "properties": {
    "name": "CARSPACE 8C, 20 CONVENTION CENTRE PLACE SOUTH WHARF 3006",
    "locID": "LOC100058789345",
    "tech": "FTTB",
    "upgrade": "NULL_NA",
    "gnaf_pid": "GAVIC424875853",
    "ee": true
   }
  },
  {
   "type": "Feature",
   "geometry": {
    "type": "Point",
    "coordinates": [
     144.94885388,
     -37.82437633
    ]
   },
   "properties": {
    "name": "CARSPACE 9C, 20 CONVENTION CENTRE PLACE SOUTH WHARF 3006",
    "locID": "LOC100058789345",
    "tech": "FTTB",
    "upgrade": "NULL_NA",
    "gnaf_pid": "GAVIC424875854",
    "ee": true
   }
  },
  {
   "type": "Feature",
   "geometry": {
    "type": "Point",
    "coordinates": [
     144.94847794,
     -37.82400499
    ]
   },
   "properties": {
    "name": "61 SOUTH WHARF PROMENADE SOUTH WHARF 3006",
    "locID": "LOC000122557332",
    "tech": "FTTB",
    "upgrade": "NULL_NA",
    "gnaf_pid": "GAVIC424917530",
    "ee": true
   }
  },
  {
   "type": "Feature",
   "geometry": {
    "type": "Point",
    "coordinates": [
     144.95105278,
     -37.82502661
    ]
   },
   "properties": {
    "name": "11 DUKES WALK SOUTH WHARF 3006",
    "locID": "LOC000122542372",
    "tech": "NULL",
    "upgrade": "NULL_NA",
    "gnaf_pid": "GAVIC424927798",
    "ee": true
   }
  },
  {
   "type": "Feature",
   "geometry": {
    "type": "Point",
    "coordinates": [
     144.95105278,
     -37.82502661
    ]
   },
   "properties": {
    "name": "15 DUKES WALK SOUTH WHARF 3006",
    "locID": "LOC000122544872",
    "tech": "NULL",
    "upgrade": "NULL_NA",
    "gnaf_pid": "GAVIC424927799",
    "ee": true
   }
  },
  {
   "type": "Feature",
   "geometry": {
    "type": "Point",
    "coordinates": [
     144.94888939,
     -37.82538274
    ]
   },
   "properties": {
    "name": "17 DUKES WALK SOUTH WHARF 3006",
    "locID": "LOC000186880498",
    "tech": "FTTB",
    "upgrade": "NULL_NA",
    "gnaf_pid": "GAVIC424927800",
    "ee": true
   }
  },
  {
   "type": "Feature",
   "geometry": {
    "type": "Point",
    "coordinates": [
     144.94888939,
     -37.82538274
    ]
   },
   "properties": {
    "name": "25 DUKES WALK SOUTH WHARF 3006",
    "locID": "LOC000192448517",
    "tech": "FTTB",
    "upgrade": "NULL_NA",
    "gnaf_pid": "GAVIC424927803",
    "ee": true
   }
  },
  {
   "type": "Feature",
   "geometry": {
    "type": "Point",
    "coordinates": [
     144.94888939,
     -37.82538274
    ]
   },
   "properties": {
    "name": "31 DUKES WALK SOUTH WHARF 3006",
    "locID": "LOC000122552177",
    "tech": "FTTB",
    "upgrade": "NULL_NA",
    "gnaf_pid": "GAVIC424927805",
    "ee": true
   }
  },
  {
   "type": "Feature",
   "geometry": {
    "type": "Point",
    "coordinates": [
     144.94888939,
     -37.82538274
    ]
   },
   "properties": {
    "name": "35 DUKES WALK SOUTH WHARF 3006",
    "locID": "LOC000196174824",
    "tech": "FTTB",
    "upgrade": "NULL_NA",
    "gnaf_pid": "GAVIC424927807",
    "ee": true
   }
  },
  {
   "type": "Feature",
   "geometry": {
    "type": "Point",
    "coordinates": [
     144.94888939,
     -37.82538274
    ]
   },
   "properties": {
    "name": "39 DUKES WALK SOUTH WHARF 3006",
    "locID": "LOC000122552363",
    "tech": "FTTB",
    "upgrade": "NULL_NA",
    "gnaf_pid": "GAVIC424927808",
    "ee": true
   }
  },
  {
   "type": "Feature",
   "geometry": {
    "type": "Point",
    "coordinates": [
     144.9559373,
     -37.82364831
    ]
   },
   "properties": {
    "name": "21 SOUTH WHARF PROMENADE SOUTH WHARF 3006",
    "locID": "LOC000122547555",
    "tech": "FTTB",
    "upgrade": "NULL_NA",
    "gnaf_pid": "GAVIC424930935",
    "ee": true
   }
  },
  {
   "type": "Feature",
   "geometry": {
    "type": "Point",
    "coordinates": [
     144.9559373,
     -37.82364831
    ]
   },
   "properties": {
    "name": "23 SOUTH WHARF PROMENADE SOUTH WHARF 3006",
    "locID": "LOC000122547658",
    "tech": "FTTB",
    "upgrade": "NULL_NA",
    "gnaf_pid": "GAVIC424930936",
    "ee": true
   }
  },
  {
   "type": "Feature",
   "geometry": {
    "type": "Point",
    "coordinates": [
     144.94847794,
     -37.82400499
    ]
   },
   "properties": {
    "name": "29 SOUTH WHARF PROMENADE SOUTH WHARF 3006",
    "locID": "LOC000122550060",
    "tech": "FTTB",
    "upgrade": "NULL_NA",
    "gnaf_pid": "GAVIC424930937",
    "ee": true
   }
  },
  {
   "type": "Feature",
   "geometry": {
    "type": "Point",
    "coordinates": [
     144.94847794,
     -37.82400499
    ]
   },
   "properties": {
    "name": "33 SOUTH WHARF PROMENADE SOUTH WHARF 3006",
    "locID": "LOC000122552257",
    "tech": "FTTB",
    "upgrade": "NULL_NA",
    "gnaf_pid": "GAVIC424930938",
    "ee": true
   }
  },
  {
   "type": "Feature",
   "geometry": {
    "type": "Point",
    "coordinates": [
     144.94847794,
     -37.82400499
    ]
   },
   "properties": {
    "name": "35 SOUTH WHARF PROMENADE SOUTH WHARF 3006",
    "locID": "LOC000122552316",
    "tech": "FTTB",
    "upgrade": "NULL_NA",
    "gnaf_pid": "GAVIC424930939",
    "ee": true
   }
  },
  {
   "type": "Feature",
   "geometry": {
    "type": "Point",
    "coordinates": [
     144.94847794,
     -37.82400499
    ]
   },
   "properties": {
    "name": "37 SOUTH WHARF PROMENADE SOUTH WHARF 3006",
    "locID": "LOC000122552337",
    "tech": "FTTB",
    "upgrade": "NULL_NA",
    "gnaf_pid": "GAVIC424930940",
    "ee": true
   }
  },
  {
   "type": "Feature",
   "geometry": {
    "type": "Point",
    "coordinates": [
     144.94847794,
     -37.82400499
    ]
   },
   "properties": {
    "name": "39 SOUTH WHARF PROMENADE SOUTH WHARF 3006",
    "locID": "LOC000122554522",
    "tech": "FTTB",
    "upgrade": "NULL_NA",
    "gnaf_pid": "GAVIC424930941",
    "ee": true
   }
  },
  {
   "type": "Feature",
   "geometry": {
    "type": "Point",
    "coordinates": [
     144.94847794,
     -37.82400499
    ]
   },
   "properties": {
    "name": "43 SOUTH WHARF PROMENADE SOUTH WHARF 3006",
    "locID": "LOC000122554598",
    "tech": "FTTB",
    "upgrade": "NULL_NA",
    "gnaf_pid": "GAVIC424930942",
    "ee": true
   }
  },
  {
   "type": "Feature",
   "geometry": {
    "type": "Point",
    "coordinates": [
     144.94847794,
     -37.82400499
    ]
   },
   "properties": {
    "name": "45 SOUTH WHARF PROMENADE SOUTH WHARF 3006",
    "locID": "LOC000122554611",
    "tech": "FTTB",
    "upgrade": "NULL_NA",
    "gnaf_pid": "GAVIC424930943",
    "ee": true
   }
  },
  {
   "type": "Feature",
   "geometry": {
    "type": "Point",
    "coordinates": [
     144.94847794,
     -37.82400499
    ]
   },
   "properties": {
    "name": "53 SOUTH WHARF PROMENADE SOUTH WHARF 3006",
    "locID": "LOC000122557252",
    "tech": "FTTB",
    "upgrade": "NULL_NA",
    "gnaf_pid": "GAVIC424930944",
    "ee": true
   }
  },
  {
   "type": "Feature",
   "geometry": {
    "type": "Point",
    "coordinates": [
     144.94847794,
     -37.82400499
    ]
   },
   "properties": {
    "name": "57 SOUTH WHARF PROMENADE SOUTH WHARF 3006",
    "locID": "LOC000122557281",
    "tech": "FTTB",
    "upgrade": "NULL_NA",
    "gnaf_pid": "GAVIC424930945",
    "ee": true
   }
  },
  {
   "type": "Feature",
   "geometry": {
    "type": "Point",
    "coordinates": [
     144.94885388,
     -37.82437633
    ]
   },
   "properties": {
    "name": "OFFICE 11, LEVEL 6, 30 CONVENTION CENTRE PLACE SOUTH WHARF 3006",
    "locID": "LOC000122541748",
    "tech": "FTTB",
    "upgrade": "NULL_NA",
    "gnaf_pid": "GAVIC425099752",
    "ee": true
   }
  },
  {
   "type": "Feature",
   "geometry": {
    "type": "Point",
    "coordinates": [
     144.94885388,
     -37.82437633
    ]
   },
   "properties": {
    "name": "OFFICE 13, LEVEL 8, 30 CONVENTION CENTRE PLACE SOUTH WHARF 3006",
    "locID": "LOC000122541748",
    "tech": "FTTB",
    "upgrade": "NULL_NA",
    "gnaf_pid": "GAVIC425099753",
    "ee": true
   }
  },
  {
   "type": "Feature",
   "geometry": {
    "type": "Point",
    "coordinates": [
     144.94885388,
     -37.82437633
    ]
   },
   "properties": {
    "name": "OFFICE 17, LEVEL 11, 30 CONVENTION CENTRE PLACE SOUTH WHARF 3006",
    "locID": "LOC000122541748",
    "tech": "FTTB",
    "upgrade": "NULL_NA",
    "gnaf_pid": "GAVIC425099754",
    "ee": true
   }
  },
  {
   "type": "Feature",
   "geometry": {
    "type": "Point",
    "coordinates": [
     144.94885388,
     -37.82437633
    ]
   },
   "properties": {
    "name": "OFFICE 18, LEVEL 12, 30 CONVENTION CENTRE PLACE SOUTH WHARF 3006",
    "locID": "LOC000122541748",
    "tech": "FTTB",
    "upgrade": "NULL_NA",
    "gnaf_pid": "GAVIC425099755",
    "ee": true
   }
  },
  {
   "type": "Feature",
   "geometry": {
    "type": "Point",
    "coordinates": [
     144.9559373,
     -37.82364831
    ]
   },
   "properties": {
    "name": "1-19 SOUTH WHARF PROMENADE SOUTH WHARF 3006",
    "locID": "LOC100026387872",
    "tech": "FTTB",
    "upgrade": "NULL_NA",
    "gnaf_pid": "GAVIC425527984",
    "ee": true
   }
  },
  {
   "type": "Feature",
   "geometry": {
    "type": "Point",
    "coordinates": [
     144.94888939,
     -37.82538274
    ]
   },
   "properties": {
    "name": "KIOSK K2, 20 CONVENTION CENTRE PLACE SOUTH WHARF 3006",
    "locID": "LOC100058789345",
    "tech": "FTTB",
    "upgrade": "NULL_NA",
    "gnaf_pid": "GAVIC425612390",
    "ee": true
   }
  },
  {
   "type": "Feature",
   "geometry": {
    "type": "Point",
    "coordinates": [
     144.94888939,
     -37.82538274
    ]
   },
   "properties": {
    "name": "SHOP 5F, 20 CONVENTION CENTRE PLACE SOUTH WHARF 3006",
    "locID": "LOC100058789345",
    "tech": "FTTB",
    "upgrade": "NULL_NA",
    "gnaf_pid": "GAVIC719094199",
    "ee": true
   }
  },
  {
   "type": "Feature",
   "geometry": {
    "type": "Point",
    "coordinates": [
     144.94885388,
     -37.82437633
    ]
   },
   "properties": {
    "name": "SHOP 5FA, 20 CONVENTION CENTRE PLACE SOUTH WHARF 3006",
    "locID": "LOC100058789345",
    "tech": "FTTB",
    "upgrade": "NULL_NA",
    "gnaf_pid": "GAVIC719114361",
    "ee": true
   }
  },
  {
   "type": "Feature",
   "geometry": {
    "type": "Point",
    "coordinates": [
     144.94997332,
     -37.82621464
    ]
   },
   "properties": {
    "name": "7 CONVENTION CENTRE PLACE SOUTH WHARF 3006",
    "locID": "LOC000169696375",
    "tech": "FTTP",
    "upgrade": "NULL_NA",
    "gnaf_pid": "GAVIC719769199",
    "ee": true
   }
  },
  {
   "type": "Feature",
   "geometry": {
    "type": "Point",
    "coordinates": [
     144.94847794,
     -37.82400499
    ]
   },
   "properties": {
    "name": "37-39 SOUTH WHARF PROMENADE SOUTH WHARF 3006",
    "locID": "LOC000122552337",
    "tech": "FTTB",
    "upgrade": "NULL_NA",
    "gnaf_pid": "GAVIC721290846",
    "ee": true
   }
  },
  {
   "type": "Feature",
   "geometry": {
    "type": "Point",
    "coordinates": [
     144.95105278,
     -37.82502661
    ]
   },
   "properties": {
    "name": "11-15 DUKES WALK SOUTH WHARF 3006",
    "locID": "LOC000122542372",
    "tech": "NULL",
    "upgrade": "NULL_NA",
    "gnaf_pid": "GAVIC721292269",
    "ee": true
   }
  },
  {
   "type": "Feature",
   "geometry": {
    "type": "Point",
    "coordinates": [
     144.94885388,
     -37.82437633
    ]
   },
   "properties": {
    "name": "LEVEL 2, 20 CONVENTION CENTRE PLACE SOUTH WHARF 3006",
    "locID": "LOC100076222619",
    "tech": "FTTB",
    "upgrade": "NULL_NA",
    "gnaf_pid": "GAVIC721293173",
    "ee": true
   }
  }
 ]
}