{
 "type": "FeatureCollection",
 "generated": "2025-06-18T12:45:25.943701",
 "suburb": "STEWARTON",
 "features": [
  {
   "type": "Feature",
   "geometry": {
    "type": "Point",
    "coordinates": [
     145.77063724,
     -36.40543428
    ]
   },
   "properties": {
    "name": "530 STEWARTON ROAD STEWARTON 3725",
    "locID": "LOC000061167657",
    "tech": "WIRELESS",
    "upgrade": "NULL_NA",
    "gnaf_pid": "GAVIC419671189",
    "ee": true,
    "tech_change_status": "Not Planned",
    "program_type": "Fixed Wireless and Satellite Upgrade Program",
    "target_eligibility_quarter": "Sep 2025"
   }
  },
  {
   "type": "Feature",
   "geometry": {
    "type": "Point",
    "coordinates": [
     145.7732162,
     -36.43429878
    ]
   },
   "properties": {
    "name": "3550 MIDLAND HIGHWAY STEWARTON 3725",
    "locID": "LOC000003728196",
    "tech": "WIRELESS",
    "upgrade": "NULL_NA",
    "gnaf_pid": "GAVIC419671192",
    "ee": true,
    "tech_change_status": "Not Planned",
    "program_type": "Fixed Wireless and Satellite Upgrade Program",
    "target_eligibility_quarter": "Sep 2025"
   }
  },
  {
   "type": "Feature",
   "geometry": {
    "type": "Point",
    "coordinates": [
     145.7656665,
     -36.40101086
    ]
   },
   "properties": {
    "name": "325 DUGGANS ROAD STEWARTON 3725",
    "locID": "LOC000072931342",
    "tech": "WIRELESS",
    "upgrade": "NULL_NA",
    "gnaf_pid": "GAVIC419969270",
    "ee": true,
    "tech_change_status": "Not Planned",
    "program_type": "Fixed Wireless and Satellite Upgrade Program",
    "target_eligibility_quarter": "Sep 2025"
   }
  },
  {
   "type": "Feature",
   "geometry": {
    "type": "Point",
    "coordinates": [
     145.78326724,
     -36.4036255
    ]
   },
   "properties": {
    "name": "355 BENALLA BOUNDARY ROAD STEWARTON 3725",
    "locID": "LOC000040946932",
    "tech": "WIRELESS",
    "upgrade": "NULL_NA",
    "gnaf_pid": "GAVIC420163749",
    "ee": true,
    "tech_change_status": "Not Planned",
    "program_type": "Fixed Wireless and Satellite Upgrade Program",
    "target_eligibility_quarter": "Sep 2025"
   }
  },
  {
   "type": "Feature",
   "geometry": {
    "type": "Point",
    "coordinates": [
     145.76653286,
     -36.43223765
    ]
   },
   "properties": {
    "name": "3500 MIDLAND HIGHWAY STEWARTON 3725",
    "locID": "LOC000038506541",
    "tech": "SATELLITE",
    "upgrade": "NULL_NA",
    "gnaf_pid": "GAVIC420659354",
    "ee": true,
    "tech_change_status": "Not Planned"
   }
  },
  {
   "type": "Feature",
   "geometry": {
    "type": "Point",
    "coordinates": [
     145.7538462,
     -36.42751745
    ]
   },
   "properties": {
    "name": "3355 MIDLAND HIGHWAY STEWARTON 3725",
    "locID": "LOC000082113950",
    "tech": "WIRELESS",
    "upgrade": "NULL_NA",
    "gnaf_pid": "GAVIC420672455",
    "ee": true,
    "tech_change_status": "Not Planned",
    "program_type": "Fixed Wireless and Satellite Upgrade Program",
    "target_eligibility_quarter": "Sep 2025"
   }
  },
  {
   "type": "Feature",
   "geometry": {
    "type": "Point",
    "coordinates": [
     145.77840556,
     -36.40644254
    ]
   },
   "properties": {
    "name": "600 STEWARTON ROAD STEWARTON 3725",
    "locID": "LOC000176920895",
    "tech": "WIRELESS",
    "upgrade": "NULL_NA",
    "gnaf_pid": "GAVIC420870480",
    "ee": true,
    "tech_change_status": "Not Planned",
    "program_type": "Fixed Wireless and Satellite Upgrade Program",
    "target_eligibility_quarter": "Sep 2025"
   }
  },
  {
   "type": "Feature",
   "geometry": {
    "type": "Point",
    "coordinates": [
     145.76162319,
     -36.40423233
    ]
   },
   "properties": {
    "name": "450 STEWARTON ROAD STEWARTON 3725",
    "locID": "LOC000062386851",
    "tech": "WIRELESS",
    "upgrade": "NULL_NA",
    "gnaf_pid": "GAVIC420976558",
    "ee": true,
    "tech_change_status": "Not Planned",
    "program_type": "Fixed Wireless and Satellite Upgrade Program",
    "target_eligibility_quarter": "Sep 2025"
   }
  },
  {
   "type": "Feature",
   "geometry": {
    "type": "Point",
    "coordinates": [
     145.75232593,
     -36.4026301
    ]
   },
   "properties": {
    "name": "365 STEWARTON ROAD STEWARTON 3725",
    "locID": "LOC000066170661",
    "tech": "WIRELESS",
    "upgrade": "NULL_NA",
    "gnaf_pid": "GAVIC421180733",
    "ee": true,
    "tech_change_status": "Not Planned",
    "program_type": "Fixed Wireless and Satellite Upgrade Program",
    "target_eligibility_quarter": "Sep 2025"
   }
  },
  {
   "type": "Feature",
   "geometry": {
    "type": "Point",
    "coordinates": [
     145.73971213,
     -36.38270135
    ]
   },
   "properties": {
    "name": "220 THOMAS ROAD STEWARTON 3725",
    "locID": "LOC000125209248",
    "tech": "WIRELESS",
    "upgrade": "NULL_NA",
    "gnaf_pid": "GAVIC421794060",
    "ee": true,
    "tech_change_status": "Not Planned",
    "program_type": "Fixed Wireless and Satellite Upgrade Program",
    "target_eligibility_quarter": "Sep 2025"
   }
  },
  {
   "type": "Feature",
   "geometry": {
    "type": "Point",
    "coordinates": [
     145.78395233,
     -36.43690568
    ]
   },
   "properties": {
    "name": "3650 MIDLAND HIGHWAY STEWARTON 3725",
    "locID": "LOC000048334244",
    "tech": "SATELLITE",
    "upgrade": "NULL_NA",
    "gnaf_pid": "GAVIC422031487",
    "ee": true,
    "tech_change_status": "Not Planned"
   }
  },
  {
   "type": "Feature",
   "geometry": {
    "type": "Point",
    "coordinates": [
     145.80867499,
     -36.4551392
    ]
   },
   "properties": {
    "name": "1 BALLINTINE ROAD STEWARTON 3725",
    "locID": "LOC000079254097",
    "tech": "SATELLITE",
    "upgrade": "NULL_NA",
    "gnaf_pid": "GAVIC422125477",
    "ee": true,
    "tech_change_status": "Not Planned"
   }
  },
  {
   "type": "Feature",
   "geometry": {
    "type": "Point",
    "coordinates": [
     145.81321374,
     -36.43498719
    ]
   },
   "properties": {
    "name": "227 BALLINTINE ROAD STEWARTON 3725",
    "locID": "LOC000027921553",
    "tech": "WIRELESS",
    "upgrade": "NULL_NA",
    "gnaf_pid": "GAVIC422125478",
    "ee": true,
    "tech_change_status": "Not Planned",
    "program_type": "Fixed Wireless and Satellite Upgrade Program",
    "target_eligibility_quarter": "Sep 2025"
   }
  },
  {
   "type": "Feature",
   "geometry": {
    "type": "Point",
    "coordinates": [
     145.81439638,
     -36.42826036
    ]
   },
   "properties": {
    "name": "303 BALLINTINE ROAD STEWARTON 3725",
    "locID": "LOC000036621729",
    "tech": "SATELLITE",
    "upgrade": "WIRELESS",
    "gnaf_pid": "GAVIC422125479",
    "ee": true,
    "tech_change_status": "Eligible to Order",
    "program_type": "Fixed Wireless and Satellite Upgrade Program",
    "target_eligibility_quarter": "Sep 2025"
   }
  },
  {
   "type": "Feature",
   "geometry": {
    "type": "Point",
    "coordinates": [
     145.81921579,
     -36.40638651
    ]
   },
   "properties": {
    "name": "551 BALLINTINE ROAD STEWARTON 3725",
    "locID": "LOC000060546754",
    "tech": "WIRELESS",
    "upgrade": "NULL_NA",
    "gnaf_pid": "GAVIC422125480",
    "ee": true,
    "tech_change_status": "Not Planned",
    "program_type": "Fixed Wireless and Satellite Upgrade Program",
    "target_eligibility_quarter": "Sep 2025"
   }
  },
  {
   "type": "Feature",
   "geometry": {
    "type": "Point",
    "coordinates": [
     145.81995325,
     -36.40295439
    ]
   },
   "properties": {
    "name": "571 BALLINTINE ROAD STEWARTON 3725",
    "locID": "LOC000010351357",
    "tech": "SATELLITE",
    "upgrade": "WIRELESS",
    "gnaf_pid": "GAVIC422125481",
    "ee": true,
    "tech_change_status": "Eligible to Order",
    "program_type": "Fixed Wireless and Satellite Upgrade Program",
    "target_eligibility_quarter": "Sep 2025"
   }
  },
  {
   "type": "Feature",
   "geometry": {
    "type": "Point",
    "coordinates": [
     145.78173623,
     -36.41309829
    ]
   },
   "properties": {
    "name": "246 BENALLA BOUNDARY ROAD STEWARTON 3725",
    "locID": "LOC000003601430",
    "tech": "WIRELESS",
    "upgrade": "NULL_NA",
    "gnaf_pid": "GAVIC422127704",
    "ee": true,
    "tech_change_status": "Not Planned",
    "program_type": "Fixed Wireless and Satellite Upgrade Program",
    "target_eligibility_quarter": "Sep 2025"
   }
  },
  {
   "type": "Feature",
   "geometry": {
    "type": "Point",
    "coordinates": [
     145.7856347,
     -36.39481516
    ]
   },
   "properties": {
    "name": "454 BENALLA BOUNDARY ROAD STEWARTON 3725",
    "locID": "LOC000103156276",
    "tech": "WIRELESS",
    "upgrade": "NULL_NA",
    "gnaf_pid": "GAVIC422127705",
    "ee": true,
    "tech_change_status": "Not Planned",
    "program_type": "Fixed Wireless and Satellite Upgrade Program",
    "target_eligibility_quarter": "Sep 2025"
   }
  },
  {
   "type": "Feature",
   "geometry": {
    "type": "Point",
    "coordinates": [
     145.83891066,
     -36.37093303
    ]
   },
   "properties": {
    "name": "341 BERGER ROAD STEWARTON 3725",
    "locID": "LOC000036834110",
    "tech": "WIRELESS",
    "upgrade": "NULL_NA",
    "gnaf_pid": "GAVIC422128169",
    "ee": true,
    "tech_change_status": "Not Planned",
    "program_type": "Fixed Wireless and Satellite Upgrade Program",
    "target_eligibility_quarter": "Sep 2025"
   }
  },
  {
   "type": "Feature",
   "geometry": {
    "type": "Point",
    "coordinates": [
     145.83550034,
     -36.43286735
    ]
   },
   "properties": {
    "name": "559 DICKER ROAD STEWARTON 3725",
    "locID": "LOC000010573629",
    "tech": "SATELLITE",
    "upgrade": "NULL_NA",
    "gnaf_pid": "GAVIC422141938",
    "ee": true,
    "tech_change_status": "Not Planned"
   }
  },
  {
   "type": "Feature",
   "geometry": {
    "type": "Point",
    "coordinates": [
     145.85038644,
     -36.43423314
    ]
   },
   "properties": {
    "name": "1035 LOVE ROAD STEWARTON 3725",
    "locID": "LOC000035117818",
    "tech": "WIRELESS",
    "upgrade": "NULL_NA",
    "gnaf_pid": "GAVIC422165664",
    "ee": true,
    "tech_change_status": "Not Planned",
    "program_type": "Fixed Wireless and Satellite Upgrade Program",
    "target_eligibility_quarter": "NA"
   }
  },
  {
   "type": "Feature",
   "geometry": {
    "type": "Point",
    "coordinates": [
     145.85688508,
     -36.37742583
    ]
   },
   "properties": {
    "name": "398 LOVE ROAD STEWARTON 3725",
    "locID": "LOC000013646166",
    "tech": "SATELLITE",
    "upgrade": "NULL_NA",
    "gnaf_pid": "GAVIC422165665",
    "ee": true,
    "tech_change_status": "Not Planned"
   }
  },
  {
   "type": "Feature",
   "geometry": {
    "type": "Point",
    "coordinates": [
     145.8568724,
     -36.37829111
    ]
   },
   "properties": {
    "name": "406 LOVE ROAD STEWARTON 3725",
    "locID": "LOC000044414769",
    "tech": "SATELLITE",
    "upgrade": "NULL_NA",
    "gnaf_pid": "GAVIC422165666",
    "ee": true,
    "tech_change_status": "Not Planned"
   }
  },
  {
   "type": "Feature",
   "geometry": {
    "type": "Point",
    "coordinates": [
     145.85589438,
     -36.40524004
    ]
   },
   "properties": {
    "name": "708 LOVE ROAD STEWARTON 3725",
    "locID": "LOC000093157579",
    "tech": "SATELLITE",
    "upgrade": "NULL_NA",
    "gnaf_pid": "GAVIC422165667",
    "ee": true,
    "tech_change_status": "Not Planned"
   }
  },
  {
   "type": "Feature",
   "geometry": {
    "type": "Point",
    "coordinates": [
     145.85505959,
     -36.40839226
    ]
   },
   "properties": {
    "name": "744 LOVE ROAD STEWARTON 3725",
    "locID": "LOC000062393490",
    "tech": "SATELLITE",
    "upgrade": "NULL_NA",
    "gnaf_pid": "GAVIC422165668",
    "ee": true,
    "tech_change_status": "Not Planned"
   }
  },
  {
   "type": "Feature",
   "geometry": {
    "type": "Point",
    "coordinates": [
     145.85261001,
     -36.42088073
    ]
   },
   "properties": {
    "name": "884 LOVE ROAD STEWARTON 3725",
    "locID": "LOC000085493461",
    "tech": "SATELLITE",
    "upgrade": "NULL_NA",
    "gnaf_pid": "GAVIC422165669",
    "ee": true,
    "tech_change_status": "Not Planned"
   }
  },
  {
   "type": "Feature",
   "geometry": {
    "type": "Point",
    "coordinates": [
     145.83049606,
     -36.41249021
    ]
   },
   "properties": {
    "name": "1325 MAJOR PLAINS ROAD STEWARTON 3725",
    "locID": "LOC000102989114",
    "tech": "SATELLITE",
    "upgrade": "WIRELESS",
    "gnaf_pid": "GAVIC422167425",
    "ee": true,
    "tech_change_status": "Eligible to Order",
    "program_type": "Fixed Wireless and Satellite Upgrade Program",
    "target_eligibility_quarter": "Sep 2025"
   }
  },
  {
   "type": "Feature",
   "geometry": {
    "type": "Point",
    "coordinates": [
     145.78409118,
     -36.43619896
    ]
   },
   "properties": {
    "name": "3647 MIDLAND HIGHWAY STEWARTON 3725",
    "locID": "LOC000012906861",
    "tech": "WIRELESS",
    "upgrade": "NULL_NA",
    "gnaf_pid": "GAVIC422171389",
    "ee": true,
    "tech_change_status": "Not Planned",
    "program_type": "Fixed Wireless and Satellite Upgrade Program",
    "target_eligibility_quarter": "Sep 2025"
   }
  },
  {
   "type": "Feature",
   "geometry": {
    "type": "Point",
    "coordinates": [
     145.78803051,
     -36.43758094
    ]
   },
   "properties": {
    "name": "3684 MIDLAND HIGHWAY STEWARTON 3725",
    "locID": "LOC000037746595",
    "tech": "SATELLITE",
    "upgrade": "NULL_NA",
    "gnaf_pid": "GAVIC422171390",
    "ee": true,
    "tech_change_status": "Not Planned"
   }
  },
  {
   "type": "Feature",
   "geometry": {
    "type": "Point",
    "coordinates": [
     145.79070189,
     -36.43809264
    ]
   },
   "properties": {
    "name": "3710 MIDLAND HIGHWAY STEWARTON 3725",
    "locID": "LOC000022171039",
    "tech": "SATELLITE",
    "upgrade": "NULL_NA",
    "gnaf_pid": "GAVIC422171391",
    "ee": true,
    "tech_change_status": "Not Planned"
   }
  },
  {
   "type": "Feature",
   "geometry": {
    "type": "Point",
    "coordinates": [
     145.79293015,
     -36.43784676
    ]
   },
   "properties": {
    "name": "3729 MIDLAND HIGHWAY STEWARTON 3725",
    "locID": "LOC000060621084",
    "tech": "SATELLITE",
    "upgrade": "NULL_NA",
    "gnaf_pid": "GAVIC422171392",
    "ee": true,
    "tech_change_status": "Not Planned"
   }
  },
  {
   "type": "Feature",
   "geometry": {
    "type": "Point",
    "coordinates": [
     145.84111588,
     -36.44678748
    ]
   },
   "properties": {
    "name": "4176 MIDLAND HIGHWAY STEWARTON 3725",
    "locID": "LOC000050873647",
    "tech": "SATELLITE",
    "upgrade": "NULL_NA",
    "gnaf_pid": "GAVIC422171393",
    "ee": true,
    "tech_change_status": "Not Planned"
   }
  },
  {
   "type": "Feature",
   "geometry": {
    "type": "Point",
    "coordinates": [
     145.84256924,
     -36.41487139
    ]
   },
   "properties": {
    "name": "1189 STEWARTON ROAD STEWARTON 3725",
    "locID": "LOC000073783617",
    "tech": "WIRELESS",
    "upgrade": "NULL_NA",
    "gnaf_pid": "GAVIC422193172",
    "ee": true,
    "tech_change_status": "Not Planned",
    "program_type": "Fixed Wireless and Satellite Upgrade Program",
    "target_eligibility_quarter": "Sep 2025"
   }
  },
  {
   "type": "Feature",
   "geometry": {
    "type": "Point",
    "coordinates": [
     145.86218071,
     -36.41756747
    ]
   },
   "properties": {
    "name": "1367 STEWARTON ROAD STEWARTON 3725",
    "locID": "LOC000047679091",
    "tech": "SATELLITE",
    "upgrade": "NULL_NA",
    "gnaf_pid": "GAVIC422193173",
    "ee": true,
    "tech_change_status": "Not Planned"
   }
  },
  {
   "type": "Feature",
   "geometry": {
    "type": "Point",
    "coordinates": [
     145.86363629,
     -36.41754313
    ]
   },
   "properties": {
    "name": "1381 STEWARTON ROAD STEWARTON 3725",
    "locID": "LOC000044525079",
    "tech": "SATELLITE",
    "upgrade": "NULL_NA",
    "gnaf_pid": "GAVIC422193174",
    "ee": true,
    "tech_change_status": "Not Planned"
   }
  },
  {
   "type": "Feature",
   "geometry": {
    "type": "Point",
    "coordinates": [
     145.79308201,
     -36.40859306
    ]
   },
   "properties": {
    "name": "740 STEWARTON ROAD STEWARTON 3725",
    "locID": "LOC000056516069",
    "tech": "WIRELESS",
    "upgrade": "NULL_NA",
    "gnaf_pid": "GAVIC422193176",
    "ee": true,
    "tech_change_status": "Not Planned",
    "program_type": "Fixed Wireless and Satellite Upgrade Program",
    "target_eligibility_quarter": "Sep 2025"
   }
  },
  {
   "type": "Feature",
   "geometry": {
    "type": "Point",
    "coordinates": [
     145.78528873,
     -36.43644226
    ]
   },
   "properties": {
    "name": "3659 MIDLAND HIGHWAY STEWARTON 3725",
    "locID": "LOC000023866296",
    "tech": "WIRELESS",
    "upgrade": "NULL_NA",
    "gnaf_pid": "GAVIC422309834",
    "ee": true,
    "tech_change_status": "Not Planned",
    "program_type": "Fixed Wireless and Satellite Upgrade Program",
    "target_eligibility_quarter": "Sep 2025"
   }
  },
  {
   "type": "Feature",
   "geometry": {
    "type": "Point",
    "coordinates": [
     145.84544294,
     -36.43416253
    ]
   },
   "properties": {
    "name": "469 DICKER ROAD STEWARTON 3725",
    "locID": "LOC000021274934",
    "tech": "SATELLITE",
    "upgrade": "NULL_NA",
    "gnaf_pid": "GAVIC423067473",
    "ee": true,
    "tech_change_status": "Not Planned"
   }
  },
  {
   "type": "Feature",
   "geometry": {
    "type": "Point",
    "coordinates": [
     145.87487175,
     -36.40058798
    ]
   },
   "properties": {
    "name": "228 GOORAMBAT-DOOKIE COLLEGE ROAD STEWARTON 3725",
    "locID": "LOC000005333531",
    "tech": "SATELLITE",
    "upgrade": "NULL_NA",
    "gnaf_pid": "GAVIC423071889",
    "ee": true,
    "tech_change_status": "Not Planned"
   }
  },
  {
   "type": "Feature",
   "geometry": {
    "type": "Point",
    "coordinates": [
     145.86641871,
     -36.39964346
    ]
   },
   "properties": {
    "name": "306 GOORAMBAT-DOOKIE COLLEGE ROAD STEWARTON 3725",
    "locID": "LOC000073137062",
    "tech": "SATELLITE",
    "upgrade": "NULL_NA",
    "gnaf_pid": "GAVIC423071891",
    "ee": true,
    "tech_change_status": "Not Planned"
   }
  },
  {
   "type": "Feature",
   "geometry": {
    "type": "Point",
    "coordinates": [
     145.8323383,
     -36.42947396
    ]
   },
   "properties": {
    "name": "169 WEBB ROAD STEWARTON 3725",
    "locID": "LOC000059408089",
    "tech": "SATELLITE",
    "upgrade": "NULL_NA",
    "gnaf_pid": "GAVIC423160752",
    "ee": true,
    "tech_change_status": "Not Planned"
   }
  },
  {
   "type": "Feature",
   "geometry": {
    "type": "Point",
    "coordinates": [
     145.83020935,
     -36.43913945
    ]
   },
   "properties": {
    "name": "61 WEBB ROAD STEWARTON 3725",
    "locID": "LOC000103274976",
    "tech": "SATELLITE",
    "upgrade": "NULL_NA",
    "gnaf_pid": "GAVIC423160753",
    "ee": true,
    "tech_change_status": "Not Planned"
   }
  },
  {
   "type": "Feature",
   "geometry": {
    "type": "Point",
    "coordinates": [
     145.87008606,
     -36.423491
    ]
   },
   "properties": {
    "name": "319 WRIGHT ROAD STEWARTON 3725",
    "locID": "LOC000065760297",
    "tech": "WIRELESS",
    "upgrade": "NULL_NA",
    "gnaf_pid": "GAVIC423162006",
    "ee": true,
    "tech_change_status": "Not Planned",
    "program_type": "Fixed Wireless and Satellite Upgrade Program",
    "target_eligibility_quarter": "NA"
   }
  },
  {
   "type": "Feature",
   "geometry": {
    "type": "Point",
    "coordinates": [
     145.86288529,
     -36.45766498
    ]
   },
   "properties": {
    "name": "1541 TARNOOK ROAD STEWARTON 3725",
    "locID": "LOC000013048611",
    "tech": "SATELLITE",
    "upgrade": "NULL_NA",
    "gnaf_pid": "GAVIC424274752",
    "ee": true,
    "tech_change_status": "Not Planned"
   }
  },
  {
   "type": "Feature",
   "geometry": {
    "type": "Point",
    "coordinates": [
     145.85212304,
     -36.42539735
    ]
   },
   "properties": {
    "name": "935 LOVE ROAD STEWARTON 3725",
    "locID": "LOC000020118919",
    "tech": "WIRELESS",
    "upgrade": "NULL_NA",
    "gnaf_pid": "GAVIC424622692",
    "ee": true,
    "tech_change_status": "Not Planned",
    "program_type": "Fixed Wireless and Satellite Upgrade Program",
    "target_eligibility_quarter": "NA"
   }
  },
  {
   "type": "Feature",
   "geometry": {
    "type": "Point",
    "coordinates": [
     145.84887395,
     -36.44750628
    ]
   },
   "properties": {
    "name": "4247 MIDLAND HIGHWAY STEWARTON 3725",
    "locID": "LOC000125051428",
    "tech": "WIRELESS",
    "upgrade": "NULL_NA",
    "gnaf_pid": "GAVIC424884890",
    "ee": true,
    "tech_change_status": "Not Planned",
    "program_type": "Fixed Wireless and Satellite Upgrade Program",
    "target_eligibility_quarter": "NA"
   }
  },
  {
   "type": "Feature",
   "geometry": {
    "type": "Point",
    "coordinates": [
     145.8200268,
     -36.40425136
    ]
   },
   "properties": {
    "name": "568 BALLINTINE ROAD STEWARTON 3725",
    "locID": "LOC000148367773",
    "tech": "WIRELESS",
    "upgrade": "NULL_NA",
    "gnaf_pid": "GAVIC425418321",
    "ee": true,
    "tech_change_status": "Not Planned",
    "program_type": "Fixed Wireless and Satellite Upgrade Program",
    "target_eligibility_quarter": "Sep 2025"
   }
  },
  {
   "type": "Feature",
   "geometry": {
    "type": "Point",
    "coordinates": [
     145.78441519,
     -36.4073558
    ]
   },
   "properties": {
    "name": "660 STEWARTON ROAD STEWARTON 3725",
    "locID": "LOC100078139443",
    "tech": "SATELLITE",
    "upgrade": "NULL_NA",
    "gnaf_pid": "GAVIC719109580",
    "ee": true,
    "tech_change_status": "Not Planned"
   }
  },
  {
   "type": "Feature",
   "geometry": {
    "type": "Point",
    "coordinates": [
     145.7841926,
     -36.40732649
    ]
   },
   "properties": {
    "name": "640 STEWARTON ROAD STEWARTON 3725",
    "locID": "LOC100078139427",
    "tech": "WIRELESS",
    "upgrade": "NULL_NA",
    "gnaf_pid": "GAVIC719926740",
    "ee": true,
    "tech_change_status": "Not Planned",
    "program_type": "Fixed Wireless and Satellite Upgrade Program",
    "target_eligibility_quarter": "Sep 2025"
   }
  }
 ]
}