{
 "type": "FeatureCollection",
 "generated": "2025-06-18T13:17:24.326841",
 "suburb": "SUTTON",
 "features": [
  {
   "type": "Feature",
   "geometry": {
    "type": "Point",
    "coordinates": [
     142.99576353,
     -35.743789
    ]
   },
   "properties": {
    "name": "2979 BERRIWILLOCK-BIRCHIP ROAD SUTTON 3530",
    "locID": "LOC000025021066",
    "tech": "NULL",
    "upgrade": "NULL_NA",
    "gnaf_pid": "GAVIC422128236",
    "ee": true,
    "tech_change_status": "Not Planned"
   }
  },
  {
   "type": "Feature",
   "geometry": {
    "type": "Point",
    "coordinates": [
     142.99752246,
     -35.73186951
    ]
   },
   "properties": {
    "name": "3114 BERRIWILLOCK-BIRCHIP ROAD SUTTON 3530",
    "locID": "LOC000069193304",
    "tech": "SATELLITE",
    "upgrade": "NULL_NA",
    "gnaf_pid": "GAVIC422128237",
    "ee": true,
    "tech_change_status": "Not Planned"
   }
  },
  {
   "type": "Feature",
   "geometry": {
    "type": "Point",
    "coordinates": [
     142.92603563,
     -35.75630253
    ]
   },
   "properties": {
    "name": "631 WATCHUPGA-CULGOA ROAD SUTTON 3530",
    "locID": "LOC000104518899",
    "tech": "NULL",
    "upgrade": "NULL_NA",
    "gnaf_pid": "GAVIC424076826",
    "ee": true,
    "tech_change_status": "Not Planned"
   }
  },
  {
   "type": "Feature",
   "geometry": {
    "type": "Point",
    "coordinates": [
     142.9750191,
     -35.73846134
    ]
   },
   "properties": {
    "name": "840 MCLOUGHLANS ROAD SUTTON 3530",
    "locID": "LOC000060446377",
    "tech": "NULL",
    "upgrade": "NULL_NA",
    "gnaf_pid": "GAVIC424542222",
    "ee": true,
    "tech_change_status": "Not Planned"
   }
  }
 ]
}