{
 "type": "FeatureCollection",
 "generated": "2025-06-18T13:18:36.180551",
 "suburb": "SWAN ISLAND",
 "features": [
  {
   "type": "Feature",
   "geometry": {
    "type": "Point",
    "coordinates": [
     144.673724,
     -38.25064
    ]
   },
   "properties": {
    "name": "UNIT 1, 1 SWAN ISLAND SWAN ISLAND 3225",
    "locID": "LOC000150786682",
    "tech": "NULL",
    "upgrade": "NULL_NA",
    "gnaf_pid": "GAVIC420339487",
    "ee": true,
    "tech_change_status": "Not Planned"
   }
  },
  {
   "type": "Feature",
   "geometry": {
    "type": "Point",
    "coordinates": [
     144.673724,
     -38.25064
    ]
   },
   "properties": {
    "name": "UNIT 4, 1 SWAN ISLAND SWAN ISLAND 3225",
    "locID": "LOC000150786682",
    "tech": "NULL",
    "upgrade": "NULL_NA",
    "gnaf_pid": "GAVIC420648808",
    "ee": true,
    "tech_change_status": "Not Planned"
   }
  },
  {
   "type": "Feature",
   "geometry": {
    "type": "Point",
    "coordinates": [
     144.673724,
     -38.25064
    ]
   },
   "properties": {
    "name": "UNIT 2, 1 SWAN ISLAND SWAN ISLAND 3225",
    "locID": "LOC000150786682",
    "tech": "NULL",
    "upgrade": "NULL_NA",
    "gnaf_pid": "GAVIC421519997",
    "ee": true,
    "tech_change_status": "Not Planned"
   }
  },
  {
   "type": "Feature",
   "geometry": {
    "type": "Point",
    "coordinates": [
     144.673724,
     -38.25064
    ]
   },
   "properties": {
    "name": "UNIT 3, 1 SWAN ISLAND SWAN ISLAND 3225",
    "locID": "LOC000150786682",
    "tech": "NULL",
    "upgrade": "NULL_NA",
    "gnaf_pid": "GAVIC421519998",
    "ee": true,
    "tech_change_status": "Not Planned"
   }
  },
  {
   "type": "Feature",
   "geometry": {
    "type": "Point",
    "coordinates": [
     144.673724,
     -38.25064
    ]
   },
   "properties": {
    "name": "UNIT 5, 1 SWAN ISLAND SWAN ISLAND 3225",
    "locID": "LOC000150786682",
    "tech": "NULL",
    "upgrade": "NULL_NA",
    "gnaf_pid": "GAVIC421519999",
    "ee": true,
    "tech_change_status": "Not Planned"
   }
  },
  {
   "type": "Feature",
   "geometry": {
    "type": "Point",
    "coordinates": [
     144.673724,
     -38.25064
    ]
   },
   "properties": {
    "name": "1 SWAN ISLAND SWAN ISLAND 3225",
    "locID": "LOC000150786682",
    "tech": "NULL",
    "upgrade": "NULL_NA",
    "gnaf_pid": "GAVIC421829325",
    "ee": true,
    "tech_change_status": "Not Planned"
   }
  }
 ]
}