{
 "type": "FeatureCollection",
 "generated": "2025-06-18T13:39:11.485748",
 "suburb": "TAMBOON",
 "features": [
  {
   "type": "Feature",
   "geometry": {
    "type": "Point",
    "coordinates": [
     149.13838999,
     -37.7432609
    ]
   },
   "properties": {
    "name": "14 MORRIS ROAD TAMBOON 3890",
    "locID": "LOC000058242018",
    "tech": "NULL",
    "upgrade": "NULL_NA",
    "gnaf_pid": "GAVIC423849322",
    "ee": false,
    "tech_change_status": "Not Planned"
   }
  },
  {
   "type": "Feature",
   "geometry": {
    "type": "Point",
    "coordinates": [
     149.13943206,
     -37.74385975
    ]
   },
   "properties": {
    "name": "25 MORRIS ROAD TAMBOON 3890",
    "locID": "LOC000006097386",
    "tech": "SATELLITE",
    "upgrade": "NULL_NA",
    "gnaf_pid": "GAVIC423849323",
    "ee": false,
    "tech_change_status": "Not Planned"
   }
  },
  {
   "type": "Feature",
   "geometry": {
    "type": "Point",
    "coordinates": [
     149.13849691,
     -37.742974
    ]
   },
   "properties": {
    "name": "8 MORRIS ROAD TAMBOON 3890",
    "locID": "LOC000049281641",
    "tech": "SATELLITE",
    "upgrade": "NULL_NA",
    "gnaf_pid": "GAVIC424041003",
    "ee": false,
    "tech_change_status": "Not Planned"
   }
  },
  {
   "type": "Feature",
   "geometry": {
    "type": "Point",
    "coordinates": [
     149.13877678,
     -37.74390356
    ]
   },
   "properties": {
    "name": "18 MORRIS ROAD TAMBOON 3890",
    "locID": "LOC000101654584",
    "tech": "SATELLITE",
    "upgrade": "NULL_NA",
    "gnaf_pid": "GAVIC424066446",
    "ee": false,
    "tech_change_status": "Not Planned"
   }
  },
  {
   "type": "Feature",
   "geometry": {
    "type": "Point",
    "coordinates": [
     149.1393297,
     -37.74419984
    ]
   },
   "properties": {
    "name": "26 MORRIS ROAD TAMBOON 3890",
    "locID": "LOC000031092098",
    "tech": "NULL",
    "upgrade": "NULL_NA",
    "gnaf_pid": "GAVIC424066447",
    "ee": false,
    "tech_change_status": "Not Planned"
   }
  },
  {
   "type": "Feature",
   "geometry": {
    "type": "Point",
    "coordinates": [
     149.13987716,
     -37.7441944
    ]
   },
   "properties": {
    "name": "31 MORRIS ROAD TAMBOON 3890",
    "locID": "LOC000077866104",
    "tech": "SATELLITE",
    "upgrade": "NULL_NA",
    "gnaf_pid": "GAVIC424066448",
    "ee": false,
    "tech_change_status": "Not Planned"
   }
  },
  {
   "type": "Feature",
   "geometry": {
    "type": "Point",
    "coordinates": [
     149.13968176,
     -37.7445497
    ]
   },
   "properties": {
    "name": "34 MORRIS ROAD TAMBOON 3890",
    "locID": "LOC000032006776",
    "tech": "NULL",
    "upgrade": "NULL_NA",
    "gnaf_pid": "GAVIC424066449",
    "ee": false,
    "tech_change_status": "Not Planned"
   }
  },
  {
   "type": "Feature",
   "geometry": {
    "type": "Point",
    "coordinates": [
     149.1395699,
     -37.74357228
    ]
   },
   "properties": {
    "name": "6 BANKSIA GULLY ROAD TAMBOON 3890",
    "locID": "LOC100089563661",
    "tech": "NULL",
    "upgrade": "NULL_NA",
    "gnaf_pid": "GAVIC424077761",
    "ee": false,
    "tech_change_status": "Not Planned"
   }
  },
  {
   "type": "Feature",
   "geometry": {
    "type": "Point",
    "coordinates": [
     149.13981564,
     -37.7434473
    ]
   },
   "properties": {
    "name": "8 BANKSIA GULLY ROAD TAMBOON 3890",
    "locID": "LOC000049281641",
    "tech": "SATELLITE",
    "upgrade": "NULL_NA",
    "gnaf_pid": "GAVIC424077762",
    "ee": false,
    "tech_change_status": "Not Planned"
   }
  },
  {
   "type": "Feature",
   "geometry": {
    "type": "Point",
    "coordinates": [
     149.25117078,
     -37.61025875
    ]
   },
   "properties": {
    "name": "37 BAYS TRACK TAMBOON 3890",
    "locID": "LOC000148033973",
    "tech": "SATELLITE",
    "upgrade": "NULL_NA",
    "gnaf_pid": "GAVIC425155410",
    "ee": false,
    "tech_change_status": "Not Planned"
   }
  },
  {
   "type": "Feature",
   "geometry": {
    "type": "Point",
    "coordinates": [
     149.28017723,
     -37.79638359
    ]
   },
   "properties": {
    "name": "2885 POINT HICKS ROAD TAMBOON 3890",
    "locID": "LOC000148033386",
    "tech": "NULL",
    "upgrade": "NULL_NA",
    "gnaf_pid": "GAVIC425167099",
    "ee": false,
    "tech_change_status": "Not Planned"
   }
  },
  {
   "type": "Feature",
   "geometry": {
    "type": "Point",
    "coordinates": [
     149.10176681,
     -37.68232706
    ]
   },
   "properties": {
    "name": "350 OMEARA TRACK TAMBOON 3890",
    "locID": "LOC100072037217",
    "tech": "NULL",
    "upgrade": "NULL_NA",
    "gnaf_pid": "GAVIC425633228",
    "ee": false,
    "tech_change_status": "Not Planned"
   }
  }
 ]
}