{
 "type": "FeatureCollection",
 "generated": "2025-06-18T13:37:36.747401",
 "suburb": "TAMBO CROSSING",
 "features": [
  {
   "type": "Feature",
   "geometry": {
    "type": "Point",
    "coordinates": [
     147.80620048,
     -37.50603399
    ]
   },
   "properties": {
    "name": "321 NALLYS ROAD TAMBO CROSSING 3893",
    "locID": "LOC000088821027",
    "tech": "NULL",
    "upgrade": "NULL_NA",
    "gnaf_pid": "GAVIC422312201",
    "ee": false,
    "tech_change_status": "Not Planned"
   }
  },
  {
   "type": "Feature",
   "geometry": {
    "type": "Point",
    "coordinates": [
     147.84763253,
     -37.50609675
    ]
   },
   "properties": {
    "name": "94 OLD COACH ROAD TAMBO CROSSING 3893",
    "locID": "LOC000083321423",
    "tech": "SATELLITE",
    "upgrade": "NULL_NA",
    "gnaf_pid": "GAVIC422314521",
    "ee": false,
    "tech_change_status": "Not Planned"
   }
  },
  {
   "type": "Feature",
   "geometry": {
    "type": "Point",
    "coordinates": [
     147.8376984,
     -37.5064304
    ]
   },
   "properties": {
    "name": "37 TAMBO SPUR ROAD TAMBO CROSSING 3893",
    "locID": "LOC000026893200",
    "tech": "SATELLITE",
    "upgrade": "NULL_NA",
    "gnaf_pid": "GAVIC422327409",
    "ee": false,
    "tech_change_status": "Not Planned"
   }
  },
  {
   "type": "Feature",
   "geometry": {
    "type": "Point",
    "coordinates": [
     147.83948272,
     -37.50425234
    ]
   },
   "properties": {
    "name": "10 TAMBO SPUR ROAD TAMBO CROSSING 3893",
    "locID": "LOC000060379769",
    "tech": "NULL",
    "upgrade": "NULL_NA",
    "gnaf_pid": "GAVIC423158469",
    "ee": false,
    "tech_change_status": "Not Planned"
   }
  },
  {
   "type": "Feature",
   "geometry": {
    "type": "Point",
    "coordinates": [
     147.84694334,
     -37.51236067
    ]
   },
   "properties": {
    "name": "3041 GREAT ALPINE ROAD TAMBO CROSSING 3893",
    "locID": "LOC000102345428",
    "tech": "NULL",
    "upgrade": "NULL_NA",
    "gnaf_pid": "GAVIC423804588",
    "ee": false,
    "tech_change_status": "Not Planned"
   }
  },
  {
   "type": "Feature",
   "geometry": {
    "type": "Point",
    "coordinates": [
     147.83312058,
     -37.49506189
    ]
   },
   "properties": {
    "name": "3335 GREAT ALPINE ROAD TAMBO CROSSING 3893",
    "locID": "LOC000005236417",
    "tech": "SATELLITE",
    "upgrade": "NULL_NA",
    "gnaf_pid": "GAVIC423804589",
    "ee": false,
    "tech_change_status": "Not Planned"
   }
  },
  {
   "type": "Feature",
   "geometry": {
    "type": "Point",
    "coordinates": [
     147.84580646,
     -37.50219046
    ]
   },
   "properties": {
    "name": "139 OLD COACH ROAD TAMBO CROSSING 3893",
    "locID": "LOC000088930303",
    "tech": "SATELLITE",
    "upgrade": "NULL_NA",
    "gnaf_pid": "GAVIC423806301",
    "ee": false,
    "tech_change_status": "Not Planned"
   }
  },
  {
   "type": "Feature",
   "geometry": {
    "type": "Point",
    "coordinates": [
     147.84683203,
     -37.51228782
    ]
   },
   "properties": {
    "name": "3045 GREAT ALPINE ROAD TAMBO CROSSING 3893",
    "locID": "LOC000081188931",
    "tech": "NULL",
    "upgrade": "NULL_NA",
    "gnaf_pid": "GAVIC424027157",
    "ee": false,
    "tech_change_status": "Not Planned"
   }
  },
  {
   "type": "Feature",
   "geometry": {
    "type": "Point",
    "coordinates": [
     147.84094905,
     -37.50362547
    ]
   },
   "properties": {
    "name": "3180 GREAT ALPINE ROAD TAMBO CROSSING 3893",
    "locID": "LOC000008087255",
    "tech": "NULL",
    "upgrade": "NULL_NA",
    "gnaf_pid": "GAVIC424027158",
    "ee": false,
    "tech_change_status": "Not Planned"
   }
  },
  {
   "type": "Feature",
   "geometry": {
    "type": "Point",
    "coordinates": [
     147.82982628,
     -37.48225454
    ]
   },
   "properties": {
    "name": "3475 GREAT ALPINE ROAD TAMBO CROSSING 3893",
    "locID": "LOC000008420174",
    "tech": "SATELLITE",
    "upgrade": "NULL_NA",
    "gnaf_pid": "GAVIC424027159",
    "ee": false,
    "tech_change_status": "Not Planned"
   }
  },
  {
   "type": "Feature",
   "geometry": {
    "type": "Point",
    "coordinates": [
     147.83229882,
     -37.46691673
    ]
   },
   "properties": {
    "name": "3730 GREAT ALPINE ROAD TAMBO CROSSING 3893",
    "locID": "LOC000010620792",
    "tech": "SATELLITE",
    "upgrade": "NULL_NA",
    "gnaf_pid": "GAVIC424027161",
    "ee": false,
    "tech_change_status": "Not Planned"
   }
  },
  {
   "type": "Feature",
   "geometry": {
    "type": "Point",
    "coordinates": [
     147.83910574,
     -37.50584213
    ]
   },
   "properties": {
    "name": "17 TAMBO SPUR ROAD TAMBO CROSSING 3893",
    "locID": "LOC100078662205",
    "tech": "NULL",
    "upgrade": "NULL_NA",
    "gnaf_pid": "GAVIC720283878",
    "ee": false,
    "tech_change_status": "Not Planned"
   }
  },
  {
   "type": "Feature",
   "geometry": {
    "type": "Point",
    "coordinates": [
     147.83868822,
     -37.47440409
    ]
   },
   "properties": {
    "name": "3730A GREAT ALPINE ROAD TAMBO CROSSING 3893",
    "locID": "LOC000010620792",
    "tech": "SATELLITE",
    "upgrade": "NULL_NA",
    "gnaf_pid": "GAVIC721211043",
    "ee": false,
    "tech_change_status": "Not Planned"
   }
  }
 ]
}