{
 "type": "FeatureCollection",
 "generated": "2025-06-18T17:57:19.735276",
 "suburb": "WEMEN",
 "features": [
  {
   "type": "Feature",
   "geometry": {
    "type": "Point",
    "coordinates": [
     142.64267149,
     -34.7800905
    ]
   },
   "properties": {
    "name": "17 MCMONNIE ROAD WEMEN 3549",
    "locID": "LOC000059264231",
    "tech": "SATELLITE",
    "upgrade": "NULL_NA",
    "gnaf_pid": "GAVIC412597094",
    "ee": true,
    "tech_change_status": "Not Planned"
   }
  },
  {
   "type": "Feature",
   "geometry": {
    "type": "Point",
    "coordinates": [
     142.67263061,
     -34.74789045
    ]
   },
   "properties": {
    "name": "95 CONNELL ROAD WEMEN 3549",
    "locID": "LOC000060772166",
    "tech": "SATELLITE",
    "upgrade": "NULL_NA",
    "gnaf_pid": "GAVIC412605663",
    "ee": true,
    "tech_change_status": "Not Planned"
   }
  },
  {
   "type": "Feature",
   "geometry": {
    "type": "Point",
    "coordinates": [
     142.64397326,
     -34.77740403
    ]
   },
   "properties": {
    "name": "3668 HATTAH-ROBINVALE ROAD WEMEN 3549",
    "locID": "LOC000029732260",
    "tech": "SATELLITE",
    "upgrade": "NULL_NA",
    "gnaf_pid": "GAVIC412605668",
    "ee": true,
    "tech_change_status": "Not Planned"
   }
  },
  {
   "type": "Feature",
   "geometry": {
    "type": "Point",
    "coordinates": [
     142.658512,
     -34.80082299
    ]
   },
   "properties": {
    "name": "1813 ANNUELLO-WEMEN ROAD WEMEN 3549",
    "locID": "LOC000081083113",
    "tech": "NULL",
    "upgrade": "NULL_NA",
    "gnaf_pid": "GAVIC420576937",
    "ee": true,
    "tech_change_status": "Not Planned"
   }
  },
  {
   "type": "Feature",
   "geometry": {
    "type": "Point",
    "coordinates": [
     142.63429589,
     -34.7842787
    ]
   },
   "properties": {
    "name": "3556A HATTAH-ROBINVALE ROAD WEMEN 3549",
    "locID": "LOC000062707095",
    "tech": "SATELLITE",
    "upgrade": "NULL_NA",
    "gnaf_pid": "GAVIC421979931",
    "ee": true,
    "tech_change_status": "Not Planned"
   }
  },
  {
   "type": "Feature",
   "geometry": {
    "type": "Point",
    "coordinates": [
     142.64381368,
     -34.77762258
    ]
   },
   "properties": {
    "name": "3664 HATTAH-ROBINVALE ROAD WEMEN 3549",
    "locID": "LOC000018604544",
    "tech": "SATELLITE",
    "upgrade": "NULL_NA",
    "gnaf_pid": "GAVIC421979932",
    "ee": true,
    "tech_change_status": "Not Planned"
   }
  },
  {
   "type": "Feature",
   "geometry": {
    "type": "Point",
    "coordinates": [
     142.6442838,
     -34.77708425
    ]
   },
   "properties": {
    "name": "3674 HATTAH-ROBINVALE ROAD WEMEN 3549",
    "locID": "LOC000070979568",
    "tech": "SATELLITE",
    "upgrade": "NULL_NA",
    "gnaf_pid": "GAVIC421979933",
    "ee": true,
    "tech_change_status": "Not Planned"
   }
  },
  {
   "type": "Feature",
   "geometry": {
    "type": "Point",
    "coordinates": [
     142.64465686,
     -34.77661035
    ]
   },
   "properties": {
    "name": "3678 HATTAH-ROBINVALE ROAD WEMEN 3549",
    "locID": "LOC000094255331",
    "tech": "SATELLITE",
    "upgrade": "NULL_NA",
    "gnaf_pid": "GAVIC421979934",
    "ee": true,
    "tech_change_status": "Not Planned"
   }
  },
  {
   "type": "Feature",
   "geometry": {
    "type": "Point",
    "coordinates": [
     142.64570654,
     -34.77499123
    ]
   },
   "properties": {
    "name": "3698 HATTAH-ROBINVALE ROAD WEMEN 3549",
    "locID": "LOC000098288879",
    "tech": "NULL",
    "upgrade": "NULL_NA",
    "gnaf_pid": "GAVIC421979935",
    "ee": true,
    "tech_change_status": "Not Planned"
   }
  },
  {
   "type": "Feature",
   "geometry": {
    "type": "Point",
    "coordinates": [
     142.638684,
     -34.74680464
    ]
   },
   "properties": {
    "name": "3727 HATTAH-ROBINVALE ROAD WEMEN 3549",
    "locID": "LOC000020147435",
    "tech": "NULL",
    "upgrade": "NULL_NA",
    "gnaf_pid": "GAVIC421979936",
    "ee": true,
    "tech_change_status": "Not Planned"
   }
  },
  {
   "type": "Feature",
   "geometry": {
    "type": "Point",
    "coordinates": [
     142.65313129,
     -34.77031926
    ]
   },
   "properties": {
    "name": "3794A HATTAH-ROBINVALE ROAD WEMEN 3549",
    "locID": "LOC000030151343",
    "tech": "SATELLITE",
    "upgrade": "NULL_NA",
    "gnaf_pid": "GAVIC421979937",
    "ee": true,
    "tech_change_status": "Not Planned"
   }
  },
  {
   "type": "Feature",
   "geometry": {
    "type": "Point",
    "coordinates": [
     142.65343926,
     -34.77021868
    ]
   },
   "properties": {
    "name": "3794B HATTAH-ROBINVALE ROAD WEMEN 3549",
    "locID": "LOC000030137622",
    "tech": "NULL",
    "upgrade": "NULL_NA",
    "gnaf_pid": "GAVIC421983803",
    "ee": true,
    "tech_change_status": "Not Planned"
   }
  },
  {
   "type": "Feature",
   "geometry": {
    "type": "Point",
    "coordinates": [
     142.6360473,
     -34.78331744
    ]
   },
   "properties": {
    "name": "3572 HATTAH-ROBINVALE ROAD WEMEN 3549",
    "locID": "LOC000142988914",
    "tech": "SATELLITE",
    "upgrade": "NULL_NA",
    "gnaf_pid": "GAVIC421983934",
    "ee": true,
    "tech_change_status": "Not Planned"
   }
  },
  {
   "type": "Feature",
   "geometry": {
    "type": "Point",
    "coordinates": [
     142.679025,
     -34.74053516
    ]
   },
   "properties": {
    "name": "242 CONNELL ROAD WEMEN 3549",
    "locID": "LOC000095272057",
    "tech": "WIRELESS",
    "upgrade": "NULL_NA",
    "gnaf_pid": "GAVIC421983989",
    "ee": true,
    "tech_change_status": "Not Planned",
    "program_type": "Fixed Wireless and Satellite Upgrade Program",
    "target_eligibility_quarter": "NA"
   }
  },
  {
   "type": "Feature",
   "geometry": {
    "type": "Point",
    "coordinates": [
     142.65754976,
     -34.76820214
    ]
   },
   "properties": {
    "name": "3864 HATTAH-ROBINVALE ROAD WEMEN 3549",
    "locID": "LOC000020528407",
    "tech": "NULL",
    "upgrade": "NULL_NA",
    "gnaf_pid": "GAVIC421983990",
    "ee": true,
    "tech_change_status": "Not Planned"
   }
  },
  {
   "type": "Feature",
   "geometry": {
    "type": "Point",
    "coordinates": [
     142.69239854,
     -34.75447315
    ]
   },
   "properties": {
    "name": "4240 HATTAH-ROBINVALE ROAD WEMEN 3549",
    "locID": "LOC000012000055",
    "tech": "WIRELESS",
    "upgrade": "NULL_NA",
    "gnaf_pid": "GAVIC421983991",
    "ee": true,
    "tech_change_status": "Not Planned",
    "program_type": "Fixed Wireless and Satellite Upgrade Program",
    "target_eligibility_quarter": "NA"
   }
  },
  {
   "type": "Feature",
   "geometry": {
    "type": "Point",
    "coordinates": [
     142.66418153,
     -34.7622237
    ]
   },
   "properties": {
    "name": "3916 HATTAH-ROBINVALE ROAD WEMEN 3549",
    "locID": "LOC000015149821",
    "tech": "SATELLITE",
    "upgrade": "NULL_NA",
    "gnaf_pid": "GAVIC421984383",
    "ee": true,
    "tech_change_status": "Not Planned"
   }
  },
  {
   "type": "Feature",
   "geometry": {
    "type": "Point",
    "coordinates": [
     142.66706765,
     -34.75245134
    ]
   },
   "properties": {
    "name": "52A STALEY ROAD WEMEN 3549",
    "locID": "LOC000077233993",
    "tech": "WIRELESS",
    "upgrade": "NULL_NA",
    "gnaf_pid": "GAVIC421984384",
    "ee": true,
    "tech_change_status": "Not Planned",
    "program_type": "Fixed Wireless and Satellite Upgrade Program",
    "target_eligibility_quarter": "NA"
   }
  },
  {
   "type": "Feature",
   "geometry": {
    "type": "Point",
    "coordinates": [
     142.66046011,
     -34.7445406
    ]
   },
   "properties": {
    "name": "100B STALEY ROAD WEMEN 3549",
    "locID": "LOC000025025063",
    "tech": "SATELLITE",
    "upgrade": "NULL_NA",
    "gnaf_pid": "GAVIC421984386",
    "ee": true,
    "tech_change_status": "Not Planned"
   }
  },
  {
   "type": "Feature",
   "geometry": {
    "type": "Point",
    "coordinates": [
     142.63438628,
     -34.78719881
    ]
   },
   "properties": {
    "name": "3556B HATTAH-ROBINVALE ROAD WEMEN 3549",
    "locID": "LOC000062425036",
    "tech": "NULL",
    "upgrade": "NULL_NA",
    "gnaf_pid": "GAVIC422025359",
    "ee": true,
    "tech_change_status": "Not Planned"
   }
  },
  {
   "type": "Feature",
   "geometry": {
    "type": "Point",
    "coordinates": [
     142.62837236,
     -34.7903811
    ]
   },
   "properties": {
    "name": "3444A HATTAH-ROBINVALE ROAD WEMEN 3549",
    "locID": "LOC000029365500",
    "tech": "NULL",
    "upgrade": "NULL_NA",
    "gnaf_pid": "GAVIC422026887",
    "ee": true,
    "tech_change_status": "Not Planned"
   }
  },
  {
   "type": "Feature",
   "geometry": {
    "type": "Point",
    "coordinates": [
     142.66843727,
     -34.77745069
    ]
   },
   "properties": {
    "name": "152 COLLINS ROAD WEMEN 3549",
    "locID": "LOC000124743280",
    "tech": "WIRELESS",
    "upgrade": "NULL_NA",
    "gnaf_pid": "GAVIC422137870",
    "ee": true,
    "tech_change_status": "Not Planned",
    "program_type": "Fixed Wireless and Satellite Upgrade Program",
    "target_eligibility_quarter": "NA"
   }
  },
  {
   "type": "Feature",
   "geometry": {
    "type": "Point",
    "coordinates": [
     142.67382175,
     -34.7529557
    ]
   },
   "properties": {
    "name": "4 CONNELL ROAD WEMEN 3549",
    "locID": "LOC000048953335",
    "tech": "WIRELESS",
    "upgrade": "NULL_NA",
    "gnaf_pid": "GAVIC422138501",
    "ee": true,
    "tech_change_status": "Not Planned",
    "program_type": "Fixed Wireless and Satellite Upgrade Program",
    "target_eligibility_quarter": "NA"
   }
  },
  {
   "type": "Feature",
   "geometry": {
    "type": "Point",
    "coordinates": [
     142.63957838,
     -34.7811691
    ]
   },
   "properties": {
    "name": "3610 HATTAH-ROBINVALE ROAD WEMEN 3549",
    "locID": "LOC000083705212",
    "tech": "NULL",
    "upgrade": "NULL_NA",
    "gnaf_pid": "GAVIC422154064",
    "ee": true,
    "tech_change_status": "Not Planned"
   }
  },
  {
   "type": "Feature",
   "geometry": {
    "type": "Point",
    "coordinates": [
     142.64023481,
     -34.7806553
    ]
   },
   "properties": {
    "name": "3620 HATTAH-ROBINVALE ROAD WEMEN 3549",
    "locID": "LOC000124760970",
    "tech": "SATELLITE",
    "upgrade": "NULL_NA",
    "gnaf_pid": "GAVIC422154065",
    "ee": true,
    "tech_change_status": "Not Planned"
   }
  },
  {
   "type": "Feature",
   "geometry": {
    "type": "Point",
    "coordinates": [
     142.64298713,
     -34.7783731
    ]
   },
   "properties": {
    "name": "3652A HATTAH-ROBINVALE ROAD WEMEN 3549",
    "locID": "LOC000124760989",
    "tech": "NULL",
    "upgrade": "NULL_NA",
    "gnaf_pid": "GAVIC422154066",
    "ee": true,
    "tech_change_status": "Not Planned"
   }
  },
  {
   "type": "Feature",
   "geometry": {
    "type": "Point",
    "coordinates": [
     142.69706734,
     -34.75366121
    ]
   },
   "properties": {
    "name": "4225 HATTAH-ROBINVALE ROAD WEMEN 3549",
    "locID": "LOC000088732680",
    "tech": "WIRELESS",
    "upgrade": "NULL_NA",
    "gnaf_pid": "GAVIC422154069",
    "ee": true,
    "tech_change_status": "Not Planned",
    "program_type": "Fixed Wireless and Satellite Upgrade Program",
    "target_eligibility_quarter": "NA"
   }
  },
  {
   "type": "Feature",
   "geometry": {
    "type": "Point",
    "coordinates": [
     142.64416891,
     -34.78065633
    ]
   },
   "properties": {
    "name": "33 MCMONNIE ROAD WEMEN 3549",
    "locID": "LOC000107146921",
    "tech": "NULL",
    "upgrade": "NULL_NA",
    "gnaf_pid": "GAVIC422170280",
    "ee": true,
    "tech_change_status": "Not Planned"
   }
  },
  {
   "type": "Feature",
   "geometry": {
    "type": "Point",
    "coordinates": [
     142.64970281,
     -34.78252003
    ]
   },
   "properties": {
    "name": "90 MCMONNIE ROAD WEMEN 3549",
    "locID": "LOC000105935706",
    "tech": "SATELLITE",
    "upgrade": "NULL_NA",
    "gnaf_pid": "GAVIC422170283",
    "ee": true,
    "tech_change_status": "Not Planned"
   }
  },
  {
   "type": "Feature",
   "geometry": {
    "type": "Point",
    "coordinates": [
     142.64351059,
     -34.74250736
    ]
   },
   "properties": {
    "name": "312 STALEY ROAD WEMEN 3549",
    "locID": "LOC000124760839",
    "tech": "SATELLITE",
    "upgrade": "NULL_NA",
    "gnaf_pid": "GAVIC422192551",
    "ee": true,
    "tech_change_status": "Not Planned"
   }
  },
  {
   "type": "Feature",
   "geometry": {
    "type": "Point",
    "coordinates": [
     142.62839583,
     -34.79991125
    ]
   },
   "properties": {
    "name": "25 RYAN ROAD WEMEN 3549",
    "locID": "LOC000066428155",
    "tech": "SATELLITE",
    "upgrade": "NULL_NA",
    "gnaf_pid": "GAVIC422321039",
    "ee": true,
    "tech_change_status": "Not Planned"
   }
  },
  {
   "type": "Feature",
   "geometry": {
    "type": "Point",
    "coordinates": [
     142.64012285,
     -34.7969202
    ]
   },
   "properties": {
    "name": "1986 ANNUELLO-WEMEN ROAD WEMEN 3549",
    "locID": "LOC000084644959",
    "tech": "SATELLITE",
    "upgrade": "NULL_NA",
    "gnaf_pid": "GAVIC423204531",
    "ee": true,
    "tech_change_status": "Not Planned"
   }
  },
  {
   "type": "Feature",
   "geometry": {
    "type": "Point",
    "coordinates": [
     142.66003966,
     -34.76685399
    ]
   },
   "properties": {
    "name": "4272 HATTAH-ROBINVALE ROAD WEMEN 3549",
    "locID": "LOC000057837427",
    "tech": "WIRELESS",
    "upgrade": "NULL_NA",
    "gnaf_pid": "GAVIC423383456",
    "ee": true,
    "tech_change_status": "Not Planned",
    "program_type": "Fixed Wireless and Satellite Upgrade Program",
    "target_eligibility_quarter": "NA"
   }
  },
  {
   "type": "Feature",
   "geometry": {
    "type": "Point",
    "coordinates": [
     142.65313129,
     -34.77031926
    ]
   },
   "properties": {
    "name": "3794C HATTAH-ROBINVALE ROAD WEMEN 3549",
    "locID": "LOC000030268416",
    "tech": "SATELLITE",
    "upgrade": "NULL_NA",
    "gnaf_pid": "GAVIC423506878",
    "ee": true,
    "tech_change_status": "Not Planned"
   }
  },
  {
   "type": "Feature",
   "geometry": {
    "type": "Point",
    "coordinates": [
     142.63447909,
     -34.78588362
    ]
   },
   "properties": {
    "name": "3560 HATTAH-ROBINVALE ROAD WEMEN 3549",
    "locID": "LOC000037749980",
    "tech": "NULL",
    "upgrade": "NULL_NA",
    "gnaf_pid": "GAVIC423769820",
    "ee": true,
    "tech_change_status": "Not Planned"
   }
  },
  {
   "type": "Feature",
   "geometry": {
    "type": "Point",
    "coordinates": [
     142.66706765,
     -34.75245134
    ]
   },
   "properties": {
    "name": "52 STALEY ROAD WEMEN 3549",
    "locID": "LOC000124705254",
    "tech": "SATELLITE",
    "upgrade": "NULL_NA",
    "gnaf_pid": "GAVIC423911074",
    "ee": true,
    "tech_change_status": "Not Planned"
   }
  },
  {
   "type": "Feature",
   "geometry": {
    "type": "Point",
    "coordinates": [
     142.66893738,
     -34.76881761
    ]
   },
   "properties": {
    "name": "135 COLLINS ROAD WEMEN 3549",
    "locID": "LOC000124743144",
    "tech": "NULL",
    "upgrade": "NULL_NA",
    "gnaf_pid": "GAVIC424746480",
    "ee": true,
    "tech_change_status": "Not Planned"
   }
  },
  {
   "type": "Feature",
   "geometry": {
    "type": "Point",
    "coordinates": [
     142.66483565,
     -34.76118618
    ]
   },
   "properties": {
    "name": "3940 HATTAH-ROBINVALE ROAD WEMEN 3549",
    "locID": "LOC000114663193",
    "tech": "NULL",
    "upgrade": "NULL_NA",
    "gnaf_pid": "GAVIC424776376",
    "ee": true,
    "tech_change_status": "Not Planned"
   }
  },
  {
   "type": "Feature",
   "geometry": {
    "type": "Point",
    "coordinates": [
     142.66543153,
     -34.75331722
    ]
   },
   "properties": {
    "name": "54A STALEY ROAD WEMEN 3549",
    "locID": "LOC000124705334",
    "tech": "WIRELESS",
    "upgrade": "NULL_NA",
    "gnaf_pid": "GAVIC424890075",
    "ee": true,
    "tech_change_status": "Not Planned",
    "program_type": "Fixed Wireless and Satellite Upgrade Program",
    "target_eligibility_quarter": "NA"
   }
  },
  {
   "type": "Feature",
   "geometry": {
    "type": "Point",
    "coordinates": [
     142.64389156,
     -34.77752361
    ]
   },
   "properties": {
    "name": "3660 HATTAH-ROBINVALE ROAD WEMEN 3549",
    "locID": "LOC100084927183",
    "tech": "WIRELESS",
    "upgrade": "NULL_NA",
    "gnaf_pid": "GAVIC719202827",
    "ee": true,
    "tech_change_status": "Not Planned",
    "program_type": "Fixed Wireless and Satellite Upgrade Program",
    "target_eligibility_quarter": "NA"
   }
  },
  {
   "type": "Feature",
   "geometry": {
    "type": "Point",
    "coordinates": [
     142.66533462,
     -34.75278149
    ]
   },
   "properties": {
    "name": "54 STALEY ROAD WEMEN 3549",
    "locID": "LOC000124705334",
    "tech": "WIRELESS",
    "upgrade": "NULL_NA",
    "gnaf_pid": "GAVIC720654419",
    "ee": true,
    "tech_change_status": "Not Planned",
    "program_type": "Fixed Wireless and Satellite Upgrade Program",
    "target_eligibility_quarter": "NA"
   }
  },
  {
   "type": "Feature",
   "geometry": {
    "type": "Point",
    "coordinates": [
     142.66748699,
     -34.75763226
    ]
   },
   "properties": {
    "name": "22 COLLINS ROAD WEMEN 3549",
    "locID": "LOC100087698685",
    "tech": "NULL",
    "upgrade": "NULL_NA",
    "gnaf_pid": "GAVIC720969785",
    "ee": true,
    "tech_change_status": "Not Planned"
   }
  }
 ]
}