{
 "type": "FeatureCollection",
 "generated": "2025-06-18T19:42:26.584884",
 "suburb": "WULGULMERANG WEST",
 "features": [
  {
   "type": "Feature",
   "geometry": {
    "type": "Point",
    "coordinates": [
     148.16242853,
     -37.16920745
    ]
   },
   "properties": {
    "name": "1251 BALD HILLS ROAD WULGULMERANG WEST 3885",
    "locID": "LOC000125784201",
    "tech": "NULL",
    "upgrade": "NULL_NA",
    "gnaf_pid": "GAVIC424234190",
    "ee": false,
    "tech_change_status": "Not Planned"
   }
  }
 ]
}