{
 "type": "FeatureCollection",
 "generated": "2025-06-18T19:42:08.514585",
 "suburb": "WULGULMERANG",
 "features": [
  {
   "type": "Feature",
   "geometry": {
    "type": "Point",
    "coordinates": [
     148.27302451,
     -37.03182294
    ]
   },
   "properties": {
    "name": "945 SNOWY RIVER ROAD WULGULMERANG 3885",
    "locID": "LOC000062162146",
    "tech": "SATELLITE",
    "upgrade": "NULL_NA",
    "gnaf_pid": "GAVIC421985057",
    "ee": false,
    "tech_change_status": "Not Planned"
   }
  },
  {
   "type": "Feature",
   "geometry": {
    "type": "Point",
    "coordinates": [
     148.27842209,
     -37.01376436
    ]
   },
   "properties": {
    "name": "1167 SNOWY RIVER ROAD WULGULMERANG 3885",
    "locID": "LOC000006940227",
    "tech": "SATELLITE",
    "upgrade": "NULL_NA",
    "gnaf_pid": "GAVIC421985058",
    "ee": false,
    "tech_change_status": "Not Planned"
   }
  },
  {
   "type": "Feature",
   "geometry": {
    "type": "Point",
    "coordinates": [
     148.2684488,
     -37.00884165
    ]
   },
   "properties": {
    "name": "7691 LIMESTONE ROAD WULGULMERANG 3885",
    "locID": "LOC000079336095",
    "tech": "SATELLITE",
    "upgrade": "NULL_NA",
    "gnaf_pid": "GAVIC422304375",
    "ee": false,
    "tech_change_status": "Not Planned"
   }
  },
  {
   "type": "Feature",
   "geometry": {
    "type": "Point",
    "coordinates": [
     148.2785791,
     -37.01374465
    ]
   },
   "properties": {
    "name": "1169 SNOWY RIVER ROAD WULGULMERANG 3885",
    "locID": "LOC000076998265",
    "tech": "NULL",
    "upgrade": "NULL_NA",
    "gnaf_pid": "GAVIC422324193",
    "ee": false,
    "tech_change_status": "Not Planned"
   }
  },
  {
   "type": "Feature",
   "geometry": {
    "type": "Point",
    "coordinates": [
     148.28036024,
     -37.01332885
    ]
   },
   "properties": {
    "name": "1187 SNOWY RIVER ROAD WULGULMERANG 3885",
    "locID": "LOC000101517676",
    "tech": "NULL",
    "upgrade": "NULL_NA",
    "gnaf_pid": "GAVIC422324194",
    "ee": false,
    "tech_change_status": "Not Planned"
   }
  },
  {
   "type": "Feature",
   "geometry": {
    "type": "Point",
    "coordinates": [
     148.28359453,
     -37.01053565
    ]
   },
   "properties": {
    "name": "1233 SNOWY RIVER ROAD WULGULMERANG 3885",
    "locID": "LOC000017762916",
    "tech": "NULL",
    "upgrade": "NULL_NA",
    "gnaf_pid": "GAVIC422324196",
    "ee": false,
    "tech_change_status": "Not Planned"
   }
  },
  {
   "type": "Feature",
   "geometry": {
    "type": "Point",
    "coordinates": [
     148.28631679,
     -37.00933439
    ]
   },
   "properties": {
    "name": "1259 SNOWY RIVER ROAD WULGULMERANG 3885",
    "locID": "LOC000027628749",
    "tech": "SATELLITE",
    "upgrade": "NULL_NA",
    "gnaf_pid": "GAVIC422324198",
    "ee": false,
    "tech_change_status": "Not Planned"
   }
  },
  {
   "type": "Feature",
   "geometry": {
    "type": "Point",
    "coordinates": [
     148.26194906,
     -37.05152999
    ]
   },
   "properties": {
    "name": "590 SNOWY RIVER ROAD WULGULMERANG 3885",
    "locID": "LOC000060743476",
    "tech": "NULL",
    "upgrade": "NULL_NA",
    "gnaf_pid": "GAVIC422324199",
    "ee": false,
    "tech_change_status": "Not Planned"
   }
  },
  {
   "type": "Feature",
   "geometry": {
    "type": "Point",
    "coordinates": [
     148.2727472,
     -37.03946059
    ]
   },
   "properties": {
    "name": "859 SNOWY RIVER ROAD WULGULMERANG 3885",
    "locID": "LOC000067899983",
    "tech": "SATELLITE",
    "upgrade": "NULL_NA",
    "gnaf_pid": "GAVIC422324202",
    "ee": false,
    "tech_change_status": "Not Planned"
   }
  },
  {
   "type": "Feature",
   "geometry": {
    "type": "Point",
    "coordinates": [
     148.25277478,
     -37.01714854
    ]
   },
   "properties": {
    "name": "100 TIN HUT ROAD WULGULMERANG 3885",
    "locID": "LOC000080985613",
    "tech": "SATELLITE",
    "upgrade": "NULL_NA",
    "gnaf_pid": "GAVIC423932409",
    "ee": false,
    "tech_change_status": "Not Planned"
   }
  },
  {
   "type": "Feature",
   "geometry": {
    "type": "Point",
    "coordinates": [
     148.29014392,
     -36.99145561
    ]
   },
   "properties": {
    "name": "7691A LIMESTONE ROAD WULGULMERANG 3885",
    "locID": "LOC000079336095",
    "tech": "SATELLITE",
    "upgrade": "NULL_NA",
    "gnaf_pid": "GAVIC720141027",
    "ee": false,
    "tech_change_status": "Not Planned"
   }
  }
 ]
}