{
 "type": "FeatureCollection",
 "generated": "2025-06-19T17:42:31.443495",
 "suburb": "ALICE",
 "features": [
  {
   "type": "Feature",
   "geometry": {
    "type": "Point",
    "coordinates": [
     152.59394629,
     -29.04959489
    ]
   },
   "properties": {
    "name": "9494 CLARENCE WAY ALICE 2469",
    "locID": "LOC000098013523",
    "tech": "SATELLITE",
    "upgrade": "NULL_NA",
    "gnaf_pid": "GANSW706418283",
    "ee": false,
    "tech_change_status": "Not Planned"
   }
  },
  {
   "type": "Feature",
   "geometry": {
    "type": "Point",
    "coordinates": [
     152.6078278,
     -29.05339419
    ]
   },
   "properties": {
    "name": "9370 CLARENCE WAY ALICE 2469",
    "locID": "LOC000107230869",
    "tech": "SATELLITE",
    "upgrade": "NULL_NA",
    "gnaf_pid": "GANSW706418284",
    "ee": false,
    "tech_change_status": "Not Planned"
   }
  },
  {
   "type": "Feature",
   "geometry": {
    "type": "Point",
    "coordinates": [
     152.59206437,
     -29.04315127
    ]
   },
   "properties": {
    "name": "9675 CLARENCE WAY ALICE 2469",
    "locID": "LOC000074684915",
    "tech": "SATELLITE",
    "upgrade": "NULL_NA",
    "gnaf_pid": "GANSW715797332",
    "ee": false,
    "tech_change_status": "Not Planned"
   }
  }
 ]
}