{
 "type": "FeatureCollection",
 "generated": "2025-06-19T16:03:51.763777",
 "suburb": "BEDGERABONG",
 "features": [
  {
   "type": "Feature",
   "geometry": {
    "type": "Point",
    "coordinates": [
     147.78336927,
     -33.39357147
    ]
   },
   "properties": {
    "name": "2143 BEDGERABONG ROAD BEDGERABONG 2871",
    "locID": "LOC000122349144",
    "tech": "NULL",
    "upgrade": "NULL_NA",
    "gnaf_pid": "GANSW718186007",
    "ee": true,
    "tech_change_status": "Not Planned"
   }
  },
  {
   "type": "Feature",
   "geometry": {
    "type": "Point",
    "coordinates": [
     147.76639017,
     -33.37886925
    ]
   },
   "properties": {
    "name": "2380 BEDGERABONG ROAD BEDGERABONG 2871",
    "locID": "LOC000115591054",
    "tech": "NULL",
    "upgrade": "NULL_NA",
    "gnaf_pid": "GANSW718186008",
    "ee": true,
    "tech_change_status": "Not Planned"
   }
  },
  {
   "type": "Feature",
   "geometry": {
    "type": "Point",
    "coordinates": [
     147.75521662,
     -33.38238794
    ]
   },
   "properties": {
    "name": "2487 BEDGERABONG ROAD BEDGERABONG 2871",
    "locID": "LOC000115591096",
    "tech": "SATELLITE",
    "upgrade": "NULL_NA",
    "gnaf_pid": "GANSW718186009",
    "ee": true,
    "tech_change_status": "Not Planned"
   }
  },
  {
   "type": "Feature",
   "geometry": {
    "type": "Point",
    "coordinates": [
     147.74106595,
     -33.38015909
    ]
   },
   "properties": {
    "name": "2627 BEDGERABONG ROAD BEDGERABONG 2871",
    "locID": "LOC000115591201",
    "tech": "NULL",
    "upgrade": "NULL_NA",
    "gnaf_pid": "GANSW718186010",
    "ee": true,
    "tech_change_status": "Not Planned"
   }
  },
  {
   "type": "Feature",
   "geometry": {
    "type": "Point",
    "coordinates": [
     147.74392569,
     -33.36227798
    ]
   },
   "properties": {
    "name": "2720 BEDGERABONG ROAD BEDGERABONG 2871",
    "locID": "LOC000115591240",
    "tech": "NULL",
    "upgrade": "NULL_NA",
    "gnaf_pid": "GANSW718186011",
    "ee": true,
    "tech_change_status": "Not Planned"
   }
  },
  {
   "type": "Feature",
   "geometry": {
    "type": "Point",
    "coordinates": [
     147.73472438,
     -33.36843038
    ]
   },
   "properties": {
    "name": "2736 BEDGERABONG ROAD BEDGERABONG 2871",
    "locID": "LOC000115591255",
    "tech": "NULL",
    "upgrade": "NULL_NA",
    "gnaf_pid": "GANSW718186012",
    "ee": true,
    "tech_change_status": "Not Planned"
   }
  },
  {
   "type": "Feature",
   "geometry": {
    "type": "Point",
    "coordinates": [
     147.7283149,
     -33.36603204
    ]
   },
   "properties": {
    "name": "2805 BEDGERABONG ROAD BEDGERABONG 2871",
    "locID": "LOC000115576270",
    "tech": "NULL",
    "upgrade": "NULL_NA",
    "gnaf_pid": "GANSW718186013",
    "ee": true,
    "tech_change_status": "Not Planned"
   }
  },
  {
   "type": "Feature",
   "geometry": {
    "type": "Point",
    "coordinates": [
     147.72896866,
     -33.36542237
    ]
   },
   "properties": {
    "name": "2808 BEDGERABONG ROAD BEDGERABONG 2871",
    "locID": "LOC000115576289",
    "tech": "NULL",
    "upgrade": "NULL_NA",
    "gnaf_pid": "GANSW718186014",
    "ee": true,
    "tech_change_status": "Not Planned"
   }
  },
  {
   "type": "Feature",
   "geometry": {
    "type": "Point",
    "coordinates": [
     147.70325297,
     -33.35875448
    ]
   },
   "properties": {
    "name": "3070 BEDGERABONG ROAD BEDGERABONG 2871",
    "locID": "LOC000115576408",
    "tech": "SATELLITE",
    "upgrade": "NULL_NA",
    "gnaf_pid": "GANSW718186015",
    "ee": true,
    "tech_change_status": "Not Planned"
   }
  },
  {
   "type": "Feature",
   "geometry": {
    "type": "Point",
    "coordinates": [
     147.70236071,
     -33.35899211
    ]
   },
   "properties": {
    "name": "3076 BEDGERABONG ROAD BEDGERABONG 2871",
    "locID": "LOC000115576412",
    "tech": "NULL",
    "upgrade": "NULL_NA",
    "gnaf_pid": "GANSW718186016",
    "ee": true,
    "tech_change_status": "Not Planned"
   }
  },
  {
   "type": "Feature",
   "geometry": {
    "type": "Point",
    "coordinates": [
     147.70021172,
     -33.35951074
    ]
   },
   "properties": {
    "name": "3096 BEDGERABONG ROAD BEDGERABONG 2871",
    "locID": "LOC000115576420",
    "tech": "NULL",
    "upgrade": "NULL_NA",
    "gnaf_pid": "GANSW718186017",
    "ee": true,
    "tech_change_status": "Not Planned"
   }
  },
  {
   "type": "Feature",
   "geometry": {
    "type": "Point",
    "coordinates": [
     147.697097,
     -33.36024829
    ]
   },
   "properties": {
    "name": "3126 BEDGERABONG ROAD BEDGERABONG 2871",
    "locID": "LOC000115576431",
    "tech": "NULL",
    "upgrade": "NULL_NA",
    "gnaf_pid": "GANSW718186018",
    "ee": true,
    "tech_change_status": "Not Planned"
   }
  },
  {
   "type": "Feature",
   "geometry": {
    "type": "Point",
    "coordinates": [
     147.68936122,
     -33.36634258
    ]
   },
   "properties": {
    "name": "3177 BEDGERABONG ROAD BEDGERABONG 2871",
    "locID": "LOC000115576454",
    "tech": "SATELLITE",
    "upgrade": "NULL_NA",
    "gnaf_pid": "GANSW718186020",
    "ee": true,
    "tech_change_status": "Not Planned"
   }
  },
  {
   "type": "Feature",
   "geometry": {
    "type": "Point",
    "coordinates": [
     147.68802503,
     -33.36190699
    ]
   },
   "properties": {
    "name": "3217 BEDGERABONG ROAD BEDGERABONG 2871",
    "locID": "LOC000115576465",
    "tech": "NULL",
    "upgrade": "NULL_NA",
    "gnaf_pid": "GANSW718186021",
    "ee": true,
    "tech_change_status": "Not Planned"
   }
  },
  {
   "type": "Feature",
   "geometry": {
    "type": "Point",
    "coordinates": [
     147.67961646,
     -33.36383913
    ]
   },
   "properties": {
    "name": "3301 BEDGERABONG ROAD BEDGERABONG 2871",
    "locID": "LOC000115576514",
    "tech": "NULL",
    "upgrade": "NULL_NA",
    "gnaf_pid": "GANSW718186022",
    "ee": true,
    "tech_change_status": "Not Planned"
   }
  },
  {
   "type": "Feature",
   "geometry": {
    "type": "Point",
    "coordinates": [
     147.67890809,
     -33.36337587
    ]
   },
   "properties": {
    "name": "3305 BEDGERABONG ROAD BEDGERABONG 2871",
    "locID": "LOC000115576522",
    "tech": "NULL",
    "upgrade": "NULL_NA",
    "gnaf_pid": "GANSW718186023",
    "ee": true,
    "tech_change_status": "Not Planned"
   }
  },
  {
   "type": "Feature",
   "geometry": {
    "type": "Point",
    "coordinates": [
     147.67829429,
     -33.36340719
    ]
   },
   "properties": {
    "name": "3309 BEDGERABONG ROAD BEDGERABONG 2871",
    "locID": "LOC000115576533",
    "tech": "NULL",
    "upgrade": "NULL_NA",
    "gnaf_pid": "GANSW718186024",
    "ee": true,
    "tech_change_status": "Not Planned"
   }
  },
  {
   "type": "Feature",
   "geometry": {
    "type": "Point",
    "coordinates": [
     147.67686002,
     -33.36217769
    ]
   },
   "properties": {
    "name": "3326 BEDGERABONG ROAD BEDGERABONG 2871",
    "locID": "LOC000115581307",
    "tech": "SATELLITE",
    "upgrade": "NULL_NA",
    "gnaf_pid": "GANSW718186025",
    "ee": true,
    "tech_change_status": "Not Planned"
   }
  },
  {
   "type": "Feature",
   "geometry": {
    "type": "Point",
    "coordinates": [
     147.67553286,
     -33.36323198
    ]
   },
   "properties": {
    "name": "3337 BEDGERABONG ROAD BEDGERABONG 2871",
    "locID": "LOC000115581311",
    "tech": "NULL",
    "upgrade": "NULL_NA",
    "gnaf_pid": "GANSW718186026",
    "ee": true,
    "tech_change_status": "Not Planned"
   }
  },
  {
   "type": "Feature",
   "geometry": {
    "type": "Point",
    "coordinates": [
     147.67505437,
     -33.36318823
    ]
   },
   "properties": {
    "name": "3339 BEDGERABONG ROAD BEDGERABONG 2871",
    "locID": "LOC000115581324",
    "tech": "SATELLITE",
    "upgrade": "NULL_NA",
    "gnaf_pid": "GANSW718186027",
    "ee": true,
    "tech_change_status": "Not Planned"
   }
  },
  {
   "type": "Feature",
   "geometry": {
    "type": "Point",
    "coordinates": [
     147.67464344,
     -33.36633511
    ]
   },
   "properties": {
    "name": "3351 BEDGERABONG ROAD BEDGERABONG 2871",
    "locID": "LOC000115581353",
    "tech": "NULL",
    "upgrade": "NULL_NA",
    "gnaf_pid": "GANSW718186028",
    "ee": true,
    "tech_change_status": "Not Planned"
   }
  },
  {
   "type": "Feature",
   "geometry": {
    "type": "Point",
    "coordinates": [
     147.66886292,
     -33.35815324
    ]
   },
   "properties": {
    "name": "3412 BEDGERABONG ROAD BEDGERABONG 2871",
    "locID": "LOC000115581376",
    "tech": "NULL",
    "upgrade": "NULL_NA",
    "gnaf_pid": "GANSW718186030",
    "ee": true,
    "tech_change_status": "Not Planned"
   }
  },
  {
   "type": "Feature",
   "geometry": {
    "type": "Point",
    "coordinates": [
     147.65812676,
     -33.35404814
    ]
   },
   "properties": {
    "name": "3533 BEDGERABONG ROAD BEDGERABONG 2871",
    "locID": "LOC000115581463",
    "tech": "NULL",
    "upgrade": "NULL_NA",
    "gnaf_pid": "GANSW718186031",
    "ee": true,
    "tech_change_status": "Not Planned"
   }
  },
  {
   "type": "Feature",
   "geometry": {
    "type": "Point",
    "coordinates": [
     147.63594418,
     -33.32285493
    ]
   },
   "properties": {
    "name": "3930 BEDGERABONG ROAD BEDGERABONG 2871",
    "locID": "LOC000115586302",
    "tech": "NULL",
    "upgrade": "NULL_NA",
    "gnaf_pid": "GANSW718186032",
    "ee": false,
    "tech_change_status": "Not Planned"
   }
  },
  {
   "type": "Feature",
   "geometry": {
    "type": "Point",
    "coordinates": [
     147.63396559,
     -33.32347565
    ]
   },
   "properties": {
    "name": "3943 BEDGERABONG ROAD BEDGERABONG 2871",
    "locID": "LOC000115586318",
    "tech": "NULL",
    "upgrade": "NULL_NA",
    "gnaf_pid": "GANSW718186033",
    "ee": false,
    "tech_change_status": "Not Planned"
   }
  },
  {
   "type": "Feature",
   "geometry": {
    "type": "Point",
    "coordinates": [
     147.62203205,
     -33.30543066
    ]
   },
   "properties": {
    "name": "4130 BEDGERABONG ROAD BEDGERABONG 2871",
    "locID": "LOC000142495471",
    "tech": "SATELLITE",
    "upgrade": "NULL_NA",
    "gnaf_pid": "GANSW718186034",
    "ee": false,
    "tech_change_status": "Not Planned"
   }
  },
  {
   "type": "Feature",
   "geometry": {
    "type": "Point",
    "coordinates": [
     147.57097709,
     -33.23005402
    ]
   },
   "properties": {
    "name": "5354 BEDGERABONG ROAD BEDGERABONG 2871",
    "locID": "LOC000115576551",
    "tech": "NULL",
    "upgrade": "NULL_NA",
    "gnaf_pid": "GANSW718186035",
    "ee": false,
    "tech_change_status": "Not Planned"
   }
  },
  {
   "type": "Feature",
   "geometry": {
    "type": "Point",
    "coordinates": [
     147.69544767,
     -33.36308828
    ]
   },
   "properties": {
    "name": "21 COPELAND PARADE BEDGERABONG 2871",
    "locID": "LOC000115586259",
    "tech": "SATELLITE",
    "upgrade": "NULL_NA",
    "gnaf_pid": "GANSW718190330",
    "ee": true,
    "tech_change_status": "Not Planned"
   }
  },
  {
   "type": "Feature",
   "geometry": {
    "type": "Point",
    "coordinates": [
     147.69260539,
     -33.36391002
    ]
   },
   "properties": {
    "name": "26 COPELAND PARADE BEDGERABONG 2871",
    "locID": "LOC000122354568",
    "tech": "NULL",
    "upgrade": "NULL_NA",
    "gnaf_pid": "GANSW718190331",
    "ee": true,
    "tech_change_status": "Not Planned"
   }
  },
  {
   "type": "Feature",
   "geometry": {
    "type": "Point",
    "coordinates": [
     147.69199823,
     -33.36530104
    ]
   },
   "properties": {
    "name": "31 COPELAND PARADE BEDGERABONG 2871",
    "locID": "LOC000122363423",
    "tech": "NULL",
    "upgrade": "NULL_NA",
    "gnaf_pid": "GANSW718190332",
    "ee": true,
    "tech_change_status": "Not Planned"
   }
  },
  {
   "type": "Feature",
   "geometry": {
    "type": "Point",
    "coordinates": [
     147.71656016,
     -33.34999408
    ]
   },
   "properties": {
    "name": "73 DARCYS LANE BEDGERABONG 2871",
    "locID": "LOC000115582835",
    "tech": "SATELLITE",
    "upgrade": "NULL_NA",
    "gnaf_pid": "GANSW718191089",
    "ee": true,
    "tech_change_status": "Not Planned"
   }
  },
  {
   "type": "Feature",
   "geometry": {
    "type": "Point",
    "coordinates": [
     147.74212549,
     -33.39377973
    ]
   },
   "properties": {
    "name": "170 GRUDGERY LANE BEDGERABONG 2871",
    "locID": "LOC000115581191",
    "tech": "NULL",
    "upgrade": "NULL_NA",
    "gnaf_pid": "GANSW718195314",
    "ee": true,
    "tech_change_status": "Not Planned"
   }
  },
  {
   "type": "Feature",
   "geometry": {
    "type": "Point",
    "coordinates": [
     147.66895676,
     -33.36809139
    ]
   },
   "properties": {
    "name": "122 HODGES ROAD BEDGERABONG 2871",
    "locID": "LOC000115576010",
    "tech": "NULL",
    "upgrade": "NULL_NA",
    "gnaf_pid": "GANSW718196595",
    "ee": true,
    "tech_change_status": "Not Planned"
   }
  },
  {
   "type": "Feature",
   "geometry": {
    "type": "Point",
    "coordinates": [
     147.66289079,
     -33.3607951
    ]
   },
   "properties": {
    "name": "197 HODGES ROAD BEDGERABONG 2871",
    "locID": "LOC000115586082",
    "tech": "NULL",
    "upgrade": "NULL_NA",
    "gnaf_pid": "GANSW718196596",
    "ee": true,
    "tech_change_status": "Not Planned"
   }
  },
  {
   "type": "Feature",
   "geometry": {
    "type": "Point",
    "coordinates": [
     147.65882785,
     -33.37109739
    ]
   },
   "properties": {
    "name": "64 HODGES ROAD BEDGERABONG 2871",
    "locID": "LOC000115589224",
    "tech": "NULL",
    "upgrade": "NULL_NA",
    "gnaf_pid": "GANSW718196597",
    "ee": true,
    "tech_change_status": "Not Planned"
   }
  },
  {
   "type": "Feature",
   "geometry": {
    "type": "Point",
    "coordinates": [
     147.73065123,
     -33.35306792
    ]
   },
   "properties": {
    "name": "153 KALOOLA LANE BEDGERABONG 2871",
    "locID": "LOC000115581115",
    "tech": "SATELLITE",
    "upgrade": "NULL_NA",
    "gnaf_pid": "GANSW718197543",
    "ee": true,
    "tech_change_status": "Not Planned"
   }
  },
  {
   "type": "Feature",
   "geometry": {
    "type": "Point",
    "coordinates": [
     147.7344298,
     -33.34718536
    ]
   },
   "properties": {
    "name": "206 KALOOLA LANE BEDGERABONG 2871",
    "locID": "LOC000115586228",
    "tech": "NULL",
    "upgrade": "NULL_NA",
    "gnaf_pid": "GANSW718197544",
    "ee": true,
    "tech_change_status": "Not Planned"
   }
  },
  {
   "type": "Feature",
   "geometry": {
    "type": "Point",
    "coordinates": [
     147.74433192,
     -33.3468745
    ]
   },
   "properties": {
    "name": "222 KELVIN LANE BEDGERABONG 2871",
    "locID": "LOC000115590992",
    "tech": "SATELLITE",
    "upgrade": "NULL_NA",
    "gnaf_pid": "GANSW718197759",
    "ee": true,
    "tech_change_status": "Not Planned"
   }
  },
  {
   "type": "Feature",
   "geometry": {
    "type": "Point",
    "coordinates": [
     147.72679906,
     -33.34989901
    ]
   },
   "properties": {
    "name": "361 KELVIN LANE BEDGERABONG 2871",
    "locID": "LOC000115581503",
    "tech": "NULL",
    "upgrade": "NULL_NA",
    "gnaf_pid": "GANSW718197760",
    "ee": true,
    "tech_change_status": "Not Planned"
   }
  },
  {
   "type": "Feature",
   "geometry": {
    "type": "Point",
    "coordinates": [
     147.58298936,
     -33.27566215
    ]
   },
   "properties": {
    "name": "131 MONWONGA ROAD BEDGERABONG 2871",
    "locID": "LOC000115576099",
    "tech": "NULL",
    "upgrade": "NULL_NA",
    "gnaf_pid": "GANSW718200744",
    "ee": false,
    "tech_change_status": "Not Planned"
   }
  },
  {
   "type": "Feature",
   "geometry": {
    "type": "Point",
    "coordinates": [
     147.59239226,
     -33.27442991
    ]
   },
   "properties": {
    "name": "227 MONWONGA ROAD BEDGERABONG 2871",
    "locID": "LOC000142907989",
    "tech": "SATELLITE",
    "upgrade": "NULL_NA",
    "gnaf_pid": "GANSW718200745",
    "ee": false,
    "tech_change_status": "Not Planned"
   }
  },
  {
   "type": "Feature",
   "geometry": {
    "type": "Point",
    "coordinates": [
     147.59624637,
     -33.27613623
    ]
   },
   "properties": {
    "name": "262 MONWONGA ROAD BEDGERABONG 2871",
    "locID": "LOC000115591199",
    "tech": "NULL",
    "upgrade": "NULL_NA",
    "gnaf_pid": "GANSW718200746",
    "ee": false,
    "tech_change_status": "Not Planned"
   }
  },
  {
   "type": "Feature",
   "geometry": {
    "type": "Point",
    "coordinates": [
     147.61050716,
     -33.28493002
    ]
   },
   "properties": {
    "name": "344 MONWONGA ROAD BEDGERABONG 2871",
    "locID": "LOC000115581400",
    "tech": "NULL",
    "upgrade": "NULL_NA",
    "gnaf_pid": "GANSW718200747",
    "ee": false,
    "tech_change_status": "Not Planned"
   }
  },
  {
   "type": "Feature",
   "geometry": {
    "type": "Point",
    "coordinates": [
     147.61328511,
     -33.27773426
    ]
   },
   "properties": {
    "name": "746 MONWONGA ROAD BEDGERABONG 2871",
    "locID": "LOC000115582900",
    "tech": "NULL",
    "upgrade": "NULL_NA",
    "gnaf_pid": "GANSW718200748",
    "ee": false,
    "tech_change_status": "Not Planned"
   }
  },
  {
   "type": "Feature",
   "geometry": {
    "type": "Point",
    "coordinates": [
     147.70164823,
     -33.35827849
    ]
   },
   "properties": {
    "name": "16 NOAKES ROAD BEDGERABONG 2871",
    "locID": "LOC000115581143",
    "tech": "SATELLITE",
    "upgrade": "NULL_NA",
    "gnaf_pid": "GANSW718201638",
    "ee": true,
    "tech_change_status": "Not Planned"
   }
  },
  {
   "type": "Feature",
   "geometry": {
    "type": "Point",
    "coordinates": [
     147.70168498,
     -33.3578991
    ]
   },
   "properties": {
    "name": "20 NOAKES ROAD BEDGERABONG 2871",
    "locID": "LOC000115586179",
    "tech": "SATELLITE",
    "upgrade": "NULL_NA",
    "gnaf_pid": "GANSW718201639",
    "ee": true,
    "tech_change_status": "Not Planned"
   }
  },
  {
   "type": "Feature",
   "geometry": {
    "type": "Point",
    "coordinates": [
     147.70056514,
     -33.357548
    ]
   },
   "properties": {
    "name": "25 NOAKES ROAD BEDGERABONG 2871",
    "locID": "LOC000115591110",
    "tech": "NULL",
    "upgrade": "NULL_NA",
    "gnaf_pid": "GANSW718201640",
    "ee": true,
    "tech_change_status": "Not Planned"
   }
  },
  {
   "type": "Feature",
   "geometry": {
    "type": "Point",
    "coordinates": [
     147.70208463,
     -33.35545107
    ]
   },
   "properties": {
    "name": "48 NOAKES ROAD BEDGERABONG 2871",
    "locID": "LOC000115591361",
    "tech": "NULL",
    "upgrade": "NULL_NA",
    "gnaf_pid": "GANSW718201641",
    "ee": true,
    "tech_change_status": "Not Planned"
   }
  },
  {
   "type": "Feature",
   "geometry": {
    "type": "Point",
    "coordinates": [
     147.70889317,
     -33.30603033
    ]
   },
   "properties": {
    "name": "601 NOAKES ROAD BEDGERABONG 2871",
    "locID": "LOC000115576790",
    "tech": "NULL",
    "upgrade": "NULL_NA",
    "gnaf_pid": "GANSW718201642",
    "ee": true,
    "tech_change_status": "Not Planned"
   }
  },
  {
   "type": "Feature",
   "geometry": {
    "type": "Point",
    "coordinates": [
     147.70053605,
     -33.35882072
    ]
   },
   "properties": {
    "name": "9 NOAKES ROAD BEDGERABONG 2871",
    "locID": "LOC000115590531",
    "tech": "NULL",
    "upgrade": "NULL_NA",
    "gnaf_pid": "GANSW718201643",
    "ee": true,
    "tech_change_status": "Not Planned"
   }
  },
  {
   "type": "Feature",
   "geometry": {
    "type": "Point",
    "coordinates": [
     147.69898742,
     -33.35857078
    ]
   },
   "properties": {
    "name": "18 RODGERS STREET BEDGERABONG 2871",
    "locID": "LOC000115581266",
    "tech": "NULL",
    "upgrade": "NULL_NA",
    "gnaf_pid": "GANSW718204971",
    "ee": true,
    "tech_change_status": "Not Planned"
   }
  },
  {
   "type": "Feature",
   "geometry": {
    "type": "Point",
    "coordinates": [
     147.69921492,
     -33.35804117
    ]
   },
   "properties": {
    "name": "24 RODGERS STREET BEDGERABONG 2871",
    "locID": "LOC000115591065",
    "tech": "NULL",
    "upgrade": "NULL_NA",
    "gnaf_pid": "GANSW718204972",
    "ee": true,
    "tech_change_status": "Not Planned"
   }
  },
  {
   "type": "Feature",
   "geometry": {
    "type": "Point",
    "coordinates": [
     147.69853728,
     -33.35645922
    ]
   },
   "properties": {
    "name": "39 RODGERS STREET BEDGERABONG 2871",
    "locID": "LOC000115581588",
    "tech": "SATELLITE",
    "upgrade": "NULL_NA",
    "gnaf_pid": "GANSW718204973",
    "ee": true,
    "tech_change_status": "Not Planned"
   }
  },
  {
   "type": "Feature",
   "geometry": {
    "type": "Point",
    "coordinates": [
     147.69996613,
     -33.35584989
    ]
   },
   "properties": {
    "name": "62 RODGERS STREET BEDGERABONG 2871",
    "locID": "LOC000115585682",
    "tech": "NULL",
    "upgrade": "NULL_NA",
    "gnaf_pid": "GANSW718204974",
    "ee": true,
    "tech_change_status": "Not Planned"
   }
  },
  {
   "type": "Feature",
   "geometry": {
    "type": "Point",
    "coordinates": [
     147.70681659,
     -33.37673637
    ]
   },
   "properties": {
    "name": "89 ROSELEIGH LANE BEDGERABONG 2871",
    "locID": "LOC000115590508",
    "tech": "SATELLITE",
    "upgrade": "NULL_NA",
    "gnaf_pid": "GANSW718205141",
    "ee": true,
    "tech_change_status": "Not Planned"
   }
  },
  {
   "type": "Feature",
   "geometry": {
    "type": "Point",
    "coordinates": [
     147.65798544,
     -33.31791359
    ]
   },
   "properties": {
    "name": "228 SLIMBRIDGE ROAD BEDGERABONG 2871",
    "locID": "LOC000115591031",
    "tech": "NULL",
    "upgrade": "NULL_NA",
    "gnaf_pid": "GANSW718206029",
    "ee": false,
    "tech_change_status": "Not Planned"
   }
  },
  {
   "type": "Feature",
   "geometry": {
    "type": "Point",
    "coordinates": [
     147.65657555,
     -33.30328485
    ]
   },
   "properties": {
    "name": "486 SLIMBRIDGE ROAD BEDGERABONG 2871",
    "locID": "LOC000115591405",
    "tech": "NULL",
    "upgrade": "NULL_NA",
    "gnaf_pid": "GANSW718206030",
    "ee": false,
    "tech_change_status": "Not Planned"
   }
  },
  {
   "type": "Feature",
   "geometry": {
    "type": "Point",
    "coordinates": [
     147.65619937,
     -33.29321317
    ]
   },
   "properties": {
    "name": "495 SLIMBRIDGE ROAD BEDGERABONG 2871",
    "locID": "LOC000115591433",
    "tech": "NULL",
    "upgrade": "NULL_NA",
    "gnaf_pid": "GANSW718206031",
    "ee": false,
    "tech_change_status": "Not Planned"
   }
  },
  {
   "type": "Feature",
   "geometry": {
    "type": "Point",
    "coordinates": [
     147.68244254,
     -33.33957583
    ]
   },
   "properties": {
    "name": "229 WATTLE BOWER LANE BEDGERABONG 2871",
    "locID": "LOC000115591049",
    "tech": "SATELLITE",
    "upgrade": "NULL_NA",
    "gnaf_pid": "GANSW718209386",
    "ee": true,
    "tech_change_status": "Not Planned"
   }
  },
  {
   "type": "Feature",
   "geometry": {
    "type": "Point",
    "coordinates": [
     147.77820685,
     -33.37787068
    ]
   },
   "properties": {
    "name": "2250 BEDGERABONG ROAD BEDGERABONG 2871",
    "locID": "LOC000115591012",
    "tech": "SATELLITE",
    "upgrade": "NULL_NA",
    "gnaf_pid": "GANSW718223634",
    "ee": true,
    "tech_change_status": "Not Planned"
   }
  },
  {
   "type": "Feature",
   "geometry": {
    "type": "Point",
    "coordinates": [
     147.73083811,
     -33.36702024
    ]
   },
   "properties": {
    "name": "2780 BEDGERABONG ROAD BEDGERABONG 2871",
    "locID": "LOC100078081584",
    "tech": "NULL",
    "upgrade": "NULL_NA",
    "gnaf_pid": "GANSW718237204",
    "ee": true,
    "tech_change_status": "Not Planned"
   }
  },
  {
   "type": "Feature",
   "geometry": {
    "type": "Point",
    "coordinates": [
     147.69594663,
     -33.37241174
    ]
   },
   "properties": {
    "name": "3145 BEDGERABONG ROAD BEDGERABONG 2871",
    "locID": "LOC000148081027",
    "tech": "SATELLITE",
    "upgrade": "NULL_NA",
    "gnaf_pid": "GANSW718641849",
    "ee": true,
    "tech_change_status": "Not Planned"
   }
  },
  {
   "type": "Feature",
   "geometry": {
    "type": "Point",
    "coordinates": [
     147.77683828,
     -33.30303363
    ]
   },
   "properties": {
    "name": "904 CORRIDGERY ROAD BEDGERABONG 2871",
    "locID": "LOC100078080902",
    "tech": "NULL",
    "upgrade": "NULL_NA",
    "gnaf_pid": "GANSW719804512",
    "ee": true,
    "tech_change_status": "Not Planned"
   }
  },
  {
   "type": "Feature",
   "geometry": {
    "type": "Point",
    "coordinates": [
     147.80098007,
     -33.30435959
    ]
   },
   "properties": {
    "name": "52 WOODLAWN LANE BEDGERABONG 2871",
    "locID": "LOC000115065456",
    "tech": "SATELLITE",
    "upgrade": "NULL_NA",
    "gnaf_pid": "GANSW719805645",
    "ee": true,
    "tech_change_status": "Not Planned"
   }
  },
  {
   "type": "Feature",
   "geometry": {
    "type": "Point",
    "coordinates": [
     147.80910313,
     -33.28863274
    ]
   },
   "properties": {
    "name": "73 CRANBROOK LANE BEDGERABONG 2871",
    "locID": "LOC000006405417",
    "tech": "SATELLITE",
    "upgrade": "NULL_NA",
    "gnaf_pid": "GANSW719806123",
    "ee": true,
    "tech_change_status": "Not Planned"
   }
  },
  {
   "type": "Feature",
   "geometry": {
    "type": "Point",
    "coordinates": [
     147.76928746,
     -33.30392888
    ]
   },
   "properties": {
    "name": "2027 YARRABANDAI ROAD BEDGERABONG 2871",
    "locID": "LOC000021483836",
    "tech": "SATELLITE",
    "upgrade": "NULL_NA",
    "gnaf_pid": "GANSW719807364",
    "ee": true,
    "tech_change_status": "Not Planned"
   }
  },
  {
   "type": "Feature",
   "geometry": {
    "type": "Point",
    "coordinates": [
     147.70513403,
     -33.29842073
    ]
   },
   "properties": {
    "name": "681 NOAKES ROAD BEDGERABONG 2871",
    "locID": "LOC000096045148",
    "tech": "NULL",
    "upgrade": "NULL_NA",
    "gnaf_pid": "GANSW719808465",
    "ee": true,
    "tech_change_status": "Not Planned"
   }
  },
  {
   "type": "Feature",
   "geometry": {
    "type": "Point",
    "coordinates": [
     147.7288274,
     -33.30388212
    ]
   },
   "properties": {
    "name": "2375 YARRABANDAI ROAD BEDGERABONG 2871",
    "locID": "LOC000013255834",
    "tech": "NULL",
    "upgrade": "NULL_NA",
    "gnaf_pid": "GANSW719809309",
    "ee": true,
    "tech_change_status": "Not Planned"
   }
  },
  {
   "type": "Feature",
   "geometry": {
    "type": "Point",
    "coordinates": [
     147.80517677,
     -33.31195513
    ]
   },
   "properties": {
    "name": "184 WOODLAWN LANE BEDGERABONG 2871",
    "locID": "LOC000114050653",
    "tech": "NULL",
    "upgrade": "NULL_NA",
    "gnaf_pid": "GANSW719809681",
    "ee": true,
    "tech_change_status": "Not Planned"
   }
  },
  {
   "type": "Feature",
   "geometry": {
    "type": "Point",
    "coordinates": [
     147.68508633,
     -33.25795968
    ]
   },
   "properties": {
    "name": "1108 SLIMBRIDGE ROAD BEDGERABONG 2871",
    "locID": "LOC000059663811",
    "tech": "SATELLITE",
    "upgrade": "NULL_NA",
    "gnaf_pid": "GANSW719811214",
    "ee": true,
    "tech_change_status": "Not Planned"
   }
  },
  {
   "type": "Feature",
   "geometry": {
    "type": "Point",
    "coordinates": [
     147.80889466,
     -33.31113287
    ]
   },
   "properties": {
    "name": "152 WOODLAWN LANE BEDGERABONG 2871",
    "locID": "LOC000113238438",
    "tech": "SATELLITE",
    "upgrade": "NULL_NA",
    "gnaf_pid": "GANSW719812967",
    "ee": true,
    "tech_change_status": "Not Planned"
   }
  },
  {
   "type": "Feature",
   "geometry": {
    "type": "Point",
    "coordinates": [
     147.64402576,
     -33.23203466
    ]
   },
   "properties": {
    "name": "3517 YARRABANDAI ROAD BEDGERABONG 2871",
    "locID": "LOC000049617830",
    "tech": "NULL",
    "upgrade": "NULL_NA",
    "gnaf_pid": "GANSW719814484",
    "ee": false,
    "tech_change_status": "Not Planned"
   }
  },
  {
   "type": "Feature",
   "geometry": {
    "type": "Point",
    "coordinates": [
     147.68390808,
     -33.28166375
    ]
   },
   "properties": {
    "name": "2835 YARRABANDAI ROAD BEDGERABONG 2871",
    "locID": "LOC000054962030",
    "tech": "NULL",
    "upgrade": "NULL_NA",
    "gnaf_pid": "GANSW719814781",
    "ee": true,
    "tech_change_status": "Not Planned"
   }
  },
  {
   "type": "Feature",
   "geometry": {
    "type": "Point",
    "coordinates": [
     147.71370362,
     -33.35641289
    ]
   },
   "properties": {
    "name": "19 DARCYS LANE BEDGERABONG 2871",
    "locID": "LOC100086123154",
    "tech": "NULL",
    "upgrade": "NULL_NA",
    "gnaf_pid": "GANSW720901361",
    "ee": true,
    "tech_change_status": "Not Planned"
   }
  },
  {
   "type": "Feature",
   "geometry": {
    "type": "Point",
    "coordinates": [
     147.67487804,
     -33.23903721
    ]
   },
   "properties": {
    "name": "178 SLIMBRIDGE ROAD BEDGERABONG 2871",
    "locID": "LOC000115591433",
    "tech": "NULL",
    "upgrade": "NULL_NA",
    "gnaf_pid": "GANSW721236916",
    "ee": false,
    "tech_change_status": "Not Planned"
   }
  }
 ]
}