{
 "type": "FeatureCollection",
 "generated": "2025-06-20T02:54:23.727490",
 "suburb": "CHILCOTTS GRASS",
 "features": [
  {
   "type": "Feature",
   "geometry": {
    "type": "Point",
    "coordinates": [
     153.33735904,
     -28.83222116
    ]
   },
   "properties": {
    "name": "1 GEORGE DRIVE CHILCOTTS GRASS 2480",
    "locID": "LOC000103013791",
    "tech": "FTTN",
    "upgrade": "FTTP_NA",
    "gnaf_pid": "GANSW704395343",
    "ee": true,
    "tech_change_status": "Committed",
    "program_type": "On-Demand N2P SDU/MDU Simple",
    "target_eligibility_quarter": "Sep 2025"
   }
  },
  {
   "type": "Feature",
   "geometry": {
    "type": "Point",
    "coordinates": [
     153.33741189,
     -28.83133816
    ]
   },
   "properties": {
    "name": "2 GEORGE DRIVE CHILCOTTS GRASS 2480",
    "locID": "LOC000044261797",
    "tech": "FTTN",
    "upgrade": "FTTP_NA",
    "gnaf_pid": "GANSW704395344",
    "ee": true,
    "tech_change_status": "Committed",
    "program_type": "On-Demand N2P SDU/MDU Simple",
    "target_eligibility_quarter": "Sep 2025"
   }
  },
  {
   "type": "Feature",
   "geometry": {
    "type": "Point",
    "coordinates": [
     153.3419767,
     -28.82919915
    ]
   },
   "properties": {
    "name": "5 GEORGE DRIVE CHILCOTTS GRASS 2480",
    "locID": "LOC000096804322",
    "tech": "FTTN",
    "upgrade": "FTTP_NA",
    "gnaf_pid": "GANSW704395345",
    "ee": true,
    "tech_change_status": "Committed",
    "program_type": "On-Demand N2P SDU/MDU Simple",
    "target_eligibility_quarter": "Sep 2025"
   }
  },
  {
   "type": "Feature",
   "geometry": {
    "type": "Point",
    "coordinates": [
     153.33834066,
     -28.83091904
    ]
   },
   "properties": {
    "name": "6 GEORGE DRIVE CHILCOTTS GRASS 2480",
    "locID": "LOC000091680152",
    "tech": "FTTN",
    "upgrade": "FTTP_NA",
    "gnaf_pid": "GANSW704395346",
    "ee": true,
    "tech_change_status": "Committed",
    "program_type": "On-Demand N2P SDU/MDU Simple",
    "target_eligibility_quarter": "Sep 2025"
   }
  },
  {
   "type": "Feature",
   "geometry": {
    "type": "Point",
    "coordinates": [
     153.33507536,
     -28.83098842
    ]
   },
   "properties": {
    "name": "1 MANOR CRESCENT CHILCOTTS GRASS 2480",
    "locID": "LOC000021298256",
    "tech": "FTTN",
    "upgrade": "FTTP",
    "gnaf_pid": "GANSW704395347",
    "ee": true,
    "tech_change_status": "Eligible to Order",
    "program_type": "On-Demand N2P SDU/MDU Simple",
    "target_eligibility_quarter": "NA"
   }
  },
  {
   "type": "Feature",
   "geometry": {
    "type": "Point",
    "coordinates": [
     153.33466944,
     -28.83138957
    ]
   },
   "properties": {
    "name": "3 MANOR CRESCENT CHILCOTTS GRASS 2480",
    "locID": "LOC000017197813",
    "tech": "FTTN",
    "upgrade": "FTTP_SA",
    "gnaf_pid": "GANSW704395348",
    "ee": true,
    "tech_change_status": "Eligible to Order",
    "program_type": "On-Demand N2P SDU/MDU Simple",
    "target_eligibility_quarter": "NA"
   }
  },
  {
   "type": "Feature",
   "geometry": {
    "type": "Point",
    "coordinates": [
     153.33556364,
     -28.83220796
    ]
   },
   "properties": {
    "name": "4 MANOR CRESCENT CHILCOTTS GRASS 2480",
    "locID": "LOC000103587836",
    "tech": "FTTN",
    "upgrade": "FTTP_SA",
    "gnaf_pid": "GANSW704395349",
    "ee": true,
    "tech_change_status": "Eligible to Order",
    "program_type": "On-Demand N2P SDU/MDU Simple",
    "target_eligibility_quarter": "NA"
   }
  },
  {
   "type": "Feature",
   "geometry": {
    "type": "Point",
    "coordinates": [
     153.33456737,
     -28.8317792
    ]
   },
   "properties": {
    "name": "5 MANOR CRESCENT CHILCOTTS GRASS 2480",
    "locID": "LOC000006431732",
    "tech": "FTTP",
    "upgrade": "NULL_NA",
    "gnaf_pid": "GANSW704395350",
    "ee": true,
    "program_type": "On-Demand N2P SDU/MDU Simple",
    "target_eligibility_quarter": "NA"
   }
  },
  {
   "type": "Feature",
   "geometry": {
    "type": "Point",
    "coordinates": [
     153.33535499,
     -28.832624
    ]
   },
   "properties": {
    "name": "6 MANOR CRESCENT CHILCOTTS GRASS 2480",
    "locID": "LOC000078456616",
    "tech": "FTTN",
    "upgrade": "FTTP",
    "gnaf_pid": "GANSW704395351",
    "ee": true,
    "tech_change_status": "Eligible to Order",
    "program_type": "On-Demand N2P SDU/MDU Simple",
    "target_eligibility_quarter": "NA"
   }
  },
  {
   "type": "Feature",
   "geometry": {
    "type": "Point",
    "coordinates": [
     153.33692451,
     -28.83587499
    ]
   },
   "properties": {
    "name": "1 MCINTOSH ROAD CHILCOTTS GRASS 2480",
    "locID": "LOC000097859970",
    "tech": "FTTN",
    "upgrade": "FTTP_NA",
    "gnaf_pid": "GANSW704395352",
    "ee": true,
    "tech_change_status": "Committed",
    "program_type": "On-Demand N2P SDU/MDU Simple",
    "target_eligibility_quarter": "Sep 2025"
   }
  },
  {
   "type": "Feature",
   "geometry": {
    "type": "Point",
    "coordinates": [
     153.33611966,
     -28.83287588
    ]
   },
   "properties": {
    "name": "10 MCINTOSH ROAD CHILCOTTS GRASS 2480",
    "locID": "LOC000012239537",
    "tech": "FTTN",
    "upgrade": "FTTP_SA",
    "gnaf_pid": "GANSW704395353",
    "ee": true,
    "tech_change_status": "Eligible to Order",
    "program_type": "On-Demand N2P SDU/MDU Simple",
    "target_eligibility_quarter": "NA"
   }
  },
  {
   "type": "Feature",
   "geometry": {
    "type": "Point",
    "coordinates": [
     153.33724389,
     -28.83299363
    ]
   },
   "properties": {
    "name": "11 MCINTOSH ROAD CHILCOTTS GRASS 2480",
    "locID": "LOC000028838465",
    "tech": "FTTN",
    "upgrade": "FTTP",
    "gnaf_pid": "GANSW704395354",
    "ee": true,
    "tech_change_status": "Eligible to Order",
    "program_type": "On-Demand N2P SDU/MDU Simple",
    "target_eligibility_quarter": "NA"
   }
  },
  {
   "type": "Feature",
   "geometry": {
    "type": "Point",
    "coordinates": [
     153.33638219,
     -28.83249946
    ]
   },
   "properties": {
    "name": "12 MCINTOSH ROAD CHILCOTTS GRASS 2480",
    "locID": "LOC000048415873",
    "tech": "FTTN",
    "upgrade": "FTTP_SA",
    "gnaf_pid": "GANSW704395355",
    "ee": true,
    "tech_change_status": "Eligible to Order",
    "program_type": "On-Demand N2P SDU/MDU Simple",
    "target_eligibility_quarter": "NA"
   }
  },
  {
   "type": "Feature",
   "geometry": {
    "type": "Point",
    "coordinates": [
     153.33689525,
     -28.830892
    ]
   },
   "properties": {
    "name": "13 MCINTOSH ROAD CHILCOTTS GRASS 2480",
    "locID": "LOC000075886910",
    "tech": "FTTN",
    "upgrade": "FTTP_NA",
    "gnaf_pid": "GANSW704395356",
    "ee": true,
    "tech_change_status": "Committed",
    "program_type": "On-Demand N2P SDU/MDU Simple",
    "target_eligibility_quarter": "Sep 2025"
   }
  },
  {
   "type": "Feature",
   "geometry": {
    "type": "Point",
    "coordinates": [
     153.33637367,
     -28.83202997
    ]
   },
   "properties": {
    "name": "14 MCINTOSH ROAD CHILCOTTS GRASS 2480",
    "locID": "LOC000034778479",
    "tech": "FTTN",
    "upgrade": "FTTP_SA",
    "gnaf_pid": "GANSW704395357",
    "ee": true,
    "tech_change_status": "Eligible to Order",
    "program_type": "On-Demand N2P SDU/MDU Simple",
    "target_eligibility_quarter": "NA"
   }
  },
  {
   "type": "Feature",
   "geometry": {
    "type": "Point",
    "coordinates": [
     153.33646568,
     -28.83149086
    ]
   },
   "properties": {
    "name": "16 MCINTOSH ROAD CHILCOTTS GRASS 2480",
    "locID": "LOC000098314033",
    "tech": "FTTN",
    "upgrade": "FTTP_SA",
    "gnaf_pid": "GANSW704395358",
    "ee": true,
    "tech_change_status": "Eligible to Order",
    "program_type": "On-Demand N2P SDU/MDU Simple",
    "target_eligibility_quarter": "NA"
   }
  },
  {
   "type": "Feature",
   "geometry": {
    "type": "Point",
    "coordinates": [
     153.33403028,
     -28.833334
    ]
   },
   "properties": {
    "name": "14 PAMELA DRIVE CHILCOTTS GRASS 2480",
    "locID": "LOC000074550559",
    "tech": "FTTP",
    "upgrade": "FTTP_NA",
    "gnaf_pid": "GANSW704395361",
    "ee": true,
    "tech_change_status": "Previous Tech Disconnected",
    "program_type": "On-Demand N2P SDU/MDU Simple",
    "target_eligibility_quarter": "NA"
   }
  },
  {
   "type": "Feature",
   "geometry": {
    "type": "Point",
    "coordinates": [
     153.33381598,
     -28.83301531
    ]
   },
   "properties": {
    "name": "16 PAMELA DRIVE CHILCOTTS GRASS 2480",
    "locID": "LOC000046163654",
    "tech": "FTTN",
    "upgrade": "FTTP",
    "gnaf_pid": "GANSW704395362",
    "ee": true,
    "tech_change_status": "Eligible to Order",
    "program_type": "On-Demand N2P SDU/MDU Simple",
    "target_eligibility_quarter": "NA"
   }
  },
  {
   "type": "Feature",
   "geometry": {
    "type": "Point",
    "coordinates": [
     153.33362985,
     -28.83269479
    ]
   },
   "properties": {
    "name": "18 PAMELA DRIVE CHILCOTTS GRASS 2480",
    "locID": "LOC000047419950",
    "tech": "FTTN",
    "upgrade": "FTTP_SA",
    "gnaf_pid": "GANSW704395363",
    "ee": true,
    "tech_change_status": "Eligible to Order",
    "program_type": "On-Demand N2P SDU/MDU Simple",
    "target_eligibility_quarter": "NA"
   }
  },
  {
   "type": "Feature",
   "geometry": {
    "type": "Point",
    "coordinates": [
     153.33594005,
     -28.83471828
    ]
   },
   "properties": {
    "name": "2 PAMELA DRIVE CHILCOTTS GRASS 2480",
    "locID": "LOC000099745721",
    "tech": "FTTN",
    "upgrade": "FTTP_NA",
    "gnaf_pid": "GANSW704395364",
    "ee": true,
    "tech_change_status": "Committed",
    "program_type": "On-Demand N2P SDU/MDU Simple",
    "target_eligibility_quarter": "Sep 2025"
   }
  },
  {
   "type": "Feature",
   "geometry": {
    "type": "Point",
    "coordinates": [
     153.3357732,
     -28.8337
    ]
   },
   "properties": {
    "name": "3 PAMELA DRIVE CHILCOTTS GRASS 2480",
    "locID": "LOC000012237831",
    "tech": "FTTN",
    "upgrade": "FTTP_NA",
    "gnaf_pid": "GANSW704395365",
    "ee": true,
    "tech_change_status": "Committed",
    "program_type": "On-Demand N2P SDU/MDU Simple",
    "target_eligibility_quarter": "Sep 2025"
   }
  },
  {
   "type": "Feature",
   "geometry": {
    "type": "Point",
    "coordinates": [
     153.33536454,
     -28.8347121
    ]
   },
   "properties": {
    "name": "4 PAMELA DRIVE CHILCOTTS GRASS 2480",
    "locID": "LOC000013131044",
    "tech": "FTTN",
    "upgrade": "FTTP_NA",
    "gnaf_pid": "GANSW704395366",
    "ee": true,
    "tech_change_status": "Committed",
    "program_type": "On-Demand N2P SDU/MDU Simple",
    "target_eligibility_quarter": "Sep 2025"
   }
  },
  {
   "type": "Feature",
   "geometry": {
    "type": "Point",
    "coordinates": [
     153.33532456,
     -28.83351292
    ]
   },
   "properties": {
    "name": "5 PAMELA DRIVE CHILCOTTS GRASS 2480",
    "locID": "LOC000043210471",
    "tech": "FTTN",
    "upgrade": "FTTP_SA",
    "gnaf_pid": "GANSW704395367",
    "ee": true,
    "tech_change_status": "Eligible to Order",
    "program_type": "On-Demand N2P SDU/MDU Simple",
    "target_eligibility_quarter": "NA"
   }
  },
  {
   "type": "Feature",
   "geometry": {
    "type": "Point",
    "coordinates": [
     153.33506417,
     -28.83455278
    ]
   },
   "properties": {
    "name": "6 PAMELA DRIVE CHILCOTTS GRASS 2480",
    "locID": "LOC000046621872",
    "tech": "FTTN",
    "upgrade": "FTTP_NA",
    "gnaf_pid": "GANSW704395368",
    "ee": true,
    "tech_change_status": "Committed",
    "program_type": "On-Demand N2P SDU/MDU Simple",
    "target_eligibility_quarter": "Sep 2025"
   }
  },
  {
   "type": "Feature",
   "geometry": {
    "type": "Point",
    "coordinates": [
     153.33500864,
     -28.83302417
    ]
   },
   "properties": {
    "name": "7 PAMELA DRIVE CHILCOTTS GRASS 2480",
    "locID": "LOC000035445789",
    "tech": "FTTP",
    "upgrade": "FTTP_NA",
    "gnaf_pid": "GANSW704395369",
    "ee": true,
    "tech_change_status": "Previous Tech Disconnected",
    "program_type": "On-Demand N2P SDU/MDU Simple",
    "target_eligibility_quarter": "NA"
   }
  },
  {
   "type": "Feature",
   "geometry": {
    "type": "Point",
    "coordinates": [
     153.33475438,
     -28.83429374
    ]
   },
   "properties": {
    "name": "8 PAMELA DRIVE CHILCOTTS GRASS 2480",
    "locID": "LOC000078406788",
    "tech": "FTTN",
    "upgrade": "FTTP_NA",
    "gnaf_pid": "GANSW704395370",
    "ee": true,
    "tech_change_status": "Committed",
    "program_type": "On-Demand N2P SDU/MDU Simple",
    "target_eligibility_quarter": "Sep 2025"
   }
  },
  {
   "type": "Feature",
   "geometry": {
    "type": "Point",
    "coordinates": [
     153.33891863,
     -28.83662664
    ]
   },
   "properties": {
    "name": "5 TAYLOR ROAD CHILCOTTS GRASS 2480",
    "locID": "LOC000150737434",
    "tech": "WIRELESS",
    "upgrade": "NULL_NA",
    "gnaf_pid": "GANSW704396028",
    "ee": true,
    "tech_change_status": "Not Planned",
    "program_type": "Fixed Wireless and Satellite Upgrade Program",
    "target_eligibility_quarter": "NA"
   }
  },
  {
   "type": "Feature",
   "geometry": {
    "type": "Point",
    "coordinates": [
     153.3430725,
     -28.83351189
    ]
   },
   "properties": {
    "name": "51 TAYLOR ROAD CHILCOTTS GRASS 2480",
    "locID": "LOC000016830683",
    "tech": "WIRELESS",
    "upgrade": "NULL_NA",
    "gnaf_pid": "GANSW704396029",
    "ee": true,
    "tech_change_status": "Not Planned",
    "program_type": "Fixed Wireless and Satellite Upgrade Program",
    "target_eligibility_quarter": "NA"
   }
  },
  {
   "type": "Feature",
   "geometry": {
    "type": "Point",
    "coordinates": [
     153.34467707,
     -28.83366579
    ]
   },
   "properties": {
    "name": "59 TAYLOR ROAD CHILCOTTS GRASS 2480",
    "locID": "LOC100028019265",
    "tech": "WIRELESS",
    "upgrade": "NULL_NA",
    "gnaf_pid": "GANSW704396030",
    "ee": true,
    "tech_change_status": "Not Planned",
    "program_type": "Fixed Wireless and Satellite Upgrade Program",
    "target_eligibility_quarter": "NA"
   }
  },
  {
   "type": "Feature",
   "geometry": {
    "type": "Point",
    "coordinates": [
     153.34571521,
     -28.83418479
    ]
   },
   "properties": {
    "name": "73 TAYLOR ROAD CHILCOTTS GRASS 2480",
    "locID": "LOC000077971609",
    "tech": "WIRELESS",
    "upgrade": "NULL_NA",
    "gnaf_pid": "GANSW704396031",
    "ee": true,
    "tech_change_status": "Not Planned",
    "program_type": "Fixed Wireless and Satellite Upgrade Program",
    "target_eligibility_quarter": "NA"
   }
  },
  {
   "type": "Feature",
   "geometry": {
    "type": "Point",
    "coordinates": [
     153.35088143,
     -28.8344193
    ]
   },
   "properties": {
    "name": "82 TAYLOR ROAD CHILCOTTS GRASS 2480",
    "locID": "LOC000047973853",
    "tech": "WIRELESS",
    "upgrade": "NULL_NA",
    "gnaf_pid": "GANSW704396032",
    "ee": true,
    "tech_change_status": "Not Planned",
    "program_type": "Fixed Wireless and Satellite Upgrade Program",
    "target_eligibility_quarter": "NA"
   }
  },
  {
   "type": "Feature",
   "geometry": {
    "type": "Point",
    "coordinates": [
     153.33458818,
     -28.83080356
    ]
   },
   "properties": {
    "name": "24 MCINTOSH ROAD CHILCOTTS GRASS 2480",
    "locID": "LOC000028814339",
    "tech": "FTTN",
    "upgrade": "FTTP_NA",
    "gnaf_pid": "GANSW704398596",
    "ee": true,
    "tech_change_status": "Committed",
    "program_type": "On-Demand N2P SDU/MDU Simple",
    "target_eligibility_quarter": "Sep 2025"
   }
  },
  {
   "type": "Feature",
   "geometry": {
    "type": "Point",
    "coordinates": [
     153.33765999,
     -28.83564517
    ]
   },
   "properties": {
    "name": "3 MCINTOSH ROAD CHILCOTTS GRASS 2480",
    "locID": "LOC000043660628",
    "tech": "FTTN",
    "upgrade": "FTTP_NA",
    "gnaf_pid": "GANSW704398597",
    "ee": true,
    "tech_change_status": "Committed",
    "program_type": "On-Demand N2P SDU/MDU Simple",
    "target_eligibility_quarter": "Sep 2025"
   }
  },
  {
   "type": "Feature",
   "geometry": {
    "type": "Point",
    "coordinates": [
     153.33579266,
     -28.8351647
    ]
   },
   "properties": {
    "name": "4 MCINTOSH ROAD CHILCOTTS GRASS 2480",
    "locID": "LOC000026305969",
    "tech": "FTTN",
    "upgrade": "FTTP",
    "gnaf_pid": "GANSW704398598",
    "ee": true,
    "tech_change_status": "Eligible to Order",
    "program_type": "On-Demand N2P SDU/MDU Simple",
    "target_eligibility_quarter": "NA"
   }
  },
  {
   "type": "Feature",
   "geometry": {
    "type": "Point",
    "coordinates": [
     153.33773545,
     -28.83539415
    ]
   },
   "properties": {
    "name": "5 MCINTOSH ROAD CHILCOTTS GRASS 2480",
    "locID": "LOC000100055115",
    "tech": "FTTN",
    "upgrade": "FTTP_NA",
    "gnaf_pid": "GANSW704398599",
    "ee": true,
    "tech_change_status": "Committed",
    "program_type": "On-Demand N2P SDU/MDU Simple",
    "target_eligibility_quarter": "Sep 2025"
   }
  },
  {
   "type": "Feature",
   "geometry": {
    "type": "Point",
    "coordinates": [
     153.33780874,
     -28.83512511
    ]
   },
   "properties": {
    "name": "7 MCINTOSH ROAD CHILCOTTS GRASS 2480",
    "locID": "LOC000008097782",
    "tech": "FTTN",
    "upgrade": "FTTP_NA",
    "gnaf_pid": "GANSW704398600",
    "ee": true,
    "tech_change_status": "Committed",
    "program_type": "On-Demand N2P SDU/MDU Simple",
    "target_eligibility_quarter": "Sep 2025"
   }
  },
  {
   "type": "Feature",
   "geometry": {
    "type": "Point",
    "coordinates": [
     153.336056,
     -28.83324302
    ]
   },
   "properties": {
    "name": "8 MCINTOSH ROAD CHILCOTTS GRASS 2480",
    "locID": "LOC000053558587",
    "tech": "FTTP",
    "upgrade": "NULL_NA",
    "gnaf_pid": "GANSW704398601",
    "ee": true,
    "tech_change_status": "Eligible to Order",
    "program_type": "On-Demand N2P SDU/MDU Simple",
    "target_eligibility_quarter": "NA"
   }
  },
  {
   "type": "Feature",
   "geometry": {
    "type": "Point",
    "coordinates": [
     153.33716723,
     -28.83471429
    ]
   },
   "properties": {
    "name": "9 MCINTOSH ROAD CHILCOTTS GRASS 2480",
    "locID": "LOC000006479168",
    "tech": "FTTP",
    "upgrade": "FTTP_NA",
    "gnaf_pid": "GANSW704398602",
    "ee": true,
    "tech_change_status": "Previous Tech Disconnected",
    "program_type": "On-Demand N2P SDU/MDU Simple",
    "target_eligibility_quarter": "NA"
   }
  },
  {
   "type": "Feature",
   "geometry": {
    "type": "Point",
    "coordinates": [
     153.33613611,
     -28.83396674
    ]
   },
   "properties": {
    "name": "1 PAMELA DRIVE CHILCOTTS GRASS 2480",
    "locID": "LOC000101934505",
    "tech": "FTTN",
    "upgrade": "FTTP_NA",
    "gnaf_pid": "GANSW704398603",
    "ee": true,
    "tech_change_status": "Committed",
    "program_type": "On-Demand N2P SDU/MDU Simple",
    "target_eligibility_quarter": "Sep 2025"
   }
  },
  {
   "type": "Feature",
   "geometry": {
    "type": "Point",
    "coordinates": [
     153.3344276,
     -28.83403512
    ]
   },
   "properties": {
    "name": "10 PAMELA DRIVE CHILCOTTS GRASS 2480",
    "locID": "LOC000093073952",
    "tech": "FTTN",
    "upgrade": "FTTP_NA",
    "gnaf_pid": "GANSW704398604",
    "ee": true,
    "tech_change_status": "Committed",
    "program_type": "On-Demand N2P SDU/MDU Simple",
    "target_eligibility_quarter": "Sep 2025"
   }
  },
  {
   "type": "Feature",
   "geometry": {
    "type": "Point",
    "coordinates": [
     153.33423415,
     -28.83366991
    ]
   },
   "properties": {
    "name": "12 PAMELA DRIVE CHILCOTTS GRASS 2480",
    "locID": "LOC000067532878",
    "tech": "FTTN",
    "upgrade": "FTTP_NA",
    "gnaf_pid": "GANSW704398605",
    "ee": true,
    "tech_change_status": "Committed",
    "program_type": "On-Demand N2P SDU/MDU Simple",
    "target_eligibility_quarter": "Sep 2025"
   }
  },
  {
   "type": "Feature",
   "geometry": {
    "type": "Point",
    "coordinates": [
     153.33446545,
     -28.8322996
    ]
   },
   "properties": {
    "name": "9 PAMELA DRIVE CHILCOTTS GRASS 2480",
    "locID": "LOC000062891286",
    "tech": "FTTN",
    "upgrade": "FTTP_SA",
    "gnaf_pid": "GANSW704398613",
    "ee": true,
    "tech_change_status": "Eligible to Order",
    "program_type": "On-Demand N2P SDU/MDU Simple",
    "target_eligibility_quarter": "NA"
   }
  },
  {
   "type": "Feature",
   "geometry": {
    "type": "Point",
    "coordinates": [
     153.33243554,
     -28.83522313
    ]
   },
   "properties": {
    "name": "285 ROUS ROAD CHILCOTTS GRASS 2480",
    "locID": "LOC000041214486",
    "tech": "WIRELESS",
    "upgrade": "NULL_NA",
    "gnaf_pid": "GANSW704398615",
    "ee": true,
    "tech_change_status": "Eligible to Order",
    "program_type": "Fixed Wireless and Satellite Upgrade Program",
    "target_eligibility_quarter": "NA"
   }
  },
  {
   "type": "Feature",
   "geometry": {
    "type": "Point",
    "coordinates": [
     153.33462149,
     -28.83560826
    ]
   },
   "properties": {
    "name": "301 ROUS ROAD CHILCOTTS GRASS 2480",
    "locID": "LOC000076771196",
    "tech": "SATELLITE",
    "upgrade": "NULL_NA",
    "gnaf_pid": "GANSW704398616",
    "ee": true,
    "tech_change_status": "Not Planned"
   }
  },
  {
   "type": "Feature",
   "geometry": {
    "type": "Point",
    "coordinates": [
     153.33657309,
     -28.83640563
    ]
   },
   "properties": {
    "name": "338 ROUS ROAD CHILCOTTS GRASS 2480",
    "locID": "LOC000033985804",
    "tech": "FTTN",
    "upgrade": "FTTP_NA",
    "gnaf_pid": "GANSW704398617",
    "ee": true,
    "tech_change_status": "Committed",
    "program_type": "On-Demand N2P SDU/MDU Simple",
    "target_eligibility_quarter": "Sep 2025"
   }
  },
  {
   "type": "Feature",
   "geometry": {
    "type": "Point",
    "coordinates": [
     153.33801673,
     -28.83666619
    ]
   },
   "properties": {
    "name": "1 TAYLOR ROAD CHILCOTTS GRASS 2480",
    "locID": "LOC000070284860",
    "tech": "WIRELESS",
    "upgrade": "NULL_NA",
    "gnaf_pid": "GANSW704398618",
    "ee": true,
    "tech_change_status": "Not Planned",
    "program_type": "Fixed Wireless and Satellite Upgrade Program",
    "target_eligibility_quarter": "NA"
   }
  },
  {
   "type": "Feature",
   "geometry": {
    "type": "Point",
    "coordinates": [
     153.35066697,
     -28.83283518
    ]
   },
   "properties": {
    "name": "100 TAYLOR ROAD CHILCOTTS GRASS 2480",
    "locID": "LOC000070284860",
    "tech": "WIRELESS",
    "upgrade": "NULL_NA",
    "gnaf_pid": "GANSW704398619",
    "ee": true,
    "tech_change_status": "Not Planned",
    "program_type": "Fixed Wireless and Satellite Upgrade Program",
    "target_eligibility_quarter": "NA"
   }
  },
  {
   "type": "Feature",
   "geometry": {
    "type": "Point",
    "coordinates": [
     153.34418864,
     -28.83137137
    ]
   },
   "properties": {
    "name": "105 TAYLOR ROAD CHILCOTTS GRASS 2480",
    "locID": "LOC000028855917",
    "tech": "WIRELESS",
    "upgrade": "NULL_NA",
    "gnaf_pid": "GANSW704398620",
    "ee": true,
    "tech_change_status": "Not Planned",
    "program_type": "Fixed Wireless and Satellite Upgrade Program",
    "target_eligibility_quarter": "NA"
   }
  },
  {
   "type": "Feature",
   "geometry": {
    "type": "Point",
    "coordinates": [
     153.34420307,
     -28.82950333
    ]
   },
   "properties": {
    "name": "123 TAYLOR ROAD CHILCOTTS GRASS 2480",
    "locID": "LOC000027346616",
    "tech": "WIRELESS",
    "upgrade": "NULL_NA",
    "gnaf_pid": "GANSW704398622",
    "ee": true,
    "tech_change_status": "Not Planned",
    "program_type": "Fixed Wireless and Satellite Upgrade Program",
    "target_eligibility_quarter": "NA"
   }
  },
  {
   "type": "Feature",
   "geometry": {
    "type": "Point",
    "coordinates": [
     153.35094834,
     -28.83007708
    ]
   },
   "properties": {
    "name": "136 TAYLOR ROAD CHILCOTTS GRASS 2480",
    "locID": "LOC000071146156",
    "tech": "WIRELESS",
    "upgrade": "NULL_NA",
    "gnaf_pid": "GANSW704398623",
    "ee": true,
    "tech_change_status": "Not Planned",
    "program_type": "Fixed Wireless and Satellite Upgrade Program",
    "target_eligibility_quarter": "NA"
   }
  },
  {
   "type": "Feature",
   "geometry": {
    "type": "Point",
    "coordinates": [
     153.34323923,
     -28.8367748
    ]
   },
   "properties": {
    "name": "2 TAYLOR ROAD CHILCOTTS GRASS 2480",
    "locID": "LOC000190362965",
    "tech": "WIRELESS",
    "upgrade": "NULL_NA",
    "gnaf_pid": "GANSW704398624",
    "ee": true,
    "tech_change_status": "Not Planned",
    "program_type": "Fixed Wireless and Satellite Upgrade Program",
    "target_eligibility_quarter": "NA"
   }
  },
  {
   "type": "Feature",
   "geometry": {
    "type": "Point",
    "coordinates": [
     153.34248203,
     -28.83522716
    ]
   },
   "properties": {
    "name": "30 TAYLOR ROAD CHILCOTTS GRASS 2480",
    "locID": "LOC000078840953",
    "tech": "WIRELESS",
    "upgrade": "NULL_NA",
    "gnaf_pid": "GANSW704398625",
    "ee": true,
    "tech_change_status": "Not Planned",
    "program_type": "Fixed Wireless and Satellite Upgrade Program",
    "target_eligibility_quarter": "NA"
   }
  },
  {
   "type": "Feature",
   "geometry": {
    "type": "Point",
    "coordinates": [
     153.34297432,
     -28.83507333
    ]
   },
   "properties": {
    "name": "38 TAYLOR ROAD CHILCOTTS GRASS 2480",
    "locID": "LOC000045279264",
    "tech": "WIRELESS",
    "upgrade": "NULL_NA",
    "gnaf_pid": "GANSW704398627",
    "ee": true,
    "tech_change_status": "Not Planned",
    "program_type": "Fixed Wireless and Satellite Upgrade Program",
    "target_eligibility_quarter": "NA"
   }
  },
  {
   "type": "Feature",
   "geometry": {
    "type": "Point",
    "coordinates": [
     153.3360123,
     -28.82784381
    ]
   },
   "properties": {
    "name": "17 VINTAGE DRIVE CHILCOTTS GRASS 2480",
    "locID": "LOC000077121225",
    "tech": "FTTN",
    "upgrade": "FTTP",
    "gnaf_pid": "GANSW704398635",
    "ee": true,
    "tech_change_status": "Eligible to Order",
    "program_type": "On-Demand N2P SDU/MDU Simple",
    "target_eligibility_quarter": "NA"
   }
  },
  {
   "type": "Feature",
   "geometry": {
    "type": "Point",
    "coordinates": [
     153.33588663,
     -28.8302482
    ]
   },
   "properties": {
    "name": "2 VINTAGE DRIVE CHILCOTTS GRASS 2480",
    "locID": "LOC000052169059",
    "tech": "FTTN",
    "upgrade": "FTTP_SA",
    "gnaf_pid": "GANSW704398636",
    "ee": true,
    "tech_change_status": "Eligible to Order",
    "program_type": "On-Demand N2P SDU/MDU Simple",
    "target_eligibility_quarter": "NA"
   }
  },
  {
   "type": "Feature",
   "geometry": {
    "type": "Point",
    "coordinates": [
     153.33680322,
     -28.83007861
    ]
   },
   "properties": {
    "name": "3 VINTAGE DRIVE CHILCOTTS GRASS 2480",
    "locID": "LOC000023135597",
    "tech": "FTTN",
    "upgrade": "FTTP_NA",
    "gnaf_pid": "GANSW704398637",
    "ee": true,
    "tech_change_status": "Committed",
    "program_type": "On-Demand N2P SDU/MDU Simple",
    "target_eligibility_quarter": "Sep 2025"
   }
  },
  {
   "type": "Feature",
   "geometry": {
    "type": "Point",
    "coordinates": [
     153.33553772,
     -28.82952973
    ]
   },
   "properties": {
    "name": "4 VINTAGE DRIVE CHILCOTTS GRASS 2480",
    "locID": "LOC000055805539",
    "tech": "FTTN",
    "upgrade": "FTTP",
    "gnaf_pid": "GANSW704398638",
    "ee": true,
    "tech_change_status": "Eligible to Order",
    "program_type": "On-Demand N2P SDU/MDU Simple",
    "target_eligibility_quarter": "NA"
   }
  },
  {
   "type": "Feature",
   "geometry": {
    "type": "Point",
    "coordinates": [
     153.33688241,
     -28.82970087
    ]
   },
   "properties": {
    "name": "5 VINTAGE DRIVE CHILCOTTS GRASS 2480",
    "locID": "LOC000104116196",
    "tech": "FTTN",
    "upgrade": "FTTP_NA",
    "gnaf_pid": "GANSW704398639",
    "ee": true,
    "tech_change_status": "Committed",
    "program_type": "On-Demand N2P SDU/MDU Simple",
    "target_eligibility_quarter": "Sep 2025"
   }
  },
  {
   "type": "Feature",
   "geometry": {
    "type": "Point",
    "coordinates": [
     153.33509147,
     -28.82916406
    ]
   },
   "properties": {
    "name": "6 VINTAGE DRIVE CHILCOTTS GRASS 2480",
    "locID": "LOC000003116959",
    "tech": "FTTP",
    "upgrade": "FTTP_NA",
    "gnaf_pid": "GANSW704398640",
    "ee": true,
    "tech_change_status": "Previous Tech Disconnected",
    "program_type": "On-Demand N2P SDU/MDU Simple",
    "target_eligibility_quarter": "NA"
   }
  },
  {
   "type": "Feature",
   "geometry": {
    "type": "Point",
    "coordinates": [
     153.33691855,
     -28.82933143
    ]
   },
   "properties": {
    "name": "7 VINTAGE DRIVE CHILCOTTS GRASS 2480",
    "locID": "LOC000087572899",
    "tech": "FTTN",
    "upgrade": "FTTP_NA",
    "gnaf_pid": "GANSW704398641",
    "ee": true,
    "tech_change_status": "Committed",
    "program_type": "On-Demand N2P SDU/MDU Simple",
    "target_eligibility_quarter": "Sep 2025"
   }
  },
  {
   "type": "Feature",
   "geometry": {
    "type": "Point",
    "coordinates": [
     153.33498964,
     -28.82870451
    ]
   },
   "properties": {
    "name": "8 VINTAGE DRIVE CHILCOTTS GRASS 2480",
    "locID": "LOC000009832982",
    "tech": "FTTN",
    "upgrade": "FTTP",
    "gnaf_pid": "GANSW704398642",
    "ee": true,
    "tech_change_status": "Eligible to Order",
    "program_type": "On-Demand N2P SDU/MDU Simple",
    "target_eligibility_quarter": "NA"
   }
  },
  {
   "type": "Feature",
   "geometry": {
    "type": "Point",
    "coordinates": [
     153.34589393,
     -28.83382676
    ]
   },
   "properties": {
    "name": "87 TAYLOR ROAD CHILCOTTS GRASS 2480",
    "locID": "LOC000040746874",
    "tech": "WIRELESS",
    "upgrade": "NULL_NA",
    "gnaf_pid": "GANSW704401230",
    "ee": true,
    "tech_change_status": "Not Planned",
    "program_type": "Fixed Wireless and Satellite Upgrade Program",
    "target_eligibility_quarter": "NA"
   }
  },
  {
   "type": "Feature",
   "geometry": {
    "type": "Point",
    "coordinates": [
     153.33912245,
     -28.83628747
    ]
   },
   "properties": {
    "name": "9 TAYLOR ROAD CHILCOTTS GRASS 2480",
    "locID": "LOC000150737447",
    "tech": "WIRELESS",
    "upgrade": "NULL_NA",
    "gnaf_pid": "GANSW704401231",
    "ee": true,
    "tech_change_status": "Not Planned",
    "program_type": "Fixed Wireless and Satellite Upgrade Program",
    "target_eligibility_quarter": "NA"
   }
  },
  {
   "type": "Feature",
   "geometry": {
    "type": "Point",
    "coordinates": [
     153.34791868,
     -28.83352557
    ]
   },
   "properties": {
    "name": "92 TAYLOR ROAD CHILCOTTS GRASS 2480",
    "locID": "LOC000063930127",
    "tech": "WIRELESS",
    "upgrade": "NULL_NA",
    "gnaf_pid": "GANSW704401233",
    "ee": true,
    "tech_change_status": "Not Planned",
    "program_type": "Fixed Wireless and Satellite Upgrade Program",
    "target_eligibility_quarter": "NA"
   }
  },
  {
   "type": "Feature",
   "geometry": {
    "type": "Point",
    "coordinates": [
     153.34530111,
     -28.8327499
    ]
   },
   "properties": {
    "name": "97 TAYLOR ROAD CHILCOTTS GRASS 2480",
    "locID": "LOC000037049050",
    "tech": "WIRELESS",
    "upgrade": "NULL_NA",
    "gnaf_pid": "GANSW704401234",
    "ee": true,
    "tech_change_status": "Not Planned",
    "program_type": "Fixed Wireless and Satellite Upgrade Program",
    "target_eligibility_quarter": "NA"
   }
  },
  {
   "type": "Feature",
   "geometry": {
    "type": "Point",
    "coordinates": [
     153.33661777,
     -28.83058237
    ]
   },
   "properties": {
    "name": "1 VINTAGE DRIVE CHILCOTTS GRASS 2480",
    "locID": "LOC000048515816",
    "tech": "FTTN",
    "upgrade": "FTTP_NA",
    "gnaf_pid": "GANSW704401235",
    "ee": true,
    "tech_change_status": "Committed",
    "program_type": "On-Demand N2P SDU/MDU Simple",
    "target_eligibility_quarter": "Sep 2025"
   }
  },
  {
   "type": "Feature",
   "geometry": {
    "type": "Point",
    "coordinates": [
     153.33624448,
     -28.82756902
    ]
   },
   "properties": {
    "name": "10A VINTAGE DRIVE CHILCOTTS GRASS 2480",
    "locID": "LOC000033142382",
    "tech": "FTTP",
    "upgrade": "FTTP_NA",
    "gnaf_pid": "GANSW704401236",
    "ee": true,
    "tech_change_status": "Previous Tech Disconnected",
    "program_type": "On-Demand N2P SDU/MDU Simple",
    "target_eligibility_quarter": "NA"
   }
  },
  {
   "type": "Feature",
   "geometry": {
    "type": "Point",
    "coordinates": [
     153.33506465,
     -28.82815308
    ]
   },
   "properties": {
    "name": "10 VINTAGE DRIVE CHILCOTTS GRASS 2480",
    "locID": "LOC000033062935",
    "tech": "FTTP",
    "upgrade": "NULL_NA",
    "gnaf_pid": "GANSW704401237",
    "ee": true,
    "program_type": "On-Demand N2P SDU/MDU Simple",
    "target_eligibility_quarter": "NA"
   }
  },
  {
   "type": "Feature",
   "geometry": {
    "type": "Point",
    "coordinates": [
     153.33632773,
     -28.82912184
    ]
   },
   "properties": {
    "name": "11 VINTAGE DRIVE CHILCOTTS GRASS 2480",
    "locID": "LOC000088659385",
    "tech": "FTTN",
    "upgrade": "FTTP_NA",
    "gnaf_pid": "GANSW704401238",
    "ee": true,
    "tech_change_status": "Committed",
    "program_type": "On-Demand N2P SDU/MDU Simple",
    "target_eligibility_quarter": "Sep 2025"
   }
  },
  {
   "type": "Feature",
   "geometry": {
    "type": "Point",
    "coordinates": [
     153.33546888,
     -28.82772347
    ]
   },
   "properties": {
    "name": "12 VINTAGE DRIVE CHILCOTTS GRASS 2480",
    "locID": "LOC000065423883",
    "tech": "FTTP",
    "upgrade": "NULL_NA",
    "gnaf_pid": "GANSW704401239",
    "ee": true,
    "tech_change_status": "Previous Tech Disconnected",
    "program_type": "On-Demand N2P SDU/MDU Simple",
    "target_eligibility_quarter": "NA"
   }
  },
  {
   "type": "Feature",
   "geometry": {
    "type": "Point",
    "coordinates": [
     153.33610526,
     -28.82880775
    ]
   },
   "properties": {
    "name": "13 VINTAGE DRIVE CHILCOTTS GRASS 2480",
    "locID": "LOC000056061040",
    "tech": "FTTN",
    "upgrade": "FTTP_NA",
    "gnaf_pid": "GANSW704401240",
    "ee": true,
    "tech_change_status": "Committed",
    "program_type": "On-Demand N2P SDU/MDU Simple",
    "target_eligibility_quarter": "Sep 2025"
   }
  },
  {
   "type": "Feature",
   "geometry": {
    "type": "Point",
    "coordinates": [
     153.33605635,
     -28.82842315
    ]
   },
   "properties": {
    "name": "15 VINTAGE DRIVE CHILCOTTS GRASS 2480",
    "locID": "LOC000068588972",
    "tech": "FTTN",
    "upgrade": "FTTP_NA",
    "gnaf_pid": "GANSW704401241",
    "ee": true,
    "tech_change_status": "Committed",
    "program_type": "On-Demand N2P SDU/MDU Simple",
    "target_eligibility_quarter": "Sep 2025"
   }
  },
  {
   "type": "Feature",
   "geometry": {
    "type": "Point",
    "coordinates": [
     153.33689829,
     -28.82895892
    ]
   },
   "properties": {
    "name": "9 VINTAGE DRIVE CHILCOTTS GRASS 2480",
    "locID": "LOC000063326666",
    "tech": "FTTN",
    "upgrade": "FTTP_NA",
    "gnaf_pid": "GANSW704401253",
    "ee": true,
    "tech_change_status": "Committed",
    "program_type": "On-Demand N2P SDU/MDU Simple",
    "target_eligibility_quarter": "Sep 2025"
   }
  },
  {
   "type": "Feature",
   "geometry": {
    "type": "Point",
    "coordinates": [
     153.33699207,
     -28.83404281
    ]
   },
   "properties": {
    "name": "1 WILLOW TREE DRIVE CHILCOTTS GRASS 2480",
    "locID": "LOC000037274321",
    "tech": "FTTN",
    "upgrade": "FTTP_NA",
    "gnaf_pid": "GANSW704401254",
    "ee": true,
    "tech_change_status": "Committed",
    "program_type": "On-Demand N2P SDU/MDU Simple",
    "target_eligibility_quarter": "Sep 2025"
   }
  },
  {
   "type": "Feature",
   "geometry": {
    "type": "Point",
    "coordinates": [
     153.33741416,
     -28.83402682
    ]
   },
   "properties": {
    "name": "3 WILLOW TREE DRIVE CHILCOTTS GRASS 2480",
    "locID": "LOC000022274544",
    "tech": "FTTN",
    "upgrade": "FTTP_NA",
    "gnaf_pid": "GANSW704401255",
    "ee": true,
    "tech_change_status": "Committed",
    "program_type": "On-Demand N2P SDU/MDU Simple",
    "target_eligibility_quarter": "Sep 2025"
   }
  },
  {
   "type": "Feature",
   "geometry": {
    "type": "Point",
    "coordinates": [
     153.33777033,
     -28.83283946
    ]
   },
   "properties": {
    "name": "4 WILLOW TREE DRIVE CHILCOTTS GRASS 2480",
    "locID": "LOC000024806020",
    "tech": "FTTN",
    "upgrade": "FTTP",
    "gnaf_pid": "GANSW704401256",
    "ee": true,
    "tech_change_status": "Eligible to Order",
    "program_type": "On-Demand N2P SDU/MDU Simple",
    "target_eligibility_quarter": "NA"
   }
  },
  {
   "type": "Feature",
   "geometry": {
    "type": "Point",
    "coordinates": [
     153.33783833,
     -28.83417543
    ]
   },
   "properties": {
    "name": "5 WILLOW TREE DRIVE CHILCOTTS GRASS 2480",
    "locID": "LOC000052598836",
    "tech": "FTTN",
    "upgrade": "FTTP_NA",
    "gnaf_pid": "GANSW704401257",
    "ee": true,
    "tech_change_status": "Committed",
    "program_type": "On-Demand N2P SDU/MDU Simple",
    "target_eligibility_quarter": "Sep 2025"
   }
  },
  {
   "type": "Feature",
   "geometry": {
    "type": "Point",
    "coordinates": [
     153.338328,
     -28.83266204
    ]
   },
   "properties": {
    "name": "6 WILLOW TREE DRIVE CHILCOTTS GRASS 2480",
    "locID": "LOC000032275434",
    "tech": "FTTN",
    "upgrade": "FTTP_NA",
    "gnaf_pid": "GANSW704401258",
    "ee": true,
    "tech_change_status": "Committed",
    "program_type": "On-Demand N2P SDU/MDU Simple",
    "target_eligibility_quarter": "Sep 2025"
   }
  },
  {
   "type": "Feature",
   "geometry": {
    "type": "Point",
    "coordinates": [
     153.33822135,
     -28.83413095
    ]
   },
   "properties": {
    "name": "7 WILLOW TREE DRIVE CHILCOTTS GRASS 2480",
    "locID": "LOC000100330277",
    "tech": "FTTN",
    "upgrade": "FTTP_NA",
    "gnaf_pid": "GANSW704401259",
    "ee": true,
    "tech_change_status": "Committed",
    "program_type": "On-Demand N2P SDU/MDU Simple",
    "target_eligibility_quarter": "Sep 2025"
   }
  },
  {
   "type": "Feature",
   "geometry": {
    "type": "Point",
    "coordinates": [
     153.33878294,
     -28.83265227
    ]
   },
   "properties": {
    "name": "8 WILLOW TREE DRIVE CHILCOTTS GRASS 2480",
    "locID": "LOC000185289360",
    "tech": "FTTP",
    "upgrade": "NULL_NA",
    "gnaf_pid": "GANSW704401260",
    "ee": true
   }
  },
  {
   "type": "Feature",
   "geometry": {
    "type": "Point",
    "coordinates": [
     153.33868547,
     -28.83329122
    ]
   },
   "properties": {
    "name": "9 WILLOW TREE DRIVE CHILCOTTS GRASS 2480",
    "locID": "LOC000185289200",
    "tech": "FTTP",
    "upgrade": "NULL_NA",
    "gnaf_pid": "GANSW704401261",
    "ee": true
   }
  },
  {
   "type": "Feature",
   "geometry": {
    "type": "Point",
    "coordinates": [
     153.33593405,
     -28.83152602
    ]
   },
   "properties": {
    "name": "18 MCINTOSH ROAD CHILCOTTS GRASS 2480",
    "locID": "LOC000047880995",
    "tech": "FTTN",
    "upgrade": "FTTP_SA",
    "gnaf_pid": "GANSW704406172",
    "ee": true,
    "tech_change_status": "Eligible to Order",
    "program_type": "On-Demand N2P SDU/MDU Simple",
    "target_eligibility_quarter": "NA"
   }
  },
  {
   "type": "Feature",
   "geometry": {
    "type": "Point",
    "coordinates": [
     153.33550361,
     -28.83014148
    ]
   },
   "properties": {
    "name": "19 MCINTOSH ROAD CHILCOTTS GRASS 2480",
    "locID": "LOC000002416962",
    "tech": "FTTN",
    "upgrade": "FTTP_NA",
    "gnaf_pid": "GANSW704406173",
    "ee": true,
    "tech_change_status": "Committed",
    "program_type": "On-Demand N2P SDU/MDU Simple",
    "target_eligibility_quarter": "Sep 2025"
   }
  },
  {
   "type": "Feature",
   "geometry": {
    "type": "Point",
    "coordinates": [
     153.3356467,
     -28.83560011
    ]
   },
   "properties": {
    "name": "2 MCINTOSH ROAD CHILCOTTS GRASS 2480",
    "locID": "LOC000058736353",
    "tech": "FTTN",
    "upgrade": "FTTP",
    "gnaf_pid": "GANSW704406174",
    "ee": true,
    "tech_change_status": "Eligible to Order",
    "program_type": "On-Demand N2P SDU/MDU Simple",
    "target_eligibility_quarter": "NA"
   }
  },
  {
   "type": "Feature",
   "geometry": {
    "type": "Point",
    "coordinates": [
     153.33565192,
     -28.83131681
    ]
   },
   "properties": {
    "name": "20 MCINTOSH ROAD CHILCOTTS GRASS 2480",
    "locID": "LOC000099040847",
    "tech": "FTTN",
    "upgrade": "FTTP_NA",
    "gnaf_pid": "GANSW704406175",
    "ee": true,
    "tech_change_status": "Committed",
    "program_type": "On-Demand N2P SDU/MDU Simple",
    "target_eligibility_quarter": "Sep 2025"
   }
  },
  {
   "type": "Feature",
   "geometry": {
    "type": "Point",
    "coordinates": [
     153.33507567,
     -28.83003132
    ]
   },
   "properties": {
    "name": "21 MCINTOSH ROAD CHILCOTTS GRASS 2480",
    "locID": "LOC000027410531",
    "tech": "FTTN",
    "upgrade": "FTTP_NA",
    "gnaf_pid": "GANSW704406176",
    "ee": true,
    "tech_change_status": "Committed",
    "program_type": "On-Demand N2P SDU/MDU Simple",
    "target_eligibility_quarter": "Sep 2025"
   }
  },
  {
   "type": "Feature",
   "geometry": {
    "type": "Point",
    "coordinates": [
     153.33465738,
     -28.82981455
    ]
   },
   "properties": {
    "name": "23 MCINTOSH ROAD CHILCOTTS GRASS 2480",
    "locID": "LOC000082983683",
    "tech": "FTTN",
    "upgrade": "FTTP_NA",
    "gnaf_pid": "GANSW704406177",
    "ee": true,
    "tech_change_status": "Committed",
    "program_type": "On-Demand N2P SDU/MDU Simple",
    "target_eligibility_quarter": "Sep 2025"
   }
  },
  {
   "type": "Feature",
   "geometry": {
    "type": "Point",
    "coordinates": [
     153.33463635,
     -28.82984016
    ]
   },
   "properties": {
    "name": "UNIT 1, 23 MCINTOSH ROAD CHILCOTTS GRASS 2480",
    "locID": "LOC000083149545",
    "tech": "FTTN",
    "upgrade": "FTTP_NA",
    "gnaf_pid": "GANSW712287041",
    "ee": true,
    "tech_change_status": "Committed",
    "program_type": "On-Demand N2P SDU/MDU Simple",
    "target_eligibility_quarter": "Sep 2025"
   }
  },
  {
   "type": "Feature",
   "geometry": {
    "type": "Point",
    "coordinates": [
     153.33511376,
     -28.83184261
    ]
   },
   "properties": {
    "name": "2 MANOR CRESCENT CHILCOTTS GRASS 2480",
    "locID": "LOC100056221631",
    "tech": "FTTN",
    "upgrade": "FTTP_NA",
    "gnaf_pid": "GANSW712304157",
    "ee": true,
    "tech_change_status": "Committed",
    "program_type": "On-Demand N2P SDU/MDU Simple",
    "target_eligibility_quarter": "Sep 2025"
   }
  },
  {
   "type": "Feature",
   "geometry": {
    "type": "Point",
    "coordinates": [
     153.35088697,
     -28.83147188
    ]
   },
   "properties": {
    "name": "114 TAYLOR ROAD CHILCOTTS GRASS 2480",
    "locID": "LOC000031212807",
    "tech": "WIRELESS",
    "upgrade": "NULL_NA",
    "gnaf_pid": "GANSW718501318",
    "ee": true,
    "tech_change_status": "Not Planned",
    "program_type": "Fixed Wireless and Satellite Upgrade Program",
    "target_eligibility_quarter": "NA"
   }
  },
  {
   "type": "Feature",
   "geometry": {
    "type": "Point",
    "coordinates": [
     153.34160613,
     -28.83487661
    ]
   },
   "properties": {
    "name": "31 TAYLOR ROAD CHILCOTTS GRASS 2480",
    "locID": "LOC000031248281",
    "tech": "WIRELESS",
    "upgrade": "NULL_NA",
    "gnaf_pid": "GANSW718501320",
    "ee": true,
    "tech_change_status": "Not Planned",
    "program_type": "Fixed Wireless and Satellite Upgrade Program",
    "target_eligibility_quarter": "NA"
   }
  },
  {
   "type": "Feature",
   "geometry": {
    "type": "Point",
    "coordinates": [
     153.34239679,
     -28.83432163
    ]
   },
   "properties": {
    "name": "41 TAYLOR ROAD CHILCOTTS GRASS 2480",
    "locID": "LOC000064039902",
    "tech": "WIRELESS",
    "upgrade": "NULL_NA",
    "gnaf_pid": "GANSW718501321",
    "ee": true,
    "tech_change_status": "Not Planned",
    "program_type": "Fixed Wireless and Satellite Upgrade Program",
    "target_eligibility_quarter": "NA"
   }
  },
  {
   "type": "Feature",
   "geometry": {
    "type": "Point",
    "coordinates": [
     153.34596411,
     -28.83342371
    ]
   },
   "properties": {
    "name": "91 TAYLOR ROAD CHILCOTTS GRASS 2480",
    "locID": "LOC000057424047",
    "tech": "WIRELESS",
    "upgrade": "NULL_NA",
    "gnaf_pid": "GANSW718501323",
    "ee": true,
    "tech_change_status": "Not Planned",
    "program_type": "Fixed Wireless and Satellite Upgrade Program",
    "target_eligibility_quarter": "NA"
   }
  },
  {
   "type": "Feature",
   "geometry": {
    "type": "Point",
    "coordinates": [
     153.33933007,
     -28.83612915
    ]
   },
   "properties": {
    "name": "11 TAYLOR ROAD CHILCOTTS GRASS 2480",
    "locID": "LOC000064039902",
    "tech": "WIRELESS",
    "upgrade": "NULL_NA",
    "gnaf_pid": "GANSW718509707",
    "ee": true,
    "tech_change_status": "Not Planned",
    "program_type": "Fixed Wireless and Satellite Upgrade Program",
    "target_eligibility_quarter": "NA"
   }
  },
  {
   "type": "Feature",
   "geometry": {
    "type": "Point",
    "coordinates": [
     153.341433,
     -28.83666453
    ]
   },
   "properties": {
    "name": "HOUSE 2, 14 TAYLOR ROAD CHILCOTTS GRASS 2480",
    "locID": "LOC100076758760",
    "tech": "WIRELESS",
    "upgrade": "NULL_NA",
    "gnaf_pid": "GANSW718516709",
    "ee": true,
    "tech_change_status": "Not Planned",
    "program_type": "Fixed Wireless and Satellite Upgrade Program",
    "target_eligibility_quarter": "NA"
   }
  },
  {
   "type": "Feature",
   "geometry": {
    "type": "Point",
    "coordinates": [
     153.341433,
     -28.83666453
    ]
   },
   "properties": {
    "name": "14 TAYLOR ROAD CHILCOTTS GRASS 2480",
    "locID": "LOC100076758760",
    "tech": "WIRELESS",
    "upgrade": "NULL_NA",
    "gnaf_pid": "GANSW718516711",
    "ee": true,
    "tech_change_status": "Not Planned",
    "program_type": "Fixed Wireless and Satellite Upgrade Program",
    "target_eligibility_quarter": "NA"
   }
  },
  {
   "type": "Feature",
   "geometry": {
    "type": "Point",
    "coordinates": [
     153.3419767,
     -28.82919915
    ]
   },
   "properties": {
    "name": "5A GEORGE DRIVE CHILCOTTS GRASS 2480",
    "locID": "LOC000096804322",
    "tech": "FTTN",
    "upgrade": "FTTP_NA",
    "gnaf_pid": "GANSW718725050",
    "ee": true,
    "tech_change_status": "Committed",
    "program_type": "On-Demand N2P SDU/MDU Simple",
    "target_eligibility_quarter": "Sep 2025"
   }
  },
  {
   "type": "Feature",
   "geometry": {
    "type": "Point",
    "coordinates": [
     153.33891442,
     -28.83328715
    ]
   },
   "properties": {
    "name": "11 WILLOW TREE DRIVE CHILCOTTS GRASS 2480",
    "locID": "LOC000185289198",
    "tech": "FTTP",
    "upgrade": "NULL_NA",
    "gnaf_pid": "GANSW718808360",
    "ee": true
   }
  },
  {
   "type": "Feature",
   "geometry": {
    "type": "Point",
    "coordinates": [
     153.33463635,
     -28.82984016
    ]
   },
   "properties": {
    "name": "UNIT 2, 23 MCINTOSH ROAD CHILCOTTS GRASS 2480",
    "locID": "LOC000083149545",
    "tech": "FTTN",
    "upgrade": "FTTP_NA",
    "gnaf_pid": "GANSW719192019",
    "ee": true,
    "tech_change_status": "Committed",
    "program_type": "On-Demand N2P SDU/MDU Simple",
    "target_eligibility_quarter": "Sep 2025"
   }
  },
  {
   "type": "Feature",
   "geometry": {
    "type": "Point",
    "coordinates": [
     153.34036347,
     -28.83448228
    ]
   },
   "properties": {
    "name": "1 MITCH PLACE CHILCOTTS GRASS 2480",
    "locID": "LOC000185289030",
    "tech": "FTTP",
    "upgrade": "NULL_NA",
    "gnaf_pid": "GANSW720533119",
    "ee": true
   }
  },
  {
   "type": "Feature",
   "geometry": {
    "type": "Point",
    "coordinates": [
     153.3406161,
     -28.83372162
    ]
   },
   "properties": {
    "name": "27 HIDDEN VALLEY CIRCUIT CHILCOTTS GRASS 2480",
    "locID": "LOC000190178198",
    "tech": "FTTP",
    "upgrade": "NULL_NA",
    "gnaf_pid": "GANSW720600993",
    "ee": true
   }
  },
  {
   "type": "Feature",
   "geometry": {
    "type": "Point",
    "coordinates": [
     153.34076084,
     -28.83298472
    ]
   },
   "properties": {
    "name": "35 HIDDEN VALLEY CIRCUIT CHILCOTTS GRASS 2480",
    "locID": "LOC000185289237",
    "tech": "FTTP",
    "upgrade": "NULL_NA",
    "gnaf_pid": "GANSW720601791",
    "ee": true
   }
  },
  {
   "type": "Feature",
   "geometry": {
    "type": "Point",
    "coordinates": [
     153.34028693,
     -28.83366919
    ]
   },
   "properties": {
    "name": "21 HIDDEN VALLEY CIRCUIT CHILCOTTS GRASS 2480",
    "locID": "LOC000190364349",
    "tech": "FTTP",
    "upgrade": "NULL_NA",
    "gnaf_pid": "GANSW720601908",
    "ee": true
   }
  },
  {
   "type": "Feature",
   "geometry": {
    "type": "Point",
    "coordinates": [
     153.33862905,
     -28.83398253
    ]
   },
   "properties": {
    "name": "9 MITCH PLACE CHILCOTTS GRASS 2480",
    "locID": "LOC000185289053",
    "tech": "FTTP",
    "upgrade": "NULL_NA",
    "gnaf_pid": "GANSW720602372",
    "ee": true
   }
  },
  {
   "type": "Feature",
   "geometry": {
    "type": "Point",
    "coordinates": [
     153.3403555,
     -28.8332971
    ]
   },
   "properties": {
    "name": "17 HIDDEN VALLEY CIRCUIT CHILCOTTS GRASS 2480",
    "locID": "LOC000185289715",
    "tech": "FTTP",
    "upgrade": "NULL_NA",
    "gnaf_pid": "GANSW720603395",
    "ee": true
   }
  },
  {
   "type": "Feature",
   "geometry": {
    "type": "Point",
    "coordinates": [
     153.34125816,
     -28.83299035
    ]
   },
   "properties": {
    "name": "34 HIDDEN VALLEY CIRCUIT CHILCOTTS GRASS 2480",
    "locID": "LOC000185289228",
    "tech": "FTTP",
    "upgrade": "NULL_NA",
    "gnaf_pid": "GANSW720603498",
    "ee": true
   }
  },
  {
   "type": "Feature",
   "geometry": {
    "type": "Point",
    "coordinates": [
     153.33853846,
     -28.83440933
    ]
   },
   "properties": {
    "name": "5 MITCH PLACE CHILCOTTS GRASS 2480",
    "locID": "LOC000185289030",
    "tech": "FTTP",
    "upgrade": "NULL_NA",
    "gnaf_pid": "GANSW720603784",
    "ee": true
   }
  },
  {
   "type": "Feature",
   "geometry": {
    "type": "Point",
    "coordinates": [
     153.34038405,
     -28.83309127
    ]
   },
   "properties": {
    "name": "15 HIDDEN VALLEY CIRCUIT CHILCOTTS GRASS 2480",
    "locID": "LOC000185289704",
    "tech": "FTTP",
    "upgrade": "NULL_NA",
    "gnaf_pid": "GANSW720603828",
    "ee": true
   }
  },
  {
   "type": "Feature",
   "geometry": {
    "type": "Point",
    "coordinates": [
     153.33970219,
     -28.83198476
    ]
   },
   "properties": {
    "name": "8 DOUGLAS PLACE CHILCOTTS GRASS 2480",
    "locID": "LOC000185289292",
    "tech": "FTTP",
    "upgrade": "NULL_NA",
    "gnaf_pid": "GANSW720604387",
    "ee": true
   }
  },
  {
   "type": "Feature",
   "geometry": {
    "type": "Point",
    "coordinates": [
     153.33924976,
     -28.83347993
    ]
   },
   "properties": {
    "name": "13 WILLOW TREE DRIVE CHILCOTTS GRASS 2480",
    "locID": "LOC000185289180",
    "tech": "FTTP",
    "upgrade": "NULL_NA",
    "gnaf_pid": "GANSW720604427",
    "ee": true
   }
  },
  {
   "type": "Feature",
   "geometry": {
    "type": "Point",
    "coordinates": [
     153.33877676,
     -28.83363274
    ]
   },
   "properties": {
    "name": "8 MITCH PLACE CHILCOTTS GRASS 2480",
    "locID": "LOC000185289076",
    "tech": "FTTP",
    "upgrade": "NULL_NA",
    "gnaf_pid": "GANSW720604519",
    "ee": true
   }
  },
  {
   "type": "Feature",
   "geometry": {
    "type": "Point",
    "coordinates": [
     153.33901793,
     -28.83226853
    ]
   },
   "properties": {
    "name": "5 DOUGLAS PLACE CHILCOTTS GRASS 2480",
    "locID": "LOC000185289339",
    "tech": "FTTP",
    "upgrade": "NULL_NA",
    "gnaf_pid": "GANSW720604639",
    "ee": true
   }
  },
  {
   "type": "Feature",
   "geometry": {
    "type": "Point",
    "coordinates": [
     153.33979671,
     -28.83299652
    ]
   },
   "properties": {
    "name": "18 HIDDEN VALLEY CIRCUIT CHILCOTTS GRASS 2480",
    "locID": "LOC000185289151",
    "tech": "FTTP",
    "upgrade": "NULL_NA",
    "gnaf_pid": "GANSW720604712",
    "ee": true
   }
  },
  {
   "type": "Feature",
   "geometry": {
    "type": "Point",
    "coordinates": [
     153.3404462,
     -28.83284318
    ]
   },
   "properties": {
    "name": "13 HIDDEN VALLEY CIRCUIT CHILCOTTS GRASS 2480",
    "locID": "LOC000185289244",
    "tech": "FTTP",
    "upgrade": "NULL_NA",
    "gnaf_pid": "GANSW720604890",
    "ee": true
   }
  },
  {
   "type": "Feature",
   "geometry": {
    "type": "Point",
    "coordinates": [
     153.33946253,
     -28.83316055
    ]
   },
   "properties": {
    "name": "17 WILLOW TREE DRIVE CHILCOTTS GRASS 2480",
    "locID": "LOC000185289167",
    "tech": "FTTP",
    "upgrade": "NULL_NA",
    "gnaf_pid": "GANSW720605351",
    "ee": true
   }
  },
  {
   "type": "Feature",
   "geometry": {
    "type": "Point",
    "coordinates": [
     153.34119866,
     -28.83318157
    ]
   },
   "properties": {
    "name": "32 HIDDEN VALLEY CIRCUIT CHILCOTTS GRASS 2480",
    "locID": "LOC000187768946",
    "tech": "FTTP",
    "upgrade": "NULL_NA",
    "gnaf_pid": "GANSW720605790",
    "ee": true
   }
  },
  {
   "type": "Feature",
   "geometry": {
    "type": "Point",
    "coordinates": [
     153.34068093,
     -28.83337007
    ]
   },
   "properties": {
    "name": "31 HIDDEN VALLEY CIRCUIT CHILCOTTS GRASS 2480",
    "locID": "LOC000185289838",
    "tech": "FTTP",
    "upgrade": "NULL_NA",
    "gnaf_pid": "GANSW720605823",
    "ee": true
   }
  },
  {
   "type": "Feature",
   "geometry": {
    "type": "Point",
    "coordinates": [
     153.3397558,
     -28.83318239
    ]
   },
   "properties": {
    "name": "20 HIDDEN VALLEY CIRCUIT CHILCOTTS GRASS 2480",
    "locID": "LOC000185289146",
    "tech": "FTTP",
    "upgrade": "NULL_NA",
    "gnaf_pid": "GANSW720605892",
    "ee": true
   }
  },
  {
   "type": "Feature",
   "geometry": {
    "type": "Point",
    "coordinates": [
     153.33987353,
     -28.83264061
    ]
   },
   "properties": {
    "name": "16 HIDDEN VALLEY CIRCUIT CHILCOTTS GRASS 2480",
    "locID": "LOC000185289259",
    "tech": "FTTP",
    "upgrade": "NULL_NA",
    "gnaf_pid": "GANSW720606269",
    "ee": true
   }
  },
  {
   "type": "Feature",
   "geometry": {
    "type": "Point",
    "coordinates": [
     153.33912117,
     -28.83375633
    ]
   },
   "properties": {
    "name": "6 MITCH PLACE CHILCOTTS GRASS 2480",
    "locID": "LOC000185289082",
    "tech": "FTTP",
    "upgrade": "NULL_NA",
    "gnaf_pid": "GANSW720606548",
    "ee": true
   }
  },
  {
   "type": "Feature",
   "geometry": {
    "type": "Point",
    "coordinates": [
     153.3403212,
     -28.83348313
    ]
   },
   "properties": {
    "name": "19 HIDDEN VALLEY CIRCUIT CHILCOTTS GRASS 2480",
    "locID": "LOC000190238285",
    "tech": "FTTP",
    "upgrade": "NULL_NA",
    "gnaf_pid": "GANSW720607058",
    "ee": true
   }
  },
  {
   "type": "Feature",
   "geometry": {
    "type": "Point",
    "coordinates": [
     153.33851135,
     -28.83479282
    ]
   },
   "properties": {
    "name": "3 MITCH PLACE CHILCOTTS GRASS 2480",
    "locID": "LOC000185289024",
    "tech": "FTTP",
    "upgrade": "NULL_NA",
    "gnaf_pid": "GANSW720607276",
    "ee": true
   }
  },
  {
   "type": "Feature",
   "geometry": {
    "type": "Point",
    "coordinates": [
     153.34112435,
     -28.83340971
    ]
   },
   "properties": {
    "name": "30 HIDDEN VALLEY CIRCUIT CHILCOTTS GRASS 2480",
    "locID": "LOC000185289942",
    "tech": "FTTP",
    "upgrade": "NULL_NA",
    "gnaf_pid": "GANSW720607834",
    "ee": true
   }
  },
  {
   "type": "Feature",
   "geometry": {
    "type": "Point",
    "coordinates": [
     153.33957788,
     -28.83226617
    ]
   },
   "properties": {
    "name": "6 DOUGLAS PLACE CHILCOTTS GRASS 2480",
    "locID": "LOC000185289285",
    "tech": "FTTP",
    "upgrade": "NULL_NA",
    "gnaf_pid": "GANSW720608327",
    "ee": true
   }
  },
  {
   "type": "Feature",
   "geometry": {
    "type": "Point",
    "coordinates": [
     153.33900804,
     -28.83203219
    ]
   },
   "properties": {
    "name": "7 DOUGLAS PLACE CHILCOTTS GRASS 2480",
    "locID": "LOC000185289325",
    "tech": "FTTP",
    "upgrade": "NULL_NA",
    "gnaf_pid": "GANSW720608502",
    "ee": true
   }
  },
  {
   "type": "Feature",
   "geometry": {
    "type": "Point",
    "coordinates": [
     153.33858734,
     -28.83416294
    ]
   },
   "properties": {
    "name": "7 MITCH PLACE CHILCOTTS GRASS 2480",
    "locID": "LOC000185289048",
    "tech": "FTTP",
    "upgrade": "NULL_NA",
    "gnaf_pid": "GANSW720609318",
    "ee": true
   }
  },
  {
   "type": "Feature",
   "geometry": {
    "type": "Point",
    "coordinates": [
     153.33966528,
     -28.83367446
    ]
   },
   "properties": {
    "name": "26 HIDDEN VALLEY CIRCUIT CHILCOTTS GRASS 2480",
    "locID": "LOC000185289114",
    "tech": "FTTP",
    "upgrade": "NULL_NA",
    "gnaf_pid": "GANSW720609768",
    "ee": true
   }
  },
  {
   "type": "Feature",
   "geometry": {
    "type": "Point",
    "coordinates": [
     153.33907151,
     -28.83245391
    ]
   },
   "properties": {
    "name": "3 DOUGLAS PLACE CHILCOTTS GRASS 2480",
    "locID": "LOC000185289341",
    "tech": "FTTP",
    "upgrade": "NULL_NA",
    "gnaf_pid": "GANSW720609875",
    "ee": true
   }
  },
  {
   "type": "Feature",
   "geometry": {
    "type": "Point",
    "coordinates": [
     153.33972561,
     -28.83334639
    ]
   },
   "properties": {
    "name": "22 HIDDEN VALLEY CIRCUIT CHILCOTTS GRASS 2480",
    "locID": "LOC000190364429",
    "tech": "FTTP",
    "upgrade": "NULL_NA",
    "gnaf_pid": "GANSW720610222",
    "ee": true
   }
  },
  {
   "type": "Feature",
   "geometry": {
    "type": "Point",
    "coordinates": [
     153.33869396,
     -28.83380314
    ]
   },
   "properties": {
    "name": "10 MITCH PLACE CHILCOTTS GRASS 2480",
    "locID": "LOC000185289069",
    "tech": "FTTP",
    "upgrade": "NULL_NA",
    "gnaf_pid": "GANSW720610333",
    "ee": true
   }
  },
  {
   "type": "Feature",
   "geometry": {
    "type": "Point",
    "coordinates": [
     153.34070151,
     -28.83319089
    ]
   },
   "properties": {
    "name": "33 HIDDEN VALLEY CIRCUIT CHILCOTTS GRASS 2480",
    "locID": "LOC000185289840",
    "tech": "FTTP",
    "upgrade": "NULL_NA",
    "gnaf_pid": "GANSW720611819",
    "ee": true
   }
  },
  {
   "type": "Feature",
   "geometry": {
    "type": "Point",
    "coordinates": [
     153.34055184,
     -28.83393002
    ]
   },
   "properties": {
    "name": "25 HIDDEN VALLEY CIRCUIT CHILCOTTS GRASS 2480",
    "locID": "LOC000185289791",
    "tech": "FTTP",
    "upgrade": "NULL_NA",
    "gnaf_pid": "GANSW720612934",
    "ee": true
   }
  },
  {
   "type": "Feature",
   "geometry": {
    "type": "Point",
    "coordinates": [
     153.33927093,
     -28.83195996
    ]
   },
   "properties": {
    "name": "9 DOUGLAS PLACE CHILCOTTS GRASS 2480",
    "locID": "LOC000185289318",
    "tech": "FTTP",
    "upgrade": "NULL_NA",
    "gnaf_pid": "GANSW720613823",
    "ee": true
   }
  },
  {
   "type": "Feature",
   "geometry": {
    "type": "Point",
    "coordinates": [
     153.34113046,
     -28.83394419
    ]
   },
   "properties": {
    "name": "28 HIDDEN VALLEY CIRCUIT CHILCOTTS GRASS 2480",
    "locID": "LOC000185289855",
    "tech": "FTTP",
    "upgrade": "NULL_NA",
    "gnaf_pid": "GANSW720614078",
    "ee": true
   }
  },
  {
   "type": "Feature",
   "geometry": {
    "type": "Point",
    "coordinates": [
     153.33922288,
     -28.83316831
    ]
   },
   "properties": {
    "name": "15 WILLOW TREE DRIVE CHILCOTTS GRASS 2480",
    "locID": "LOC000185289179",
    "tech": "FTTP",
    "upgrade": "NULL_NA",
    "gnaf_pid": "GANSW720614272",
    "ee": true
   }
  },
  {
   "type": "Feature",
   "geometry": {
    "type": "Point",
    "coordinates": [
     153.33933621,
     -28.83380657
    ]
   },
   "properties": {
    "name": "4 MITCH PLACE CHILCOTTS GRASS 2480",
    "locID": "LOC000185289095",
    "tech": "FTTP",
    "upgrade": "NULL_NA",
    "gnaf_pid": "GANSW720614630",
    "ee": true
   }
  },
  {
   "type": "Feature",
   "geometry": {
    "type": "Point",
    "coordinates": [
     153.33917764,
     -28.8326988
    ]
   },
   "properties": {
    "name": "1 DOUGLAS PLACE CHILCOTTS GRASS 2480",
    "locID": "LOC000185289356",
    "tech": "FTTP",
    "upgrade": "NULL_NA",
    "gnaf_pid": "GANSW720614667",
    "ee": true
   }
  },
  {
   "type": "Feature",
   "geometry": {
    "type": "Point",
    "coordinates": [
     153.33969543,
     -28.83351044
    ]
   },
   "properties": {
    "name": "24 HIDDEN VALLEY CIRCUIT CHILCOTTS GRASS 2480",
    "locID": "LOC000185289122",
    "tech": "FTTP",
    "upgrade": "NULL_NA",
    "gnaf_pid": "GANSW720614705",
    "ee": true
   }
  },
  {
   "type": "Feature",
   "geometry": {
    "type": "Point",
    "coordinates": [
     153.34027112,
     -28.83388956
    ]
   },
   "properties": {
    "name": "23 HIDDEN VALLEY CIRCUIT CHILCOTTS GRASS 2480",
    "locID": "LOC000185289789",
    "tech": "FTTP",
    "upgrade": "NULL_NA",
    "gnaf_pid": "GANSW720614829",
    "ee": true
   }
  },
  {
   "type": "Feature",
   "geometry": {
    "type": "Point",
    "coordinates": [
     153.3395601,
     -28.83244946
    ]
   },
   "properties": {
    "name": "4 DOUGLAS PLACE CHILCOTTS GRASS 2480",
    "locID": "LOC000185289271",
    "tech": "FTTP",
    "upgrade": "NULL_NA",
    "gnaf_pid": "GANSW720614989",
    "ee": true
   }
  },
  {
   "type": "Feature",
   "geometry": {
    "type": "Point",
    "coordinates": [
     153.339501,
     -28.83194666
    ]
   },
   "properties": {
    "name": "10 DOUGLAS PLACE CHILCOTTS GRASS 2480",
    "locID": "LOC000185289302",
    "tech": "FTTP",
    "upgrade": "NULL_NA",
    "gnaf_pid": "GANSW720616377",
    "ee": true
   }
  },
  {
   "type": "Feature",
   "geometry": {
    "type": "Point",
    "coordinates": [
     153.34133353,
     -28.83347343
    ]
   },
   "properties": {
    "name": "22 HOLMES CIRCUIT CHILCOTTS GRASS 2480",
    "locID": "LOC000185289926",
    "tech": "FTTP",
    "upgrade": "NULL_NA",
    "gnaf_pid": "GANSW720617349",
    "ee": true
   }
  },
  {
   "type": "Feature",
   "geometry": {
    "type": "Point",
    "coordinates": [
     153.33962259,
     -28.83385857
    ]
   },
   "properties": {
    "name": "2 MITCH PLACE CHILCOTTS GRASS 2480",
    "locID": "LOC000185289105",
    "tech": "FTTP",
    "upgrade": "NULL_NA",
    "gnaf_pid": "GANSW720617390",
    "ee": true
   }
  },
  {
   "type": "Feature",
   "geometry": {
    "type": "Point",
    "coordinates": [
     153.33958943,
     -28.83265055
    ]
   },
   "properties": {
    "name": "2 DOUGLAS PLACE CHILCOTTS GRASS 2480",
    "locID": "LOC000185289263",
    "tech": "FTTP",
    "upgrade": "NULL_NA",
    "gnaf_pid": "GANSW720617637",
    "ee": true
   }
  },
  {
   "type": "Feature",
   "geometry": {
    "type": "Point",
    "coordinates": [
     153.34064852,
     -28.83354585
    ]
   },
   "properties": {
    "name": "29 HIDDEN VALLEY CIRCUIT CHILCOTTS GRASS 2480",
    "locID": "LOC000189872831",
    "tech": "FTTP",
    "upgrade": "NULL_NA",
    "gnaf_pid": "GANSW720617750",
    "ee": true
   }
  },
  {
   "type": "Feature",
   "geometry": {
    "type": "Point",
    "coordinates": [
     153.33946253,
     -28.83316055
    ]
   },
   "properties": {
    "name": "17B WILLOW TREE DRIVE CHILCOTTS GRASS 2480",
    "locID": "LOC000191222049",
    "tech": "FTTP",
    "upgrade": "NULL_NA",
    "gnaf_pid": "GANSW720777124",
    "ee": true
   }
  },
  {
   "type": "Feature",
   "geometry": {
    "type": "Point",
    "coordinates": [
     153.33922288,
     -28.83316831
    ]
   },
   "properties": {
    "name": "UNIT 1, 15 WILLOW TREE DRIVE CHILCOTTS GRASS 2480",
    "locID": "LOC000185289179",
    "tech": "FTTP",
    "upgrade": "NULL_NA",
    "gnaf_pid": "GANSW720787530",
    "ee": true
   }
  },
  {
   "type": "Feature",
   "geometry": {
    "type": "Point",
    "coordinates": [
     153.33946253,
     -28.83316055
    ]
   },
   "properties": {
    "name": "17A WILLOW TREE DRIVE CHILCOTTS GRASS 2480",
    "locID": "LOC000185289167",
    "tech": "FTTP",
    "upgrade": "NULL_NA",
    "gnaf_pid": "GANSW720788453",
    "ee": true
   }
  },
  {
   "type": "Feature",
   "geometry": {
    "type": "Point",
    "coordinates": [
     153.33922288,
     -28.83316831
    ]
   },
   "properties": {
    "name": "UNIT 2, 15 WILLOW TREE DRIVE CHILCOTTS GRASS 2480",
    "locID": "LOC000185289179",
    "tech": "FTTP",
    "upgrade": "NULL_NA",
    "gnaf_pid": "GANSW720789143",
    "ee": true
   }
  },
  {
   "type": "Feature",
   "geometry": {
    "type": "Point",
    "coordinates": [
     153.34119866,
     -28.83318157
    ]
   },
   "properties": {
    "name": "UNIT 1, 32 HIDDEN VALLEY CIRCUIT CHILCOTTS GRASS 2480",
    "locID": "LOC000185289216",
    "tech": "FTTP",
    "upgrade": "NULL_NA",
    "gnaf_pid": "GANSW720794572",
    "ee": true
   }
  },
  {
   "type": "Feature",
   "geometry": {
    "type": "Point",
    "coordinates": [
     153.34119866,
     -28.83318157
    ]
   },
   "properties": {
    "name": "UNIT 2, 32 HIDDEN VALLEY CIRCUIT CHILCOTTS GRASS 2480",
    "locID": "LOC000187768946",
    "tech": "FTTP",
    "upgrade": "NULL_NA",
    "gnaf_pid": "GANSW720795127",
    "ee": true
   }
  },
  {
   "type": "Feature",
   "geometry": {
    "type": "Point",
    "coordinates": [
     153.34027112,
     -28.83388956
    ]
   },
   "properties": {
    "name": "23A HIDDEN VALLEY CIRCUIT CHILCOTTS GRASS 2480",
    "locID": "LOC000185289789",
    "tech": "FTTP",
    "upgrade": "NULL_NA",
    "gnaf_pid": "GANSW720804881",
    "ee": true
   }
  },
  {
   "type": "Feature",
   "geometry": {
    "type": "Point",
    "coordinates": [
     153.34027112,
     -28.83388956
    ]
   },
   "properties": {
    "name": "23B HIDDEN VALLEY CIRCUIT CHILCOTTS GRASS 2480",
    "locID": "LOC000192490871",
    "tech": "FTTP",
    "upgrade": "NULL_NA",
    "gnaf_pid": "GANSW720808195",
    "ee": true
   }
  },
  {
   "type": "Feature",
   "geometry": {
    "type": "Point",
    "coordinates": [
     153.34076084,
     -28.83298472
    ]
   },
   "properties": {
    "name": "35B HIDDEN VALLEY CIRCUIT CHILCOTTS GRASS 2480",
    "locID": "LOC000189538540",
    "tech": "FTTP",
    "upgrade": "NULL_NA",
    "gnaf_pid": "GANSW721131230",
    "ee": true
   }
  },
  {
   "type": "Feature",
   "geometry": {
    "type": "Point",
    "coordinates": [
     153.34028693,
     -28.83366919
    ]
   },
   "properties": {
    "name": "21A HIDDEN VALLEY CIRCUIT CHILCOTTS GRASS 2480",
    "locID": "LOC000190569053",
    "tech": "FTTP",
    "upgrade": "NULL_NA",
    "gnaf_pid": "GANSW721243214",
    "ee": true
   }
  },
  {
   "type": "Feature",
   "geometry": {
    "type": "Point",
    "coordinates": [
     153.34064852,
     -28.83354585
    ]
   },
   "properties": {
    "name": "29A HIDDEN VALLEY CIRCUIT CHILCOTTS GRASS 2480",
    "locID": "LOC000185289817",
    "tech": "FTTP",
    "upgrade": "NULL_NA",
    "gnaf_pid": "GANSW721243716",
    "ee": true
   }
  },
  {
   "type": "Feature",
   "geometry": {
    "type": "Point",
    "coordinates": [
     153.3406161,
     -28.83372162
    ]
   },
   "properties": {
    "name": "27A HIDDEN VALLEY CIRCUIT CHILCOTTS GRASS 2480",
    "locID": "LOC000185289801",
    "tech": "FTTP",
    "upgrade": "NULL_NA",
    "gnaf_pid": "GANSW721243803",
    "ee": true
   }
  },
  {
   "type": "Feature",
   "geometry": {
    "type": "Point",
    "coordinates": [
     153.3403212,
     -28.83348313
    ]
   },
   "properties": {
    "name": "19A HIDDEN VALLEY CIRCUIT CHILCOTTS GRASS 2480",
    "locID": "LOC000185289727",
    "tech": "FTTP",
    "upgrade": "NULL_NA",
    "gnaf_pid": "GANSW721247037",
    "ee": true
   }
  },
  {
   "type": "Feature",
   "geometry": {
    "type": "Point",
    "coordinates": [
     153.34028693,
     -28.83366919
    ]
   },
   "properties": {
    "name": "21B HIDDEN VALLEY CIRCUIT CHILCOTTS GRASS 2480",
    "locID": "LOC000185289736",
    "tech": "FTTP",
    "upgrade": "NULL_NA",
    "gnaf_pid": "GANSW721247177",
    "ee": true
   }
  },
  {
   "type": "Feature",
   "geometry": {
    "type": "Point",
    "coordinates": [
     153.34154518,
     -28.8330423
    ]
   },
   "properties": {
    "name": "18 HOLMES CIRCUIT CHILCOTTS GRASS 2480",
    "locID": "LOC000190364515",
    "tech": "FTTP",
    "upgrade": "NULL_NA",
    "gnaf_pid": "GANSW721353029",
    "ee": true
   }
  },
  {
   "type": "Feature",
   "geometry": {
    "type": "Point",
    "coordinates": [
     153.34144392,
     -28.83325213
    ]
   },
   "properties": {
    "name": "20 HOLMES CIRCUIT CHILCOTTS GRASS 2480",
    "locID": "LOC000190364527",
    "tech": "FTTP",
    "upgrade": "NULL_NA",
    "gnaf_pid": "GANSW721354464",
    "ee": true
   }
  },
  {
   "type": "Feature",
   "geometry": {
    "type": "Point",
    "coordinates": [
     153.34057772,
     -28.83208759
    ]
   },
   "properties": {
    "name": "5 HIDDEN VALLEY CIRCUIT CHILCOTTS GRASS 2480",
    "locID": "LOC000192118408",
    "tech": "FTTP",
    "upgrade": "NULL_NA",
    "gnaf_pid": "GANSW721354466",
    "ee": true
   }
  },
  {
   "type": "Feature",
   "geometry": {
    "type": "Point",
    "coordinates": [
     153.34134293,
     -28.83267652
    ]
   },
   "properties": {
    "name": "38 HIDDEN VALLEY CIRCUIT CHILCOTTS GRASS 2480",
    "locID": "LOC000190364472",
    "tech": "FTTP",
    "upgrade": "NULL_NA",
    "gnaf_pid": "GANSW721354474",
    "ee": true
   }
  },
  {
   "type": "Feature",
   "geometry": {
    "type": "Point",
    "coordinates": [
     153.34096752,
     -28.83180913
    ]
   },
   "properties": {
    "name": "49 HIDDEN VALLEY CIRCUIT CHILCOTTS GRASS 2480",
    "locID": "LOC000190364429",
    "tech": "FTTP",
    "upgrade": "NULL_NA",
    "gnaf_pid": "GANSW721354476",
    "ee": true
   }
  },
  {
   "type": "Feature",
   "geometry": {
    "type": "Point",
    "coordinates": [
     153.33823216,
     -28.82990441
    ]
   },
   "properties": {
    "name": "16 GEORGE DRIVE CHILCOTTS GRASS 2480",
    "locID": "LOC000192118477",
    "tech": "FTTP",
    "upgrade": "NULL_NA",
    "gnaf_pid": "GANSW721355803",
    "ee": true
   }
  },
  {
   "type": "Feature",
   "geometry": {
    "type": "Point",
    "coordinates": [
     153.34139006,
     -28.83253385
    ]
   },
   "properties": {
    "name": "40 HIDDEN VALLEY CIRCUIT CHILCOTTS GRASS 2480",
    "locID": "LOC000190364464",
    "tech": "FTTP",
    "upgrade": "NULL_NA",
    "gnaf_pid": "GANSW721355847",
    "ee": true
   }
  },
  {
   "type": "Feature",
   "geometry": {
    "type": "Point",
    "coordinates": [
     153.34004779,
     -28.83162695
    ]
   },
   "properties": {
    "name": "4 HIDDEN VALLEY CIRCUIT CHILCOTTS GRASS 2480",
    "locID": "LOC000190364383",
    "tech": "FTTP",
    "upgrade": "NULL_NA",
    "gnaf_pid": "GANSW721355849",
    "ee": true
   }
  },
  {
   "type": "Feature",
   "geometry": {
    "type": "Point",
    "coordinates": [
     153.34051392,
     -28.83243645
    ]
   },
   "properties": {
    "name": "9 HIDDEN VALLEY CIRCUIT CHILCOTTS GRASS 2480",
    "locID": "LOC000190363985",
    "tech": "FTTP",
    "upgrade": "NULL_NA",
    "gnaf_pid": "GANSW721355856",
    "ee": true
   }
  },
  {
   "type": "Feature",
   "geometry": {
    "type": "Point",
    "coordinates": [
     153.34002351,
     -28.83179202
    ]
   },
   "properties": {
    "name": "6 HIDDEN VALLEY CIRCUIT CHILCOTTS GRASS 2480",
    "locID": "LOC000190363900",
    "tech": "FTTP",
    "upgrade": "NULL_NA",
    "gnaf_pid": "GANSW721355878",
    "ee": true
   }
  },
  {
   "type": "Feature",
   "geometry": {
    "type": "Point",
    "coordinates": [
     153.3417947,
     -28.83262507
    ]
   },
   "properties": {
    "name": "14 HOLMES CIRCUIT CHILCOTTS GRASS 2480",
    "locID": "LOC000190364493",
    "tech": "FTTP",
    "upgrade": "NULL_NA",
    "gnaf_pid": "GANSW721357255",
    "ee": true
   }
  },
  {
   "type": "Feature",
   "geometry": {
    "type": "Point",
    "coordinates": [
     153.34164682,
     -28.83282993
    ]
   },
   "properties": {
    "name": "16 HOLMES CIRCUIT CHILCOTTS GRASS 2480",
    "locID": "LOC000190364504",
    "tech": "FTTP",
    "upgrade": "NULL_NA",
    "gnaf_pid": "GANSW721358583",
    "ee": true
   }
  },
  {
   "type": "Feature",
   "geometry": {
    "type": "Point",
    "coordinates": [
     153.33993296,
     -28.83228083
    ]
   },
   "properties": {
    "name": "12 HIDDEN VALLEY CIRCUIT CHILCOTTS GRASS 2480",
    "locID": "LOC000190569053",
    "tech": "FTTP",
    "upgrade": "NULL_NA",
    "gnaf_pid": "GANSW721358586",
    "ee": true
   }
  },
  {
   "type": "Feature",
   "geometry": {
    "type": "Point",
    "coordinates": [
     153.34054583,
     -28.83226201
    ]
   },
   "properties": {
    "name": "7 HIDDEN VALLEY CIRCUIT CHILCOTTS GRASS 2480",
    "locID": "LOC000190363971",
    "tech": "FTTP",
    "upgrade": "NULL_NA",
    "gnaf_pid": "GANSW721358588",
    "ee": true
   }
  },
  {
   "type": "Feature",
   "geometry": {
    "type": "Point",
    "coordinates": [
     153.34090856,
     -28.8321314
    ]
   },
   "properties": {
    "name": "45 HIDDEN VALLEY CIRCUIT CHILCOTTS GRASS 2480",
    "locID": "LOC000190364383",
    "tech": "FTTP",
    "upgrade": "NULL_NA",
    "gnaf_pid": "GANSW721358590",
    "ee": true
   }
  },
  {
   "type": "Feature",
   "geometry": {
    "type": "Point",
    "coordinates": [
     153.33999904,
     -28.83195673
    ]
   },
   "properties": {
    "name": "8 HIDDEN VALLEY CIRCUIT CHILCOTTS GRASS 2480",
    "locID": "LOC000190363888",
    "tech": "FTTP",
    "upgrade": "NULL_NA",
    "gnaf_pid": "GANSW721358614",
    "ee": true
   }
  },
  {
   "type": "Feature",
   "geometry": {
    "type": "Point",
    "coordinates": [
     153.33997784,
     -28.83211761
    ]
   },
   "properties": {
    "name": "10 HIDDEN VALLEY CIRCUIT CHILCOTTS GRASS 2480",
    "locID": "LOC000190363874",
    "tech": "FTTP",
    "upgrade": "NULL_NA",
    "gnaf_pid": "GANSW721359981",
    "ee": true
   }
  },
  {
   "type": "Feature",
   "geometry": {
    "type": "Point",
    "coordinates": [
     153.34141818,
     -28.8319012
    ]
   },
   "properties": {
    "name": "2 LOFT CRESCENT CHILCOTTS GRASS 2480",
    "locID": "LOC000192118258",
    "tech": "FTTP",
    "upgrade": "NULL_NA",
    "gnaf_pid": "GANSW721360013",
    "ee": true
   }
  },
  {
   "type": "Feature",
   "geometry": {
    "type": "Point",
    "coordinates": [
     153.34060961,
     -28.83191317
    ]
   },
   "properties": {
    "name": "3 HIDDEN VALLEY CIRCUIT CHILCOTTS GRASS 2480",
    "locID": "LOC000189538540",
    "tech": "FTTP",
    "upgrade": "NULL_NA",
    "gnaf_pid": "GANSW721361395",
    "ee": true
   }
  },
  {
   "type": "Feature",
   "geometry": {
    "type": "Point",
    "coordinates": [
     153.34067363,
     -28.8315641
    ]
   },
   "properties": {
    "name": "1 HIDDEN VALLEY CIRCUIT CHILCOTTS GRASS 2480",
    "locID": "LOC000185289216",
    "tech": "FTTP",
    "upgrade": "NULL_NA",
    "gnaf_pid": "GANSW721361406",
    "ee": true
   }
  },
  {
   "type": "Feature",
   "geometry": {
    "type": "Point",
    "coordinates": [
     153.3404823,
     -28.83261172
    ]
   },
   "properties": {
    "name": "11 HIDDEN VALLEY CIRCUIT CHILCOTTS GRASS 2480",
    "locID": "LOC000185289122",
    "tech": "FTTP",
    "upgrade": "NULL_NA",
    "gnaf_pid": "GANSW721361422",
    "ee": true
   }
  },
  {
   "type": "Feature",
   "geometry": {
    "type": "Point",
    "coordinates": [
     153.34064157,
     -28.83173872
    ]
   },
   "properties": {
    "name": "1A HIDDEN VALLEY CIRCUIT CHILCOTTS GRASS 2480",
    "locID": "LOC000190363944",
    "tech": "FTTP",
    "upgrade": "NULL_NA",
    "gnaf_pid": "GANSW721363161",
    "ee": true
   }
  },
  {
   "type": "Feature",
   "geometry": {
    "type": "Point",
    "coordinates": [
     153.34108243,
     -28.83257557
    ]
   },
   "properties": {
    "name": "2 HIDDEN VALLEY CIRCUIT CHILCOTTS GRASS 2480",
    "locID": "LOC000187768946",
    "tech": "FTTP",
    "upgrade": "NULL_NA",
    "gnaf_pid": "GANSW721453907",
    "ee": true
   }
  }
 ]
}