{
 "type": "FeatureCollection",
 "generated": "2025-06-19T13:37:26.384082",
 "suburb": "COMBO",
 "features": [
  {
   "type": "Feature",
   "geometry": {
    "type": "Point",
    "coordinates": [
     151.18496661,
     -32.54934617
    ]
   },
   "properties": {
    "name": "124 COMBO LANE COMBO 2330",
    "locID": "LOC000053474009",
    "tech": "WIRELESS",
    "upgrade": "NULL_NA",
    "gnaf_pid": "GANSW704454668",
    "ee": true,
    "tech_change_status": "Not Planned",
    "program_type": "Fixed Wireless and Satellite Upgrade Program",
    "target_eligibility_quarter": "NA"
   }
  },
  {
   "type": "Feature",
   "geometry": {
    "type": "Point",
    "coordinates": [
     151.17779061,
     -32.55222745
    ]
   },
   "properties": {
    "name": "79 COMBO LANE COMBO 2330",
    "locID": "LOC000098169778",
    "tech": "WIRELESS",
    "upgrade": "NULL_NA",
    "gnaf_pid": "GANSW704454669",
    "ee": true,
    "tech_change_status": "Not Planned",
    "program_type": "Fixed Wireless and Satellite Upgrade Program",
    "target_eligibility_quarter": "NA"
   }
  },
  {
   "type": "Feature",
   "geometry": {
    "type": "Point",
    "coordinates": [
     151.18725152,
     -32.54990318
    ]
   },
   "properties": {
    "name": "68 COMBO LANE COMBO 2330",
    "locID": "LOC000022377759",
    "tech": "WIRELESS",
    "upgrade": "NULL_NA",
    "gnaf_pid": "GANSW706425707",
    "ee": true,
    "tech_change_status": "Not Planned",
    "program_type": "Fixed Wireless and Satellite Upgrade Program",
    "target_eligibility_quarter": "NA"
   }
  },
  {
   "type": "Feature",
   "geometry": {
    "type": "Point",
    "coordinates": [
     151.18277826,
     -32.55279649
    ]
   },
   "properties": {
    "name": "1 COMBO LANE COMBO 2330",
    "locID": "LOC000076037053",
    "tech": "WIRELESS",
    "upgrade": "NULL_NA",
    "gnaf_pid": "GANSW712053444",
    "ee": true,
    "tech_change_status": "Not Planned",
    "program_type": "Fixed Wireless and Satellite Upgrade Program",
    "target_eligibility_quarter": "NA"
   }
  },
  {
   "type": "Feature",
   "geometry": {
    "type": "Point",
    "coordinates": [
     151.18277826,
     -32.55279649
    ]
   },
   "properties": {
    "name": "3 COMBO LANE COMBO 2330",
    "locID": "LOC000056018528",
    "tech": "WIRELESS",
    "upgrade": "NULL_NA",
    "gnaf_pid": "GANSW712053445",
    "ee": true,
    "tech_change_status": "Not Planned",
    "program_type": "Fixed Wireless and Satellite Upgrade Program",
    "target_eligibility_quarter": "NA"
   }
  },
  {
   "type": "Feature",
   "geometry": {
    "type": "Point",
    "coordinates": [
     151.18277826,
     -32.55279649
    ]
   },
   "properties": {
    "name": "4 COMBO LANE COMBO 2330",
    "locID": "LOC000005980755",
    "tech": "FTTN",
    "upgrade": "FTTP_NA",
    "gnaf_pid": "GANSW712053446",
    "ee": true,
    "tech_change_status": "Committed",
    "program_type": "Customer-initiated N2P MDU Complex",
    "target_eligibility_quarter": "Sep 2025"
   }
  },
  {
   "type": "Feature",
   "geometry": {
    "type": "Point",
    "coordinates": [
     151.17940782,
     -32.55589395
    ]
   },
   "properties": {
    "name": "39 COMBO LANE COMBO 2330",
    "locID": "LOC000056018528",
    "tech": "WIRELESS",
    "upgrade": "NULL_NA",
    "gnaf_pid": "GANSW712053447",
    "ee": true,
    "tech_change_status": "Not Planned",
    "program_type": "Fixed Wireless and Satellite Upgrade Program",
    "target_eligibility_quarter": "NA"
   }
  },
  {
   "type": "Feature",
   "geometry": {
    "type": "Point",
    "coordinates": [
     151.17999184,
     -32.54842364
    ]
   },
   "properties": {
    "name": "133 COMBO LANE COMBO 2330",
    "locID": "LOC000076037053",
    "tech": "WIRELESS",
    "upgrade": "NULL_NA",
    "gnaf_pid": "GANSW712053450",
    "ee": true,
    "tech_change_status": "Not Planned",
    "program_type": "Fixed Wireless and Satellite Upgrade Program",
    "target_eligibility_quarter": "NA"
   }
  },
  {
   "type": "Feature",
   "geometry": {
    "type": "Point",
    "coordinates": [
     151.18277826,
     -32.55279649
    ]
   },
   "properties": {
    "name": "UNIT 1, 8 COMBO LANE COMBO 2330",
    "locID": "LOC000005988492",
    "tech": "WIRELESS",
    "upgrade": "NULL_NA",
    "gnaf_pid": "GANSW718050791",
    "ee": true,
    "tech_change_status": "Not Planned",
    "program_type": "Fixed Wireless and Satellite Upgrade Program",
    "target_eligibility_quarter": "NA"
   }
  },
  {
   "type": "Feature",
   "geometry": {
    "type": "Point",
    "coordinates": [
     151.18277826,
     -32.55279649
    ]
   },
   "properties": {
    "name": "UNIT 2, 8 COMBO LANE COMBO 2330",
    "locID": "LOC000005988492",
    "tech": "WIRELESS",
    "upgrade": "NULL_NA",
    "gnaf_pid": "GANSW718050792",
    "ee": true,
    "tech_change_status": "Not Planned",
    "program_type": "Fixed Wireless and Satellite Upgrade Program",
    "target_eligibility_quarter": "NA"
   }
  },
  {
   "type": "Feature",
   "geometry": {
    "type": "Point",
    "coordinates": [
     151.18277826,
     -32.55279649
    ]
   },
   "properties": {
    "name": "UNIT 4, 8 COMBO LANE COMBO 2330",
    "locID": "LOC000005980755",
    "tech": "FTTN",
    "upgrade": "FTTP_NA",
    "gnaf_pid": "GANSW718050794",
    "ee": true,
    "tech_change_status": "Committed",
    "program_type": "Customer-initiated N2P MDU Complex",
    "target_eligibility_quarter": "Sep 2025"
   }
  },
  {
   "type": "Feature",
   "geometry": {
    "type": "Point",
    "coordinates": [
     151.18277826,
     -32.55279649
    ]
   },
   "properties": {
    "name": "8 COMBO LANE COMBO 2330",
    "locID": "LOC000005988492",
    "tech": "WIRELESS",
    "upgrade": "NULL_NA",
    "gnaf_pid": "GANSW718050795",
    "ee": true,
    "tech_change_status": "Not Planned",
    "program_type": "Fixed Wireless and Satellite Upgrade Program",
    "target_eligibility_quarter": "NA"
   }
  },
  {
   "type": "Feature",
   "geometry": {
    "type": "Point",
    "coordinates": [
     151.18277826,
     -32.55279649
    ]
   },
   "properties": {
    "name": "37 COMBO LANE COMBO 2330",
    "locID": "LOC000173781585",
    "tech": "WIRELESS",
    "upgrade": "NULL_NA",
    "gnaf_pid": "GANSW719736274",
    "ee": true,
    "tech_change_status": "Not Planned",
    "program_type": "Fixed Wireless and Satellite Upgrade Program",
    "target_eligibility_quarter": "NA"
   }
  }
 ]
}