{
 "type": "FeatureCollection",
 "generated": "2025-06-19T14:47:17.649796",
 "suburb": "LIDDELL",
 "features": [
  {
   "type": "Feature",
   "geometry": {
    "type": "Point",
    "coordinates": [
     151.01180116,
     -32.40526968
    ]
   },
   "properties": {
    "name": "111 LIDDELL STATION ROAD LIDDELL 2333",
    "locID": "LOC000045377413",
    "tech": "NULL",
    "upgrade": "NULL_NA",
    "gnaf_pid": "GANSW705220463",
    "ee": true,
    "tech_change_status": "Not Planned"
   }
  }
 ]
}