{
 "type": "FeatureCollection",
 "generated": "2025-06-19T13:57:24.039407",
 "suburb": "MELBERGEN",
 "features": [
  {
   "type": "Feature",
   "geometry": {
    "type": "Point",
    "coordinates": [
     145.96871554,
     -33.77704601
    ]
   },
   "properties": {
    "name": "658 HOLDENS ROAD MELBERGEN 2669",
    "locID": "LOC000078892919",
    "tech": "NULL",
    "upgrade": "NULL_NA",
    "gnaf_pid": "GANSW717703994",
    "ee": false,
    "tech_change_status": "Not Planned"
   }
  },
  {
   "type": "Feature",
   "geometry": {
    "type": "Point",
    "coordinates": [
     145.99683239,
     -33.75201299
    ]
   },
   "properties": {
    "name": "1717 MERUNGI ROAD MELBERGEN 2669",
    "locID": "LOC000115093071",
    "tech": "NULL",
    "upgrade": "NULL_NA",
    "gnaf_pid": "GANSW717709886",
    "ee": false,
    "tech_change_status": "Not Planned"
   }
  },
  {
   "type": "Feature",
   "geometry": {
    "type": "Point",
    "coordinates": [
     146.05988023,
     -33.71222083
    ]
   },
   "properties": {
    "name": "2693 THE SPRINGS ROAD MELBERGEN 2669",
    "locID": "LOC000114741689",
    "tech": "NULL",
    "upgrade": "NULL_NA",
    "gnaf_pid": "GANSW718174060",
    "ee": false,
    "tech_change_status": "Not Planned"
   }
  },
  {
   "type": "Feature",
   "geometry": {
    "type": "Point",
    "coordinates": [
     146.04514896,
     -33.70172532
    ]
   },
   "properties": {
    "name": "2848 THE SPRINGS ROAD MELBERGEN 2669",
    "locID": "LOC000115104085",
    "tech": "SATELLITE",
    "upgrade": "NULL_NA",
    "gnaf_pid": "GANSW718174061",
    "ee": false,
    "tech_change_status": "Not Planned"
   }
  },
  {
   "type": "Feature",
   "geometry": {
    "type": "Point",
    "coordinates": [
     145.96210176,
     -33.6901318
    ]
   },
   "properties": {
    "name": "3301 THE SPRINGS ROAD MELBERGEN 2669",
    "locID": "LOC000121727107",
    "tech": "SATELLITE",
    "upgrade": "NULL_NA",
    "gnaf_pid": "GANSW718363877",
    "ee": false,
    "tech_change_status": "Not Planned"
   }
  },
  {
   "type": "Feature",
   "geometry": {
    "type": "Point",
    "coordinates": [
     146.06514877,
     -33.77758762
    ]
   },
   "properties": {
    "name": "865 VEARINGS LANE MELBERGEN 2669",
    "locID": "LOC000121806081",
    "tech": "NULL",
    "upgrade": "NULL_NA",
    "gnaf_pid": "GANSW718364332",
    "ee": false,
    "tech_change_status": "Not Planned"
   }
  }
 ]
}