{
 "type": "FeatureCollection",
 "generated": "2025-06-19T14:00:22.988670",
 "suburb": "OAKEY PARK",
 "features": [
  {
   "type": "Feature",
   "geometry": {
    "type": "Point",
    "coordinates": [
     150.17982367,
     -33.4701064
    ]
   },
   "properties": {
    "name": "108 BELLS ROAD OAKEY PARK 2790",
    "locID": "LOC000160347450",
    "tech": "FTTC",
    "upgrade": "FTTP_SA",
    "gnaf_pid": "GANSW718881039",
    "ee": true,
    "tech_change_status": "Eligible to Order"
   }
  },
  {
   "type": "Feature",
   "geometry": {
    "type": "Point",
    "coordinates": [
     150.18727136,
     -33.46775788
    ]
   },
   "properties": {
    "name": "10 BELLS ROAD OAKEY PARK 2790",
    "locID": "LOC000160348041",
    "tech": "FTTN",
    "upgrade": "NULL_NA",
    "gnaf_pid": "GANSW718881040",
    "ee": true,
    "tech_change_status": "Not Planned"
   }
  },
  {
   "type": "Feature",
   "geometry": {
    "type": "Point",
    "coordinates": [
     150.17968379,
     -33.47017549
    ]
   },
   "properties": {
    "name": "110 BELLS ROAD OAKEY PARK 2790",
    "locID": "LOC000160347263",
    "tech": "FTTC",
    "upgrade": "FTTP_SA",
    "gnaf_pid": "GANSW718881041",
    "ee": true,
    "tech_change_status": "Eligible to Order"
   }
  },
  {
   "type": "Feature",
   "geometry": {
    "type": "Point",
    "coordinates": [
     150.17959848,
     -33.47023271
    ]
   },
   "properties": {
    "name": "112 BELLS ROAD OAKEY PARK 2790",
    "locID": "LOC000160347620",
    "tech": "FTTC",
    "upgrade": "FTTP_SA",
    "gnaf_pid": "GANSW718881042",
    "ee": true,
    "tech_change_status": "Eligible to Order"
   }
  },
  {
   "type": "Feature",
   "geometry": {
    "type": "Point",
    "coordinates": [
     150.17947345,
     -33.47031741
    ]
   },
   "properties": {
    "name": "118 BELLS ROAD OAKEY PARK 2790",
    "locID": "LOC000160348831",
    "tech": "FTTC",
    "upgrade": "FTTP_SA",
    "gnaf_pid": "GANSW718881043",
    "ee": true,
    "tech_change_status": "Eligible to Order"
   }
  },
  {
   "type": "Feature",
   "geometry": {
    "type": "Point",
    "coordinates": [
     150.18680214,
     -33.46813792
    ]
   },
   "properties": {
    "name": "11 BELLS ROAD OAKEY PARK 2790",
    "locID": "LOC000160348471",
    "tech": "FTTN",
    "upgrade": "NULL_NA",
    "gnaf_pid": "GANSW718881044",
    "ee": true,
    "tech_change_status": "Not Planned"
   }
  },
  {
   "type": "Feature",
   "geometry": {
    "type": "Point",
    "coordinates": [
     150.17930499,
     -33.47043114
    ]
   },
   "properties": {
    "name": "120 BELLS ROAD OAKEY PARK 2790",
    "locID": "LOC000160348542",
    "tech": "FTTC",
    "upgrade": "FTTP_SA",
    "gnaf_pid": "GANSW718881045",
    "ee": true,
    "tech_change_status": "Eligible to Order"
   }
  },
  {
   "type": "Feature",
   "geometry": {
    "type": "Point",
    "coordinates": [
     150.17913786,
     -33.47054434
    ]
   },
   "properties": {
    "name": "124 BELLS ROAD OAKEY PARK 2790",
    "locID": "LOC000160347696",
    "tech": "FTTC",
    "upgrade": "FTTP_SA",
    "gnaf_pid": "GANSW718881046",
    "ee": true,
    "tech_change_status": "Eligible to Order"
   }
  },
  {
   "type": "Feature",
   "geometry": {
    "type": "Point",
    "coordinates": [
     150.17901305,
     -33.47065119
    ]
   },
   "properties": {
    "name": "128 BELLS ROAD OAKEY PARK 2790",
    "locID": "LOC000160347599",
    "tech": "FTTC",
    "upgrade": "FTTP_SA",
    "gnaf_pid": "GANSW718881047",
    "ee": true,
    "tech_change_status": "Eligible to Order"
   }
  },
  {
   "type": "Feature",
   "geometry": {
    "type": "Point",
    "coordinates": [
     150.18706149,
     -33.46772325
    ]
   },
   "properties": {
    "name": "12 BELLS ROAD OAKEY PARK 2790",
    "locID": "LOC000160348136",
    "tech": "FTTN",
    "upgrade": "NULL_NA",
    "gnaf_pid": "GANSW718881048",
    "ee": true,
    "tech_change_status": "Not Planned"
   }
  },
  {
   "type": "Feature",
   "geometry": {
    "type": "Point",
    "coordinates": [
     150.17889776,
     -33.47070201
    ]
   },
   "properties": {
    "name": "130 BELLS ROAD OAKEY PARK 2790",
    "locID": "LOC000160347683",
    "tech": "FTTC",
    "upgrade": "FTTP_SA",
    "gnaf_pid": "GANSW718881049",
    "ee": true,
    "tech_change_status": "Eligible to Order"
   }
  },
  {
   "type": "Feature",
   "geometry": {
    "type": "Point",
    "coordinates": [
     150.17878208,
     -33.47070711
    ]
   },
   "properties": {
    "name": "132 BELLS ROAD OAKEY PARK 2790",
    "locID": "LOC000160347421",
    "tech": "FTTP",
    "upgrade": "NULL_NA",
    "gnaf_pid": "GANSW718881050",
    "ee": true
   }
  },
  {
   "type": "Feature",
   "geometry": {
    "type": "Point",
    "coordinates": [
     150.17868125,
     -33.4707286
    ]
   },
   "properties": {
    "name": "134 BELLS ROAD OAKEY PARK 2790",
    "locID": "LOC000160347665",
    "tech": "FTTP",
    "upgrade": "NULL_NA",
    "gnaf_pid": "GANSW718881051",
    "ee": true
   }
  },
  {
   "type": "Feature",
   "geometry": {
    "type": "Point",
    "coordinates": [
     150.17849962,
     -33.47078466
    ]
   },
   "properties": {
    "name": "138 BELLS ROAD OAKEY PARK 2790",
    "locID": "LOC000160347244",
    "tech": "FTTC",
    "upgrade": "FTTP_SA",
    "gnaf_pid": "GANSW718881052",
    "ee": true,
    "tech_change_status": "Eligible to Order"
   }
  },
  {
   "type": "Feature",
   "geometry": {
    "type": "Point",
    "coordinates": [
     150.1773784,
     -33.47136449
    ]
   },
   "properties": {
    "name": "139-147 BELLS ROAD OAKEY PARK 2790",
    "locID": "LOC000160347961",
    "tech": "FTTP",
    "upgrade": "NULL_NA",
    "gnaf_pid": "GANSW718881053",
    "ee": true
   }
  },
  {
   "type": "Feature",
   "geometry": {
    "type": "Point",
    "coordinates": [
     150.18658964,
     -33.46811634
    ]
   },
   "properties": {
    "name": "13-15 BELLS ROAD OAKEY PARK 2790",
    "locID": "LOC000160347864",
    "tech": "FTTN",
    "upgrade": "NULL_NA",
    "gnaf_pid": "GANSW718881054",
    "ee": true,
    "tech_change_status": "Not Planned"
   }
  },
  {
   "type": "Feature",
   "geometry": {
    "type": "Point",
    "coordinates": [
     150.17808623,
     -33.47080623
    ]
   },
   "properties": {
    "name": "140 BELLS ROAD OAKEY PARK 2790",
    "locID": "LOC000160347394",
    "tech": "FTTC",
    "upgrade": "FTTP_SA",
    "gnaf_pid": "GANSW718881055",
    "ee": true,
    "tech_change_status": "Eligible to Order"
   }
  },
  {
   "type": "Feature",
   "geometry": {
    "type": "Point",
    "coordinates": [
     150.17798626,
     -33.47069166
    ]
   },
   "properties": {
    "name": "142 BELLS ROAD OAKEY PARK 2790",
    "locID": "LOC000160347167",
    "tech": "FTTC",
    "upgrade": "FTTP_SA",
    "gnaf_pid": "GANSW718881056",
    "ee": true,
    "tech_change_status": "Eligible to Order"
   }
  },
  {
   "type": "Feature",
   "geometry": {
    "type": "Point",
    "coordinates": [
     150.17787463,
     -33.47072984
    ]
   },
   "properties": {
    "name": "144 BELLS ROAD OAKEY PARK 2790",
    "locID": "LOC000160347445",
    "tech": "FTTC",
    "upgrade": "FTTP_SA",
    "gnaf_pid": "GANSW718881057",
    "ee": true,
    "tech_change_status": "Eligible to Order"
   }
  },
  {
   "type": "Feature",
   "geometry": {
    "type": "Point",
    "coordinates": [
     150.17776403,
     -33.47074348
    ]
   },
   "properties": {
    "name": "146 BELLS ROAD OAKEY PARK 2790",
    "locID": "LOC000160347259",
    "tech": "FTTC",
    "upgrade": "FTTP_SA",
    "gnaf_pid": "GANSW718881058",
    "ee": true,
    "tech_change_status": "Eligible to Order"
   }
  },
  {
   "type": "Feature",
   "geometry": {
    "type": "Point",
    "coordinates": [
     150.17765565,
     -33.4707439
    ]
   },
   "properties": {
    "name": "148 BELLS ROAD OAKEY PARK 2790",
    "locID": "LOC000160347237",
    "tech": "FTTC",
    "upgrade": "FTTP_SA",
    "gnaf_pid": "GANSW718881059",
    "ee": true,
    "tech_change_status": "Eligible to Order"
   }
  },
  {
   "type": "Feature",
   "geometry": {
    "type": "Point",
    "coordinates": [
     150.1774933,
     -33.47073807
    ]
   },
   "properties": {
    "name": "150 BELLS ROAD OAKEY PARK 2790",
    "locID": "LOC000160347228",
    "tech": "FTTC",
    "upgrade": "FTTP_SA",
    "gnaf_pid": "GANSW718881061",
    "ee": true,
    "tech_change_status": "Eligible to Order"
   }
  },
  {
   "type": "Feature",
   "geometry": {
    "type": "Point",
    "coordinates": [
     150.17733244,
     -33.47073153
    ]
   },
   "properties": {
    "name": "154 BELLS ROAD OAKEY PARK 2790",
    "locID": "LOC000160347432",
    "tech": "FTTP",
    "upgrade": "NULL_NA",
    "gnaf_pid": "GANSW718881062",
    "ee": true
   }
  },
  {
   "type": "Feature",
   "geometry": {
    "type": "Point",
    "coordinates": [
     150.17714987,
     -33.47074087
    ]
   },
   "properties": {
    "name": "156 BELLS ROAD OAKEY PARK 2790",
    "locID": "LOC000160348492",
    "tech": "FTTC",
    "upgrade": "FTTP_SA",
    "gnaf_pid": "GANSW718881063",
    "ee": true,
    "tech_change_status": "Eligible to Order"
   }
  },
  {
   "type": "Feature",
   "geometry": {
    "type": "Point",
    "coordinates": [
     150.17584925,
     -33.47168846
    ]
   },
   "properties": {
    "name": "157 BELLS ROAD OAKEY PARK 2790",
    "locID": "LOC000196072708",
    "tech": "FTTC",
    "upgrade": "FTTP_SA",
    "gnaf_pid": "GANSW718881064",
    "ee": true,
    "tech_change_status": "Eligible to Order"
   }
  },
  {
   "type": "Feature",
   "geometry": {
    "type": "Point",
    "coordinates": [
     150.1747864,
     -33.47190739
    ]
   },
   "properties": {
    "name": "159-171 BELLS ROAD OAKEY PARK 2790",
    "locID": "LOC000160349098",
    "tech": "FTTC",
    "upgrade": "FTTP",
    "gnaf_pid": "GANSW718881065",
    "ee": true,
    "tech_change_status": "Eligible to Order"
   }
  },
  {
   "type": "Feature",
   "geometry": {
    "type": "Point",
    "coordinates": [
     150.17697108,
     -33.47065382
    ]
   },
   "properties": {
    "name": "160 BELLS ROAD OAKEY PARK 2790",
    "locID": "LOC000160349080",
    "tech": "FTTC",
    "upgrade": "FTTP_SA",
    "gnaf_pid": "GANSW718881066",
    "ee": true,
    "tech_change_status": "Eligible to Order"
   }
  },
  {
   "type": "Feature",
   "geometry": {
    "type": "Point",
    "coordinates": [
     150.17666198,
     -33.47060928
    ]
   },
   "properties": {
    "name": "162 BELLS ROAD OAKEY PARK 2790",
    "locID": "LOC000160348733",
    "tech": "FTTC",
    "upgrade": "FTTP_SA",
    "gnaf_pid": "GANSW718881067",
    "ee": true,
    "tech_change_status": "Eligible to Order"
   }
  },
  {
   "type": "Feature",
   "geometry": {
    "type": "Point",
    "coordinates": [
     150.17540081,
     -33.47071265
    ]
   },
   "properties": {
    "name": "166 BELLS ROAD OAKEY PARK 2790",
    "locID": "LOC000160348640",
    "tech": "FTTN",
    "upgrade": "FTTP_SA",
    "gnaf_pid": "GANSW718881068",
    "ee": true,
    "tech_change_status": "Eligible to Order",
    "program_type": "On-Demand N2P SDU/MDU Simple",
    "target_eligibility_quarter": "NA"
   }
  },
  {
   "type": "Feature",
   "geometry": {
    "type": "Point",
    "coordinates": [
     150.1745992,
     -33.47092042
    ]
   },
   "properties": {
    "name": "168-172 BELLS ROAD OAKEY PARK 2790",
    "locID": "LOC000160348348",
    "tech": "FTTN",
    "upgrade": "FTTP_SA",
    "gnaf_pid": "GANSW718881069",
    "ee": true,
    "tech_change_status": "Eligible to Order",
    "program_type": "On-Demand N2P SDU/MDU Simple",
    "target_eligibility_quarter": "NA"
   }
  },
  {
   "type": "Feature",
   "geometry": {
    "type": "Point",
    "coordinates": [
     150.17400504,
     -33.47088052
    ]
   },
   "properties": {
    "name": "174 BELLS ROAD OAKEY PARK 2790",
    "locID": "LOC000160348485",
    "tech": "FTTP",
    "upgrade": "FTTP_NA",
    "gnaf_pid": "GANSW718881070",
    "ee": true,
    "tech_change_status": "Eligible to Order",
    "program_type": "On-Demand N2P SDU/MDU Simple",
    "target_eligibility_quarter": "NA"
   }
  },
  {
   "type": "Feature",
   "geometry": {
    "type": "Point",
    "coordinates": [
     150.18637879,
     -33.46809327
    ]
   },
   "properties": {
    "name": "17 BELLS ROAD OAKEY PARK 2790",
    "locID": "LOC000160348820",
    "tech": "FTTN",
    "upgrade": "NULL_NA",
    "gnaf_pid": "GANSW718881071",
    "ee": true,
    "tech_change_status": "Not Planned"
   }
  },
  {
   "type": "Feature",
   "geometry": {
    "type": "Point",
    "coordinates": [
     150.18667399,
     -33.46768807
    ]
   },
   "properties": {
    "name": "18 BELLS ROAD OAKEY PARK 2790",
    "locID": "LOC000160348714",
    "tech": "FTTN",
    "upgrade": "NULL_NA",
    "gnaf_pid": "GANSW718881072",
    "ee": true,
    "tech_change_status": "Not Planned"
   }
  },
  {
   "type": "Feature",
   "geometry": {
    "type": "Point",
    "coordinates": [
     150.18616663,
     -33.46806983
    ]
   },
   "properties": {
    "name": "19 BELLS ROAD OAKEY PARK 2790",
    "locID": "LOC000160348463",
    "tech": "FTTN",
    "upgrade": "NULL_NA",
    "gnaf_pid": "GANSW718881073",
    "ee": true,
    "tech_change_status": "Not Planned"
   }
  },
  {
   "type": "Feature",
   "geometry": {
    "type": "Point",
    "coordinates": [
     150.18745031,
     -33.4681733
    ]
   },
   "properties": {
    "name": "1 BELLS ROAD OAKEY PARK 2790",
    "locID": "LOC000109966799",
    "tech": "FTTN",
    "upgrade": "NULL_NA",
    "gnaf_pid": "GANSW718881074",
    "ee": true,
    "tech_change_status": "Not Planned"
   }
  },
  {
   "type": "Feature",
   "geometry": {
    "type": "Point",
    "coordinates": [
     150.18745031,
     -33.4681733
    ]
   },
   "properties": {
    "name": "1A BELLS ROAD OAKEY PARK 2790",
    "locID": "LOC000160348808",
    "tech": "FTTN",
    "upgrade": "NULL_NA",
    "gnaf_pid": "GANSW718881075",
    "ee": true,
    "tech_change_status": "Not Planned"
   }
  },
  {
   "type": "Feature",
   "geometry": {
    "type": "Point",
    "coordinates": [
     150.1859509,
     -33.46804637
    ]
   },
   "properties": {
    "name": "21 BELLS ROAD OAKEY PARK 2790",
    "locID": "LOC000160348812",
    "tech": "FTTN",
    "upgrade": "NULL_NA",
    "gnaf_pid": "GANSW718881076",
    "ee": true,
    "tech_change_status": "Not Planned"
   }
  },
  {
   "type": "Feature",
   "geometry": {
    "type": "Point",
    "coordinates": [
     150.18646102,
     -33.46766269
    ]
   },
   "properties": {
    "name": "22 BELLS ROAD OAKEY PARK 2790",
    "locID": "LOC000160348561",
    "tech": "FTTN",
    "upgrade": "NULL_NA",
    "gnaf_pid": "GANSW718881077",
    "ee": true,
    "tech_change_status": "Not Planned"
   }
  },
  {
   "type": "Feature",
   "geometry": {
    "type": "Point",
    "coordinates": [
     150.18579245,
     -33.46802378
    ]
   },
   "properties": {
    "name": "23 BELLS ROAD OAKEY PARK 2790",
    "locID": "LOC000160347935",
    "tech": "FTTN",
    "upgrade": "NULL_NA",
    "gnaf_pid": "GANSW718881078",
    "ee": true,
    "tech_change_status": "Not Planned"
   }
  },
  {
   "type": "Feature",
   "geometry": {
    "type": "Point",
    "coordinates": [
     150.18625035,
     -33.46762543
    ]
   },
   "properties": {
    "name": "24 BELLS ROAD OAKEY PARK 2790",
    "locID": "LOC000160348705",
    "tech": "FTTN",
    "upgrade": "NULL_NA",
    "gnaf_pid": "GANSW718881079",
    "ee": true,
    "tech_change_status": "Not Planned"
   }
  },
  {
   "type": "Feature",
   "geometry": {
    "type": "Point",
    "coordinates": [
     150.18564384,
     -33.46799731
    ]
   },
   "properties": {
    "name": "25 BELLS ROAD OAKEY PARK 2790",
    "locID": "LOC000160348849",
    "tech": "FTTN",
    "upgrade": "NULL_NA",
    "gnaf_pid": "GANSW718881080",
    "ee": true,
    "tech_change_status": "Not Planned"
   }
  },
  {
   "type": "Feature",
   "geometry": {
    "type": "Point",
    "coordinates": [
     150.18518931,
     -33.46796714
    ]
   },
   "properties": {
    "name": "29 BELLS ROAD OAKEY PARK 2790",
    "locID": "LOC000160348934",
    "tech": "FTTN",
    "upgrade": "NULL_NA",
    "gnaf_pid": "GANSW718881081",
    "ee": true,
    "tech_change_status": "Not Planned"
   }
  },
  {
   "type": "Feature",
   "geometry": {
    "type": "Point",
    "coordinates": [
     150.18772679,
     -33.4677997
    ]
   },
   "properties": {
    "name": "2 BELLS ROAD OAKEY PARK 2790",
    "locID": "LOC000160348999",
    "tech": "FTTN",
    "upgrade": "NULL_NA",
    "gnaf_pid": "GANSW718881082",
    "ee": true,
    "tech_change_status": "Not Planned"
   }
  },
  {
   "type": "Feature",
   "geometry": {
    "type": "Point",
    "coordinates": [
     150.18498481,
     -33.46797244
    ]
   },
   "properties": {
    "name": "31 BELLS ROAD OAKEY PARK 2790",
    "locID": "LOC000160349051",
    "tech": "FTTN",
    "upgrade": "NULL_NA",
    "gnaf_pid": "GANSW718881083",
    "ee": true,
    "tech_change_status": "Not Planned"
   }
  },
  {
   "type": "Feature",
   "geometry": {
    "type": "Point",
    "coordinates": [
     150.18603719,
     -33.46758804
    ]
   },
   "properties": {
    "name": "32 BELLS ROAD OAKEY PARK 2790",
    "locID": "LOC000160348557",
    "tech": "FTTN",
    "upgrade": "NULL_NA",
    "gnaf_pid": "GANSW718881084",
    "ee": true,
    "tech_change_status": "Not Planned"
   }
  },
  {
   "type": "Feature",
   "geometry": {
    "type": "Point",
    "coordinates": [
     150.18450733,
     -33.46804104
    ]
   },
   "properties": {
    "name": "33 BELLS ROAD OAKEY PARK 2790",
    "locID": "LOC000160347942",
    "tech": "FTTN",
    "upgrade": "NULL_NA",
    "gnaf_pid": "GANSW718881085",
    "ee": true,
    "tech_change_status": "Not Planned"
   }
  },
  {
   "type": "Feature",
   "geometry": {
    "type": "Point",
    "coordinates": [
     150.18582517,
     -33.46754391
    ]
   },
   "properties": {
    "name": "34 BELLS ROAD OAKEY PARK 2790",
    "locID": "LOC000160348459",
    "tech": "FTTN",
    "upgrade": "NULL_NA",
    "gnaf_pid": "GANSW718881086",
    "ee": true,
    "tech_change_status": "Not Planned"
   }
  },
  {
   "type": "Feature",
   "geometry": {
    "type": "Point",
    "coordinates": [
     150.18565178,
     -33.4675018
    ]
   },
   "properties": {
    "name": "36 BELLS ROAD OAKEY PARK 2790",
    "locID": "LOC000160348722",
    "tech": "FTTN",
    "upgrade": "NULL_NA",
    "gnaf_pid": "GANSW718881087",
    "ee": true,
    "tech_change_status": "Not Planned"
   }
  },
  {
   "type": "Feature",
   "geometry": {
    "type": "Point",
    "coordinates": [
     150.18551855,
     -33.4674689
    ]
   },
   "properties": {
    "name": "38 BELLS ROAD OAKEY PARK 2790",
    "locID": "LOC000160348588",
    "tech": "FTTN",
    "upgrade": "NULL_NA",
    "gnaf_pid": "GANSW718881088",
    "ee": true,
    "tech_change_status": "Not Planned"
   }
  },
  {
   "type": "Feature",
   "geometry": {
    "type": "Point",
    "coordinates": [
     150.18760101,
     -33.46776906
    ]
   },
   "properties": {
    "name": "4 BELLS ROAD OAKEY PARK 2790",
    "locID": "LOC000160348213",
    "tech": "FTTN",
    "upgrade": "NULL_NA",
    "gnaf_pid": "GANSW718881089",
    "ee": true,
    "tech_change_status": "Not Planned"
   }
  },
  {
   "type": "Feature",
   "geometry": {
    "type": "Point",
    "coordinates": [
     150.18302485,
     -33.46807544
    ]
   },
   "properties": {
    "name": "56 BELLS ROAD OAKEY PARK 2790",
    "locID": "LOC000160348353",
    "tech": "FTTN",
    "upgrade": "NULL_NA",
    "gnaf_pid": "GANSW718881090",
    "ee": true,
    "tech_change_status": "Not Planned"
   }
  },
  {
   "type": "Feature",
   "geometry": {
    "type": "Point",
    "coordinates": [
     150.18722934,
     -33.46816736
    ]
   },
   "properties": {
    "name": "5 BELLS ROAD OAKEY PARK 2790",
    "locID": "LOC000160348444",
    "tech": "FTTN",
    "upgrade": "NULL_NA",
    "gnaf_pid": "GANSW718881091",
    "ee": true,
    "tech_change_status": "Not Planned"
   }
  },
  {
   "type": "Feature",
   "geometry": {
    "type": "Point",
    "coordinates": [
     150.18274321,
     -33.46833957
    ]
   },
   "properties": {
    "name": "62 BELLS ROAD OAKEY PARK 2790",
    "locID": "LOC000160349067",
    "tech": "FTTC",
    "upgrade": "FTTP_SA",
    "gnaf_pid": "GANSW718881092",
    "ee": true,
    "tech_change_status": "Eligible to Order"
   }
  },
  {
   "type": "Feature",
   "geometry": {
    "type": "Point",
    "coordinates": [
     150.18231842,
     -33.46851197
    ]
   },
   "properties": {
    "name": "64 BELLS ROAD OAKEY PARK 2790",
    "locID": "LOC000160349005",
    "tech": "FTTC",
    "upgrade": "FTTP_SA",
    "gnaf_pid": "GANSW718881093",
    "ee": true,
    "tech_change_status": "Eligible to Order"
   }
  },
  {
   "type": "Feature",
   "geometry": {
    "type": "Point",
    "coordinates": [
     150.1874877,
     -33.46777849
    ]
   },
   "properties": {
    "name": "6 BELLS ROAD OAKEY PARK 2790",
    "locID": "LOC000160347608",
    "tech": "FTTN",
    "upgrade": "NULL_NA",
    "gnaf_pid": "GANSW718881094",
    "ee": true,
    "tech_change_status": "Not Planned"
   }
  },
  {
   "type": "Feature",
   "geometry": {
    "type": "Point",
    "coordinates": [
     150.18210221,
     -33.46858271
    ]
   },
   "properties": {
    "name": "70 BELLS ROAD OAKEY PARK 2790",
    "locID": "LOC000160349079",
    "tech": "FTTC",
    "upgrade": "FTTP_SA",
    "gnaf_pid": "GANSW718881095",
    "ee": true,
    "tech_change_status": "Eligible to Order"
   }
  },
  {
   "type": "Feature",
   "geometry": {
    "type": "Point",
    "coordinates": [
     150.18178206,
     -33.46863571
    ]
   },
   "properties": {
    "name": "74 BELLS ROAD OAKEY PARK 2790",
    "locID": "LOC000160347510",
    "tech": "FTTC",
    "upgrade": "FTTP_SA",
    "gnaf_pid": "GANSW718881096",
    "ee": true,
    "tech_change_status": "Eligible to Order"
   }
  },
  {
   "type": "Feature",
   "geometry": {
    "type": "Point",
    "coordinates": [
     150.18142156,
     -33.46877083
    ]
   },
   "properties": {
    "name": "76 BELLS ROAD OAKEY PARK 2790",
    "locID": "LOC000160348297",
    "tech": "FTTC",
    "upgrade": "FTTP_SA",
    "gnaf_pid": "GANSW718881097",
    "ee": true,
    "tech_change_status": "Eligible to Order"
   }
  },
  {
   "type": "Feature",
   "geometry": {
    "type": "Point",
    "coordinates": [
     150.18135897,
     -33.46894271
    ]
   },
   "properties": {
    "name": "78 BELLS ROAD OAKEY PARK 2790",
    "locID": "LOC000160347575",
    "tech": "FTTC",
    "upgrade": "FTTP_SA",
    "gnaf_pid": "GANSW718881098",
    "ee": true,
    "tech_change_status": "Eligible to Order"
   }
  },
  {
   "type": "Feature",
   "geometry": {
    "type": "Point",
    "coordinates": [
     150.18701489,
     -33.46815477
    ]
   },
   "properties": {
    "name": "7 BELLS ROAD OAKEY PARK 2790",
    "locID": "LOC000160348574",
    "tech": "FTTN",
    "upgrade": "NULL_NA",
    "gnaf_pid": "GANSW718881099",
    "ee": true,
    "tech_change_status": "Not Planned"
   }
  },
  {
   "type": "Feature",
   "geometry": {
    "type": "Point",
    "coordinates": [
     150.18126056,
     -33.46900909
    ]
   },
   "properties": {
    "name": "80 BELLS ROAD OAKEY PARK 2790",
    "locID": "LOC000160348094",
    "tech": "FTTC",
    "upgrade": "FTTP_SA",
    "gnaf_pid": "GANSW718881100",
    "ee": true,
    "tech_change_status": "Eligible to Order"
   }
  },
  {
   "type": "Feature",
   "geometry": {
    "type": "Point",
    "coordinates": [
     150.18112721,
     -33.46909954
    ]
   },
   "properties": {
    "name": "84 BELLS ROAD OAKEY PARK 2790",
    "locID": "LOC000160348981",
    "tech": "FTTC",
    "upgrade": "FTTP_SA",
    "gnaf_pid": "GANSW718881101",
    "ee": true,
    "tech_change_status": "Eligible to Order"
   }
  },
  {
   "type": "Feature",
   "geometry": {
    "type": "Point",
    "coordinates": [
     150.18101736,
     -33.46929083
    ]
   },
   "properties": {
    "name": "86 BELLS ROAD OAKEY PARK 2790",
    "locID": "LOC000160348127",
    "tech": "FTTC",
    "upgrade": "FTTP_SA",
    "gnaf_pid": "GANSW718881102",
    "ee": true,
    "tech_change_status": "Eligible to Order"
   }
  },
  {
   "type": "Feature",
   "geometry": {
    "type": "Point",
    "coordinates": [
     150.18088535,
     -33.46938033
    ]
   },
   "properties": {
    "name": "88 BELLS ROAD OAKEY PARK 2790",
    "locID": "LOC000160348250",
    "tech": "FTTC",
    "upgrade": "FTTP_SA",
    "gnaf_pid": "GANSW718881103",
    "ee": true,
    "tech_change_status": "Eligible to Order"
   }
  },
  {
   "type": "Feature",
   "geometry": {
    "type": "Point",
    "coordinates": [
     150.18078486,
     -33.46944833
    ]
   },
   "properties": {
    "name": "92 BELLS ROAD OAKEY PARK 2790",
    "locID": "LOC000160348311",
    "tech": "FTTC",
    "upgrade": "FTTP_SA",
    "gnaf_pid": "GANSW718881104",
    "ee": true,
    "tech_change_status": "Eligible to Order"
   }
  },
  {
   "type": "Feature",
   "geometry": {
    "type": "Point",
    "coordinates": [
     150.18063841,
     -33.46954758
    ]
   },
   "properties": {
    "name": "96 BELLS ROAD OAKEY PARK 2790",
    "locID": "LOC000160348115",
    "tech": "FTTC",
    "upgrade": "FTTP_SA",
    "gnaf_pid": "GANSW718881105",
    "ee": true,
    "tech_change_status": "Eligible to Order"
   }
  },
  {
   "type": "Feature",
   "geometry": {
    "type": "Point",
    "coordinates": [
     150.1805075,
     -33.46964435
    ]
   },
   "properties": {
    "name": "98 BELLS ROAD OAKEY PARK 2790",
    "locID": "LOC000160348245",
    "tech": "FTTC",
    "upgrade": "FTTP_SA",
    "gnaf_pid": "GANSW718881106",
    "ee": true,
    "tech_change_status": "Eligible to Order"
   }
  },
  {
   "type": "Feature",
   "geometry": {
    "type": "Point",
    "coordinates": [
     150.18532857,
     -33.46631011
    ]
   },
   "properties": {
    "name": "10 BRAGG STREET OAKEY PARK 2790",
    "locID": "LOC000160348428",
    "tech": "FTTN",
    "upgrade": "NULL_NA",
    "gnaf_pid": "GANSW718881691",
    "ee": true,
    "tech_change_status": "Not Planned"
   }
  },
  {
   "type": "Feature",
   "geometry": {
    "type": "Point",
    "coordinates": [
     150.18576799,
     -33.4664935
    ]
   },
   "properties": {
    "name": "11 BRAGG STREET OAKEY PARK 2790",
    "locID": "LOC000160348170",
    "tech": "FTTN",
    "upgrade": "NULL_NA",
    "gnaf_pid": "GANSW718881692",
    "ee": true,
    "tech_change_status": "Not Planned"
   }
  },
  {
   "type": "Feature",
   "geometry": {
    "type": "Point",
    "coordinates": [
     150.18537593,
     -33.46614807
    ]
   },
   "properties": {
    "name": "12 BRAGG STREET OAKEY PARK 2790",
    "locID": "LOC000160348638",
    "tech": "FTTN",
    "upgrade": "NULL_NA",
    "gnaf_pid": "GANSW718881693",
    "ee": true,
    "tech_change_status": "Not Planned"
   }
  },
  {
   "type": "Feature",
   "geometry": {
    "type": "Point",
    "coordinates": [
     150.18578417,
     -33.46638113
    ]
   },
   "properties": {
    "name": "13 BRAGG STREET OAKEY PARK 2790",
    "locID": "LOC000160348526",
    "tech": "FTTN",
    "upgrade": "NULL_NA",
    "gnaf_pid": "GANSW718881694",
    "ee": true,
    "tech_change_status": "Not Planned"
   }
  },
  {
   "type": "Feature",
   "geometry": {
    "type": "Point",
    "coordinates": [
     150.18615373,
     -33.46698019
    ]
   },
   "properties": {
    "name": "15 BRAGG STREET OAKEY PARK 2790",
    "locID": "LOC000160348535",
    "tech": "FTTN",
    "upgrade": "NULL_NA",
    "gnaf_pid": "GANSW718881695",
    "ee": true,
    "tech_change_status": "Not Planned"
   }
  },
  {
   "type": "Feature",
   "geometry": {
    "type": "Point",
    "coordinates": [
     150.18518552,
     -33.46672158
    ]
   },
   "properties": {
    "name": "2 BRAGG STREET OAKEY PARK 2790",
    "locID": "LOC000160348503",
    "tech": "FTTN",
    "upgrade": "NULL_NA",
    "gnaf_pid": "GANSW718881696",
    "ee": true,
    "tech_change_status": "Not Planned"
   }
  },
  {
   "type": "Feature",
   "geometry": {
    "type": "Point",
    "coordinates": [
     150.18561646,
     -33.46699588
    ]
   },
   "properties": {
    "name": "3 BRAGG STREET OAKEY PARK 2790",
    "locID": "LOC000160348906",
    "tech": "FTTN",
    "upgrade": "NULL_NA",
    "gnaf_pid": "GANSW718881697",
    "ee": true,
    "tech_change_status": "Not Planned"
   }
  },
  {
   "type": "Feature",
   "geometry": {
    "type": "Point",
    "coordinates": [
     150.18521103,
     -33.46662814
    ]
   },
   "properties": {
    "name": "4 BRAGG STREET OAKEY PARK 2790",
    "locID": "LOC000160348162",
    "tech": "FTTN",
    "upgrade": "NULL_NA",
    "gnaf_pid": "GANSW718881698",
    "ee": true,
    "tech_change_status": "Not Planned"
   }
  },
  {
   "type": "Feature",
   "geometry": {
    "type": "Point",
    "coordinates": [
     150.1856667,
     -33.46681788
    ]
   },
   "properties": {
    "name": "5 BRAGG STREET OAKEY PARK 2790",
    "locID": "LOC000160348519",
    "tech": "FTTN",
    "upgrade": "NULL_NA",
    "gnaf_pid": "GANSW718881699",
    "ee": true,
    "tech_change_status": "Not Planned"
   }
  },
  {
   "type": "Feature",
   "geometry": {
    "type": "Point",
    "coordinates": [
     150.18525007,
     -33.46652135
    ]
   },
   "properties": {
    "name": "6 BRAGG STREET OAKEY PARK 2790",
    "locID": "LOC000160348369",
    "tech": "FTTN",
    "upgrade": "NULL_NA",
    "gnaf_pid": "GANSW718881700",
    "ee": true,
    "tech_change_status": "Not Planned"
   }
  },
  {
   "type": "Feature",
   "geometry": {
    "type": "Point",
    "coordinates": [
     150.18569938,
     -33.46671292
    ]
   },
   "properties": {
    "name": "7 BRAGG STREET OAKEY PARK 2790",
    "locID": "LOC000160348629",
    "tech": "FTTN",
    "upgrade": "NULL_NA",
    "gnaf_pid": "GANSW718881701",
    "ee": true,
    "tech_change_status": "Not Planned"
   }
  },
  {
   "type": "Feature",
   "geometry": {
    "type": "Point",
    "coordinates": [
     150.1852889,
     -33.46641631
    ]
   },
   "properties": {
    "name": "8 BRAGG STREET OAKEY PARK 2790",
    "locID": "LOC000160348590",
    "tech": "FTTN",
    "upgrade": "NULL_NA",
    "gnaf_pid": "GANSW718881702",
    "ee": true,
    "tech_change_status": "Not Planned"
   }
  },
  {
   "type": "Feature",
   "geometry": {
    "type": "Point",
    "coordinates": [
     150.18573299,
     -33.46660561
    ]
   },
   "properties": {
    "name": "9 BRAGG STREET OAKEY PARK 2790",
    "locID": "LOC000160348382",
    "tech": "FTTN",
    "upgrade": "NULL_NA",
    "gnaf_pid": "GANSW718881703",
    "ee": true,
    "tech_change_status": "Not Planned"
   }
  },
  {
   "type": "Feature",
   "geometry": {
    "type": "Point",
    "coordinates": [
     150.18293646,
     -33.46374713
    ]
   },
   "properties": {
    "name": "1A BREWERY LANE OAKEY PARK 2790",
    "locID": "LOC000160347762",
    "tech": "FTTN",
    "upgrade": "NULL_NA",
    "gnaf_pid": "GANSW718881723",
    "ee": true,
    "tech_change_status": "Not Planned"
   }
  },
  {
   "type": "Feature",
   "geometry": {
    "type": "Point",
    "coordinates": [
     150.18601018,
     -33.46369896
    ]
   },
   "properties": {
    "name": "1B BREWERY LANE OAKEY PARK 2790",
    "locID": "LOC000160348910",
    "tech": "FTTN",
    "upgrade": "NULL_NA",
    "gnaf_pid": "GANSW718881724",
    "ee": true,
    "tech_change_status": "Not Planned"
   }
  },
  {
   "type": "Feature",
   "geometry": {
    "type": "Point",
    "coordinates": [
     150.18438381,
     -33.46467136
    ]
   },
   "properties": {
    "name": "2 BREWERY LANE OAKEY PARK 2790",
    "locID": "LOC000160347893",
    "tech": "FTTN",
    "upgrade": "NULL_NA",
    "gnaf_pid": "GANSW718881725",
    "ee": true,
    "tech_change_status": "Not Planned"
   }
  },
  {
   "type": "Feature",
   "geometry": {
    "type": "Point",
    "coordinates": [
     150.18448418,
     -33.46501357
    ]
   },
   "properties": {
    "name": "3 BREWERY LANE OAKEY PARK 2790",
    "locID": "LOC000160347318",
    "tech": "FTTN",
    "upgrade": "NULL_NA",
    "gnaf_pid": "GANSW718881726",
    "ee": true,
    "tech_change_status": "Not Planned"
   }
  },
  {
   "type": "Feature",
   "geometry": {
    "type": "Point",
    "coordinates": [
     150.18453046,
     -33.46535145
    ]
   },
   "properties": {
    "name": "4 BREWERY LANE OAKEY PARK 2790",
    "locID": "LOC000160348056",
    "tech": "FTTN",
    "upgrade": "NULL_NA",
    "gnaf_pid": "GANSW718881727",
    "ee": true,
    "tech_change_status": "Not Planned"
   }
  },
  {
   "type": "Feature",
   "geometry": {
    "type": "Point",
    "coordinates": [
     150.18455981,
     -33.46571728
    ]
   },
   "properties": {
    "name": "5 BREWERY LANE OAKEY PARK 2790",
    "locID": "LOC000160347789",
    "tech": "FTTN",
    "upgrade": "NULL_NA",
    "gnaf_pid": "GANSW718881728",
    "ee": true,
    "tech_change_status": "Not Planned"
   }
  },
  {
   "type": "Feature",
   "geometry": {
    "type": "Point",
    "coordinates": [
     150.18473142,
     -33.46609765
    ]
   },
   "properties": {
    "name": "10 BRISBANE STREET OAKEY PARK 2790",
    "locID": "LOC000160347903",
    "tech": "FTTN",
    "upgrade": "NULL_NA",
    "gnaf_pid": "GANSW718881980",
    "ee": true,
    "tech_change_status": "Not Planned"
   }
  },
  {
   "type": "Feature",
   "geometry": {
    "type": "Point",
    "coordinates": [
     150.18475928,
     -33.46600742
    ]
   },
   "properties": {
    "name": "12 BRISBANE STREET OAKEY PARK 2790",
    "locID": "LOC000160347919",
    "tech": "FTTN",
    "upgrade": "NULL_NA",
    "gnaf_pid": "GANSW718881981",
    "ee": true,
    "tech_change_status": "Not Planned"
   }
  },
  {
   "type": "Feature",
   "geometry": {
    "type": "Point",
    "coordinates": [
     150.18514512,
     -33.46601803
    ]
   },
   "properties": {
    "name": "13 BRISBANE STREET OAKEY PARK 2790",
    "locID": "LOC000160348376",
    "tech": "FTTN",
    "upgrade": "NULL_NA",
    "gnaf_pid": "GANSW718881982",
    "ee": true,
    "tech_change_status": "Not Planned"
   }
  },
  {
   "type": "Feature",
   "geometry": {
    "type": "Point",
    "coordinates": [
     150.18492917,
     -33.46660368
    ]
   },
   "properties": {
    "name": "1A BRISBANE STREET OAKEY PARK 2790",
    "locID": "LOC000160348779",
    "tech": "FTTN",
    "upgrade": "NULL_NA",
    "gnaf_pid": "GANSW718881983",
    "ee": true,
    "tech_change_status": "Not Planned"
   }
  },
  {
   "type": "Feature",
   "geometry": {
    "type": "Point",
    "coordinates": [
     150.18449001,
     -33.46645102
    ]
   },
   "properties": {
    "name": "2 BRISBANE STREET OAKEY PARK 2790",
    "locID": "LOC000160347302",
    "tech": "FTTN",
    "upgrade": "NULL_NA",
    "gnaf_pid": "GANSW718881984",
    "ee": true,
    "tech_change_status": "Not Planned"
   }
  },
  {
   "type": "Feature",
   "geometry": {
    "type": "Point",
    "coordinates": [
     150.18496374,
     -33.46649594
    ]
   },
   "properties": {
    "name": "3 BRISBANE STREET OAKEY PARK 2790",
    "locID": "LOC000160348751",
    "tech": "FTTN",
    "upgrade": "NULL_NA",
    "gnaf_pid": "GANSW718881985",
    "ee": true,
    "tech_change_status": "Not Planned"
   }
  },
  {
   "type": "Feature",
   "geometry": {
    "type": "Point",
    "coordinates": [
     150.18451351,
     -33.46634954
    ]
   },
   "properties": {
    "name": "4 BRISBANE STREET OAKEY PARK 2790",
    "locID": "LOC000160347133",
    "tech": "FTTN",
    "upgrade": "NULL_NA",
    "gnaf_pid": "GANSW718881986",
    "ee": true,
    "tech_change_status": "Not Planned"
   }
  },
  {
   "type": "Feature",
   "geometry": {
    "type": "Point",
    "coordinates": [
     150.18499847,
     -33.46640127
    ]
   },
   "properties": {
    "name": "5 BRISBANE STREET OAKEY PARK 2790",
    "locID": "LOC000160348278",
    "tech": "FTTN",
    "upgrade": "NULL_NA",
    "gnaf_pid": "GANSW718881987",
    "ee": true,
    "tech_change_status": "Not Planned"
   }
  },
  {
   "type": "Feature",
   "geometry": {
    "type": "Point",
    "coordinates": [
     150.18453754,
     -33.46625928
    ]
   },
   "properties": {
    "name": "6 BRISBANE STREET OAKEY PARK 2790",
    "locID": "LOC000160347568",
    "tech": "FTTN",
    "upgrade": "NULL_NA",
    "gnaf_pid": "GANSW718881988",
    "ee": true,
    "tech_change_status": "Not Planned"
   }
  },
  {
   "type": "Feature",
   "geometry": {
    "type": "Point",
    "coordinates": [
     150.18503228,
     -33.46630879
    ]
   },
   "properties": {
    "name": "7 BRISBANE STREET OAKEY PARK 2790",
    "locID": "LOC000160348266",
    "tech": "FTTN",
    "upgrade": "NULL_NA",
    "gnaf_pid": "GANSW718881989",
    "ee": true,
    "tech_change_status": "Not Planned"
   }
  },
  {
   "type": "Feature",
   "geometry": {
    "type": "Point",
    "coordinates": [
     150.18456457,
     -33.46616608
    ]
   },
   "properties": {
    "name": "8 BRISBANE STREET OAKEY PARK 2790",
    "locID": "LOC000160348209",
    "tech": "FTTN",
    "upgrade": "NULL_NA",
    "gnaf_pid": "GANSW718881990",
    "ee": true,
    "tech_change_status": "Not Planned"
   }
  },
  {
   "type": "Feature",
   "geometry": {
    "type": "Point",
    "coordinates": [
     150.185082,
     -33.46617139
    ]
   },
   "properties": {
    "name": "9 BRISBANE STREET OAKEY PARK 2790",
    "locID": "LOC000160348601",
    "tech": "FTTN",
    "upgrade": "NULL_NA",
    "gnaf_pid": "GANSW718881991",
    "ee": true,
    "tech_change_status": "Not Planned"
   }
  },
  {
   "type": "Feature",
   "geometry": {
    "type": "Point",
    "coordinates": [
     150.17929737,
     -33.46997104
    ]
   },
   "properties": {
    "name": "11 BROOK STREET OAKEY PARK 2790",
    "locID": "LOC000160347484",
    "tech": "FTTC",
    "upgrade": "FTTP_SA",
    "gnaf_pid": "GANSW718882052",
    "ee": true,
    "tech_change_status": "Eligible to Order"
   }
  },
  {
   "type": "Feature",
   "geometry": {
    "type": "Point",
    "coordinates": [
     150.1791623,
     -33.4700335
    ]
   },
   "properties": {
    "name": "13 BROOK STREET OAKEY PARK 2790",
    "locID": "LOC000160347198",
    "tech": "FTTC",
    "upgrade": "FTTP_SA",
    "gnaf_pid": "GANSW718882053",
    "ee": true,
    "tech_change_status": "Eligible to Order"
   }
  },
  {
   "type": "Feature",
   "geometry": {
    "type": "Point",
    "coordinates": [
     150.17907761,
     -33.47009063
    ]
   },
   "properties": {
    "name": "15 BROOK STREET OAKEY PARK 2790",
    "locID": "LOC000160347497",
    "tech": "FTTC",
    "upgrade": "FTTP_SA",
    "gnaf_pid": "GANSW718882054",
    "ee": true,
    "tech_change_status": "Eligible to Order"
   }
  },
  {
   "type": "Feature",
   "geometry": {
    "type": "Point",
    "coordinates": [
     150.17899377,
     -33.47014695
    ]
   },
   "properties": {
    "name": "17 BROOK STREET OAKEY PARK 2790",
    "locID": "LOC000160347200",
    "tech": "FTTP",
    "upgrade": "NULL_NA",
    "gnaf_pid": "GANSW718882055",
    "ee": true
   }
  },
  {
   "type": "Feature",
   "geometry": {
    "type": "Point",
    "coordinates": [
     150.17891044,
     -33.47020391
    ]
   },
   "properties": {
    "name": "19 BROOK STREET OAKEY PARK 2790",
    "locID": "LOC000160347677",
    "tech": "FTTC",
    "upgrade": "FTTP_SA",
    "gnaf_pid": "GANSW718882056",
    "ee": true,
    "tech_change_status": "Eligible to Order"
   }
  },
  {
   "type": "Feature",
   "geometry": {
    "type": "Point",
    "coordinates": [
     150.17956465,
     -33.46944316
    ]
   },
   "properties": {
    "name": "1A BROOK STREET OAKEY PARK 2790",
    "locID": "LOC000160347840",
    "tech": "FTTC",
    "upgrade": "NULL_NA",
    "gnaf_pid": "GANSW718882057",
    "ee": true
   }
  },
  {
   "type": "Feature",
   "geometry": {
    "type": "Point",
    "coordinates": [
     150.17881334,
     -33.4702887
    ]
   },
   "properties": {
    "name": "21 BROOK STREET OAKEY PARK 2790",
    "locID": "LOC000160347413",
    "tech": "FTTC",
    "upgrade": "FTTP_SA",
    "gnaf_pid": "GANSW718882058",
    "ee": true,
    "tech_change_status": "Eligible to Order"
   }
  },
  {
   "type": "Feature",
   "geometry": {
    "type": "Point",
    "coordinates": [
     150.17868583,
     -33.47034937
    ]
   },
   "properties": {
    "name": "23 BROOK STREET OAKEY PARK 2790",
    "locID": "LOC000160347506",
    "tech": "FTTC",
    "upgrade": "FTTP_SA",
    "gnaf_pid": "GANSW718882059",
    "ee": true,
    "tech_change_status": "Eligible to Order"
   }
  },
  {
   "type": "Feature",
   "geometry": {
    "type": "Point",
    "coordinates": [
     150.17853372,
     -33.47039087
    ]
   },
   "properties": {
    "name": "25 BROOK STREET OAKEY PARK 2790",
    "locID": "LOC000160347216",
    "tech": "FTTC",
    "upgrade": "FTTP_SA",
    "gnaf_pid": "GANSW718882060",
    "ee": true,
    "tech_change_status": "Eligible to Order"
   }
  },
  {
   "type": "Feature",
   "geometry": {
    "type": "Point",
    "coordinates": [
     150.17812748,
     -33.47052875
    ]
   },
   "properties": {
    "name": "27 BROOK STREET OAKEY PARK 2790",
    "locID": "LOC000160348947",
    "tech": "FTTC",
    "upgrade": "FTTP_SA",
    "gnaf_pid": "GANSW718882061",
    "ee": true,
    "tech_change_status": "Eligible to Order"
   }
  },
  {
   "type": "Feature",
   "geometry": {
    "type": "Point",
    "coordinates": [
     150.17952327,
     -33.46955423
    ]
   },
   "properties": {
    "name": "3 BROOK STREET OAKEY PARK 2790",
    "locID": "LOC000160348746",
    "tech": "FTTC",
    "upgrade": "NULL_NA",
    "gnaf_pid": "GANSW718882062",
    "ee": true
   }
  },
  {
   "type": "Feature",
   "geometry": {
    "type": "Point",
    "coordinates": [
     150.17885258,
     -33.46963639
    ]
   },
   "properties": {
    "name": "4 BROOK STREET OAKEY PARK 2790",
    "locID": "LOC000160347409",
    "tech": "FTTP",
    "upgrade": "NULL_NA",
    "gnaf_pid": "GANSW718882063",
    "ee": true
   }
  },
  {
   "type": "Feature",
   "geometry": {
    "type": "Point",
    "coordinates": [
     150.17949238,
     -33.46963935
    ]
   },
   "properties": {
    "name": "5 BROOK STREET OAKEY PARK 2790",
    "locID": "LOC000160347180",
    "tech": "FTTC",
    "upgrade": "NULL_NA",
    "gnaf_pid": "GANSW718882064",
    "ee": true
   }
  },
  {
   "type": "Feature",
   "geometry": {
    "type": "Point",
    "coordinates": [
     150.179477,
     -33.46972604
    ]
   },
   "properties": {
    "name": "7 BROOK STREET OAKEY PARK 2790",
    "locID": "LOC000160347654",
    "tech": "FTTC",
    "upgrade": "NULL_NA",
    "gnaf_pid": "GANSW718882066",
    "ee": true
   }
  },
  {
   "type": "Feature",
   "geometry": {
    "type": "Point",
    "coordinates": [
     150.17944594,
     -33.46985226
    ]
   },
   "properties": {
    "name": "9 BROOK STREET OAKEY PARK 2790",
    "locID": "LOC000160347292",
    "tech": "FTTC",
    "upgrade": "NULL_NA",
    "gnaf_pid": "GANSW718882068",
    "ee": true
   }
  },
  {
   "type": "Feature",
   "geometry": {
    "type": "Point",
    "coordinates": [
     150.18172106,
     -33.46777061
    ]
   },
   "properties": {
    "name": "10 HAY STREET OAKEY PARK 2790",
    "locID": "LOC000160348896",
    "tech": "FTTC",
    "upgrade": "FTTP_SA",
    "gnaf_pid": "GANSW718886940",
    "ee": true,
    "tech_change_status": "Eligible to Order"
   }
  },
  {
   "type": "Feature",
   "geometry": {
    "type": "Point",
    "coordinates": [
     150.1816014,
     -33.46765033
    ]
   },
   "properties": {
    "name": "12 HAY STREET OAKEY PARK 2790",
    "locID": "LOC000160347387",
    "tech": "FTTC",
    "upgrade": "FTTP_SA",
    "gnaf_pid": "GANSW718886941",
    "ee": true,
    "tech_change_status": "Eligible to Order"
   }
  },
  {
   "type": "Feature",
   "geometry": {
    "type": "Point",
    "coordinates": [
     150.18204952,
     -33.46733758
    ]
   },
   "properties": {
    "name": "13 HAY STREET OAKEY PARK 2790",
    "locID": "LOC000160348655",
    "tech": "FTTC",
    "upgrade": "FTTP_SA",
    "gnaf_pid": "GANSW718886942",
    "ee": true,
    "tech_change_status": "Eligible to Order"
   }
  },
  {
   "type": "Feature",
   "geometry": {
    "type": "Point",
    "coordinates": [
     150.18148981,
     -33.46751486
    ]
   },
   "properties": {
    "name": "14 HAY STREET OAKEY PARK 2790",
    "locID": "LOC000160347360",
    "tech": "FTTC",
    "upgrade": "NULL_NA",
    "gnaf_pid": "GANSW718886943",
    "ee": true
   }
  },
  {
   "type": "Feature",
   "geometry": {
    "type": "Point",
    "coordinates": [
     150.18194518,
     -33.4672109
    ]
   },
   "properties": {
    "name": "17 HAY STREET OAKEY PARK 2790",
    "locID": "LOC000160348189",
    "tech": "FTTC",
    "upgrade": "NULL_NA",
    "gnaf_pid": "GANSW718886944",
    "ee": true
   }
  },
  {
   "type": "Feature",
   "geometry": {
    "type": "Point",
    "coordinates": [
     150.18187992,
     -33.4671312
    ]
   },
   "properties": {
    "name": "19 HAY STREET OAKEY PARK 2790",
    "locID": "LOC000160348073",
    "tech": "FTTC",
    "upgrade": "NULL_NA",
    "gnaf_pid": "GANSW718886945",
    "ee": true
   }
  },
  {
   "type": "Feature",
   "geometry": {
    "type": "Point",
    "coordinates": [
     150.18136052,
     -33.4673781
    ]
   },
   "properties": {
    "name": "20 HAY STREET OAKEY PARK 2790",
    "locID": "LOC000160347817",
    "tech": "FTTC",
    "upgrade": "NULL_NA",
    "gnaf_pid": "GANSW718886946",
    "ee": true
   }
  },
  {
   "type": "Feature",
   "geometry": {
    "type": "Point",
    "coordinates": [
     150.18121854,
     -33.46722155
    ]
   },
   "properties": {
    "name": "22 HAY STREET OAKEY PARK 2790",
    "locID": "LOC000160347523",
    "tech": "FTTC",
    "upgrade": "NULL_NA",
    "gnaf_pid": "GANSW718886947",
    "ee": true
   }
  },
  {
   "type": "Feature",
   "geometry": {
    "type": "Point",
    "coordinates": [
     150.18177925,
     -33.46700852
    ]
   },
   "properties": {
    "name": "23 HAY STREET OAKEY PARK 2790",
    "locID": "LOC000160348693",
    "tech": "FTTC",
    "upgrade": "NULL_NA",
    "gnaf_pid": "GANSW718886948",
    "ee": true
   }
  },
  {
   "type": "Feature",
   "geometry": {
    "type": "Point",
    "coordinates": [
     150.18110218,
     -33.46709267
    ]
   },
   "properties": {
    "name": "24 HAY STREET OAKEY PARK 2790",
    "locID": "LOC000160348952",
    "tech": "FTTC",
    "upgrade": "NULL_NA",
    "gnaf_pid": "GANSW718886949",
    "ee": true
   }
  },
  {
   "type": "Feature",
   "geometry": {
    "type": "Point",
    "coordinates": [
     150.18164361,
     -33.46684274
    ]
   },
   "properties": {
    "name": "25 HAY STREET OAKEY PARK 2790",
    "locID": "LOC000160348284",
    "tech": "FTTC",
    "upgrade": "NULL_NA",
    "gnaf_pid": "GANSW718886950",
    "ee": true
   }
  },
  {
   "type": "Feature",
   "geometry": {
    "type": "Point",
    "coordinates": [
     150.1815077,
     -33.4666776
    ]
   },
   "properties": {
    "name": "27 HAY STREET OAKEY PARK 2790",
    "locID": "LOC000160348672",
    "tech": "FTTC",
    "upgrade": "NULL_NA",
    "gnaf_pid": "GANSW718886951",
    "ee": true
   }
  },
  {
   "type": "Feature",
   "geometry": {
    "type": "Point",
    "coordinates": [
     150.18104524,
     -33.46692389
    ]
   },
   "properties": {
    "name": "28 HAY STREET OAKEY PARK 2790",
    "locID": "LOC000160348798",
    "tech": "FTTC",
    "upgrade": "NULL_NA",
    "gnaf_pid": "GANSW718886952",
    "ee": true
   }
  },
  {
   "type": "Feature",
   "geometry": {
    "type": "Point",
    "coordinates": [
     150.18140629,
     -33.46655291
    ]
   },
   "properties": {
    "name": "29 HAY STREET OAKEY PARK 2790",
    "locID": "LOC000160348686",
    "tech": "FTTP",
    "upgrade": "NULL_NA",
    "gnaf_pid": "GANSW718886953",
    "ee": true,
    "tech_change_status": "Previous Tech Disconnected"
   }
  },
  {
   "type": "Feature",
   "geometry": {
    "type": "Point",
    "coordinates": [
     150.18204024,
     -33.46809331
    ]
   },
   "properties": {
    "name": "2 HAY STREET OAKEY PARK 2790",
    "locID": "LOC000160348780",
    "tech": "FTTC",
    "upgrade": "NULL_NA",
    "gnaf_pid": "GANSW718886954",
    "ee": true
   }
  },
  {
   "type": "Feature",
   "geometry": {
    "type": "Point",
    "coordinates": [
     150.1824621,
     -33.46787999
    ]
   },
   "properties": {
    "name": "3 HAY STREET OAKEY PARK 2790",
    "locID": "LOC000160348865",
    "tech": "FTTC",
    "upgrade": "NULL_NA",
    "gnaf_pid": "GANSW718886955",
    "ee": true
   }
  },
  {
   "type": "Feature",
   "geometry": {
    "type": "Point",
    "coordinates": [
     150.18231689,
     -33.46766378
    ]
   },
   "properties": {
    "name": "5 HAY STREET OAKEY PARK 2790",
    "locID": "LOC000160348664",
    "tech": "FTTC",
    "upgrade": "NULL_NA",
    "gnaf_pid": "GANSW718886956",
    "ee": true
   }
  },
  {
   "type": "Feature",
   "geometry": {
    "type": "Point",
    "coordinates": [
     150.18185674,
     -33.4679239
    ]
   },
   "properties": {
    "name": "6-8A HAY STREET OAKEY PARK 2790",
    "locID": "LOC000160349014",
    "tech": "FTTC",
    "upgrade": "NULL_NA",
    "gnaf_pid": "GANSW718886957",
    "ee": true
   }
  },
  {
   "type": "Feature",
   "geometry": {
    "type": "Point",
    "coordinates": [
     150.18218588,
     -33.46750366
    ]
   },
   "properties": {
    "name": "9 HAY STREET OAKEY PARK 2790",
    "locID": "LOC000160348854",
    "tech": "FTTC",
    "upgrade": "NULL_NA",
    "gnaf_pid": "GANSW718886958",
    "ee": true
   }
  },
  {
   "type": "Feature",
   "geometry": {
    "type": "Point",
    "coordinates": [
     150.18247,
     -33.46734536
    ]
   },
   "properties": {
    "name": "10 MILLS STREET OAKEY PARK 2790",
    "locID": "LOC000160348883",
    "tech": "FTTN",
    "upgrade": "NULL_NA",
    "gnaf_pid": "GANSW718889607",
    "ee": true,
    "tech_change_status": "Not Planned"
   }
  },
  {
   "type": "Feature",
   "geometry": {
    "type": "Point",
    "coordinates": [
     150.18264671,
     -33.46673335
    ]
   },
   "properties": {
    "name": "11 MILLS STREET OAKEY PARK 2790",
    "locID": "LOC000160348060",
    "tech": "FTTN",
    "upgrade": "NULL_NA",
    "gnaf_pid": "GANSW718889608",
    "ee": true,
    "tech_change_status": "Not Planned"
   }
  },
  {
   "type": "Feature",
   "geometry": {
    "type": "Point",
    "coordinates": [
     150.18234487,
     -33.46719438
    ]
   },
   "properties": {
    "name": "14 MILLS STREET OAKEY PARK 2790",
    "locID": "LOC000160349033",
    "tech": "FTTN",
    "upgrade": "NULL_NA",
    "gnaf_pid": "GANSW718889609",
    "ee": true,
    "tech_change_status": "Not Planned"
   }
  },
  {
   "type": "Feature",
   "geometry": {
    "type": "Point",
    "coordinates": [
     150.18249329,
     -33.46654861
    ]
   },
   "properties": {
    "name": "15 MILLS STREET OAKEY PARK 2790",
    "locID": "LOC000160347791",
    "tech": "FTTN",
    "upgrade": "NULL_NA",
    "gnaf_pid": "GANSW718889610",
    "ee": true,
    "tech_change_status": "Not Planned"
   }
  },
  {
   "type": "Feature",
   "geometry": {
    "type": "Point",
    "coordinates": [
     150.18225147,
     -33.46708095
    ]
   },
   "properties": {
    "name": "18 MILLS STREET OAKEY PARK 2790",
    "locID": "LOC000160347534",
    "tech": "FTTN",
    "upgrade": "NULL_NA",
    "gnaf_pid": "GANSW718889611",
    "ee": true,
    "tech_change_status": "Not Planned"
   }
  },
  {
   "type": "Feature",
   "geometry": {
    "type": "Point",
    "coordinates": [
     150.18237026,
     -33.46640013
    ]
   },
   "properties": {
    "name": "19 MILLS STREET OAKEY PARK 2790",
    "locID": "LOC000160347356",
    "tech": "FTTN",
    "upgrade": "NULL_NA",
    "gnaf_pid": "GANSW718889612",
    "ee": true,
    "tech_change_status": "Not Planned"
   }
  },
  {
   "type": "Feature",
   "geometry": {
    "type": "Point",
    "coordinates": [
     150.18219132,
     -33.46700819
    ]
   },
   "properties": {
    "name": "20 MILLS STREET OAKEY PARK 2790",
    "locID": "LOC000160347552",
    "tech": "FTTN",
    "upgrade": "NULL_NA",
    "gnaf_pid": "GANSW718889613",
    "ee": true,
    "tech_change_status": "Not Planned"
   }
  },
  {
   "type": "Feature",
   "geometry": {
    "type": "Point",
    "coordinates": [
     150.1821003,
     -33.4668992
    ]
   },
   "properties": {
    "name": "22 MILLS STREET OAKEY PARK 2790",
    "locID": "LOC000160348975",
    "tech": "FTTN",
    "upgrade": "NULL_NA",
    "gnaf_pid": "GANSW718889614",
    "ee": true,
    "tech_change_status": "Not Planned"
   }
  },
  {
   "type": "Feature",
   "geometry": {
    "type": "Point",
    "coordinates": [
     150.1821505,
     -33.46613529
    ]
   },
   "properties": {
    "name": "23-25 MILLS STREET OAKEY PARK 2790",
    "locID": "LOC000160348400",
    "tech": "FTTN",
    "upgrade": "NULL_NA",
    "gnaf_pid": "GANSW718889615",
    "ee": true,
    "tech_change_status": "Not Planned"
   }
  },
  {
   "type": "Feature",
   "geometry": {
    "type": "Point",
    "coordinates": [
     150.18188473,
     -33.46581388
    ]
   },
   "properties": {
    "name": "27 MILLS STREET OAKEY PARK 2790",
    "locID": "LOC000160348158",
    "tech": "FTTN",
    "upgrade": "NULL_NA",
    "gnaf_pid": "GANSW718889616",
    "ee": true,
    "tech_change_status": "Not Planned"
   }
  },
  {
   "type": "Feature",
   "geometry": {
    "type": "Point",
    "coordinates": [
     150.1819743,
     -33.46674632
    ]
   },
   "properties": {
    "name": "28 MILLS STREET OAKEY PARK 2790",
    "locID": "LOC000160347547",
    "tech": "FTTN",
    "upgrade": "NULL_NA",
    "gnaf_pid": "GANSW718889617",
    "ee": true,
    "tech_change_status": "Not Planned"
   }
  },
  {
   "type": "Feature",
   "geometry": {
    "type": "Point",
    "coordinates": [
     150.18184838,
     -33.4665941
    ]
   },
   "properties": {
    "name": "30 MILLS STREET OAKEY PARK 2790",
    "locID": "LOC000160348968",
    "tech": "FTTN",
    "upgrade": "NULL_NA",
    "gnaf_pid": "GANSW718889618",
    "ee": true,
    "tech_change_status": "Not Planned"
   }
  },
  {
   "type": "Feature",
   "geometry": {
    "type": "Point",
    "coordinates": [
     150.18171107,
     -33.46641547
    ]
   },
   "properties": {
    "name": "36 MILLS STREET OAKEY PARK 2790",
    "locID": "LOC000160348877",
    "tech": "FTTN",
    "upgrade": "NULL_NA",
    "gnaf_pid": "GANSW718889619",
    "ee": true,
    "tech_change_status": "Not Planned"
   }
  },
  {
   "type": "Feature",
   "geometry": {
    "type": "Point",
    "coordinates": [
     150.18298871,
     -33.46715855
    ]
   },
   "properties": {
    "name": "3 MILLS STREET OAKEY PARK 2790",
    "locID": "LOC000160347341",
    "tech": "FTTN",
    "upgrade": "NULL_NA",
    "gnaf_pid": "GANSW718889620",
    "ee": true,
    "tech_change_status": "Not Planned"
   }
  },
  {
   "type": "Feature",
   "geometry": {
    "type": "Point",
    "coordinates": [
     150.18264665,
     -33.46756149
    ]
   },
   "properties": {
    "name": "8 MILLS STREET OAKEY PARK 2790",
    "locID": "LOC000160349046",
    "tech": "FTTN",
    "upgrade": "NULL_NA",
    "gnaf_pid": "GANSW718889621",
    "ee": true,
    "tech_change_status": "Not Planned"
   }
  },
  {
   "type": "Feature",
   "geometry": {
    "type": "Point",
    "coordinates": [
     150.18282977,
     -33.46695466
    ]
   },
   "properties": {
    "name": "9 MILLS STREET OAKEY PARK 2790",
    "locID": "LOC000160348437",
    "tech": "FTTN",
    "upgrade": "NULL_NA",
    "gnaf_pid": "GANSW718889622",
    "ee": true,
    "tech_change_status": "Not Planned"
   }
  },
  {
   "type": "Feature",
   "geometry": {
    "type": "Point",
    "coordinates": [
     150.17996787,
     -33.46955684
    ]
   },
   "properties": {
    "name": "10 VICTORIA AVENUE OAKEY PARK 2790",
    "locID": "LOC000160347285",
    "tech": "FTTC",
    "upgrade": "FTTP_SA",
    "gnaf_pid": "GANSW718895274",
    "ee": true,
    "tech_change_status": "Eligible to Order"
   }
  },
  {
   "type": "Feature",
   "geometry": {
    "type": "Point",
    "coordinates": [
     150.17998337,
     -33.46946634
    ]
   },
   "properties": {
    "name": "12 VICTORIA AVENUE OAKEY PARK 2790",
    "locID": "LOC000160347478",
    "tech": "FTTP",
    "upgrade": "NULL_NA",
    "gnaf_pid": "GANSW718895275",
    "ee": true
   }
  },
  {
   "type": "Feature",
   "geometry": {
    "type": "Point",
    "coordinates": [
     150.18080154,
     -33.46820675
    ]
   },
   "properties": {
    "name": "13 VICTORIA AVENUE OAKEY PARK 2790",
    "locID": "LOC000160347801",
    "tech": "FTTC",
    "upgrade": "FTTP_SA",
    "gnaf_pid": "GANSW718895276",
    "ee": true,
    "tech_change_status": "Eligible to Order"
   }
  },
  {
   "type": "Feature",
   "geometry": {
    "type": "Point",
    "coordinates": [
     150.17998956,
     -33.46934585
    ]
   },
   "properties": {
    "name": "14 VICTORIA AVENUE OAKEY PARK 2790",
    "locID": "LOC000160347886",
    "tech": "FTTC",
    "upgrade": "FTTP_SA",
    "gnaf_pid": "GANSW718895277",
    "ee": true,
    "tech_change_status": "Eligible to Order"
   }
  },
  {
   "type": "Feature",
   "geometry": {
    "type": "Point",
    "coordinates": [
     150.18107183,
     -33.46813486
    ]
   },
   "properties": {
    "name": "15 VICTORIA AVENUE OAKEY PARK 2790",
    "locID": "LOC000160348191",
    "tech": "FTTP",
    "upgrade": "NULL_NA",
    "gnaf_pid": "GANSW718895278",
    "ee": true
   }
  },
  {
   "type": "Feature",
   "geometry": {
    "type": "Point",
    "coordinates": [
     150.17972537,
     -33.46907841
    ]
   },
   "properties": {
    "name": "16 VICTORIA AVENUE OAKEY PARK 2790",
    "locID": "LOC000160347581",
    "tech": "FTTC",
    "upgrade": "FTTP_SA",
    "gnaf_pid": "GANSW718895279",
    "ee": true,
    "tech_change_status": "Eligible to Order"
   }
  },
  {
   "type": "Feature",
   "geometry": {
    "type": "Point",
    "coordinates": [
     150.18126889,
     -33.46781765
    ]
   },
   "properties": {
    "name": "19 VICTORIA AVENUE OAKEY PARK 2790",
    "locID": "LOC000160348087",
    "tech": "FTTC",
    "upgrade": "FTTP_SA",
    "gnaf_pid": "GANSW718895280",
    "ee": true,
    "tech_change_status": "Eligible to Order"
   }
  },
  {
   "type": "Feature",
   "geometry": {
    "type": "Point",
    "coordinates": [
     150.18067991,
     -33.46926768
    ]
   },
   "properties": {
    "name": "1 VICTORIA AVENUE OAKEY PARK 2790",
    "locID": "LOC000160348307",
    "tech": "FTTC",
    "upgrade": "FTTP_SA",
    "gnaf_pid": "GANSW718895281",
    "ee": true,
    "tech_change_status": "Eligible to Order"
   }
  },
  {
   "type": "Feature",
   "geometry": {
    "type": "Point",
    "coordinates": [
     150.18228255,
     -33.46588687
    ]
   },
   "properties": {
    "name": "21 VICTORIA AVENUE OAKEY PARK 2790",
    "locID": "LOC000160347325",
    "tech": "FTTN",
    "upgrade": "NULL_NA",
    "gnaf_pid": "GANSW718895282",
    "ee": true,
    "tech_change_status": "Not Planned"
   }
  },
  {
   "type": "Feature",
   "geometry": {
    "type": "Point",
    "coordinates": [
     150.1827369,
     -33.46557869
    ]
   },
   "properties": {
    "name": "23 VICTORIA AVENUE OAKEY PARK 2790",
    "locID": "LOC000160347339",
    "tech": "FTTN",
    "upgrade": "NULL_NA",
    "gnaf_pid": "GANSW718895283",
    "ee": true,
    "tech_change_status": "Not Planned"
   }
  },
  {
   "type": "Feature",
   "geometry": {
    "type": "Point",
    "coordinates": [
     150.17992259,
     -33.46996398
    ]
   },
   "properties": {
    "name": "2 VICTORIA AVENUE OAKEY PARK 2790",
    "locID": "LOC000160347179",
    "tech": "FTTC",
    "upgrade": "FTTP_SA",
    "gnaf_pid": "GANSW718895284",
    "ee": true,
    "tech_change_status": "Eligible to Order"
   }
  },
  {
   "type": "Feature",
   "geometry": {
    "type": "Point",
    "coordinates": [
     150.18204331,
     -33.46544134
    ]
   },
   "properties": {
    "name": "36 VICTORIA AVENUE OAKEY PARK 2790",
    "locID": "LOC000160347926",
    "tech": "FTTN",
    "upgrade": "NULL_NA",
    "gnaf_pid": "GANSW718895285",
    "ee": true,
    "tech_change_status": "Not Planned"
   }
  },
  {
   "type": "Feature",
   "geometry": {
    "type": "Point",
    "coordinates": [
     150.18210847,
     -33.46522649
    ]
   },
   "properties": {
    "name": "38 VICTORIA AVENUE OAKEY PARK 2790",
    "locID": "LOC000160347146",
    "tech": "FTTN",
    "upgrade": "NULL_NA",
    "gnaf_pid": "GANSW718895286",
    "ee": true,
    "tech_change_status": "Not Planned"
   }
  },
  {
   "type": "Feature",
   "geometry": {
    "type": "Point",
    "coordinates": [
     150.18065801,
     -33.46916616
    ]
   },
   "properties": {
    "name": "3 VICTORIA AVENUE OAKEY PARK 2790",
    "locID": "LOC000160348232",
    "tech": "FTTP",
    "upgrade": "NULL_NA",
    "gnaf_pid": "GANSW718895287",
    "ee": true
   }
  },
  {
   "type": "Feature",
   "geometry": {
    "type": "Point",
    "coordinates": [
     150.18208412,
     -33.46418974
    ]
   },
   "properties": {
    "name": "40 VICTORIA AVENUE OAKEY PARK 2790",
    "locID": "LOC000160347151",
    "tech": "FTTN",
    "upgrade": "NULL_NA",
    "gnaf_pid": "GANSW718895288",
    "ee": true,
    "tech_change_status": "Not Planned"
   }
  },
  {
   "type": "Feature",
   "geometry": {
    "type": "Point",
    "coordinates": [
     150.17992038,
     -33.46982684
    ]
   },
   "properties": {
    "name": "4 VICTORIA AVENUE OAKEY PARK 2790",
    "locID": "LOC000160347631",
    "tech": "FTTC",
    "upgrade": "FTTP_SA",
    "gnaf_pid": "GANSW718895289",
    "ee": true,
    "tech_change_status": "Eligible to Order"
   }
  },
  {
   "type": "Feature",
   "geometry": {
    "type": "Point",
    "coordinates": [
     150.18081191,
     -33.46894308
    ]
   },
   "properties": {
    "name": "5 VICTORIA AVENUE OAKEY PARK 2790",
    "locID": "LOC000160348104",
    "tech": "FTTC",
    "upgrade": "FTTP_SA",
    "gnaf_pid": "GANSW718895290",
    "ee": true,
    "tech_change_status": "Eligible to Order"
   }
  },
  {
   "type": "Feature",
   "geometry": {
    "type": "Point",
    "coordinates": [
     150.17993625,
     -33.46973864
    ]
   },
   "properties": {
    "name": "6 VICTORIA AVENUE OAKEY PARK 2790",
    "locID": "LOC000160347271",
    "tech": "FTTC",
    "upgrade": "FTTP_SA",
    "gnaf_pid": "GANSW718895291",
    "ee": true,
    "tech_change_status": "Eligible to Order"
   }
  },
  {
   "type": "Feature",
   "geometry": {
    "type": "Point",
    "coordinates": [
     150.18074275,
     -33.46880562
    ]
   },
   "properties": {
    "name": "7 VICTORIA AVENUE OAKEY PARK 2790",
    "locID": "LOC000160347829",
    "tech": "FTTC",
    "upgrade": "FTTP_SA",
    "gnaf_pid": "GANSW718895292",
    "ee": true,
    "tech_change_status": "Eligible to Order"
   }
  },
  {
   "type": "Feature",
   "geometry": {
    "type": "Point",
    "coordinates": [
     150.17995188,
     -33.46964834
    ]
   },
   "properties": {
    "name": "8 VICTORIA AVENUE OAKEY PARK 2790",
    "locID": "LOC000160347466",
    "tech": "FTTC",
    "upgrade": "FTTP_SA",
    "gnaf_pid": "GANSW718895293",
    "ee": true,
    "tech_change_status": "Eligible to Order"
   }
  },
  {
   "type": "Feature",
   "geometry": {
    "type": "Point",
    "coordinates": [
     150.18256662,
     -33.4685688
    ]
   },
   "properties": {
    "name": "102 BELLS ROAD OAKEY PARK 2790",
    "locID": "LOC000160348221",
    "tech": "FTTC",
    "upgrade": "FTTP_SA",
    "gnaf_pid": "GANSW718896550",
    "ee": true,
    "tech_change_status": "Eligible to Order"
   }
  },
  {
   "type": "Feature",
   "geometry": {
    "type": "Point",
    "coordinates": [
     150.1745992,
     -33.47092042
    ]
   },
   "properties": {
    "name": "168 BELLS ROAD OAKEY PARK 2790",
    "locID": "LOC000160348348",
    "tech": "FTTN",
    "upgrade": "FTTP_SA",
    "gnaf_pid": "GANSW718896554",
    "ee": true,
    "tech_change_status": "Eligible to Order",
    "program_type": "On-Demand N2P SDU/MDU Simple",
    "target_eligibility_quarter": "NA"
   }
  },
  {
   "type": "Feature",
   "geometry": {
    "type": "Point",
    "coordinates": [
     150.18256662,
     -33.4685688
    ]
   },
   "properties": {
    "name": "LOT 9 BELLS ROAD OAKEY PARK 2790",
    "locID": "LOC000160348311",
    "tech": "FTTC",
    "upgrade": "FTTP_SA",
    "gnaf_pid": "GANSW718896556",
    "ee": true,
    "tech_change_status": "Eligible to Order"
   }
  },
  {
   "type": "Feature",
   "geometry": {
    "type": "Point",
    "coordinates": [
     150.18389992,
     -33.46486545
    ]
   },
   "properties": {
    "name": "1 BREWERY LANE OAKEY PARK 2790",
    "locID": "LOC000160347770",
    "tech": "FTTN",
    "upgrade": "NULL_NA",
    "gnaf_pid": "GANSW718896673",
    "ee": true,
    "tech_change_status": "Not Planned"
   }
  },
  {
   "type": "Feature",
   "geometry": {
    "type": "Point",
    "coordinates": [
     150.18492917,
     -33.46660368
    ]
   },
   "properties": {
    "name": "1 BRISBANE STREET OAKEY PARK 2790",
    "locID": "LOC000160348767",
    "tech": "FTTN",
    "upgrade": "NULL_NA",
    "gnaf_pid": "GANSW718896676",
    "ee": true,
    "tech_change_status": "Not Planned"
   }
  },
  {
   "type": "Feature",
   "geometry": {
    "type": "Point",
    "coordinates": [
     150.17956465,
     -33.46944316
    ]
   },
   "properties": {
    "name": "1 BROOK STREET OAKEY PARK 2790",
    "locID": "LOC000160347838",
    "tech": "FTTC",
    "upgrade": "NULL_NA",
    "gnaf_pid": "GANSW718896688",
    "ee": true
   }
  },
  {
   "type": "Feature",
   "geometry": {
    "type": "Point",
    "coordinates": [
     150.18145438,
     -33.46748244
    ]
   },
   "properties": {
    "name": "16 HAY STREET OAKEY PARK 2790",
    "locID": "LOC000088146721",
    "tech": "FTTC",
    "upgrade": "NULL_NA",
    "gnaf_pid": "GANSW718897604",
    "ee": true
   }
  },
  {
   "type": "Feature",
   "geometry": {
    "type": "Point",
    "coordinates": [
     150.18185674,
     -33.4679239
    ]
   },
   "properties": {
    "name": "8 HAY STREET OAKEY PARK 2790",
    "locID": "LOC000160349014",
    "tech": "FTTC",
    "upgrade": "NULL_NA",
    "gnaf_pid": "GANSW718897605",
    "ee": true
   }
  },
  {
   "type": "Feature",
   "geometry": {
    "type": "Point",
    "coordinates": [
     150.1821505,
     -33.46613529
    ]
   },
   "properties": {
    "name": "23 MILLS STREET OAKEY PARK 2790",
    "locID": "LOC000160348400",
    "tech": "FTTN",
    "upgrade": "NULL_NA",
    "gnaf_pid": "GANSW718898176",
    "ee": true,
    "tech_change_status": "Not Planned"
   }
  },
  {
   "type": "Feature",
   "geometry": {
    "type": "Point",
    "coordinates": [
     150.1821505,
     -33.46613529
    ]
   },
   "properties": {
    "name": "25 MILLS STREET OAKEY PARK 2790",
    "locID": "LOC000160348400",
    "tech": "FTTN",
    "upgrade": "NULL_NA",
    "gnaf_pid": "GANSW718898177",
    "ee": true,
    "tech_change_status": "Not Planned"
   }
  },
  {
   "type": "Feature",
   "geometry": {
    "type": "Point",
    "coordinates": [
     150.1773784,
     -33.47136449
    ]
   },
   "properties": {
    "name": "139 BELLS ROAD OAKEY PARK 2790",
    "locID": "LOC000160347961",
    "tech": "FTTP",
    "upgrade": "NULL_NA",
    "gnaf_pid": "GANSW718899829",
    "ee": true
   }
  },
  {
   "type": "Feature",
   "geometry": {
    "type": "Point",
    "coordinates": [
     150.18658964,
     -33.46811634
    ]
   },
   "properties": {
    "name": "13 BELLS ROAD OAKEY PARK 2790",
    "locID": "LOC000160347864",
    "tech": "FTTN",
    "upgrade": "NULL_NA",
    "gnaf_pid": "GANSW718899830",
    "ee": true,
    "tech_change_status": "Not Planned"
   }
  },
  {
   "type": "Feature",
   "geometry": {
    "type": "Point",
    "coordinates": [
     150.1773784,
     -33.47136449
    ]
   },
   "properties": {
    "name": "147 BELLS ROAD OAKEY PARK 2790",
    "locID": "LOC000160347961",
    "tech": "FTTP",
    "upgrade": "NULL_NA",
    "gnaf_pid": "GANSW718899834",
    "ee": true
   }
  },
  {
   "type": "Feature",
   "geometry": {
    "type": "Point",
    "coordinates": [
     150.18658964,
     -33.46811634
    ]
   },
   "properties": {
    "name": "15 BELLS ROAD OAKEY PARK 2790",
    "locID": "LOC000160347228",
    "tech": "FTTC",
    "upgrade": "FTTP_SA",
    "gnaf_pid": "GANSW718899835",
    "ee": true,
    "tech_change_status": "Eligible to Order"
   }
  },
  {
   "type": "Feature",
   "geometry": {
    "type": "Point",
    "coordinates": [
     150.18548184,
     -33.46660105
    ]
   },
   "properties": {
    "name": "1 BRAGG STREET OAKEY PARK 2790",
    "locID": "LOC000160348428",
    "tech": "FTTN",
    "upgrade": "NULL_NA",
    "gnaf_pid": "GANSW718900154",
    "ee": true,
    "tech_change_status": "Not Planned"
   }
  },
  {
   "type": "Feature",
   "geometry": {
    "type": "Point",
    "coordinates": [
     150.18073155,
     -33.46751052
    ]
   },
   "properties": {
    "name": "27 VICTORIA AVENUE OAKEY PARK 2790",
    "locID": "LOC000160347801",
    "tech": "FTTC",
    "upgrade": "FTTP_SA",
    "gnaf_pid": "GANSW718907604",
    "ee": true,
    "tech_change_status": "Eligible to Order"
   }
  },
  {
   "type": "Feature",
   "geometry": {
    "type": "Point",
    "coordinates": [
     150.18073155,
     -33.46751052
    ]
   },
   "properties": {
    "name": "LOT 4 VICTORIA AVENUE OAKEY PARK 2790",
    "locID": "LOC000160347631",
    "tech": "FTTC",
    "upgrade": "FTTP_SA",
    "gnaf_pid": "GANSW718907605",
    "ee": true,
    "tech_change_status": "Eligible to Order"
   }
  },
  {
   "type": "Feature",
   "geometry": {
    "type": "Point",
    "coordinates": [
     150.18429676,
     -33.46617446
    ]
   },
   "properties": {
    "name": "1 ISLAND PARADE OAKEY PARK 2790",
    "locID": "LOC000160348143",
    "tech": "FTTN",
    "upgrade": "NULL_NA",
    "gnaf_pid": "GANSW718924500",
    "ee": true,
    "tech_change_status": "Not Planned"
   }
  },
  {
   "type": "Feature",
   "geometry": {
    "type": "Point",
    "coordinates": [
     150.17642632,
     -33.47155893
    ]
   },
   "properties": {
    "name": "155 BELLS ROAD OAKEY PARK 2790",
    "locID": "LOC000160348039",
    "tech": "FTTN",
    "upgrade": "NULL_NA",
    "gnaf_pid": "GANSW719078190",
    "ee": true,
    "tech_change_status": "Not Planned"
   }
  },
  {
   "type": "Feature",
   "geometry": {
    "type": "Point",
    "coordinates": [
     150.17642632,
     -33.47155893
    ]
   },
   "properties": {
    "name": "153 BELLS ROAD OAKEY PARK 2790",
    "locID": "LOC000160348025",
    "tech": "FTTP",
    "upgrade": "NULL_NA",
    "gnaf_pid": "GANSW719078191",
    "ee": true
   }
  },
  {
   "type": "Feature",
   "geometry": {
    "type": "Point",
    "coordinates": [
     150.17642632,
     -33.47155893
    ]
   },
   "properties": {
    "name": "153-155 BELLS ROAD OAKEY PARK 2790",
    "locID": "LOC000160348025",
    "tech": "FTTP",
    "upgrade": "NULL_NA",
    "gnaf_pid": "GANSW719154298",
    "ee": true
   }
  },
  {
   "type": "Feature",
   "geometry": {
    "type": "Point",
    "coordinates": [
     150.18545408,
     -33.46797069
    ]
   },
   "properties": {
    "name": "27 BELLS ROAD OAKEY PARK 2790",
    "locID": "LOC000184983988",
    "tech": "FTTN",
    "upgrade": "NULL_NA",
    "gnaf_pid": "GANSW720540009",
    "ee": true,
    "tech_change_status": "Not Planned"
   }
  },
  {
   "type": "Feature",
   "geometry": {
    "type": "Point",
    "coordinates": [
     150.17898107,
     -33.46959117
    ]
   },
   "properties": {
    "name": "2 BROOK STREET OAKEY PARK 2790",
    "locID": "LOC000160347292",
    "tech": "FTTC",
    "upgrade": "NULL_NA",
    "gnaf_pid": "GANSW720993268",
    "ee": true
   }
  },
  {
   "type": "Feature",
   "geometry": {
    "type": "Point",
    "coordinates": [
     150.19004103,
     -33.4595634
    ]
   },
   "properties": {
    "name": "352 STATE MINE GULLY ROAD OAKEY PARK 2790",
    "locID": "LOC100086303366",
    "tech": "NULL",
    "upgrade": "NULL_NA",
    "gnaf_pid": "GANSW721443718",
    "ee": true,
    "tech_change_status": "Not Planned"
   }
  }
 ]
}