{
 "type": "FeatureCollection",
 "generated": "2025-06-19T13:22:16.269448",
 "suburb": "WESTWOOD",
 "features": [
  {
   "type": "Feature",
   "geometry": {
    "type": "Point",
    "coordinates": [
     147.98399353,
     -35.38094074
    ]
   },
   "properties": {
    "name": "531 WESTWOOD ROAD WESTWOOD 2729",
    "locID": "LOC000041672906",
    "tech": "SATELLITE",
    "upgrade": "NULL_NA",
    "gnaf_pid": "GANSW706344523",
    "ee": true,
    "tech_change_status": "Not Planned"
   }
  }
 ]
}