{
 "type": "FeatureCollection",
 "generated": "2025-06-16T08:07:45.244333",
 "suburb": "CLIFTON BEACH",
 "features": [
  {
   "type": "Feature",
   "geometry": {
    "type": "Point",
    "coordinates": [
     147.51423366,
     -42.97877264
    ]
   },
   "properties": {
    "name": "1 AQUARIUS LANE CLIFTON BEACH 7020",
    "locID": "LOC000195225640",
    "tech": "FTTN",
    "upgrade": "NULL_NA",
    "gnaf_pid": "GATAS702190212",
    "ee": true,
    "tech_change_status": "Not Planned"
   }
  },
  {
   "type": "Feature",
   "geometry": {
    "type": "Point",
    "coordinates": [
     147.51666875,
     -42.97782683
    ]
   },
   "properties": {
    "name": "7 AQUARIUS LANE CLIFTON BEACH 7020",
    "locID": "LOC000025160915",
    "tech": "FTTN",
    "upgrade": "NULL_NA",
    "gnaf_pid": "GATAS702190213",
    "ee": true,
    "tech_change_status": "Not Planned"
   }
  },
  {
   "type": "Feature",
   "geometry": {
    "type": "Point",
    "coordinates": [
     147.51873277,
     -42.9870287
    ]
   },
   "properties": {
    "name": "2 BICHENO STREET CLIFTON BEACH 7020",
    "locID": "LOC000021250806",
    "tech": "FTTN",
    "upgrade": "NULL_NA",
    "gnaf_pid": "GATAS702194450",
    "ee": true,
    "tech_change_status": "Not Planned"
   }
  },
  {
   "type": "Feature",
   "geometry": {
    "type": "Point",
    "coordinates": [
     147.52724547,
     -42.98588773
    ]
   },
   "properties": {
    "name": "84 BICHENO STREET CLIFTON BEACH 7020",
    "locID": "LOC000104509485",
    "tech": "FTTN",
    "upgrade": "NULL_NA",
    "gnaf_pid": "GATAS702194451",
    "ee": true,
    "tech_change_status": "Not Planned"
   }
  },
  {
   "type": "Feature",
   "geometry": {
    "type": "Point",
    "coordinates": [
     147.52557025,
     -42.98601733
    ]
   },
   "properties": {
    "name": "66 BICHENO STREET CLIFTON BEACH 7020",
    "locID": "LOC000051140244",
    "tech": "FTTN",
    "upgrade": "NULL_NA",
    "gnaf_pid": "GATAS702194452",
    "ee": true,
    "tech_change_status": "Not Planned"
   }
  },
  {
   "type": "Feature",
   "geometry": {
    "type": "Point",
    "coordinates": [
     147.52469937,
     -42.98601853
    ]
   },
   "properties": {
    "name": "58 BICHENO STREET CLIFTON BEACH 7020",
    "locID": "LOC000057219522",
    "tech": "FTTN",
    "upgrade": "NULL_NA",
    "gnaf_pid": "GATAS702197296",
    "ee": true,
    "tech_change_status": "Not Planned"
   }
  },
  {
   "type": "Feature",
   "geometry": {
    "type": "Point",
    "coordinates": [
     147.5208158,
     -42.9867501
    ]
   },
   "properties": {
    "name": "20 BICHENO STREET CLIFTON BEACH 7020",
    "locID": "LOC000094462499",
    "tech": "FTTN",
    "upgrade": "NULL_NA",
    "gnaf_pid": "GATAS702197297",
    "ee": true,
    "tech_change_status": "Not Planned"
   }
  },
  {
   "type": "Feature",
   "geometry": {
    "type": "Point",
    "coordinates": [
     147.52212013,
     -42.98578961
    ]
   },
   "properties": {
    "name": "36-38 BICHENO STREET CLIFTON BEACH 7020",
    "locID": "LOC000063492688",
    "tech": "FTTN",
    "upgrade": "NULL_NA",
    "gnaf_pid": "GATAS702197298",
    "ee": true,
    "tech_change_status": "Not Planned"
   }
  },
  {
   "type": "Feature",
   "geometry": {
    "type": "Point",
    "coordinates": [
     147.52279389,
     -42.98568748
    ]
   },
   "properties": {
    "name": "42 BICHENO STREET CLIFTON BEACH 7020",
    "locID": "LOC000021269578",
    "tech": "FTTN",
    "upgrade": "NULL_NA",
    "gnaf_pid": "GATAS702197299",
    "ee": true,
    "tech_change_status": "Not Planned"
   }
  },
  {
   "type": "Feature",
   "geometry": {
    "type": "Point",
    "coordinates": [
     147.52346932,
     -42.98578345
    ]
   },
   "properties": {
    "name": "50 BICHENO STREET CLIFTON BEACH 7020",
    "locID": "LOC000048890684",
    "tech": "FTTN",
    "upgrade": "NULL_NA",
    "gnaf_pid": "GATAS702197300",
    "ee": true,
    "tech_change_status": "Not Planned"
   }
  },
  {
   "type": "Feature",
   "geometry": {
    "type": "Point",
    "coordinates": [
     147.52154602,
     -42.98607139
    ]
   },
   "properties": {
    "name": "32 BICHENO STREET CLIFTON BEACH 7020",
    "locID": "LOC000133640681",
    "tech": "FTTN",
    "upgrade": "NULL_NA",
    "gnaf_pid": "GATAS702197301",
    "ee": true,
    "tech_change_status": "Not Planned"
   }
  },
  {
   "type": "Feature",
   "geometry": {
    "type": "Point",
    "coordinates": [
     147.52112,
     -42.98646055
    ]
   },
   "properties": {
    "name": "24-26 BICHENO STREET CLIFTON BEACH 7020",
    "locID": "LOC000078602504",
    "tech": "FTTN",
    "upgrade": "NULL_NA",
    "gnaf_pid": "GATAS702197302",
    "ee": true,
    "tech_change_status": "Not Planned"
   }
  },
  {
   "type": "Feature",
   "geometry": {
    "type": "Point",
    "coordinates": [
     147.51983515,
     -42.98715768
    ]
   },
   "properties": {
    "name": "10-12 BICHENO STREET CLIFTON BEACH 7020",
    "locID": "LOC000098652822",
    "tech": "FTTN",
    "upgrade": "NULL_NA",
    "gnaf_pid": "GATAS702197303",
    "ee": true,
    "tech_change_status": "Not Planned"
   }
  },
  {
   "type": "Feature",
   "geometry": {
    "type": "Point",
    "coordinates": [
     147.51993528,
     -42.9812632
    ]
   },
   "properties": {
    "name": "9A BICHENO STREET CLIFTON BEACH 7020",
    "locID": "LOC000071086448",
    "tech": "FTTN",
    "upgrade": "NULL_NA",
    "gnaf_pid": "GATAS702197305",
    "ee": true,
    "tech_change_status": "Not Planned"
   }
  },
  {
   "type": "Feature",
   "geometry": {
    "type": "Point",
    "coordinates": [
     147.52582171,
     -42.98679387
    ]
   },
   "properties": {
    "name": "70 BICHENO STREET CLIFTON BEACH 7020",
    "locID": "LOC000104566421",
    "tech": "FTTN",
    "upgrade": "NULL_NA",
    "gnaf_pid": "GATAS702197306",
    "ee": true,
    "tech_change_status": "Not Planned"
   }
  },
  {
   "type": "Feature",
   "geometry": {
    "type": "Point",
    "coordinates": [
     147.52643851,
     -42.98681055
    ]
   },
   "properties": {
    "name": "80 BICHENO STREET CLIFTON BEACH 7020",
    "locID": "LOC000138619801",
    "tech": "FTTN",
    "upgrade": "NULL_NA",
    "gnaf_pid": "GATAS702197307",
    "ee": true,
    "tech_change_status": "Not Planned"
   }
  },
  {
   "type": "Feature",
   "geometry": {
    "type": "Point",
    "coordinates": [
     147.52554233,
     -42.98727917
    ]
   },
   "properties": {
    "name": "68 BICHENO STREET CLIFTON BEACH 7020",
    "locID": "LOC000026196404",
    "tech": "FTTN",
    "upgrade": "NULL_NA",
    "gnaf_pid": "GATAS702197308",
    "ee": true,
    "tech_change_status": "Not Planned"
   }
  },
  {
   "type": "Feature",
   "geometry": {
    "type": "Point",
    "coordinates": [
     147.53562526,
     -42.96888768
    ]
   },
   "properties": {
    "name": "284 BICHENO STREET CLIFTON BEACH 7020",
    "locID": "LOC000048913337",
    "tech": "WIRELESS",
    "upgrade": "NULL_NA",
    "gnaf_pid": "GATAS702197309",
    "ee": true,
    "tech_change_status": "Not Planned",
    "program_type": "Fixed Wireless and Satellite Upgrade Program",
    "target_eligibility_quarter": "NA"
   }
  },
  {
   "type": "Feature",
   "geometry": {
    "type": "Point",
    "coordinates": [
     147.52503483,
     -42.9866948
    ]
   },
   "properties": {
    "name": "60 BICHENO STREET CLIFTON BEACH 7020",
    "locID": "LOC000049021095",
    "tech": "FTTN",
    "upgrade": "NULL_NA",
    "gnaf_pid": "GATAS702197310",
    "ee": true,
    "tech_change_status": "Not Planned"
   }
  },
  {
   "type": "Feature",
   "geometry": {
    "type": "Point",
    "coordinates": [
     147.52149367,
     -42.98713423
    ]
   },
   "properties": {
    "name": "22 BICHENO STREET CLIFTON BEACH 7020",
    "locID": "LOC000100568267",
    "tech": "FTTN",
    "upgrade": "NULL_NA",
    "gnaf_pid": "GATAS702197311",
    "ee": true,
    "tech_change_status": "Not Planned"
   }
  },
  {
   "type": "Feature",
   "geometry": {
    "type": "Point",
    "coordinates": [
     147.51941989,
     -42.98324491
    ]
   },
   "properties": {
    "name": "17 BICHENO STREET CLIFTON BEACH 7020",
    "locID": "LOC000097018745",
    "tech": "FTTN",
    "upgrade": "NULL_NA",
    "gnaf_pid": "GATAS702197313",
    "ee": true,
    "tech_change_status": "Not Planned"
   }
  },
  {
   "type": "Feature",
   "geometry": {
    "type": "Point",
    "coordinates": [
     147.51895773,
     -42.98269154
    ]
   },
   "properties": {
    "name": "9 BICHENO STREET CLIFTON BEACH 7020",
    "locID": "LOC000070929793",
    "tech": "FTTN",
    "upgrade": "NULL_NA",
    "gnaf_pid": "GATAS702197314",
    "ee": true,
    "tech_change_status": "Not Planned"
   }
  },
  {
   "type": "Feature",
   "geometry": {
    "type": "Point",
    "coordinates": [
     147.52009231,
     -42.98390139
    ]
   },
   "properties": {
    "name": "25 BICHENO STREET CLIFTON BEACH 7020",
    "locID": "LOC000104485763",
    "tech": "FTTN",
    "upgrade": "NULL_NA",
    "gnaf_pid": "GATAS702197315",
    "ee": true,
    "tech_change_status": "Not Planned"
   }
  },
  {
   "type": "Feature",
   "geometry": {
    "type": "Point",
    "coordinates": [
     147.53423323,
     -42.98433387
    ]
   },
   "properties": {
    "name": "162 BICHENO STREET CLIFTON BEACH 7020",
    "locID": "LOC000083516316",
    "tech": "WIRELESS",
    "upgrade": "NULL_NA",
    "gnaf_pid": "GATAS702197316",
    "ee": true,
    "tech_change_status": "Not Planned",
    "program_type": "Fixed Wireless and Satellite Upgrade Program",
    "target_eligibility_quarter": "NA"
   }
  },
  {
   "type": "Feature",
   "geometry": {
    "type": "Point",
    "coordinates": [
     147.53512904,
     -42.98405632
    ]
   },
   "properties": {
    "name": "176 BICHENO STREET CLIFTON BEACH 7020",
    "locID": "LOC000095340602",
    "tech": "WIRELESS",
    "upgrade": "NULL_NA",
    "gnaf_pid": "GATAS702197317",
    "ee": true,
    "tech_change_status": "Not Planned",
    "program_type": "Fixed Wireless and Satellite Upgrade Program",
    "target_eligibility_quarter": "NA"
   }
  },
  {
   "type": "Feature",
   "geometry": {
    "type": "Point",
    "coordinates": [
     147.5299357,
     -42.98618872
    ]
   },
   "properties": {
    "name": "112 BICHENO STREET CLIFTON BEACH 7020",
    "locID": "LOC000021276253",
    "tech": "FTTN",
    "upgrade": "NULL_NA",
    "gnaf_pid": "GATAS702197319",
    "ee": true,
    "tech_change_status": "Not Planned"
   }
  },
  {
   "type": "Feature",
   "geometry": {
    "type": "Point",
    "coordinates": [
     147.53588874,
     -42.98624797
    ]
   },
   "properties": {
    "name": "178 BICHENO STREET CLIFTON BEACH 7020",
    "locID": "LOC000116510458",
    "tech": "NULL",
    "upgrade": "NULL_NA",
    "gnaf_pid": "GATAS702197320",
    "ee": true,
    "tech_change_status": "Not Planned"
   }
  },
  {
   "type": "Feature",
   "geometry": {
    "type": "Point",
    "coordinates": [
     147.53296663,
     -42.98698623
    ]
   },
   "properties": {
    "name": "130 BICHENO STREET CLIFTON BEACH 7020",
    "locID": "LOC000133631774",
    "tech": "WIRELESS",
    "upgrade": "NULL_NA",
    "gnaf_pid": "GATAS702197321",
    "ee": true,
    "tech_change_status": "Not Planned",
    "program_type": "Fixed Wireless and Satellite Upgrade Program",
    "target_eligibility_quarter": "NA"
   }
  },
  {
   "type": "Feature",
   "geometry": {
    "type": "Point",
    "coordinates": [
     147.53317247,
     -42.98484578
    ]
   },
   "properties": {
    "name": "150 BICHENO STREET CLIFTON BEACH 7020",
    "locID": "LOC000090719267",
    "tech": "WIRELESS",
    "upgrade": "NULL_NA",
    "gnaf_pid": "GATAS702197322",
    "ee": true,
    "tech_change_status": "Not Planned",
    "program_type": "Fixed Wireless and Satellite Upgrade Program",
    "target_eligibility_quarter": "NA"
   }
  },
  {
   "type": "Feature",
   "geometry": {
    "type": "Point",
    "coordinates": [
     147.53213862,
     -42.98529644
    ]
   },
   "properties": {
    "name": "138 BICHENO STREET CLIFTON BEACH 7020",
    "locID": "LOC000093262880",
    "tech": "WIRELESS",
    "upgrade": "NULL_NA",
    "gnaf_pid": "GATAS702197323",
    "ee": true,
    "tech_change_status": "Not Planned",
    "program_type": "Fixed Wireless and Satellite Upgrade Program",
    "target_eligibility_quarter": "NA"
   }
  },
  {
   "type": "Feature",
   "geometry": {
    "type": "Point",
    "coordinates": [
     147.52836762,
     -42.98635684
    ]
   },
   "properties": {
    "name": "96 BICHENO STREET CLIFTON BEACH 7020",
    "locID": "LOC000086007652",
    "tech": "FTTN",
    "upgrade": "NULL_NA",
    "gnaf_pid": "GATAS702197324",
    "ee": true,
    "tech_change_status": "Not Planned"
   }
  },
  {
   "type": "Feature",
   "geometry": {
    "type": "Point",
    "coordinates": [
     147.53108787,
     -42.98595547
    ]
   },
   "properties": {
    "name": "120 BICHENO STREET CLIFTON BEACH 7020",
    "locID": "LOC000053947969",
    "tech": "WIRELESS",
    "upgrade": "NULL_NA",
    "gnaf_pid": "GATAS702197325",
    "ee": true,
    "tech_change_status": "Not Planned",
    "program_type": "Fixed Wireless and Satellite Upgrade Program",
    "target_eligibility_quarter": "NA"
   }
  },
  {
   "type": "Feature",
   "geometry": {
    "type": "Point",
    "coordinates": [
     147.53503748,
     -42.9866869
    ]
   },
   "properties": {
    "name": "160 BICHENO STREET CLIFTON BEACH 7020",
    "locID": "LOC000067111403",
    "tech": "WIRELESS",
    "upgrade": "NULL_NA",
    "gnaf_pid": "GATAS702197326",
    "ee": true,
    "tech_change_status": "Not Planned",
    "program_type": "Fixed Wireless and Satellite Upgrade Program",
    "target_eligibility_quarter": "NA"
   }
  },
  {
   "type": "Feature",
   "geometry": {
    "type": "Point",
    "coordinates": [
     147.53213023,
     -42.98764469
    ]
   },
   "properties": {
    "name": "128 BICHENO STREET CLIFTON BEACH 7020",
    "locID": "LOC000187564323",
    "tech": "NULL",
    "upgrade": "NULL_NA",
    "gnaf_pid": "GATAS702197327",
    "ee": true,
    "tech_change_status": "Not Planned"
   }
  },
  {
   "type": "Feature",
   "geometry": {
    "type": "Point",
    "coordinates": [
     147.53070143,
     -42.98772836
    ]
   },
   "properties": {
    "name": "108 BICHENO STREET CLIFTON BEACH 7020",
    "locID": "LOC000099384414",
    "tech": "FTTN",
    "upgrade": "NULL_NA",
    "gnaf_pid": "GATAS702197328",
    "ee": true,
    "tech_change_status": "Not Planned"
   }
  },
  {
   "type": "Feature",
   "geometry": {
    "type": "Point",
    "coordinates": [
     147.53406281,
     -42.98674107
    ]
   },
   "properties": {
    "name": "158 BICHENO STREET CLIFTON BEACH 7020",
    "locID": "LOC000085007642",
    "tech": "NULL",
    "upgrade": "NULL_NA",
    "gnaf_pid": "GATAS702197329",
    "ee": true,
    "tech_change_status": "Not Planned"
   }
  },
  {
   "type": "Feature",
   "geometry": {
    "type": "Point",
    "coordinates": [
     147.52975624,
     -42.98804234
    ]
   },
   "properties": {
    "name": "106 BICHENO STREET CLIFTON BEACH 7020",
    "locID": "LOC000133627517",
    "tech": "FTTN",
    "upgrade": "NULL_NA",
    "gnaf_pid": "GATAS702197330",
    "ee": true,
    "tech_change_status": "Not Planned"
   }
  },
  {
   "type": "Feature",
   "geometry": {
    "type": "Point",
    "coordinates": [
     147.52150725,
     -42.98471337
    ]
   },
   "properties": {
    "name": "59 BICHENO STREET CLIFTON BEACH 7020",
    "locID": "LOC000038014350",
    "tech": "FTTN",
    "upgrade": "NULL_NA",
    "gnaf_pid": "GATAS702197331",
    "ee": true,
    "tech_change_status": "Not Planned"
   }
  },
  {
   "type": "Feature",
   "geometry": {
    "type": "Point",
    "coordinates": [
     147.54572958,
     -42.97998827
    ]
   },
   "properties": {
    "name": "226 BICHENO STREET CLIFTON BEACH 7020",
    "locID": "LOC000024287153",
    "tech": "WIRELESS",
    "upgrade": "NULL_NA",
    "gnaf_pid": "GATAS702197332",
    "ee": true,
    "tech_change_status": "Not Planned",
    "program_type": "Fixed Wireless and Satellite Upgrade Program",
    "target_eligibility_quarter": "NA"
   }
  },
  {
   "type": "Feature",
   "geometry": {
    "type": "Point",
    "coordinates": [
     147.53965148,
     -42.96655445
    ]
   },
   "properties": {
    "name": "290 BICHENO STREET CLIFTON BEACH 7020",
    "locID": "LOC000085711457",
    "tech": "WIRELESS",
    "upgrade": "NULL_NA",
    "gnaf_pid": "GATAS702197334",
    "ee": true,
    "tech_change_status": "Not Planned",
    "program_type": "Fixed Wireless and Satellite Upgrade Program",
    "target_eligibility_quarter": "NA"
   }
  },
  {
   "type": "Feature",
   "geometry": {
    "type": "Point",
    "coordinates": [
     147.52059646,
     -42.98692219
    ]
   },
   "properties": {
    "name": "18 BICHENO STREET CLIFTON BEACH 7020",
    "locID": "LOC000083524461",
    "tech": "FTTN",
    "upgrade": "NULL_NA",
    "gnaf_pid": "GATAS702198200",
    "ee": true,
    "tech_change_status": "Not Planned"
   }
  },
  {
   "type": "Feature",
   "geometry": {
    "type": "Point",
    "coordinates": [
     147.54088689,
     -42.98020036
    ]
   },
   "properties": {
    "name": "220 BICHENO STREET CLIFTON BEACH 7020",
    "locID": "LOC000012646708",
    "tech": "NULL",
    "upgrade": "NULL_NA",
    "gnaf_pid": "GATAS702199459",
    "ee": true,
    "tech_change_status": "Not Planned"
   }
  },
  {
   "type": "Feature",
   "geometry": {
    "type": "Point",
    "coordinates": [
     147.54072106,
     -42.97667115
    ]
   },
   "properties": {
    "name": "260 BICHENO STREET CLIFTON BEACH 7020",
    "locID": "LOC000061928287",
    "tech": "SATELLITE",
    "upgrade": "NULL_NA",
    "gnaf_pid": "GATAS702199461",
    "ee": true,
    "tech_change_status": "Not Planned"
   }
  },
  {
   "type": "Feature",
   "geometry": {
    "type": "Point",
    "coordinates": [
     147.54142099,
     -42.97256328
    ]
   },
   "properties": {
    "name": "270 BICHENO STREET CLIFTON BEACH 7020",
    "locID": "LOC000133636323",
    "tech": "NULL",
    "upgrade": "NULL_NA",
    "gnaf_pid": "GATAS702199462",
    "ee": true,
    "tech_change_status": "Not Planned"
   }
  },
  {
   "type": "Feature",
   "geometry": {
    "type": "Point",
    "coordinates": [
     147.54628229,
     -42.97453755
    ]
   },
   "properties": {
    "name": "240 BICHENO STREET CLIFTON BEACH 7020",
    "locID": "LOC000015229350",
    "tech": "NULL",
    "upgrade": "NULL_NA",
    "gnaf_pid": "GATAS702199463",
    "ee": true,
    "tech_change_status": "Not Planned"
   }
  },
  {
   "type": "Feature",
   "geometry": {
    "type": "Point",
    "coordinates": [
     147.53817457,
     -42.96874065
    ]
   },
   "properties": {
    "name": "304 BICHENO STREET CLIFTON BEACH 7020",
    "locID": "LOC000097193195",
    "tech": "SATELLITE",
    "upgrade": "WIRELESS",
    "gnaf_pid": "GATAS702199464",
    "ee": true,
    "tech_change_status": "Eligible to Order",
    "program_type": "Fixed Wireless and Satellite Upgrade Program",
    "target_eligibility_quarter": "NA"
   }
  },
  {
   "type": "Feature",
   "geometry": {
    "type": "Point",
    "coordinates": [
     147.53203825,
     -42.96530236
    ]
   },
   "properties": {
    "name": "300 BICHENO STREET CLIFTON BEACH 7020",
    "locID": "LOC000008458348",
    "tech": "WIRELESS",
    "upgrade": "NULL_NA",
    "gnaf_pid": "GATAS702200571",
    "ee": true,
    "tech_change_status": "Not Planned",
    "program_type": "Fixed Wireless and Satellite Upgrade Program",
    "target_eligibility_quarter": "NA"
   }
  },
  {
   "type": "Feature",
   "geometry": {
    "type": "Point",
    "coordinates": [
     147.52245053,
     -42.98569806
    ]
   },
   "properties": {
    "name": "40 BICHENO STREET CLIFTON BEACH 7020",
    "locID": "LOC000052929028",
    "tech": "FTTN",
    "upgrade": "NULL_NA",
    "gnaf_pid": "GATAS702200689",
    "ee": true,
    "tech_change_status": "Not Planned"
   }
  },
  {
   "type": "Feature",
   "geometry": {
    "type": "Point",
    "coordinates": [
     147.52397438,
     -42.98590103
    ]
   },
   "properties": {
    "name": "52 BICHENO STREET CLIFTON BEACH 7020",
    "locID": "LOC000079140153",
    "tech": "FTTN",
    "upgrade": "NULL_NA",
    "gnaf_pid": "GATAS702200690",
    "ee": true,
    "tech_change_status": "Not Planned"
   }
  },
  {
   "type": "Feature",
   "geometry": {
    "type": "Point",
    "coordinates": [
     147.51902768,
     -42.9870734
    ]
   },
   "properties": {
    "name": "4 BICHENO STREET CLIFTON BEACH 7020",
    "locID": "LOC000083056518",
    "tech": "FTTN",
    "upgrade": "NULL_NA",
    "gnaf_pid": "GATAS702200691",
    "ee": true,
    "tech_change_status": "Not Planned"
   }
  },
  {
   "type": "Feature",
   "geometry": {
    "type": "Point",
    "coordinates": [
     147.52419491,
     -42.98589941
    ]
   },
   "properties": {
    "name": "54 BICHENO STREET CLIFTON BEACH 7020",
    "locID": "LOC000133577756",
    "tech": "FTTN",
    "upgrade": "NULL_NA",
    "gnaf_pid": "GATAS702200692",
    "ee": true,
    "tech_change_status": "Not Planned"
   }
  },
  {
   "type": "Feature",
   "geometry": {
    "type": "Point",
    "coordinates": [
     147.5231378,
     -42.98571554
    ]
   },
   "properties": {
    "name": "46 BICHENO STREET CLIFTON BEACH 7020",
    "locID": "LOC000024141050",
    "tech": "FTTN",
    "upgrade": "NULL_NA",
    "gnaf_pid": "GATAS702200695",
    "ee": true,
    "tech_change_status": "Not Planned"
   }
  },
  {
   "type": "Feature",
   "geometry": {
    "type": "Point",
    "coordinates": [
     147.52529908,
     -42.98603622
    ]
   },
   "properties": {
    "name": "64 BICHENO STREET CLIFTON BEACH 7020",
    "locID": "LOC000066980603",
    "tech": "FTTN",
    "upgrade": "NULL_NA",
    "gnaf_pid": "GATAS702200696",
    "ee": true,
    "tech_change_status": "Not Planned"
   }
  },
  {
   "type": "Feature",
   "geometry": {
    "type": "Point",
    "coordinates": [
     147.52132692,
     -42.9862705
    ]
   },
   "properties": {
    "name": "28 BICHENO STREET CLIFTON BEACH 7020",
    "locID": "LOC000019226281",
    "tech": "FTTN",
    "upgrade": "NULL_NA",
    "gnaf_pid": "GATAS702200697",
    "ee": true,
    "tech_change_status": "Not Planned"
   }
  },
  {
   "type": "Feature",
   "geometry": {
    "type": "Point",
    "coordinates": [
     147.5250673,
     -42.98606208
    ]
   },
   "properties": {
    "name": "62 BICHENO STREET CLIFTON BEACH 7020",
    "locID": "LOC000133581741",
    "tech": "FTTN",
    "upgrade": "NULL_NA",
    "gnaf_pid": "GATAS702200698",
    "ee": true,
    "tech_change_status": "Not Planned"
   }
  },
  {
   "type": "Feature",
   "geometry": {
    "type": "Point",
    "coordinates": [
     147.52040105,
     -42.98702214
    ]
   },
   "properties": {
    "name": "16 BICHENO STREET CLIFTON BEACH 7020",
    "locID": "LOC000096317943",
    "tech": "FTTN",
    "upgrade": "NULL_NA",
    "gnaf_pid": "GATAS702200699",
    "ee": true,
    "tech_change_status": "Not Planned"
   }
  },
  {
   "type": "Feature",
   "geometry": {
    "type": "Point",
    "coordinates": [
     147.52015763,
     -42.98710246
    ]
   },
   "properties": {
    "name": "14 BICHENO STREET CLIFTON BEACH 7020",
    "locID": "LOC000070400908",
    "tech": "FTTN",
    "upgrade": "NULL_NA",
    "gnaf_pid": "GATAS702200700",
    "ee": true,
    "tech_change_status": "Not Planned"
   }
  },
  {
   "type": "Feature",
   "geometry": {
    "type": "Point",
    "coordinates": [
     147.52182683,
     -42.98591702
    ]
   },
   "properties": {
    "name": "34 BICHENO STREET CLIFTON BEACH 7020",
    "locID": "LOC000051329410",
    "tech": "FTTN",
    "upgrade": "NULL_NA",
    "gnaf_pid": "GATAS702200701",
    "ee": true,
    "tech_change_status": "Not Planned"
   }
  },
  {
   "type": "Feature",
   "geometry": {
    "type": "Point",
    "coordinates": [
     147.52641983,
     -42.98593665
    ]
   },
   "properties": {
    "name": "74 BICHENO STREET CLIFTON BEACH 7020",
    "locID": "LOC000048676771",
    "tech": "FTTN",
    "upgrade": "NULL_NA",
    "gnaf_pid": "GATAS702200702",
    "ee": true,
    "tech_change_status": "Not Planned"
   }
  },
  {
   "type": "Feature",
   "geometry": {
    "type": "Point",
    "coordinates": [
     147.5221476,
     -42.99039108
    ]
   },
   "properties": {
    "name": "434 CLIFTON BEACH ROAD CLIFTON BEACH 7020",
    "locID": "LOC000012050700",
    "tech": "FTTN",
    "upgrade": "NULL_NA",
    "gnaf_pid": "GATAS702208778",
    "ee": true,
    "tech_change_status": "Not Planned"
   }
  },
  {
   "type": "Feature",
   "geometry": {
    "type": "Point",
    "coordinates": [
     147.52293397,
     -42.99135215
    ]
   },
   "properties": {
    "name": "444 CLIFTON BEACH ROAD CLIFTON BEACH 7020",
    "locID": "LOC000103324459",
    "tech": "FTTN",
    "upgrade": "FTTP",
    "gnaf_pid": "GATAS702208779",
    "ee": true,
    "tech_change_status": "Eligible to Order"
   }
  },
  {
   "type": "Feature",
   "geometry": {
    "type": "Point",
    "coordinates": [
     147.52300158,
     -42.99151334
    ]
   },
   "properties": {
    "name": "446 CLIFTON BEACH ROAD CLIFTON BEACH 7020",
    "locID": "LOC000026675554",
    "tech": "FTTN",
    "upgrade": "FTTP",
    "gnaf_pid": "GATAS702208780",
    "ee": true,
    "tech_change_status": "Eligible to Order"
   }
  },
  {
   "type": "Feature",
   "geometry": {
    "type": "Point",
    "coordinates": [
     147.52228448,
     -42.99051851
    ]
   },
   "properties": {
    "name": "436 CLIFTON BEACH ROAD CLIFTON BEACH 7020",
    "locID": "LOC000091336981",
    "tech": "FTTN",
    "upgrade": "NULL_NA",
    "gnaf_pid": "GATAS702208795",
    "ee": true,
    "tech_change_status": "Not Planned"
   }
  },
  {
   "type": "Feature",
   "geometry": {
    "type": "Point",
    "coordinates": [
     147.52307989,
     -42.99040348
    ]
   },
   "properties": {
    "name": "459 CLIFTON BEACH ROAD CLIFTON BEACH 7020",
    "locID": "LOC000029222472",
    "tech": "FTTN",
    "upgrade": "FTTP",
    "gnaf_pid": "GATAS702208796",
    "ee": true,
    "tech_change_status": "Eligible to Order"
   }
  },
  {
   "type": "Feature",
   "geometry": {
    "type": "Point",
    "coordinates": [
     147.52291816,
     -42.99029346
    ]
   },
   "properties": {
    "name": "457 CLIFTON BEACH ROAD CLIFTON BEACH 7020",
    "locID": "LOC000037799638",
    "tech": "FTTN",
    "upgrade": "FTTP",
    "gnaf_pid": "GATAS702208797",
    "ee": true,
    "tech_change_status": "Eligible to Order"
   }
  },
  {
   "type": "Feature",
   "geometry": {
    "type": "Point",
    "coordinates": [
     147.52279646,
     -42.99121215
    ]
   },
   "properties": {
    "name": "442 CLIFTON BEACH ROAD CLIFTON BEACH 7020",
    "locID": "LOC000066735480",
    "tech": "FTTN",
    "upgrade": "FTTP",
    "gnaf_pid": "GATAS702208798",
    "ee": true,
    "tech_change_status": "Eligible to Order"
   }
  },
  {
   "type": "Feature",
   "geometry": {
    "type": "Point",
    "coordinates": [
     147.52142888,
     -42.98920543
    ]
   },
   "properties": {
    "name": "439 CLIFTON BEACH ROAD CLIFTON BEACH 7020",
    "locID": "LOC000133577545",
    "tech": "FTTN",
    "upgrade": "NULL_NA",
    "gnaf_pid": "GATAS702209480",
    "ee": true,
    "tech_change_status": "Not Planned"
   }
  },
  {
   "type": "Feature",
   "geometry": {
    "type": "Point",
    "coordinates": [
     147.52340886,
     -42.99102198
    ]
   },
   "properties": {
    "name": "461 CLIFTON BEACH ROAD CLIFTON BEACH 7020",
    "locID": "LOC000075751742",
    "tech": "FTTP",
    "upgrade": "NULL_NA",
    "gnaf_pid": "GATAS702209481",
    "ee": true,
    "tech_change_status": "Previous Tech Disconnected"
   }
  },
  {
   "type": "Feature",
   "geometry": {
    "type": "Point",
    "coordinates": [
     147.52353419,
     -42.99124188
    ]
   },
   "properties": {
    "name": "463 CLIFTON BEACH ROAD CLIFTON BEACH 7020",
    "locID": "LOC000011164218",
    "tech": "FTTP",
    "upgrade": "NULL_NA",
    "gnaf_pid": "GATAS702209482",
    "ee": true,
    "tech_change_status": "Eligible to Order"
   }
  },
  {
   "type": "Feature",
   "geometry": {
    "type": "Point",
    "coordinates": [
     147.51902106,
     -42.98730862
    ]
   },
   "properties": {
    "name": "407 CLIFTON BEACH ROAD CLIFTON BEACH 7020",
    "locID": "LOC000066158417",
    "tech": "FTTN",
    "upgrade": "NULL_NA",
    "gnaf_pid": "GATAS702209483",
    "ee": true,
    "tech_change_status": "Not Planned"
   }
  },
  {
   "type": "Feature",
   "geometry": {
    "type": "Point",
    "coordinates": [
     147.52332061,
     -42.99202147
    ]
   },
   "properties": {
    "name": "452 CLIFTON BEACH ROAD CLIFTON BEACH 7020",
    "locID": "LOC000039505496",
    "tech": "FTTN",
    "upgrade": "FTTP",
    "gnaf_pid": "GATAS702209484",
    "ee": true,
    "tech_change_status": "Eligible to Order"
   }
  },
  {
   "type": "Feature",
   "geometry": {
    "type": "Point",
    "coordinates": [
     147.52131626,
     -42.98972993
    ]
   },
   "properties": {
    "name": "422-424 CLIFTON BEACH ROAD CLIFTON BEACH 7020",
    "locID": "LOC000039028884",
    "tech": "FTTN",
    "upgrade": "NULL_NA",
    "gnaf_pid": "GATAS702209485",
    "ee": true,
    "tech_change_status": "Not Planned"
   }
  },
  {
   "type": "Feature",
   "geometry": {
    "type": "Point",
    "coordinates": [
     147.52013002,
     -42.9880798
    ]
   },
   "properties": {
    "name": "419-421 CLIFTON BEACH ROAD CLIFTON BEACH 7020",
    "locID": "LOC000072191483",
    "tech": "FTTN",
    "upgrade": "NULL_NA",
    "gnaf_pid": "GATAS702209486",
    "ee": true,
    "tech_change_status": "Not Planned"
   }
  },
  {
   "type": "Feature",
   "geometry": {
    "type": "Point",
    "coordinates": [
     147.52449242,
     -42.99110567
    ]
   },
   "properties": {
    "name": "465 CLIFTON BEACH ROAD CLIFTON BEACH 7020",
    "locID": "LOC000133577584",
    "tech": "FTTN",
    "upgrade": "FTTP",
    "gnaf_pid": "GATAS702209487",
    "ee": true,
    "tech_change_status": "Eligible to Order"
   }
  },
  {
   "type": "Feature",
   "geometry": {
    "type": "Point",
    "coordinates": [
     147.52037355,
     -42.987621
    ]
   },
   "properties": {
    "name": "415 CLIFTON BEACH ROAD CLIFTON BEACH 7020",
    "locID": "LOC000065723436",
    "tech": "FTTN",
    "upgrade": "NULL_NA",
    "gnaf_pid": "GATAS702209489",
    "ee": true,
    "tech_change_status": "Not Planned"
   }
  },
  {
   "type": "Feature",
   "geometry": {
    "type": "Point",
    "coordinates": [
     147.50373419,
     -42.96606562
    ]
   },
   "properties": {
    "name": "40 CLIFTON BEACH ROAD CLIFTON BEACH 7020",
    "locID": "LOC000088866168",
    "tech": "FTTN",
    "upgrade": "NULL_NA",
    "gnaf_pid": "GATAS702209490",
    "ee": true,
    "tech_change_status": "Not Planned"
   }
  },
  {
   "type": "Feature",
   "geometry": {
    "type": "Point",
    "coordinates": [
     147.52108592,
     -42.98954994
    ]
   },
   "properties": {
    "name": "420 CLIFTON BEACH ROAD CLIFTON BEACH 7020",
    "locID": "LOC000060646928",
    "tech": "FTTN",
    "upgrade": "NULL_NA",
    "gnaf_pid": "GATAS702209634",
    "ee": true,
    "tech_change_status": "Not Planned"
   }
  },
  {
   "type": "Feature",
   "geometry": {
    "type": "Point",
    "coordinates": [
     147.52314048,
     -42.99184134
    ]
   },
   "properties": {
    "name": "450 CLIFTON BEACH ROAD CLIFTON BEACH 7020",
    "locID": "LOC000133577578",
    "tech": "FTTN",
    "upgrade": "FTTP",
    "gnaf_pid": "GATAS702209635",
    "ee": true,
    "tech_change_status": "Eligible to Order"
   }
  },
  {
   "type": "Feature",
   "geometry": {
    "type": "Point",
    "coordinates": [
     147.52241796,
     -42.99065107
    ]
   },
   "properties": {
    "name": "438 CLIFTON BEACH ROAD CLIFTON BEACH 7020",
    "locID": "LOC000085908465",
    "tech": "FTTN",
    "upgrade": "NULL_NA",
    "gnaf_pid": "GATAS702209636",
    "ee": true,
    "tech_change_status": "Not Planned"
   }
  },
  {
   "type": "Feature",
   "geometry": {
    "type": "Point",
    "coordinates": [
     147.5193102,
     -42.98745134
    ]
   },
   "properties": {
    "name": "409 CLIFTON BEACH ROAD CLIFTON BEACH 7020",
    "locID": "LOC000085950505",
    "tech": "FTTN",
    "upgrade": "NULL_NA",
    "gnaf_pid": "GATAS702209637",
    "ee": true,
    "tech_change_status": "Not Planned"
   }
  },
  {
   "type": "Feature",
   "geometry": {
    "type": "Point",
    "coordinates": [
     147.52263211,
     -42.99003798
    ]
   },
   "properties": {
    "name": "453 CLIFTON BEACH ROAD CLIFTON BEACH 7020",
    "locID": "LOC000023338969",
    "tech": "FTTN",
    "upgrade": "FTTP",
    "gnaf_pid": "GATAS702209638",
    "ee": true,
    "tech_change_status": "Eligible to Order"
   }
  },
  {
   "type": "Feature",
   "geometry": {
    "type": "Point",
    "coordinates": [
     147.51426421,
     -42.97298072
    ]
   },
   "properties": {
    "name": "165 CLIFTON BEACH ROAD CLIFTON BEACH 7020",
    "locID": "LOC000006232453",
    "tech": "FTTN",
    "upgrade": "NULL_NA",
    "gnaf_pid": "GATAS702211409",
    "ee": true,
    "tech_change_status": "Not Planned"
   }
  },
  {
   "type": "Feature",
   "geometry": {
    "type": "Point",
    "coordinates": [
     147.50974635,
     -42.97093088
    ]
   },
   "properties": {
    "name": "119 CLIFTON BEACH ROAD CLIFTON BEACH 7020",
    "locID": "LOC000084743325",
    "tech": "FTTN",
    "upgrade": "NULL_NA",
    "gnaf_pid": "GATAS702211411",
    "ee": true,
    "tech_change_status": "Not Planned"
   }
  },
  {
   "type": "Feature",
   "geometry": {
    "type": "Point",
    "coordinates": [
     147.52256244,
     -42.98870171
    ]
   },
   "properties": {
    "name": "443 CLIFTON BEACH ROAD CLIFTON BEACH 7020",
    "locID": "LOC000025094609",
    "tech": "FTTP",
    "upgrade": "NULL_NA",
    "gnaf_pid": "GATAS702211412",
    "ee": true,
    "tech_change_status": "Previous Tech Disconnected"
   }
  },
  {
   "type": "Feature",
   "geometry": {
    "type": "Point",
    "coordinates": [
     147.51110063,
     -42.97780681
    ]
   },
   "properties": {
    "name": "226 CLIFTON BEACH ROAD CLIFTON BEACH 7020",
    "locID": "LOC000032444629",
    "tech": "FTTN",
    "upgrade": "NULL_NA",
    "gnaf_pid": "GATAS702211413",
    "ee": true,
    "tech_change_status": "Not Planned"
   }
  },
  {
   "type": "Feature",
   "geometry": {
    "type": "Point",
    "coordinates": [
     147.50907695,
     -42.97039916
    ]
   },
   "properties": {
    "name": "111 CLIFTON BEACH ROAD CLIFTON BEACH 7020",
    "locID": "LOC000009236534",
    "tech": "FTTN",
    "upgrade": "NULL_NA",
    "gnaf_pid": "GATAS702211414",
    "ee": true,
    "tech_change_status": "Not Planned"
   }
  },
  {
   "type": "Feature",
   "geometry": {
    "type": "Point",
    "coordinates": [
     147.50989845,
     -42.97480447
    ]
   },
   "properties": {
    "name": "182 CLIFTON BEACH ROAD CLIFTON BEACH 7020",
    "locID": "LOC000020142505",
    "tech": "FTTN",
    "upgrade": "NULL_NA",
    "gnaf_pid": "GATAS702211415",
    "ee": true,
    "tech_change_status": "Not Planned"
   }
  },
  {
   "type": "Feature",
   "geometry": {
    "type": "Point",
    "coordinates": [
     147.51067968,
     -42.97584557
    ]
   },
   "properties": {
    "name": "202 CLIFTON BEACH ROAD CLIFTON BEACH 7020",
    "locID": "LOC000046929317",
    "tech": "FTTN",
    "upgrade": "NULL_NA",
    "gnaf_pid": "GATAS702211416",
    "ee": true,
    "tech_change_status": "Not Planned"
   }
  },
  {
   "type": "Feature",
   "geometry": {
    "type": "Point",
    "coordinates": [
     147.51775069,
     -42.98798573
    ]
   },
   "properties": {
    "name": "386 CLIFTON BEACH ROAD CLIFTON BEACH 7020",
    "locID": "LOC000037145208",
    "tech": "FTTN",
    "upgrade": "NULL_NA",
    "gnaf_pid": "GATAS702211417",
    "ee": true,
    "tech_change_status": "Not Planned"
   }
  },
  {
   "type": "Feature",
   "geometry": {
    "type": "Point",
    "coordinates": [
     147.51201042,
     -42.97426302
    ]
   },
   "properties": {
    "name": "177 CLIFTON BEACH ROAD CLIFTON BEACH 7020",
    "locID": "LOC000133631994",
    "tech": "FTTN",
    "upgrade": "NULL_NA",
    "gnaf_pid": "GATAS702211418",
    "ee": true,
    "tech_change_status": "Not Planned"
   }
  },
  {
   "type": "Feature",
   "geometry": {
    "type": "Point",
    "coordinates": [
     147.51393844,
     -42.97791369
    ]
   },
   "properties": {
    "name": "239 CLIFTON BEACH ROAD CLIFTON BEACH 7020",
    "locID": "LOC000133636254",
    "tech": "FTTN",
    "upgrade": "NULL_NA",
    "gnaf_pid": "GATAS702211419",
    "ee": true,
    "tech_change_status": "Not Planned"
   }
  },
  {
   "type": "Feature",
   "geometry": {
    "type": "Point",
    "coordinates": [
     147.50649781,
     -42.96555845
    ]
   },
   "properties": {
    "name": "31 CLIFTON BEACH ROAD CLIFTON BEACH 7020",
    "locID": "LOC000040666973",
    "tech": "FTTN",
    "upgrade": "NULL_NA",
    "gnaf_pid": "GATAS702212398",
    "ee": true,
    "tech_change_status": "Not Planned"
   }
  },
  {
   "type": "Feature",
   "geometry": {
    "type": "Point",
    "coordinates": [
     147.51692375,
     -42.98251463
    ]
   },
   "properties": {
    "name": "341 CLIFTON BEACH ROAD CLIFTON BEACH 7020",
    "locID": "LOC000174897757",
    "tech": "FTTN",
    "upgrade": "NULL_NA",
    "gnaf_pid": "GATAS702212400",
    "ee": true,
    "tech_change_status": "Not Planned"
   }
  },
  {
   "type": "Feature",
   "geometry": {
    "type": "Point",
    "coordinates": [
     147.51384811,
     -42.98754772
    ]
   },
   "properties": {
    "name": "362 CLIFTON BEACH ROAD CLIFTON BEACH 7020",
    "locID": "LOC000105910963",
    "tech": "FTTN",
    "upgrade": "NULL_NA",
    "gnaf_pid": "GATAS702212401",
    "ee": true,
    "tech_change_status": "Not Planned"
   }
  },
  {
   "type": "Feature",
   "geometry": {
    "type": "Point",
    "coordinates": [
     147.50992267,
     -42.98218854
    ]
   },
   "properties": {
    "name": "268 CLIFTON BEACH ROAD CLIFTON BEACH 7020",
    "locID": "LOC000060863669",
    "tech": "FTTN",
    "upgrade": "NULL_NA",
    "gnaf_pid": "GATAS702212402",
    "ee": true,
    "tech_change_status": "Not Planned"
   }
  },
  {
   "type": "Feature",
   "geometry": {
    "type": "Point",
    "coordinates": [
     147.52177142,
     -42.98801403
    ]
   },
   "properties": {
    "name": "433 CLIFTON BEACH ROAD CLIFTON BEACH 7020",
    "locID": "LOC000107010925",
    "tech": "FTTN",
    "upgrade": "NULL_NA",
    "gnaf_pid": "GATAS702212413",
    "ee": true,
    "tech_change_status": "Not Planned"
   }
  },
  {
   "type": "Feature",
   "geometry": {
    "type": "Point",
    "coordinates": [
     147.51468217,
     -42.98074244
    ]
   },
   "properties": {
    "name": "293 CLIFTON BEACH ROAD CLIFTON BEACH 7020",
    "locID": "LOC000059852979",
    "tech": "FTTN",
    "upgrade": "NULL_NA",
    "gnaf_pid": "GATAS702212414",
    "ee": true,
    "tech_change_status": "Not Planned"
   }
  },
  {
   "type": "Feature",
   "geometry": {
    "type": "Point",
    "coordinates": [
     147.51374375,
     -42.97709258
    ]
   },
   "properties": {
    "name": "217 CLIFTON BEACH ROAD CLIFTON BEACH 7020",
    "locID": "LOC000032150636",
    "tech": "FTTN",
    "upgrade": "NULL_NA",
    "gnaf_pid": "GATAS702212415",
    "ee": true,
    "tech_change_status": "Not Planned"
   }
  },
  {
   "type": "Feature",
   "geometry": {
    "type": "Point",
    "coordinates": [
     147.50429889,
     -42.96405677
    ]
   },
   "properties": {
    "name": "9 CLIFTON BEACH ROAD CLIFTON BEACH 7020",
    "locID": "LOC000070946180",
    "tech": "FTTN",
    "upgrade": "NULL_NA",
    "gnaf_pid": "GATAS702212417",
    "ee": true,
    "tech_change_status": "Not Planned"
   }
  },
  {
   "type": "Feature",
   "geometry": {
    "type": "Point",
    "coordinates": [
     147.51554312,
     -42.98593388
    ]
   },
   "properties": {
    "name": "344 CLIFTON BEACH ROAD CLIFTON BEACH 7020",
    "locID": "LOC000102397481",
    "tech": "FTTN",
    "upgrade": "NULL_NA",
    "gnaf_pid": "GATAS702212418",
    "ee": true,
    "tech_change_status": "Not Planned"
   }
  },
  {
   "type": "Feature",
   "geometry": {
    "type": "Point",
    "coordinates": [
     147.51678943,
     -42.98373085
    ]
   },
   "properties": {
    "name": "363 CLIFTON BEACH ROAD CLIFTON BEACH 7020",
    "locID": "LOC000053006948",
    "tech": "FTTN",
    "upgrade": "NULL_NA",
    "gnaf_pid": "GATAS702212419",
    "ee": true,
    "tech_change_status": "Not Planned"
   }
  },
  {
   "type": "Feature",
   "geometry": {
    "type": "Point",
    "coordinates": [
     147.51481967,
     -42.98545868
    ]
   },
   "properties": {
    "name": "332 CLIFTON BEACH ROAD CLIFTON BEACH 7020",
    "locID": "LOC000058369730",
    "tech": "FTTN",
    "upgrade": "NULL_NA",
    "gnaf_pid": "GATAS702212420",
    "ee": true,
    "tech_change_status": "Not Planned"
   }
  },
  {
   "type": "Feature",
   "geometry": {
    "type": "Point",
    "coordinates": [
     147.51819286,
     -42.98522816
    ]
   },
   "properties": {
    "name": "393 CLIFTON BEACH ROAD CLIFTON BEACH 7020",
    "locID": "LOC000018686636",
    "tech": "FTTN",
    "upgrade": "NULL_NA",
    "gnaf_pid": "GATAS702212421",
    "ee": true,
    "tech_change_status": "Not Planned"
   }
  },
  {
   "type": "Feature",
   "geometry": {
    "type": "Point",
    "coordinates": [
     147.51408697,
     -42.98502504
    ]
   },
   "properties": {
    "name": "320 CLIFTON BEACH ROAD CLIFTON BEACH 7020",
    "locID": "LOC000098331813",
    "tech": "SATELLITE",
    "upgrade": "WIRELESS",
    "gnaf_pid": "GATAS702212422",
    "ee": true,
    "tech_change_status": "Eligible to Order",
    "program_type": "Fixed Wireless and Satellite Upgrade Program",
    "target_eligibility_quarter": "NA"
   }
  },
  {
   "type": "Feature",
   "geometry": {
    "type": "Point",
    "coordinates": [
     147.51757603,
     -42.98439345
    ]
   },
   "properties": {
    "name": "375 CLIFTON BEACH ROAD CLIFTON BEACH 7020",
    "locID": "LOC000087782910",
    "tech": "FTTN",
    "upgrade": "NULL_NA",
    "gnaf_pid": "GATAS702212423",
    "ee": true,
    "tech_change_status": "Not Planned"
   }
  },
  {
   "type": "Feature",
   "geometry": {
    "type": "Point",
    "coordinates": [
     147.51342254,
     -42.97362588
    ]
   },
   "properties": {
    "name": "183 CLIFTON BEACH ROAD CLIFTON BEACH 7020",
    "locID": "LOC000010076460",
    "tech": "FTTN",
    "upgrade": "NULL_NA",
    "gnaf_pid": "GATAS702212424",
    "ee": true,
    "tech_change_status": "Not Planned"
   }
  },
  {
   "type": "Feature",
   "geometry": {
    "type": "Point",
    "coordinates": [
     147.51357251,
     -42.9748895
    ]
   },
   "properties": {
    "name": "189 CLIFTON BEACH ROAD CLIFTON BEACH 7020",
    "locID": "LOC000047176623",
    "tech": "FTTN",
    "upgrade": "NULL_NA",
    "gnaf_pid": "GATAS702212425",
    "ee": true,
    "tech_change_status": "Not Planned"
   }
  },
  {
   "type": "Feature",
   "geometry": {
    "type": "Point",
    "coordinates": [
     147.51934021,
     -42.98897204
    ]
   },
   "properties": {
    "name": "398 CLIFTON BEACH ROAD CLIFTON BEACH 7020",
    "locID": "LOC000056277918",
    "tech": "FTTN",
    "upgrade": "NULL_NA",
    "gnaf_pid": "GATAS702212426",
    "ee": true,
    "tech_change_status": "Not Planned"
   }
  },
  {
   "type": "Feature",
   "geometry": {
    "type": "Point",
    "coordinates": [
     147.51103643,
     -42.97339602
    ]
   },
   "properties": {
    "name": "171 CLIFTON BEACH ROAD CLIFTON BEACH 7020",
    "locID": "LOC000040692954",
    "tech": "FTTN",
    "upgrade": "NULL_NA",
    "gnaf_pid": "GATAS702212427",
    "ee": true,
    "tech_change_status": "Not Planned"
   }
  },
  {
   "type": "Feature",
   "geometry": {
    "type": "Point",
    "coordinates": [
     147.52203942,
     -42.98947339
    ]
   },
   "properties": {
    "name": "445 CLIFTON BEACH ROAD CLIFTON BEACH 7020",
    "locID": "LOC000111507803",
    "tech": "FTTN",
    "upgrade": "FTTP",
    "gnaf_pid": "GATAS702214055",
    "ee": true,
    "tech_change_status": "Eligible to Order"
   }
  },
  {
   "type": "Feature",
   "geometry": {
    "type": "Point",
    "coordinates": [
     147.5194784,
     -42.9876301
    ]
   },
   "properties": {
    "name": "411 CLIFTON BEACH ROAD CLIFTON BEACH 7020",
    "locID": "LOC000029191430",
    "tech": "FTTN",
    "upgrade": "NULL_NA",
    "gnaf_pid": "GATAS702214056",
    "ee": true,
    "tech_change_status": "Not Planned"
   }
  },
  {
   "type": "Feature",
   "geometry": {
    "type": "Point",
    "coordinates": [
     147.52200611,
     -42.99026865
    ]
   },
   "properties": {
    "name": "432 CLIFTON BEACH ROAD CLIFTON BEACH 7020",
    "locID": "LOC000022576850",
    "tech": "FTTN",
    "upgrade": "NULL_NA",
    "gnaf_pid": "GATAS702214057",
    "ee": true,
    "tech_change_status": "Not Planned"
   }
  },
  {
   "type": "Feature",
   "geometry": {
    "type": "Point",
    "coordinates": [
     147.52186271,
     -42.99015825
    ]
   },
   "properties": {
    "name": "430 CLIFTON BEACH ROAD CLIFTON BEACH 7020",
    "locID": "LOC000032523642",
    "tech": "FTTN",
    "upgrade": "NULL_NA",
    "gnaf_pid": "GATAS702214058",
    "ee": true,
    "tech_change_status": "Not Planned"
   }
  },
  {
   "type": "Feature",
   "geometry": {
    "type": "Point",
    "coordinates": [
     147.52093237,
     -42.98942996
    ]
   },
   "properties": {
    "name": "418 CLIFTON BEACH ROAD CLIFTON BEACH 7020",
    "locID": "LOC000043288672",
    "tech": "FTTN",
    "upgrade": "NULL_NA",
    "gnaf_pid": "GATAS702214060",
    "ee": true,
    "tech_change_status": "Not Planned"
   }
  },
  {
   "type": "Feature",
   "geometry": {
    "type": "Point",
    "coordinates": [
     147.51864525,
     -42.99004158
    ]
   },
   "properties": {
    "name": "392 CLIFTON BEACH ROAD CLIFTON BEACH 7020",
    "locID": "LOC000060540386",
    "tech": "FTTN",
    "upgrade": "NULL_NA",
    "gnaf_pid": "GATAS702214942",
    "ee": true,
    "tech_change_status": "Not Planned"
   }
  },
  {
   "type": "Feature",
   "geometry": {
    "type": "Point",
    "coordinates": [
     147.5054541,
     -42.96821443
    ]
   },
   "properties": {
    "name": "74 CLIFTON BEACH ROAD CLIFTON BEACH 7020",
    "locID": "LOC000087890285",
    "tech": "FTTN",
    "upgrade": "NULL_NA",
    "gnaf_pid": "GATAS702214943",
    "ee": true,
    "tech_change_status": "Not Planned"
   }
  },
  {
   "type": "Feature",
   "geometry": {
    "type": "Point",
    "coordinates": [
     147.50840639,
     -42.96899319
    ]
   },
   "properties": {
    "name": "95 CLIFTON BEACH ROAD CLIFTON BEACH 7020",
    "locID": "LOC000006329583",
    "tech": "FTTN",
    "upgrade": "NULL_NA",
    "gnaf_pid": "GATAS702214944",
    "ee": true,
    "tech_change_status": "Not Planned"
   }
  },
  {
   "type": "Feature",
   "geometry": {
    "type": "Point",
    "coordinates": [
     147.5087816,
     -42.96968162
    ]
   },
   "properties": {
    "name": "105 CLIFTON BEACH ROAD CLIFTON BEACH 7020",
    "locID": "LOC000104198870",
    "tech": "FTTN",
    "upgrade": "NULL_NA",
    "gnaf_pid": "GATAS702214945",
    "ee": true,
    "tech_change_status": "Not Planned"
   }
  },
  {
   "type": "Feature",
   "geometry": {
    "type": "Point",
    "coordinates": [
     147.50746452,
     -42.96741142
    ]
   },
   "properties": {
    "name": "73 CLIFTON BEACH ROAD CLIFTON BEACH 7020",
    "locID": "LOC000098593437",
    "tech": "FTTN",
    "upgrade": "NULL_NA",
    "gnaf_pid": "GATAS702214946",
    "ee": true,
    "tech_change_status": "Not Planned"
   }
  },
  {
   "type": "Feature",
   "geometry": {
    "type": "Point",
    "coordinates": [
     147.50788547,
     -42.96827006
    ]
   },
   "properties": {
    "name": "83 CLIFTON BEACH ROAD CLIFTON BEACH 7020",
    "locID": "LOC000026222563",
    "tech": "FTTN",
    "upgrade": "NULL_NA",
    "gnaf_pid": "GATAS702214947",
    "ee": true,
    "tech_change_status": "Not Planned"
   }
  },
  {
   "type": "Feature",
   "geometry": {
    "type": "Point",
    "coordinates": [
     147.50614113,
     -42.96975127
    ]
   },
   "properties": {
    "name": "96 CLIFTON BEACH ROAD CLIFTON BEACH 7020",
    "locID": "LOC000017613707",
    "tech": "FTTN",
    "upgrade": "NULL_NA",
    "gnaf_pid": "GATAS702214948",
    "ee": true,
    "tech_change_status": "Not Planned"
   }
  },
  {
   "type": "Feature",
   "geometry": {
    "type": "Point",
    "coordinates": [
     147.5068146,
     -42.97112607
    ]
   },
   "properties": {
    "name": "120 CLIFTON BEACH ROAD CLIFTON BEACH 7020",
    "locID": "LOC000073944447",
    "tech": "FTTN",
    "upgrade": "NULL_NA",
    "gnaf_pid": "GATAS702214949",
    "ee": true,
    "tech_change_status": "Not Planned"
   }
  },
  {
   "type": "Feature",
   "geometry": {
    "type": "Point",
    "coordinates": [
     147.50751078,
     -42.97227564
    ]
   },
   "properties": {
    "name": "140 CLIFTON BEACH ROAD CLIFTON BEACH 7020",
    "locID": "LOC000133631816",
    "tech": "FTTN",
    "upgrade": "NULL_NA",
    "gnaf_pid": "GATAS702214950",
    "ee": true,
    "tech_change_status": "Not Planned"
   }
  },
  {
   "type": "Feature",
   "geometry": {
    "type": "Point",
    "coordinates": [
     147.50851657,
     -42.97527888
    ]
   },
   "properties": {
    "name": "192 CLIFTON BEACH ROAD CLIFTON BEACH 7020",
    "locID": "LOC000048615636",
    "tech": "FTTN",
    "upgrade": "NULL_NA",
    "gnaf_pid": "GATAS702214951",
    "ee": true,
    "tech_change_status": "Not Planned"
   }
  },
  {
   "type": "Feature",
   "geometry": {
    "type": "Point",
    "coordinates": [
     147.51711188,
     -42.98979468
    ]
   },
   "properties": {
    "name": "390 CLIFTON BEACH ROAD CLIFTON BEACH 7020",
    "locID": "LOC000062060824",
    "tech": "FTTN",
    "upgrade": "NULL_NA",
    "gnaf_pid": "GATAS702214953",
    "ee": true,
    "tech_change_status": "Not Planned"
   }
  },
  {
   "type": "Feature",
   "geometry": {
    "type": "Point",
    "coordinates": [
     147.51084722,
     -42.97682638
    ]
   },
   "properties": {
    "name": "216 CLIFTON BEACH ROAD CLIFTON BEACH 7020",
    "locID": "LOC000085847957",
    "tech": "FTTN",
    "upgrade": "NULL_NA",
    "gnaf_pid": "GATAS702214954",
    "ee": true,
    "tech_change_status": "Not Planned"
   }
  },
  {
   "type": "Feature",
   "geometry": {
    "type": "Point",
    "coordinates": [
     147.50679135,
     -42.96451402
    ]
   },
   "properties": {
    "name": "17 CLIFTON BEACH ROAD CLIFTON BEACH 7020",
    "locID": "LOC000079851631",
    "tech": "FTTN",
    "upgrade": "NULL_NA",
    "gnaf_pid": "GATAS702214955",
    "ee": true,
    "tech_change_status": "Not Planned"
   }
  },
  {
   "type": "Feature",
   "geometry": {
    "type": "Point",
    "coordinates": [
     147.50902173,
     -42.97705064
    ]
   },
   "properties": {
    "name": "220 CLIFTON BEACH ROAD CLIFTON BEACH 7020",
    "locID": "LOC000097237092",
    "tech": "FTTN",
    "upgrade": "NULL_NA",
    "gnaf_pid": "GATAS702214956",
    "ee": true,
    "tech_change_status": "Not Planned"
   }
  },
  {
   "type": "Feature",
   "geometry": {
    "type": "Point",
    "coordinates": [
     147.5133007,
     -42.9760529
    ]
   },
   "properties": {
    "name": "211 CLIFTON BEACH ROAD CLIFTON BEACH 7020",
    "locID": "LOC000086222237",
    "tech": "FTTN",
    "upgrade": "NULL_NA",
    "gnaf_pid": "GATAS702214957",
    "ee": true,
    "tech_change_status": "Not Planned"
   }
  },
  {
   "type": "Feature",
   "geometry": {
    "type": "Point",
    "coordinates": [
     147.5084685,
     -42.97391032
    ]
   },
   "properties": {
    "name": "166 CLIFTON BEACH ROAD CLIFTON BEACH 7020",
    "locID": "LOC000052571726",
    "tech": "FTTN",
    "upgrade": "NULL_NA",
    "gnaf_pid": "GATAS702214959",
    "ee": true,
    "tech_change_status": "Not Planned"
   }
  },
  {
   "type": "Feature",
   "geometry": {
    "type": "Point",
    "coordinates": [
     147.51119765,
     -42.98359665
    ]
   },
   "properties": {
    "name": "286 CLIFTON BEACH ROAD CLIFTON BEACH 7020",
    "locID": "LOC000066773683",
    "tech": "FTTN",
    "upgrade": "NULL_NA",
    "gnaf_pid": "GATAS702214960",
    "ee": true,
    "tech_change_status": "Not Planned"
   }
  },
  {
   "type": "Feature",
   "geometry": {
    "type": "Point",
    "coordinates": [
     147.516879,
     -42.98769924
    ]
   },
   "properties": {
    "name": "380 CLIFTON BEACH ROAD CLIFTON BEACH 7020",
    "locID": "LOC000060306154",
    "tech": "FTTN",
    "upgrade": "NULL_NA",
    "gnaf_pid": "GATAS702214961",
    "ee": true,
    "tech_change_status": "Not Planned"
   }
  },
  {
   "type": "Feature",
   "geometry": {
    "type": "Point",
    "coordinates": [
     147.51416858,
     -42.97214687
    ]
   },
   "properties": {
    "name": "161 CLIFTON BEACH ROAD CLIFTON BEACH 7020",
    "locID": "LOC000020102375",
    "tech": "FTTN",
    "upgrade": "NULL_NA",
    "gnaf_pid": "GATAS702214962",
    "ee": true,
    "tech_change_status": "Not Planned"
   }
  },
  {
   "type": "Feature",
   "geometry": {
    "type": "Point",
    "coordinates": [
     147.51072014,
     -42.97154547
    ]
   },
   "properties": {
    "name": "135 CLIFTON BEACH ROAD CLIFTON BEACH 7020",
    "locID": "LOC000020037587",
    "tech": "FTTN",
    "upgrade": "NULL_NA",
    "gnaf_pid": "GATAS702214964",
    "ee": true,
    "tech_change_status": "Not Planned"
   }
  },
  {
   "type": "Feature",
   "geometry": {
    "type": "Point",
    "coordinates": [
     147.51634995,
     -42.97640677
    ]
   },
   "properties": {
    "name": "205 CLIFTON BEACH ROAD CLIFTON BEACH 7020",
    "locID": "LOC000060563072",
    "tech": "FTTN",
    "upgrade": "NULL_NA",
    "gnaf_pid": "GATAS702214965",
    "ee": true,
    "tech_change_status": "Not Planned"
   }
  },
  {
   "type": "Feature",
   "geometry": {
    "type": "Point",
    "coordinates": [
     147.52416436,
     -42.98674382
    ]
   },
   "properties": {
    "name": "1 BUCKLAND STREET CLIFTON BEACH 7020",
    "locID": "LOC000067307635",
    "tech": "FTTN",
    "upgrade": "NULL_NA",
    "gnaf_pid": "GATAS702217197",
    "ee": true,
    "tech_change_status": "Not Planned"
   }
  },
  {
   "type": "Feature",
   "geometry": {
    "type": "Point",
    "coordinates": [
     147.52250592,
     -42.98644523
    ]
   },
   "properties": {
    "name": "2 BUCKLAND STREET CLIFTON BEACH 7020",
    "locID": "LOC000035978962",
    "tech": "FTTN",
    "upgrade": "NULL_NA",
    "gnaf_pid": "GATAS702217879",
    "ee": true,
    "tech_change_status": "Not Planned"
   }
  },
  {
   "type": "Feature",
   "geometry": {
    "type": "Point",
    "coordinates": [
     147.52154659,
     -42.98990992
    ]
   },
   "properties": {
    "name": "426 CLIFTON BEACH ROAD CLIFTON BEACH 7020",
    "locID": "LOC000095131392",
    "tech": "FTTN",
    "upgrade": "NULL_NA",
    "gnaf_pid": "GATAS702219316",
    "ee": true,
    "tech_change_status": "Not Planned"
   }
  },
  {
   "type": "Feature",
   "geometry": {
    "type": "Point",
    "coordinates": [
     147.52170218,
     -42.99003291
    ]
   },
   "properties": {
    "name": "428 CLIFTON BEACH ROAD CLIFTON BEACH 7020",
    "locID": "LOC000086994944",
    "tech": "FTTN",
    "upgrade": "NULL_NA",
    "gnaf_pid": "GATAS702219317",
    "ee": true,
    "tech_change_status": "Not Planned"
   }
  },
  {
   "type": "Feature",
   "geometry": {
    "type": "Point",
    "coordinates": [
     147.51713582,
     -42.9800071
    ]
   },
   "properties": {
    "name": "287 CLIFTON BEACH ROAD CLIFTON BEACH 7020",
    "locID": "LOC000104544248",
    "tech": "FTTN",
    "upgrade": "NULL_NA",
    "gnaf_pid": "GATAS702220225",
    "ee": true,
    "tech_change_status": "Not Planned"
   }
  },
  {
   "type": "Feature",
   "geometry": {
    "type": "Point",
    "coordinates": [
     147.50930974,
     -42.97925561
    ]
   },
   "properties": {
    "name": "262 CLIFTON BEACH ROAD CLIFTON BEACH 7020",
    "locID": "LOC000052834092",
    "tech": "FTTN",
    "upgrade": "NULL_NA",
    "gnaf_pid": "GATAS702220370",
    "ee": true,
    "tech_change_status": "Not Planned"
   }
  },
  {
   "type": "Feature",
   "geometry": {
    "type": "Point",
    "coordinates": [
     147.5208269,
     -42.98861736
    ]
   },
   "properties": {
    "name": "429 CLIFTON BEACH ROAD CLIFTON BEACH 7020",
    "locID": "LOC000093167721",
    "tech": "FTTN",
    "upgrade": "NULL_NA",
    "gnaf_pid": "GATAS702221155",
    "ee": true,
    "tech_change_status": "Not Planned"
   }
  },
  {
   "type": "Feature",
   "geometry": {
    "type": "Point",
    "coordinates": [
     147.52036627,
     -42.98825737
    ]
   },
   "properties": {
    "name": "423 CLIFTON BEACH ROAD CLIFTON BEACH 7020",
    "locID": "LOC000021167279",
    "tech": "FTTN",
    "upgrade": "NULL_NA",
    "gnaf_pid": "GATAS702221156",
    "ee": true,
    "tech_change_status": "Not Planned"
   }
  },
  {
   "type": "Feature",
   "geometry": {
    "type": "Point",
    "coordinates": [
     147.52067336,
     -42.98849736
    ]
   },
   "properties": {
    "name": "427 CLIFTON BEACH ROAD CLIFTON BEACH 7020",
    "locID": "LOC000038368137",
    "tech": "FTTN",
    "upgrade": "NULL_NA",
    "gnaf_pid": "GATAS702221157",
    "ee": true,
    "tech_change_status": "Not Planned"
   }
  },
  {
   "type": "Feature",
   "geometry": {
    "type": "Point",
    "coordinates": [
     147.52113399,
     -42.98885735
    ]
   },
   "properties": {
    "name": "435 CLIFTON BEACH ROAD CLIFTON BEACH 7020",
    "locID": "LOC000007664504",
    "tech": "FTTN",
    "upgrade": "NULL_NA",
    "gnaf_pid": "GATAS702221158",
    "ee": true,
    "tech_change_status": "Not Planned"
   }
  },
  {
   "type": "Feature",
   "geometry": {
    "type": "Point",
    "coordinates": [
     147.52128754,
     -42.98897735
    ]
   },
   "properties": {
    "name": "437 CLIFTON BEACH ROAD CLIFTON BEACH 7020",
    "locID": "LOC000017601531",
    "tech": "FTTN",
    "upgrade": "NULL_NA",
    "gnaf_pid": "GATAS702221159",
    "ee": true,
    "tech_change_status": "Not Planned"
   }
  },
  {
   "type": "Feature",
   "geometry": {
    "type": "Point",
    "coordinates": [
     147.52216381,
     -42.98965974
    ]
   },
   "properties": {
    "name": "447 CLIFTON BEACH ROAD CLIFTON BEACH 7020",
    "locID": "LOC000086910824",
    "tech": "FTTN",
    "upgrade": "FTTP",
    "gnaf_pid": "GATAS702221160",
    "ee": true,
    "tech_change_status": "Eligible to Order"
   }
  },
  {
   "type": "Feature",
   "geometry": {
    "type": "Point",
    "coordinates": [
     147.5223317,
     -42.98979325
    ]
   },
   "properties": {
    "name": "449 CLIFTON BEACH ROAD CLIFTON BEACH 7020",
    "locID": "LOC000075401798",
    "tech": "FTTN",
    "upgrade": "FTTP",
    "gnaf_pid": "GATAS702221161",
    "ee": true,
    "tech_change_status": "Eligible to Order"
   }
  },
  {
   "type": "Feature",
   "geometry": {
    "type": "Point",
    "coordinates": [
     147.52051981,
     -42.98837736
    ]
   },
   "properties": {
    "name": "425 CLIFTON BEACH ROAD CLIFTON BEACH 7020",
    "locID": "LOC000008529485",
    "tech": "FTTN",
    "upgrade": "NULL_NA",
    "gnaf_pid": "GATAS702221162",
    "ee": true,
    "tech_change_status": "Not Planned"
   }
  },
  {
   "type": "Feature",
   "geometry": {
    "type": "Point",
    "coordinates": [
     147.52248354,
     -42.98991417
    ]
   },
   "properties": {
    "name": "451 CLIFTON BEACH ROAD CLIFTON BEACH 7020",
    "locID": "LOC000014326724",
    "tech": "FTTP",
    "upgrade": "NULL_NA",
    "gnaf_pid": "GATAS702221163",
    "ee": true
   }
  },
  {
   "type": "Feature",
   "geometry": {
    "type": "Point",
    "coordinates": [
     147.52277712,
     -42.99016436
    ]
   },
   "properties": {
    "name": "455 CLIFTON BEACH ROAD CLIFTON BEACH 7020",
    "locID": "LOC000043661060",
    "tech": "FTTN",
    "upgrade": "FTTP",
    "gnaf_pid": "GATAS702221164",
    "ee": true,
    "tech_change_status": "New Tech Connected"
   }
  },
  {
   "type": "Feature",
   "geometry": {
    "type": "Point",
    "coordinates": [
     147.52306627,
     -42.99063921
    ]
   },
   "properties": {
    "name": "5 DYSART STREET CLIFTON BEACH 7020",
    "locID": "LOC000084639820",
    "tech": "FTTP",
    "upgrade": "NULL_NA",
    "gnaf_pid": "GATAS702223522",
    "ee": true
   }
  },
  {
   "type": "Feature",
   "geometry": {
    "type": "Point",
    "coordinates": [
     147.52249637,
     -42.99091143
    ]
   },
   "properties": {
    "name": "1 DYSART STREET CLIFTON BEACH 7020",
    "locID": "LOC000026695185",
    "tech": "FTTN",
    "upgrade": "NULL_NA",
    "gnaf_pid": "GATAS702223523",
    "ee": true,
    "tech_change_status": "Not Planned"
   }
  },
  {
   "type": "Feature",
   "geometry": {
    "type": "Point",
    "coordinates": [
     147.52382222,
     -42.99048642
    ]
   },
   "properties": {
    "name": "11 DYSART STREET CLIFTON BEACH 7020",
    "locID": "LOC000109731274",
    "tech": "FTTP",
    "upgrade": "NULL_NA",
    "gnaf_pid": "GATAS702223524",
    "ee": true,
    "tech_change_status": "Previous Tech Disconnected"
   }
  },
  {
   "type": "Feature",
   "geometry": {
    "type": "Point",
    "coordinates": [
     147.52477865,
     -42.99028224
    ]
   },
   "properties": {
    "name": "16 DYSART STREET CLIFTON BEACH 7020",
    "locID": "LOC000094897965",
    "tech": "FTTP",
    "upgrade": "NULL_NA",
    "gnaf_pid": "GATAS702223525",
    "ee": true,
    "tech_change_status": "Previous Tech Disconnected"
   }
  },
  {
   "type": "Feature",
   "geometry": {
    "type": "Point",
    "coordinates": [
     147.52498822,
     -42.9898648
    ]
   },
   "properties": {
    "name": "24 DYSART STREET CLIFTON BEACH 7020",
    "locID": "LOC000059212990",
    "tech": "FTTN",
    "upgrade": "FTTP",
    "gnaf_pid": "GATAS702223526",
    "ee": true,
    "tech_change_status": "Eligible to Order"
   }
  },
  {
   "type": "Feature",
   "geometry": {
    "type": "Point",
    "coordinates": [
     147.52504073,
     -42.98971163
    ]
   },
   "properties": {
    "name": "26 DYSART STREET CLIFTON BEACH 7020",
    "locID": "LOC000008426325",
    "tech": "FTTP",
    "upgrade": "NULL_NA",
    "gnaf_pid": "GATAS702223527",
    "ee": true,
    "tech_change_status": "Previous Tech Disconnected"
   }
  },
  {
   "type": "Feature",
   "geometry": {
    "type": "Point",
    "coordinates": [
     147.52266022,
     -42.99079894
    ]
   },
   "properties": {
    "name": "3 DYSART STREET CLIFTON BEACH 7020",
    "locID": "LOC000026666432",
    "tech": "FTTN",
    "upgrade": "NULL_NA",
    "gnaf_pid": "GATAS702223528",
    "ee": true,
    "tech_change_status": "Not Planned"
   }
  },
  {
   "type": "Feature",
   "geometry": {
    "type": "Point",
    "coordinates": [
     147.52339147,
     -42.99058308
    ]
   },
   "properties": {
    "name": "7 DYSART STREET CLIFTON BEACH 7020",
    "locID": "LOC000029239135",
    "tech": "FTTP",
    "upgrade": "NULL_NA",
    "gnaf_pid": "GATAS702223529",
    "ee": true,
    "tech_change_status": "Previous Tech Disconnected"
   }
  },
  {
   "type": "Feature",
   "geometry": {
    "type": "Point",
    "coordinates": [
     147.52516906,
     -42.98949477
    ]
   },
   "properties": {
    "name": "30 DYSART STREET CLIFTON BEACH 7020",
    "locID": "LOC000104741718",
    "tech": "FTTN",
    "upgrade": "FTTP",
    "gnaf_pid": "GATAS702223530",
    "ee": true,
    "tech_change_status": "Eligible to Order"
   }
  },
  {
   "type": "Feature",
   "geometry": {
    "type": "Point",
    "coordinates": [
     147.52377395,
     -42.99093678
    ]
   },
   "properties": {
    "name": "6 DYSART STREET CLIFTON BEACH 7020",
    "locID": "LOC000087287009",
    "tech": "FTTP",
    "upgrade": "NULL_NA",
    "gnaf_pid": "GATAS702223531",
    "ee": true,
    "tech_change_status": "Previous Tech Disconnected"
   }
  },
  {
   "type": "Feature",
   "geometry": {
    "type": "Point",
    "coordinates": [
     147.52441357,
     -42.98962459
    ]
   },
   "properties": {
    "name": "23 DYSART STREET CLIFTON BEACH 7020",
    "locID": "LOC000022652777",
    "tech": "FTTN",
    "upgrade": "FTTP",
    "gnaf_pid": "GATAS702223532",
    "ee": true,
    "tech_change_status": "Eligible to Order"
   }
  },
  {
   "type": "Feature",
   "geometry": {
    "type": "Point",
    "coordinates": [
     147.52434664,
     -42.98978152
    ]
   },
   "properties": {
    "name": "21 DYSART STREET CLIFTON BEACH 7020",
    "locID": "LOC000012641448",
    "tech": "FTTN",
    "upgrade": "FTTP",
    "gnaf_pid": "GATAS702223534",
    "ee": true,
    "tech_change_status": "Eligible to Order"
   }
  },
  {
   "type": "Feature",
   "geometry": {
    "type": "Point",
    "coordinates": [
     147.5239982,
     -42.99085627
    ]
   },
   "properties": {
    "name": "8 DYSART STREET CLIFTON BEACH 7020",
    "locID": "LOC000010142702",
    "tech": "FTTP",
    "upgrade": "NULL_NA",
    "gnaf_pid": "GATAS702223535",
    "ee": true,
    "tech_change_status": "Previous Tech Disconnected"
   }
  },
  {
   "type": "Feature",
   "geometry": {
    "type": "Point",
    "coordinates": [
     147.52421271,
     -42.99073883
    ]
   },
   "properties": {
    "name": "10 DYSART STREET CLIFTON BEACH 7020",
    "locID": "LOC000070897125",
    "tech": "FTTP",
    "upgrade": "NULL_NA",
    "gnaf_pid": "GATAS702223536",
    "ee": true,
    "tech_change_status": "Previous Tech Disconnected"
   }
  },
  {
   "type": "Feature",
   "geometry": {
    "type": "Point",
    "coordinates": [
     147.52431436,
     -42.98997743
    ]
   },
   "properties": {
    "name": "19 DYSART STREET CLIFTON BEACH 7020",
    "locID": "LOC000015011305",
    "tech": "FTTN",
    "upgrade": "FTTP",
    "gnaf_pid": "GATAS702223537",
    "ee": true,
    "tech_change_status": "Eligible to Order"
   }
  },
  {
   "type": "Feature",
   "geometry": {
    "type": "Point",
    "coordinates": [
     147.52535524,
     -42.98969166
    ]
   },
   "properties": {
    "name": "28 DYSART STREET CLIFTON BEACH 7020",
    "locID": "LOC000041022656",
    "tech": "FTTP",
    "upgrade": "NULL_NA",
    "gnaf_pid": "GATAS702223538",
    "ee": true
   }
  },
  {
   "type": "Feature",
   "geometry": {
    "type": "Point",
    "coordinates": [
     147.5252522,
     -42.98996263
    ]
   },
   "properties": {
    "name": "22 DYSART STREET CLIFTON BEACH 7020",
    "locID": "LOC000050922208",
    "tech": "FTTN",
    "upgrade": "FTTP",
    "gnaf_pid": "GATAS702223539",
    "ee": true,
    "tech_change_status": "New Tech Connected"
   }
  },
  {
   "type": "Feature",
   "geometry": {
    "type": "Point",
    "coordinates": [
     147.52390877,
     -42.99109735
    ]
   },
   "properties": {
    "name": "4 DYSART STREET CLIFTON BEACH 7020",
    "locID": "LOC000074258014",
    "tech": "FTTP",
    "upgrade": "NULL_NA",
    "gnaf_pid": "GATAS702223540",
    "ee": true,
    "tech_change_status": "Previous Tech Disconnected"
   }
  },
  {
   "type": "Feature",
   "geometry": {
    "type": "Point",
    "coordinates": [
     147.52547474,
     -42.98942357
    ]
   },
   "properties": {
    "name": "32 DYSART STREET CLIFTON BEACH 7020",
    "locID": "LOC000050930749",
    "tech": "FTTN",
    "upgrade": "FTTP",
    "gnaf_pid": "GATAS702223541",
    "ee": true,
    "tech_change_status": "Eligible to Order"
   }
  },
  {
   "type": "Feature",
   "geometry": {
    "type": "Point",
    "coordinates": [
     147.52505551,
     -42.99015738
    ]
   },
   "properties": {
    "name": "20 DYSART STREET CLIFTON BEACH 7020",
    "locID": "LOC000083397462",
    "tech": "FTTP",
    "upgrade": "NULL_NA",
    "gnaf_pid": "GATAS702223542",
    "ee": true,
    "tech_change_status": "Previous Tech Disconnected"
   }
  },
  {
   "type": "Feature",
   "geometry": {
    "type": "Point",
    "coordinates": [
     147.52346701,
     -42.98964156
    ]
   },
   "properties": {
    "name": "15 DYSART STREET CLIFTON BEACH 7020",
    "locID": "LOC000192955704",
    "tech": "FTTP",
    "upgrade": "NULL_NA",
    "gnaf_pid": "GATAS702223544",
    "ee": true
   }
  },
  {
   "type": "Feature",
   "geometry": {
    "type": "Point",
    "coordinates": [
     147.52553206,
     -42.98836174
    ]
   },
   "properties": {
    "name": "34 DYSART STREET CLIFTON BEACH 7020",
    "locID": "LOC000080289344",
    "tech": "FTTN",
    "upgrade": "FTTP",
    "gnaf_pid": "GATAS702223545",
    "ee": true,
    "tech_change_status": "Eligible to Order"
   }
  },
  {
   "type": "Feature",
   "geometry": {
    "type": "Point",
    "coordinates": [
     147.52829874,
     -42.98746955
    ]
   },
   "properties": {
    "name": "36 THOMPSON WAY CLIFTON BEACH 7020",
    "locID": "LOC000005168984",
    "tech": "FTTN",
    "upgrade": "NULL_NA",
    "gnaf_pid": "GATAS702336348",
    "ee": true,
    "tech_change_status": "Not Planned"
   }
  },
  {
   "type": "Feature",
   "geometry": {
    "type": "Point",
    "coordinates": [
     147.52805213,
     -42.98719115
    ]
   },
   "properties": {
    "name": "35 THOMPSON WAY CLIFTON BEACH 7020",
    "locID": "LOC000133640773",
    "tech": "FTTN",
    "upgrade": "NULL_NA",
    "gnaf_pid": "GATAS702337172",
    "ee": true,
    "tech_change_status": "Not Planned"
   }
  },
  {
   "type": "Feature",
   "geometry": {
    "type": "Point",
    "coordinates": [
     147.52670891,
     -42.99023779
    ]
   },
   "properties": {
    "name": "23 THOMPSON WAY CLIFTON BEACH 7020",
    "locID": "LOC000059849294",
    "tech": "FTTN",
    "upgrade": "NULL_NA",
    "gnaf_pid": "GATAS702337863",
    "ee": true,
    "tech_change_status": "Not Planned"
   }
  },
  {
   "type": "Feature",
   "geometry": {
    "type": "Point",
    "coordinates": [
     147.52826658,
     -42.98948373
    ]
   },
   "properties": {
    "name": "29 THOMPSON WAY CLIFTON BEACH 7020",
    "locID": "LOC000133636399",
    "tech": "FTTN",
    "upgrade": "NULL_NA",
    "gnaf_pid": "GATAS702337865",
    "ee": true,
    "tech_change_status": "Not Planned"
   }
  },
  {
   "type": "Feature",
   "geometry": {
    "type": "Point",
    "coordinates": [
     147.52773156,
     -42.98775152
    ]
   },
   "properties": {
    "name": "44 THOMPSON WAY CLIFTON BEACH 7020",
    "locID": "LOC000133577550",
    "tech": "FTTN",
    "upgrade": "NULL_NA",
    "gnaf_pid": "GATAS702337866",
    "ee": true,
    "tech_change_status": "Not Planned"
   }
  },
  {
   "type": "Feature",
   "geometry": {
    "type": "Point",
    "coordinates": [
     147.52849071,
     -42.98940595
    ]
   },
   "properties": {
    "name": "30 THOMPSON WAY CLIFTON BEACH 7020",
    "locID": "LOC000096831923",
    "tech": "FTTN",
    "upgrade": "NULL_NA",
    "gnaf_pid": "GATAS702337867",
    "ee": true,
    "tech_change_status": "Not Planned"
   }
  },
  {
   "type": "Feature",
   "geometry": {
    "type": "Point",
    "coordinates": [
     147.5279806,
     -42.98824937
    ]
   },
   "properties": {
    "name": "47 THOMPSON WAY CLIFTON BEACH 7020",
    "locID": "LOC000032598305",
    "tech": "FTTN",
    "upgrade": "NULL_NA",
    "gnaf_pid": "GATAS702337868",
    "ee": true,
    "tech_change_status": "Not Planned"
   }
  },
  {
   "type": "Feature",
   "geometry": {
    "type": "Point",
    "coordinates": [
     147.52964909,
     -42.98899176
    ]
   },
   "properties": {
    "name": "33 THOMPSON WAY CLIFTON BEACH 7020",
    "locID": "LOC000034098856",
    "tech": "FTTN",
    "upgrade": "NULL_NA",
    "gnaf_pid": "GATAS702337869",
    "ee": true,
    "tech_change_status": "Not Planned"
   }
  },
  {
   "type": "Feature",
   "geometry": {
    "type": "Point",
    "coordinates": [
     147.52882273,
     -42.98928884
    ]
   },
   "properties": {
    "name": "31 THOMPSON WAY CLIFTON BEACH 7020",
    "locID": "LOC000021696440",
    "tech": "FTTN",
    "upgrade": "NULL_NA",
    "gnaf_pid": "GATAS702337870",
    "ee": true,
    "tech_change_status": "Not Planned"
   }
  },
  {
   "type": "Feature",
   "geometry": {
    "type": "Point",
    "coordinates": [
     147.52862907,
     -42.98755398
    ]
   },
   "properties": {
    "name": "38 THOMPSON WAY CLIFTON BEACH 7020",
    "locID": "LOC000084698771",
    "tech": "FTTN",
    "upgrade": "NULL_NA",
    "gnaf_pid": "GATAS702337871",
    "ee": true,
    "tech_change_status": "Not Planned"
   }
  },
  {
   "type": "Feature",
   "geometry": {
    "type": "Point",
    "coordinates": [
     147.5290115,
     -42.98841447
    ]
   },
   "properties": {
    "name": "42 THOMPSON WAY CLIFTON BEACH 7020",
    "locID": "LOC000133640929",
    "tech": "FTTN",
    "upgrade": "NULL_NA",
    "gnaf_pid": "GATAS702337872",
    "ee": true,
    "tech_change_status": "Not Planned"
   }
  },
  {
   "type": "Feature",
   "geometry": {
    "type": "Point",
    "coordinates": [
     147.52638326,
     -42.98874598
    ]
   },
   "properties": {
    "name": "11 THOMPSON WAY CLIFTON BEACH 7020",
    "locID": "LOC000037024371",
    "tech": "FTTN",
    "upgrade": "NULL_NA",
    "gnaf_pid": "GATAS702337874",
    "ee": true,
    "tech_change_status": "Not Planned"
   }
  },
  {
   "type": "Feature",
   "geometry": {
    "type": "Point",
    "coordinates": [
     147.52624778,
     -42.99046158
    ]
   },
   "properties": {
    "name": "21 THOMPSON WAY CLIFTON BEACH 7020",
    "locID": "LOC000070480830",
    "tech": "FTTN",
    "upgrade": "NULL_NA",
    "gnaf_pid": "GATAS702337875",
    "ee": true,
    "tech_change_status": "Not Planned"
   }
  },
  {
   "type": "Feature",
   "geometry": {
    "type": "Point",
    "coordinates": [
     147.52578723,
     -42.99068535
    ]
   },
   "properties": {
    "name": "19 THOMPSON WAY CLIFTON BEACH 7020",
    "locID": "LOC000133636093",
    "tech": "FTTN",
    "upgrade": "NULL_NA",
    "gnaf_pid": "GATAS702337876",
    "ee": true,
    "tech_change_status": "Not Planned"
   }
  },
  {
   "type": "Feature",
   "geometry": {
    "type": "Point",
    "coordinates": [
     147.52555673,
     -42.99079723
    ]
   },
   "properties": {
    "name": "18 THOMPSON WAY CLIFTON BEACH 7020",
    "locID": "LOC000097361985",
    "tech": "FTTN",
    "upgrade": "NULL_NA",
    "gnaf_pid": "GATAS702337877",
    "ee": true,
    "tech_change_status": "Not Planned"
   }
  },
  {
   "type": "Feature",
   "geometry": {
    "type": "Point",
    "coordinates": [
     147.52764234,
     -42.98970727
    ]
   },
   "properties": {
    "name": "27 THOMPSON WAY CLIFTON BEACH 7020",
    "locID": "LOC000015987356",
    "tech": "FTTN",
    "upgrade": "NULL_NA",
    "gnaf_pid": "GATAS702337878",
    "ee": true,
    "tech_change_status": "Not Planned"
   }
  },
  {
   "type": "Feature",
   "geometry": {
    "type": "Point",
    "coordinates": [
     147.52601746,
     -42.99057323
    ]
   },
   "properties": {
    "name": "20 THOMPSON WAY CLIFTON BEACH 7020",
    "locID": "LOC000003505466",
    "tech": "FTTN",
    "upgrade": "NULL_NA",
    "gnaf_pid": "GATAS702337879",
    "ee": true,
    "tech_change_status": "Not Planned"
   }
  },
  {
   "type": "Feature",
   "geometry": {
    "type": "Point",
    "coordinates": [
     147.52798498,
     -42.9895956
    ]
   },
   "properties": {
    "name": "28 THOMPSON WAY CLIFTON BEACH 7020",
    "locID": "LOC000133636368",
    "tech": "FTTN",
    "upgrade": "NULL_NA",
    "gnaf_pid": "GATAS702337880",
    "ee": true,
    "tech_change_status": "Not Planned"
   }
  },
  {
   "type": "Feature",
   "geometry": {
    "type": "Point",
    "coordinates": [
     147.52532549,
     -42.99091041
    ]
   },
   "properties": {
    "name": "17 THOMPSON WAY CLIFTON BEACH 7020",
    "locID": "LOC000085215917",
    "tech": "FTTN",
    "upgrade": "NULL_NA",
    "gnaf_pid": "GATAS702337881",
    "ee": true,
    "tech_change_status": "Not Planned"
   }
  },
  {
   "type": "Feature",
   "geometry": {
    "type": "Point",
    "coordinates": [
     147.52700081,
     -42.99005026
    ]
   },
   "properties": {
    "name": "24 THOMPSON WAY CLIFTON BEACH 7020",
    "locID": "LOC000185297295",
    "tech": "FTTN",
    "upgrade": "NULL_NA",
    "gnaf_pid": "GATAS702337882",
    "ee": true,
    "tech_change_status": "Not Planned"
   }
  },
  {
   "type": "Feature",
   "geometry": {
    "type": "Point",
    "coordinates": [
     147.52926096,
     -42.98922382
    ]
   },
   "properties": {
    "name": "32 THOMPSON WAY CLIFTON BEACH 7020",
    "locID": "LOC000060168322",
    "tech": "FTTN",
    "upgrade": "NULL_NA",
    "gnaf_pid": "GATAS702337883",
    "ee": true,
    "tech_change_status": "Not Planned"
   }
  },
  {
   "type": "Feature",
   "geometry": {
    "type": "Point",
    "coordinates": [
     147.52709794,
     -42.98758388
    ]
   },
   "properties": {
    "name": "4 THOMPSON WAY CLIFTON BEACH 7020",
    "locID": "LOC000133577652",
    "tech": "FTTN",
    "upgrade": "NULL_NA",
    "gnaf_pid": "GATAS702349624",
    "ee": true,
    "tech_change_status": "Not Planned"
   }
  },
  {
   "type": "Feature",
   "geometry": {
    "type": "Point",
    "coordinates": [
     147.52882543,
     -42.98817219
    ]
   },
   "properties": {
    "name": "41 THOMPSON WAY CLIFTON BEACH 7020",
    "locID": "LOC000104147977",
    "tech": "FTTN",
    "upgrade": "NULL_NA",
    "gnaf_pid": "GATAS702351128",
    "ee": true,
    "tech_change_status": "Not Planned"
   }
  },
  {
   "type": "Feature",
   "geometry": {
    "type": "Point",
    "coordinates": [
     147.52788961,
     -42.98802114
    ]
   },
   "properties": {
    "name": "46 THOMPSON WAY CLIFTON BEACH 7020",
    "locID": "LOC000020143220",
    "tech": "FTTN",
    "upgrade": "NULL_NA",
    "gnaf_pid": "GATAS702351129",
    "ee": true,
    "tech_change_status": "Not Planned"
   }
  },
  {
   "type": "Feature",
   "geometry": {
    "type": "Point",
    "coordinates": [
     147.52826688,
     -42.98863577
    ]
   },
   "properties": {
    "name": "56 THOMPSON WAY CLIFTON BEACH 7020",
    "locID": "LOC000023501500",
    "tech": "FTTN",
    "upgrade": "NULL_NA",
    "gnaf_pid": "GATAS702351130",
    "ee": true,
    "tech_change_status": "Not Planned"
   }
  },
  {
   "type": "Feature",
   "geometry": {
    "type": "Point",
    "coordinates": [
     147.52698102,
     -42.98783056
    ]
   },
   "properties": {
    "name": "5 THOMPSON WAY CLIFTON BEACH 7020",
    "locID": "LOC000070933877",
    "tech": "FTTN",
    "upgrade": "NULL_NA",
    "gnaf_pid": "GATAS702351132",
    "ee": true,
    "tech_change_status": "Not Planned"
   }
  },
  {
   "type": "Feature",
   "geometry": {
    "type": "Point",
    "coordinates": [
     147.52848548,
     -42.98855304
    ]
   },
   "properties": {
    "name": "57 THOMPSON WAY CLIFTON BEACH 7020",
    "locID": "LOC000033573901",
    "tech": "FTTN",
    "upgrade": "NULL_NA",
    "gnaf_pid": "GATAS702351133",
    "ee": true,
    "tech_change_status": "Not Planned"
   }
  },
  {
   "type": "Feature",
   "geometry": {
    "type": "Point",
    "coordinates": [
     147.52738253,
     -42.98849835
    ]
   },
   "properties": {
    "name": "51 THOMPSON WAY CLIFTON BEACH 7020",
    "locID": "LOC000011253820",
    "tech": "FTTN",
    "upgrade": "NULL_NA",
    "gnaf_pid": "GATAS702351134",
    "ee": true,
    "tech_change_status": "Not Planned"
   }
  },
  {
   "type": "Feature",
   "geometry": {
    "type": "Point",
    "coordinates": [
     147.52610841,
     -42.98965937
    ]
   },
   "properties": {
    "name": "16 THOMPSON WAY CLIFTON BEACH 7020",
    "locID": "LOC000069574751",
    "tech": "FTTN",
    "upgrade": "NULL_NA",
    "gnaf_pid": "GATAS702351135",
    "ee": true,
    "tech_change_status": "Not Planned"
   }
  },
  {
   "type": "Feature",
   "geometry": {
    "type": "Point",
    "coordinates": [
     147.52750975,
     -42.98836933
    ]
   },
   "properties": {
    "name": "50 THOMPSON WAY CLIFTON BEACH 7020",
    "locID": "LOC000056630819",
    "tech": "FTTN",
    "upgrade": "NULL_NA",
    "gnaf_pid": "GATAS702351136",
    "ee": true,
    "tech_change_status": "Not Planned"
   }
  },
  {
   "type": "Feature",
   "geometry": {
    "type": "Point",
    "coordinates": [
     147.52723075,
     -42.98860554
    ]
   },
   "properties": {
    "name": "52 THOMPSON WAY CLIFTON BEACH 7020",
    "locID": "LOC000094951037",
    "tech": "FTTN",
    "upgrade": "NULL_NA",
    "gnaf_pid": "GATAS702354662",
    "ee": true,
    "tech_change_status": "Not Planned"
   }
  },
  {
   "type": "Feature",
   "geometry": {
    "type": "Point",
    "coordinates": [
     147.52920444,
     -42.98883342
    ]
   },
   "properties": {
    "name": "32A THOMPSON WAY CLIFTON BEACH 7020",
    "locID": "LOC000165596295",
    "tech": "FTTN",
    "upgrade": "NULL_NA",
    "gnaf_pid": "GATAS702354663",
    "ee": true,
    "tech_change_status": "Not Planned"
   }
  },
  {
   "type": "Feature",
   "geometry": {
    "type": "Point",
    "coordinates": [
     147.52627242,
     -42.98902417
    ]
   },
   "properties": {
    "name": "12 THOMPSON WAY CLIFTON BEACH 7020",
    "locID": "LOC000106376695",
    "tech": "FTTN",
    "upgrade": "NULL_NA",
    "gnaf_pid": "GATAS702354664",
    "ee": true,
    "tech_change_status": "Not Planned"
   }
  },
  {
   "type": "Feature",
   "geometry": {
    "type": "Point",
    "coordinates": [
     147.52687414,
     -42.98799416
    ]
   },
   "properties": {
    "name": "6 THOMPSON WAY CLIFTON BEACH 7020",
    "locID": "LOC000050902314",
    "tech": "FTTN",
    "upgrade": "NULL_NA",
    "gnaf_pid": "GATAS702354665",
    "ee": true,
    "tech_change_status": "Not Planned"
   }
  },
  {
   "type": "Feature",
   "geometry": {
    "type": "Point",
    "coordinates": [
     147.52620825,
     -42.98919843
    ]
   },
   "properties": {
    "name": "13 THOMPSON WAY CLIFTON BEACH 7020",
    "locID": "LOC000073782151",
    "tech": "FTTN",
    "upgrade": "NULL_NA",
    "gnaf_pid": "GATAS702364738",
    "ee": true,
    "tech_change_status": "Not Planned"
   }
  },
  {
   "type": "Feature",
   "geometry": {
    "type": "Point",
    "coordinates": [
     147.52760493,
     -42.98888923
    ]
   },
   "properties": {
    "name": "53 THOMPSON WAY CLIFTON BEACH 7020",
    "locID": "LOC000006753712",
    "tech": "FTTN",
    "upgrade": "NULL_NA",
    "gnaf_pid": "GATAS702364739",
    "ee": true,
    "tech_change_status": "Not Planned"
   }
  },
  {
   "type": "Feature",
   "geometry": {
    "type": "Point",
    "coordinates": [
     147.52782502,
     -42.98880717
    ]
   },
   "properties": {
    "name": "54 THOMPSON WAY CLIFTON BEACH 7020",
    "locID": "LOC000083749027",
    "tech": "FTTN",
    "upgrade": "NULL_NA",
    "gnaf_pid": "GATAS702364740",
    "ee": true,
    "tech_change_status": "Not Planned"
   }
  },
  {
   "type": "Feature",
   "geometry": {
    "type": "Point",
    "coordinates": [
     147.52747657,
     -42.98813048
    ]
   },
   "properties": {
    "name": "49 THOMPSON WAY CLIFTON BEACH 7020",
    "locID": "LOC000011204686",
    "tech": "FTTN",
    "upgrade": "NULL_NA",
    "gnaf_pid": "GATAS702364741",
    "ee": true,
    "tech_change_status": "Not Planned"
   }
  },
  {
   "type": "Feature",
   "geometry": {
    "type": "Point",
    "coordinates": [
     147.52858967,
     -42.9878581
    ]
   },
   "properties": {
    "name": "39 THOMPSON WAY CLIFTON BEACH 7020",
    "locID": "LOC000133640827",
    "tech": "FTTN",
    "upgrade": "NULL_NA",
    "gnaf_pid": "GATAS702364742",
    "ee": true,
    "tech_change_status": "Not Planned"
   }
  },
  {
   "type": "Feature",
   "geometry": {
    "type": "Point",
    "coordinates": [
     147.52655497,
     -42.98848418
    ]
   },
   "properties": {
    "name": "9 THOMPSON WAY CLIFTON BEACH 7020",
    "locID": "LOC000003508097",
    "tech": "FTTN",
    "upgrade": "NULL_NA",
    "gnaf_pid": "GATAS702364743",
    "ee": true,
    "tech_change_status": "Not Planned"
   }
  },
  {
   "type": "Feature",
   "geometry": {
    "type": "Point",
    "coordinates": [
     147.5267674,
     -42.98815792
    ]
   },
   "properties": {
    "name": "7 THOMPSON WAY CLIFTON BEACH 7020",
    "locID": "LOC000040818671",
    "tech": "FTTN",
    "upgrade": "NULL_NA",
    "gnaf_pid": "GATAS702364744",
    "ee": true,
    "tech_change_status": "Not Planned"
   }
  },
  {
   "type": "Feature",
   "geometry": {
    "type": "Point",
    "coordinates": [
     147.52611449,
     -42.98936752
    ]
   },
   "properties": {
    "name": "14 THOMPSON WAY CLIFTON BEACH 7020",
    "locID": "LOC000062711126",
    "tech": "FTTN",
    "upgrade": "NULL_NA",
    "gnaf_pid": "GATAS702364745",
    "ee": true,
    "tech_change_status": "Not Planned"
   }
  },
  {
   "type": "Feature",
   "geometry": {
    "type": "Point",
    "coordinates": [
     147.52666109,
     -42.98832135
    ]
   },
   "properties": {
    "name": "8 THOMPSON WAY CLIFTON BEACH 7020",
    "locID": "LOC000083243912",
    "tech": "FTTN",
    "upgrade": "NULL_NA",
    "gnaf_pid": "GATAS702364746",
    "ee": true,
    "tech_change_status": "Not Planned"
   }
  },
  {
   "type": "Feature",
   "geometry": {
    "type": "Point",
    "coordinates": [
     147.52871425,
     -42.98800878
    ]
   },
   "properties": {
    "name": "40 THOMPSON WAY CLIFTON BEACH 7020",
    "locID": "LOC000090856571",
    "tech": "FTTN",
    "upgrade": "NULL_NA",
    "gnaf_pid": "GATAS702364747",
    "ee": true,
    "tech_change_status": "Not Planned"
   }
  },
  {
   "type": "Feature",
   "geometry": {
    "type": "Point",
    "coordinates": [
     147.51602733,
     -42.9746581
    ]
   },
   "properties": {
    "name": "209 CLIFTON BEACH ROAD CLIFTON BEACH 7020",
    "locID": "LOC000052511749",
    "tech": "FTTN",
    "upgrade": "NULL_NA",
    "gnaf_pid": "GATAS702410208",
    "ee": true,
    "tech_change_status": "Not Planned"
   }
  },
  {
   "type": "Feature",
   "geometry": {
    "type": "Point",
    "coordinates": [
     147.51899954,
     -42.98570084
    ]
   },
   "properties": {
    "name": "1 BICHENO STREET CLIFTON BEACH 7020",
    "locID": "LOC000012524967",
    "tech": "FTTN",
    "upgrade": "NULL_NA",
    "gnaf_pid": "GATAS702410211",
    "ee": true,
    "tech_change_status": "Not Planned"
   }
  },
  {
   "type": "Feature",
   "geometry": {
    "type": "Point",
    "coordinates": [
     147.52052206,
     -42.99700295
    ]
   },
   "properties": {
    "name": "406 CLIFTON BEACH ROAD CLIFTON BEACH 7020",
    "locID": "LOC000059776230",
    "tech": "WIRELESS",
    "upgrade": "NULL_NA",
    "gnaf_pid": "GATAS702411062",
    "ee": true,
    "tech_change_status": "Not Planned",
    "program_type": "Fixed Wireless and Satellite Upgrade Program",
    "target_eligibility_quarter": "NA"
   }
  },
  {
   "type": "Feature",
   "geometry": {
    "type": "Point",
    "coordinates": [
     147.54034937,
     -42.9636335
    ]
   },
   "properties": {
    "name": "310 BICHENO STREET CLIFTON BEACH 7020",
    "locID": "LOC000087246414",
    "tech": "SATELLITE",
    "upgrade": "WIRELESS",
    "gnaf_pid": "GATAS702412743",
    "ee": true,
    "tech_change_status": "Eligible to Order",
    "program_type": "Fixed Wireless and Satellite Upgrade Program",
    "target_eligibility_quarter": "NA"
   }
  },
  {
   "type": "Feature",
   "geometry": {
    "type": "Point",
    "coordinates": [
     147.52822442,
     -42.98827848
    ]
   },
   "properties": {
    "name": "48 THOMPSON WAY CLIFTON BEACH 7020",
    "locID": "LOC000065981235",
    "tech": "FTTN",
    "upgrade": "NULL_NA",
    "gnaf_pid": "GATAS702413746",
    "ee": true,
    "tech_change_status": "Not Planned"
   }
  },
  {
   "type": "Feature",
   "geometry": {
    "type": "Point",
    "coordinates": [
     147.53104861,
     -42.98452611
    ]
   },
   "properties": {
    "name": "30 BICHENO STREET CLIFTON BEACH 7020",
    "locID": "LOC000138619791",
    "tech": "FTTN",
    "upgrade": "NULL_NA",
    "gnaf_pid": "GATAS702416557",
    "ee": true,
    "tech_change_status": "Not Planned"
   }
  },
  {
   "type": "Feature",
   "geometry": {
    "type": "Point",
    "coordinates": [
     147.52578655,
     -42.98972039
    ]
   },
   "properties": {
    "name": "15 THOMPSON WAY CLIFTON BEACH 7020",
    "locID": "LOC000069704334",
    "tech": "FTTN",
    "upgrade": "NULL_NA",
    "gnaf_pid": "GATAS702416558",
    "ee": true,
    "tech_change_status": "Not Planned"
   }
  },
  {
   "type": "Feature",
   "geometry": {
    "type": "Point",
    "coordinates": [
     147.52739476,
     -42.98723542
    ]
   },
   "properties": {
    "name": "1 THOMPSON WAY CLIFTON BEACH 7020",
    "locID": "LOC000083082739",
    "tech": "FTTN",
    "upgrade": "NULL_NA",
    "gnaf_pid": "GATAS702420813",
    "ee": true,
    "tech_change_status": "Not Planned"
   }
  },
  {
   "type": "Feature",
   "geometry": {
    "type": "Point",
    "coordinates": [
     147.53283043,
     -42.96919067
    ]
   },
   "properties": {
    "name": "280 BICHENO STREET CLIFTON BEACH 7020",
    "locID": "LOC000091957535",
    "tech": "WIRELESS",
    "upgrade": "NULL_NA",
    "gnaf_pid": "GATAS702682682",
    "ee": true,
    "tech_change_status": "Not Planned",
    "program_type": "Fixed Wireless and Satellite Upgrade Program",
    "target_eligibility_quarter": "NA"
   }
  },
  {
   "type": "Feature",
   "geometry": {
    "type": "Point",
    "coordinates": [
     147.53847627,
     -42.97231303
    ]
   },
   "properties": {
    "name": "275 BICHENO STREET CLIFTON BEACH 7020",
    "locID": "LOC000104960624",
    "tech": "SATELLITE",
    "upgrade": "NULL_NA",
    "gnaf_pid": "GATAS702688945",
    "ee": true,
    "tech_change_status": "Not Planned"
   }
  },
  {
   "type": "Feature",
   "geometry": {
    "type": "Point",
    "coordinates": [
     147.51191876,
     -42.97216339
    ]
   },
   "properties": {
    "name": "153 CLIFTON BEACH ROAD CLIFTON BEACH 7020",
    "locID": "LOC000050964539",
    "tech": "FTTN",
    "upgrade": "NULL_NA",
    "gnaf_pid": "GATAS716459043",
    "ee": true,
    "tech_change_status": "Not Planned"
   }
  },
  {
   "type": "Feature",
   "geometry": {
    "type": "Point",
    "coordinates": [
     147.52405444,
     -42.98843401
    ]
   },
   "properties": {
    "name": "27 DYSART STREET CLIFTON BEACH 7020",
    "locID": "LOC000093730283",
    "tech": "FTTN",
    "upgrade": "FTTP",
    "gnaf_pid": "GATAS716459409",
    "ee": true,
    "tech_change_status": "Eligible to Order"
   }
  },
  {
   "type": "Feature",
   "geometry": {
    "type": "Point",
    "coordinates": [
     147.52804512,
     -42.98872511
    ]
   },
   "properties": {
    "name": "55 THOMPSON WAY CLIFTON BEACH 7020",
    "locID": "LOC000048603571",
    "tech": "FTTN",
    "upgrade": "NULL_NA",
    "gnaf_pid": "GATAS716462571",
    "ee": true,
    "tech_change_status": "Not Planned"
   }
  },
  {
   "type": "Feature",
   "geometry": {
    "type": "Point",
    "coordinates": [
     147.51600059,
     -42.98655474
    ]
   },
   "properties": {
    "name": "356 CLIFTON BEACH ROAD CLIFTON BEACH 7020",
    "locID": "LOC000032088933",
    "tech": "FTTN",
    "upgrade": "NULL_NA",
    "gnaf_pid": "GATAS716463532",
    "ee": true,
    "tech_change_status": "Not Planned"
   }
  },
  {
   "type": "Feature",
   "geometry": {
    "type": "Point",
    "coordinates": [
     147.5269796,
     -42.98618855
    ]
   },
   "properties": {
    "name": "82 BICHENO STREET CLIFTON BEACH 7020",
    "locID": "LOC000025090707",
    "tech": "FTTN",
    "upgrade": "NULL_NA",
    "gnaf_pid": "GATAS716619437",
    "ee": true,
    "tech_change_status": "Not Planned"
   }
  },
  {
   "type": "Feature",
   "geometry": {
    "type": "Point",
    "coordinates": [
     147.51193947,
     -42.98135107
    ]
   },
   "properties": {
    "name": "264 CLIFTON BEACH ROAD CLIFTON BEACH 7020",
    "locID": "LOC000133636310",
    "tech": "FTTN",
    "upgrade": "NULL_NA",
    "gnaf_pid": "GATAS716619734",
    "ee": true,
    "tech_change_status": "Not Planned"
   }
  },
  {
   "type": "Feature",
   "geometry": {
    "type": "Point",
    "coordinates": [
     147.50976642,
     -42.98109061
    ]
   },
   "properties": {
    "name": "266 CLIFTON BEACH ROAD CLIFTON BEACH 7020",
    "locID": "LOC000107133756",
    "tech": "FTTN",
    "upgrade": "NULL_NA",
    "gnaf_pid": "GATAS716619735",
    "ee": true,
    "tech_change_status": "Not Planned"
   }
  },
  {
   "type": "Feature",
   "geometry": {
    "type": "Point",
    "coordinates": [
     147.52052843,
     -42.99048851
    ]
   },
   "properties": {
    "name": "416 CLIFTON BEACH ROAD CLIFTON BEACH 7020",
    "locID": "LOC000133640901",
    "tech": "FTTN",
    "upgrade": "NULL_NA",
    "gnaf_pid": "GATAS716619737",
    "ee": true,
    "tech_change_status": "Not Planned"
   }
  },
  {
   "type": "Feature",
   "geometry": {
    "type": "Point",
    "coordinates": [
     147.51402483,
     -42.98200903
    ]
   },
   "properties": {
    "name": "311 CLIFTON BEACH ROAD CLIFTON BEACH 7020",
    "locID": "LOC000165593293",
    "tech": "FTTN",
    "upgrade": "NULL_NA",
    "gnaf_pid": "GATAS716713263",
    "ee": true,
    "tech_change_status": "Not Planned"
   }
  },
  {
   "type": "Feature",
   "geometry": {
    "type": "Point",
    "coordinates": [
     147.50660713,
     -42.96661756
    ]
   },
   "properties": {
    "name": "53 CLIFTON BEACH ROAD CLIFTON BEACH 7020",
    "locID": "LOC000082852646",
    "tech": "FTTN",
    "upgrade": "NULL_NA",
    "gnaf_pid": "GATAS717123984",
    "ee": true,
    "tech_change_status": "Not Planned"
   }
  },
  {
   "type": "Feature",
   "geometry": {
    "type": "Point",
    "coordinates": [
     147.51483445,
     -42.99316837
    ]
   },
   "properties": {
    "name": "402 CLIFTON BEACH ROAD CLIFTON BEACH 7020",
    "locID": "LOC000001920643",
    "tech": "FTTN",
    "upgrade": "NULL_NA",
    "gnaf_pid": "GATAS717615454",
    "ee": true,
    "tech_change_status": "Not Planned"
   }
  },
  {
   "type": "Feature",
   "geometry": {
    "type": "Point",
    "coordinates": [
     147.52133449,
     -42.99127958
    ]
   },
   "properties": {
    "name": "1A DYSART STREET CLIFTON BEACH 7020",
    "locID": "LOC000026786232",
    "tech": "FTTN",
    "upgrade": "NULL_NA",
    "gnaf_pid": "GATAS717615487",
    "ee": true,
    "tech_change_status": "Not Planned"
   }
  },
  {
   "type": "Feature",
   "geometry": {
    "type": "Point",
    "coordinates": [
     147.52244673,
     -42.99235353
    ]
   },
   "properties": {
    "name": "2B DYSART STREET CLIFTON BEACH 7020",
    "locID": "LOC000021259707",
    "tech": "FTTN",
    "upgrade": "NULL_NA",
    "gnaf_pid": "GATAS717615488",
    "ee": true,
    "tech_change_status": "Not Planned"
   }
  },
  {
   "type": "Feature",
   "geometry": {
    "type": "Point",
    "coordinates": [
     147.52244673,
     -42.99235353
    ]
   },
   "properties": {
    "name": "2 DYSART STREET CLIFTON BEACH 7020",
    "locID": "LOC000083397462",
    "tech": "FTTP",
    "upgrade": "NULL_NA",
    "gnaf_pid": "GATAS717686793",
    "ee": true,
    "tech_change_status": "Previous Tech Disconnected"
   }
  },
  {
   "type": "Feature",
   "geometry": {
    "type": "Point",
    "coordinates": [
     147.51206078,
     -42.98447489
    ]
   },
   "properties": {
    "name": "300 CLIFTON BEACH ROAD CLIFTON BEACH 7020",
    "locID": "LOC000082225624",
    "tech": "WIRELESS",
    "upgrade": "NULL_NA",
    "gnaf_pid": "GATAS718062360",
    "ee": true,
    "tech_change_status": "Not Planned",
    "program_type": "Fixed Wireless and Satellite Upgrade Program",
    "target_eligibility_quarter": "NA"
   }
  },
  {
   "type": "Feature",
   "geometry": {
    "type": "Point",
    "coordinates": [
     147.51497952,
     -42.98165553
    ]
   },
   "properties": {
    "name": "303 CLIFTON BEACH ROAD CLIFTON BEACH 7020",
    "locID": "LOC000145524248",
    "tech": "FTTN",
    "upgrade": "NULL_NA",
    "gnaf_pid": "GATAS718784136",
    "ee": true,
    "tech_change_status": "Not Planned"
   }
  },
  {
   "type": "Feature",
   "geometry": {
    "type": "Point",
    "coordinates": [
     147.51502476,
     -42.9826817
    ]
   },
   "properties": {
    "name": "327 CLIFTON BEACH ROAD CLIFTON BEACH 7020",
    "locID": "LOC000145524230",
    "tech": "FTTN",
    "upgrade": "NULL_NA",
    "gnaf_pid": "GATAS718784137",
    "ee": true,
    "tech_change_status": "Not Planned"
   }
  },
  {
   "type": "Feature",
   "geometry": {
    "type": "Point",
    "coordinates": [
     147.52276803,
     -42.99494231
    ]
   },
   "properties": {
    "name": "406B CLIFTON BEACH ROAD CLIFTON BEACH 7020",
    "locID": "LOC000059776230",
    "tech": "WIRELESS",
    "upgrade": "NULL_NA",
    "gnaf_pid": "GATAS719851137",
    "ee": true,
    "tech_change_status": "Not Planned",
    "program_type": "Fixed Wireless and Satellite Upgrade Program",
    "target_eligibility_quarter": "NA"
   }
  },
  {
   "type": "Feature",
   "geometry": {
    "type": "Point",
    "coordinates": [
     147.51990165,
     -42.99349392
    ]
   },
   "properties": {
    "name": "1B DYSART STREET CLIFTON BEACH 7020",
    "locID": "LOC000026695185",
    "tech": "FTTN",
    "upgrade": "NULL_NA",
    "gnaf_pid": "GATAS720405082",
    "ee": true,
    "tech_change_status": "Not Planned"
   }
  },
  {
   "type": "Feature",
   "geometry": {
    "type": "Point",
    "coordinates": [
     147.52719268,
     -42.98994659
    ]
   },
   "properties": {
    "name": "25 THOMPSON WAY CLIFTON BEACH 7020",
    "locID": "LOC000190631727",
    "tech": "FTTN",
    "upgrade": "NULL_NA",
    "gnaf_pid": "GATAS720405250",
    "ee": true,
    "tech_change_status": "Not Planned"
   }
  }
 ]
}