{
 "type": "FeatureCollection",
 "generated": "2025-06-16T10:12:11.449564",
 "suburb": "GRASSY",
 "features": [
  {
   "type": "Feature",
   "geometry": {
    "type": "Point",
    "coordinates": [
     144.06162313,
     -40.04959566
    ]
   },
   "properties": {
    "name": "1 ACACIA STREET GRASSY 7256",
    "locID": "LOC000026725797",
    "tech": "NULL",
    "upgrade": "NULL_NA",
    "gnaf_pid": "GATAS702183185",
    "ee": false,
    "tech_change_status": "Not Planned"
   }
  },
  {
   "type": "Feature",
   "geometry": {
    "type": "Point",
    "coordinates": [
     144.05924014,
     -40.04637178
    ]
   },
   "properties": {
    "name": "1 BANKSIA STREET GRASSY 7256",
    "locID": "LOC000133813575",
    "tech": "NULL",
    "upgrade": "NULL_NA",
    "gnaf_pid": "GATAS702196372",
    "ee": false,
    "tech_change_status": "Not Planned"
   }
  },
  {
   "type": "Feature",
   "geometry": {
    "type": "Point",
    "coordinates": [
     144.05955642,
     -40.04839893
    ]
   },
   "properties": {
    "name": "12 BLACKWOOD STREET GRASSY 7256",
    "locID": "LOC100087455237",
    "tech": "NULL",
    "upgrade": "NULL_NA",
    "gnaf_pid": "GATAS702198662",
    "ee": false,
    "tech_change_status": "Not Planned"
   }
  },
  {
   "type": "Feature",
   "geometry": {
    "type": "Point",
    "coordinates": [
     144.05959122,
     -40.04818284
    ]
   },
   "properties": {
    "name": "14 BLACKWOOD STREET GRASSY 7256",
    "locID": "LOC000028354705",
    "tech": "NULL",
    "upgrade": "NULL_NA",
    "gnaf_pid": "GATAS702198665",
    "ee": false,
    "tech_change_status": "Not Planned"
   }
  },
  {
   "type": "Feature",
   "geometry": {
    "type": "Point",
    "coordinates": [
     144.05968421,
     -40.04761091
    ]
   },
   "properties": {
    "name": "20 BLACKWOOD STREET GRASSY 7256",
    "locID": "LOC000098099076",
    "tech": "NULL",
    "upgrade": "NULL_NA",
    "gnaf_pid": "GATAS702198673",
    "ee": false,
    "tech_change_status": "Not Planned"
   }
  },
  {
   "type": "Feature",
   "geometry": {
    "type": "Point",
    "coordinates": [
     144.05971155,
     -40.04744961
    ]
   },
   "properties": {
    "name": "22 BLACKWOOD STREET GRASSY 7256",
    "locID": "LOC000083219284",
    "tech": "NULL",
    "upgrade": "NULL_NA",
    "gnaf_pid": "GATAS702200015",
    "ee": false,
    "tech_change_status": "Not Planned"
   }
  },
  {
   "type": "Feature",
   "geometry": {
    "type": "Point",
    "coordinates": [
     144.05933151,
     -40.0490869
    ]
   },
   "properties": {
    "name": "4 BLACKWOOD STREET GRASSY 7256",
    "locID": "LOC000012678763",
    "tech": "NULL",
    "upgrade": "NULL_NA",
    "gnaf_pid": "GATAS702201465",
    "ee": false,
    "tech_change_status": "Not Planned"
   }
  },
  {
   "type": "Feature",
   "geometry": {
    "type": "Point",
    "coordinates": [
     144.05956226,
     -40.04919507
    ]
   },
   "properties": {
    "name": "6 BLACKWOOD STREET GRASSY 7256",
    "locID": "LOC000065942177",
    "tech": "NULL",
    "upgrade": "NULL_NA",
    "gnaf_pid": "GATAS702201466",
    "ee": false,
    "tech_change_status": "Not Planned"
   }
  },
  {
   "type": "Feature",
   "geometry": {
    "type": "Point",
    "coordinates": [
     144.05947925,
     -40.04885266
    ]
   },
   "properties": {
    "name": "8 BLACKWOOD STREET GRASSY 7256",
    "locID": "LOC000031181355",
    "tech": "NULL",
    "upgrade": "NULL_NA",
    "gnaf_pid": "GATAS702201467",
    "ee": false,
    "tech_change_status": "Not Planned"
   }
  },
  {
   "type": "Feature",
   "geometry": {
    "type": "Point",
    "coordinates": [
     144.05951765,
     -40.04863417
    ]
   },
   "properties": {
    "name": "10 BLACKWOOD STREET GRASSY 7256",
    "locID": "LOC000034160566",
    "tech": "NULL",
    "upgrade": "NULL_NA",
    "gnaf_pid": "GATAS702201468",
    "ee": false,
    "tech_change_status": "Not Planned"
   }
  },
  {
   "type": "Feature",
   "geometry": {
    "type": "Point",
    "coordinates": [
     144.05962238,
     -40.04799199
    ]
   },
   "properties": {
    "name": "16 BLACKWOOD STREET GRASSY 7256",
    "locID": "LOC000026192642",
    "tech": "NULL",
    "upgrade": "NULL_NA",
    "gnaf_pid": "GATAS702201469",
    "ee": false,
    "tech_change_status": "Not Planned"
   }
  },
  {
   "type": "Feature",
   "geometry": {
    "type": "Point",
    "coordinates": [
     144.05965867,
     -40.04778016
    ]
   },
   "properties": {
    "name": "18 BLACKWOOD STREET GRASSY 7256",
    "locID": "LOC000105817372",
    "tech": "SATELLITE",
    "upgrade": "NULL_NA",
    "gnaf_pid": "GATAS702201470",
    "ee": false,
    "tech_change_status": "Not Planned"
   }
  },
  {
   "type": "Feature",
   "geometry": {
    "type": "Point",
    "coordinates": [
     144.04903469,
     -40.04751348
    ]
   },
   "properties": {
    "name": "3 GRASSY ROAD GRASSY 7256",
    "locID": "LOC100081348036",
    "tech": "SATELLITE",
    "upgrade": "NULL_NA",
    "gnaf_pid": "GATAS702237535",
    "ee": false,
    "tech_change_status": "Not Planned"
   }
  },
  {
   "type": "Feature",
   "geometry": {
    "type": "Point",
    "coordinates": [
     144.04903469,
     -40.04751348
    ]
   },
   "properties": {
    "name": "4 GRASSY ROAD GRASSY 7256",
    "locID": "LOC000072617668",
    "tech": "NULL",
    "upgrade": "NULL_NA",
    "gnaf_pid": "GATAS702237537",
    "ee": false,
    "tech_change_status": "Not Planned"
   }
  },
  {
   "type": "Feature",
   "geometry": {
    "type": "Point",
    "coordinates": [
     144.04903469,
     -40.04751348
    ]
   },
   "properties": {
    "name": "5 GRASSY ROAD GRASSY 7256",
    "locID": "LOC000104260686",
    "tech": "NULL",
    "upgrade": "NULL_NA",
    "gnaf_pid": "GATAS702237538",
    "ee": false,
    "tech_change_status": "Not Planned"
   }
  },
  {
   "type": "Feature",
   "geometry": {
    "type": "Point",
    "coordinates": [
     144.04903469,
     -40.04751348
    ]
   },
   "properties": {
    "name": "8 GRASSY ROAD GRASSY 7256",
    "locID": "LOC000015093922",
    "tech": "NULL",
    "upgrade": "NULL_NA",
    "gnaf_pid": "GATAS702238265",
    "ee": false,
    "tech_change_status": "Not Planned"
   }
  },
  {
   "type": "Feature",
   "geometry": {
    "type": "Point",
    "coordinates": [
     144.04903469,
     -40.04751348
    ]
   },
   "properties": {
    "name": "12 GRASSY ROAD GRASSY 7256",
    "locID": "LOC000064751535",
    "tech": "NULL",
    "upgrade": "NULL_NA",
    "gnaf_pid": "GATAS702238266",
    "ee": false,
    "tech_change_status": "Not Planned"
   }
  },
  {
   "type": "Feature",
   "geometry": {
    "type": "Point",
    "coordinates": [
     144.04903469,
     -40.04751348
    ]
   },
   "properties": {
    "name": "13 GRASSY ROAD GRASSY 7256",
    "locID": "LOC000047445890",
    "tech": "SATELLITE",
    "upgrade": "NULL_NA",
    "gnaf_pid": "GATAS702247352",
    "ee": false,
    "tech_change_status": "Not Planned"
   }
  },
  {
   "type": "Feature",
   "geometry": {
    "type": "Point",
    "coordinates": [
     144.04903469,
     -40.04751348
    ]
   },
   "properties": {
    "name": "14 GRASSY ROAD GRASSY 7256",
    "locID": "LOC000094301913",
    "tech": "SATELLITE",
    "upgrade": "NULL_NA",
    "gnaf_pid": "GATAS702247353",
    "ee": false,
    "tech_change_status": "Not Planned"
   }
  },
  {
   "type": "Feature",
   "geometry": {
    "type": "Point",
    "coordinates": [
     144.04903469,
     -40.04751348
    ]
   },
   "properties": {
    "name": "9 GRASSY ROAD GRASSY 7256",
    "locID": "LOC000074363960",
    "tech": "NULL",
    "upgrade": "NULL_NA",
    "gnaf_pid": "GATAS702247354",
    "ee": false,
    "tech_change_status": "Not Planned"
   }
  },
  {
   "type": "Feature",
   "geometry": {
    "type": "Point",
    "coordinates": [
     144.05517798,
     -40.04820098
    ]
   },
   "properties": {
    "name": "6 GRASSY ROAD GRASSY 7256",
    "locID": "LOC000070317770",
    "tech": "SATELLITE",
    "upgrade": "NULL_NA",
    "gnaf_pid": "GATAS702257122",
    "ee": false,
    "tech_change_status": "Not Planned"
   }
  },
  {
   "type": "Feature",
   "geometry": {
    "type": "Point",
    "coordinates": [
     144.04903469,
     -40.04751348
    ]
   },
   "properties": {
    "name": "7 GRASSY ROAD GRASSY 7256",
    "locID": "LOC000150784531",
    "tech": "NULL",
    "upgrade": "NULL_NA",
    "gnaf_pid": "GATAS702257123",
    "ee": false,
    "tech_change_status": "Not Planned"
   }
  },
  {
   "type": "Feature",
   "geometry": {
    "type": "Point",
    "coordinates": [
     144.04818762,
     -40.04682828
    ]
   },
   "properties": {
    "name": "2801 GRASSY ROAD GRASSY 7256",
    "locID": "LOC000039725736",
    "tech": "NULL",
    "upgrade": "NULL_NA",
    "gnaf_pid": "GATAS702257126",
    "ee": false,
    "tech_change_status": "Not Planned"
   }
  },
  {
   "type": "Feature",
   "geometry": {
    "type": "Point",
    "coordinates": [
     144.05941377,
     -40.06464303
    ]
   },
   "properties": {
    "name": "285 GRASSY HARBOUR ROAD GRASSY 7256",
    "locID": "LOC000059829604",
    "tech": "NULL",
    "upgrade": "NULL_NA",
    "gnaf_pid": "GATAS702257983",
    "ee": false,
    "tech_change_status": "Not Planned"
   }
  },
  {
   "type": "Feature",
   "geometry": {
    "type": "Point",
    "coordinates": [
     144.06238322,
     -40.04807383
    ]
   },
   "properties": {
    "name": "2 MYRTLE STREET GRASSY 7256",
    "locID": "LOC000150784772",
    "tech": "NULL",
    "upgrade": "NULL_NA",
    "gnaf_pid": "GATAS702305479",
    "ee": false,
    "tech_change_status": "Not Planned"
   }
  },
  {
   "type": "Feature",
   "geometry": {
    "type": "Point",
    "coordinates": [
     144.06238322,
     -40.04807383
    ]
   },
   "properties": {
    "name": "1 MYRTLE STREET GRASSY 7256",
    "locID": "LOC000082185091",
    "tech": "NULL",
    "upgrade": "NULL_NA",
    "gnaf_pid": "GATAS702305480",
    "ee": false,
    "tech_change_status": "Not Planned"
   }
  },
  {
   "type": "Feature",
   "geometry": {
    "type": "Point",
    "coordinates": [
     144.06186687,
     -40.04857034
    ]
   },
   "properties": {
    "name": "9 MYRTLE STREET GRASSY 7256",
    "locID": "LOC000093900173",
    "tech": "SATELLITE",
    "upgrade": "NULL_NA",
    "gnaf_pid": "GATAS702305483",
    "ee": false,
    "tech_change_status": "Not Planned"
   }
  },
  {
   "type": "Feature",
   "geometry": {
    "type": "Point",
    "coordinates": [
     144.06208311,
     -40.04821804
    ]
   },
   "properties": {
    "name": "11 MYRTLE STREET GRASSY 7256",
    "locID": "LOC000013526736",
    "tech": "SATELLITE",
    "upgrade": "NULL_NA",
    "gnaf_pid": "GATAS702305484",
    "ee": false,
    "tech_change_status": "Not Planned"
   }
  },
  {
   "type": "Feature",
   "geometry": {
    "type": "Point",
    "coordinates": [
     144.06211561,
     -40.04802935
    ]
   },
   "properties": {
    "name": "13 MYRTLE STREET GRASSY 7256",
    "locID": "LOC000082185091",
    "tech": "NULL",
    "upgrade": "NULL_NA",
    "gnaf_pid": "GATAS702305485",
    "ee": false,
    "tech_change_status": "Not Planned"
   }
  },
  {
   "type": "Feature",
   "geometry": {
    "type": "Point",
    "coordinates": [
     144.06214913,
     -40.04783469
    ]
   },
   "properties": {
    "name": "15 MYRTLE STREET GRASSY 7256",
    "locID": "LOC000040888841",
    "tech": "NULL",
    "upgrade": "NULL_NA",
    "gnaf_pid": "GATAS702305487",
    "ee": false,
    "tech_change_status": "Not Planned"
   }
  },
  {
   "type": "Feature",
   "geometry": {
    "type": "Point",
    "coordinates": [
     144.06109954,
     -40.04878812
    ]
   },
   "properties": {
    "name": "3 SASSAFRAS STREET GRASSY 7256",
    "locID": "LOC000006725627",
    "tech": "SATELLITE",
    "upgrade": "NULL_NA",
    "gnaf_pid": "GATAS702332876",
    "ee": false,
    "tech_change_status": "Not Planned"
   }
  },
  {
   "type": "Feature",
   "geometry": {
    "type": "Point",
    "coordinates": [
     144.06107663,
     -40.04901243
    ]
   },
   "properties": {
    "name": "1 SASSAFRAS STREET GRASSY 7256",
    "locID": "LOC000091764411",
    "tech": "NULL",
    "upgrade": "NULL_NA",
    "gnaf_pid": "GATAS702332877",
    "ee": false,
    "tech_change_status": "Not Planned"
   }
  },
  {
   "type": "Feature",
   "geometry": {
    "type": "Point",
    "coordinates": [
     144.06116846,
     -40.04839809
    ]
   },
   "properties": {
    "name": "7 SASSAFRAS STREET GRASSY 7256",
    "locID": "LOC000048952694",
    "tech": "NULL",
    "upgrade": "NULL_NA",
    "gnaf_pid": "GATAS702332878",
    "ee": false,
    "tech_change_status": "Not Planned"
   }
  },
  {
   "type": "Feature",
   "geometry": {
    "type": "Point",
    "coordinates": [
     144.0618444,
     -40.04762626
    ]
   },
   "properties": {
    "name": "16 SASSAFRAS STREET GRASSY 7256",
    "locID": "LOC000071411402",
    "tech": "NULL",
    "upgrade": "NULL_NA",
    "gnaf_pid": "GATAS702332882",
    "ee": false,
    "tech_change_status": "Not Planned"
   }
  },
  {
   "type": "Feature",
   "geometry": {
    "type": "Point",
    "coordinates": [
     144.06120167,
     -40.04821073
    ]
   },
   "properties": {
    "name": "9 SASSAFRAS STREET GRASSY 7256",
    "locID": "LOC000071914619",
    "tech": "SATELLITE",
    "upgrade": "NULL_NA",
    "gnaf_pid": "GATAS702348345",
    "ee": false,
    "tech_change_status": "Not Planned"
   }
  },
  {
   "type": "Feature",
   "geometry": {
    "type": "Point",
    "coordinates": [
     144.06044488,
     -40.04798746
    ]
   },
   "properties": {
    "name": "1 WARATAH STREET GRASSY 7256",
    "locID": "LOC000078290595",
    "tech": "NULL",
    "upgrade": "NULL_NA",
    "gnaf_pid": "GATAS702352484",
    "ee": false,
    "tech_change_status": "Not Planned"
   }
  },
  {
   "type": "Feature",
   "geometry": {
    "type": "Point",
    "coordinates": [
     144.05992184,
     -40.04922821
    ]
   },
   "properties": {
    "name": "3 WARATAH STREET GRASSY 7256",
    "locID": "LOC000067743319",
    "tech": "NULL",
    "upgrade": "NULL_NA",
    "gnaf_pid": "GATAS702353310",
    "ee": false,
    "tech_change_status": "Not Planned"
   }
  },
  {
   "type": "Feature",
   "geometry": {
    "type": "Point",
    "coordinates": [
     144.06014818,
     -40.04777211
    ]
   },
   "properties": {
    "name": "19 WARATAH STREET GRASSY 7256",
    "locID": "LOC000078290595",
    "tech": "NULL",
    "upgrade": "NULL_NA",
    "gnaf_pid": "GATAS702354148",
    "ee": false,
    "tech_change_status": "Not Planned"
   }
  },
  {
   "type": "Feature",
   "geometry": {
    "type": "Point",
    "coordinates": [
     144.06009657,
     -40.04807937
    ]
   },
   "properties": {
    "name": "15 WARATAH STREET GRASSY 7256",
    "locID": "LOC000006756319",
    "tech": "NULL",
    "upgrade": "NULL_NA",
    "gnaf_pid": "GATAS702355935",
    "ee": false,
    "tech_change_status": "Not Planned"
   }
  },
  {
   "type": "Feature",
   "geometry": {
    "type": "Point",
    "coordinates": [
     144.06079361,
     -40.04787504
    ]
   },
   "properties": {
    "name": "18 WARATAH STREET GRASSY 7256",
    "locID": "LOC000025161302",
    "tech": "SATELLITE",
    "upgrade": "NULL_NA",
    "gnaf_pid": "GATAS702360440",
    "ee": false,
    "tech_change_status": "Not Planned"
   }
  },
  {
   "type": "Feature",
   "geometry": {
    "type": "Point",
    "coordinates": [
     144.06066324,
     -40.0485922
    ]
   },
   "properties": {
    "name": "10 WARATAH STREET GRASSY 7256",
    "locID": "LOC000049957777",
    "tech": "NULL",
    "upgrade": "NULL_NA",
    "gnaf_pid": "GATAS702362378",
    "ee": false,
    "tech_change_status": "Not Planned"
   }
  },
  {
   "type": "Feature",
   "geometry": {
    "type": "Point",
    "coordinates": [
     144.06044488,
     -40.04798746
    ]
   },
   "properties": {
    "name": "2 WARATAH STREET GRASSY 7256",
    "locID": "LOC000150785288",
    "tech": "NULL",
    "upgrade": "NULL_NA",
    "gnaf_pid": "GATAS702362381",
    "ee": false,
    "tech_change_status": "Not Planned"
   }
  },
  {
   "type": "Feature",
   "geometry": {
    "type": "Point",
    "coordinates": [
     144.05481895,
     -40.04657924
    ]
   },
   "properties": {
    "name": "7 MELALEUCA STREET GRASSY 7256",
    "locID": "LOC000024302779",
    "tech": "SATELLITE",
    "upgrade": "NULL_NA",
    "gnaf_pid": "GATAS702454404",
    "ee": false,
    "tech_change_status": "Not Planned"
   }
  },
  {
   "type": "Feature",
   "geometry": {
    "type": "Point",
    "coordinates": [
     144.05548433,
     -40.04703289
    ]
   },
   "properties": {
    "name": "14 MELALEUCA STREET GRASSY 7256",
    "locID": "LOC000059650758",
    "tech": "NULL",
    "upgrade": "NULL_NA",
    "gnaf_pid": "GATAS702460057",
    "ee": false,
    "tech_change_status": "Not Planned"
   }
  },
  {
   "type": "Feature",
   "geometry": {
    "type": "Point",
    "coordinates": [
     144.04903469,
     -40.04751348
    ]
   },
   "properties": {
    "name": "11 GRASSY ROAD GRASSY 7256",
    "locID": "LOC000014330628",
    "tech": "SATELLITE",
    "upgrade": "NULL_NA",
    "gnaf_pid": "GATAS702460690",
    "ee": false,
    "tech_change_status": "Not Planned"
   }
  },
  {
   "type": "Feature",
   "geometry": {
    "type": "Point",
    "coordinates": [
     144.0623962,
     -40.04866999
    ]
   },
   "properties": {
    "name": "15 BORONIA DRIVE GRASSY 7256",
    "locID": "LOC000051345505",
    "tech": "NULL",
    "upgrade": "NULL_NA",
    "gnaf_pid": "GATAS702460718",
    "ee": false,
    "tech_change_status": "Not Planned"
   }
  },
  {
   "type": "Feature",
   "geometry": {
    "type": "Point",
    "coordinates": [
     144.05072122,
     -40.04824425
    ]
   },
   "properties": {
    "name": "1 FERN TREE DRIVE GRASSY 7256",
    "locID": "LOC000150783878",
    "tech": "NULL",
    "upgrade": "NULL_NA",
    "gnaf_pid": "GATAS702460720",
    "ee": false,
    "tech_change_status": "Not Planned"
   }
  },
  {
   "type": "Feature",
   "geometry": {
    "type": "Point",
    "coordinates": [
     144.0592862,
     -40.04808899
    ]
   },
   "properties": {
    "name": "3 BLACKWOOD STREET GRASSY 7256",
    "locID": "LOC100035631552",
    "tech": "NULL",
    "upgrade": "NULL_NA",
    "gnaf_pid": "GATAS702463665",
    "ee": false,
    "tech_change_status": "Not Planned"
   }
  },
  {
   "type": "Feature",
   "geometry": {
    "type": "Point",
    "coordinates": [
     144.05402058,
     -40.04651914
    ]
   },
   "properties": {
    "name": "1 MELALEUCA STREET GRASSY 7256",
    "locID": "LOC000059650758",
    "tech": "NULL",
    "upgrade": "NULL_NA",
    "gnaf_pid": "GATAS702787134",
    "ee": false,
    "tech_change_status": "Not Planned"
   }
  },
  {
   "type": "Feature",
   "geometry": {
    "type": "Point",
    "coordinates": [
     144.05518314,
     -40.04679424
    ]
   },
   "properties": {
    "name": "2 MELALEUCA STREET GRASSY 7256",
    "locID": "LOC000024302779",
    "tech": "SATELLITE",
    "upgrade": "NULL_NA",
    "gnaf_pid": "GATAS702787135",
    "ee": false,
    "tech_change_status": "Not Planned"
   }
  },
  {
   "type": "Feature",
   "geometry": {
    "type": "Point",
    "coordinates": [
     144.06238322,
     -40.04807383
    ]
   },
   "properties": {
    "name": "7 MYRTLE STREET GRASSY 7256",
    "locID": "LOC000150784772",
    "tech": "NULL",
    "upgrade": "NULL_NA",
    "gnaf_pid": "GATAS702787924",
    "ee": false,
    "tech_change_status": "Not Planned"
   }
  },
  {
   "type": "Feature",
   "geometry": {
    "type": "Point",
    "coordinates": [
     144.0592862,
     -40.04808899
    ]
   },
   "properties": {
    "name": "1 BLACKWOOD STREET GRASSY 7256",
    "locID": "LOC000034160566",
    "tech": "NULL",
    "upgrade": "NULL_NA",
    "gnaf_pid": "GATAS702790414",
    "ee": false,
    "tech_change_status": "Not Planned"
   }
  },
  {
   "type": "Feature",
   "geometry": {
    "type": "Point",
    "coordinates": [
     144.04717411,
     -40.0583716
    ]
   },
   "properties": {
    "name": "LOT 2 GRASSY HARBOUR ROAD GRASSY 7256",
    "locID": "LOC000059829604",
    "tech": "NULL",
    "upgrade": "NULL_NA",
    "gnaf_pid": "GATAS716460036",
    "ee": false,
    "tech_change_status": "Not Planned"
   }
  },
  {
   "type": "Feature",
   "geometry": {
    "type": "Point",
    "coordinates": [
     144.04903469,
     -40.04751348
    ]
   },
   "properties": {
    "name": "1 GRASSY ROAD GRASSY 7256",
    "locID": "LOC000017619615",
    "tech": "SATELLITE",
    "upgrade": "NULL_NA",
    "gnaf_pid": "GATAS716460038",
    "ee": false,
    "tech_change_status": "Not Planned"
   }
  },
  {
   "type": "Feature",
   "geometry": {
    "type": "Point",
    "coordinates": [
     144.04903469,
     -40.04751348
    ]
   },
   "properties": {
    "name": "2 GRASSY ROAD GRASSY 7256",
    "locID": "LOC000150784531",
    "tech": "NULL",
    "upgrade": "NULL_NA",
    "gnaf_pid": "GATAS716460039",
    "ee": false,
    "tech_change_status": "Not Planned"
   }
  },
  {
   "type": "Feature",
   "geometry": {
    "type": "Point",
    "coordinates": [
     144.06062498,
     -40.04880073
    ]
   },
   "properties": {
    "name": "8 WARATAH STREET GRASSY 7256",
    "locID": "LOC000067057055",
    "tech": "NULL",
    "upgrade": "NULL_NA",
    "gnaf_pid": "GATAS716462752",
    "ee": false,
    "tech_change_status": "Not Planned"
   }
  },
  {
   "type": "Feature",
   "geometry": {
    "type": "Point",
    "coordinates": [
     144.06040168,
     -40.04648624
    ]
   },
   "properties": {
    "name": "11 BANKSIA STREET GRASSY 7256",
    "locID": "LOC000133813575",
    "tech": "NULL",
    "upgrade": "NULL_NA",
    "gnaf_pid": "GATAS716711393",
    "ee": false,
    "tech_change_status": "Not Planned"
   }
  },
  {
   "type": "Feature",
   "geometry": {
    "type": "Point",
    "coordinates": [
     144.05993407,
     -40.04644213
    ]
   },
   "properties": {
    "name": "7 BANKSIA STREET GRASSY 7256",
    "locID": "LOC000133822595",
    "tech": "NULL",
    "upgrade": "NULL_NA",
    "gnaf_pid": "GATAS716711399",
    "ee": false,
    "tech_change_status": "Not Planned"
   }
  },
  {
   "type": "Feature",
   "geometry": {
    "type": "Point",
    "coordinates": [
     144.05929965,
     -40.04929043
    ]
   },
   "properties": {
    "name": "2 BLACKWOOD STREET GRASSY 7256",
    "locID": "LOC000133818057",
    "tech": "NULL",
    "upgrade": "NULL_NA",
    "gnaf_pid": "GATAS716711451",
    "ee": false,
    "tech_change_status": "Not Planned"
   }
  },
  {
   "type": "Feature",
   "geometry": {
    "type": "Point",
    "coordinates": [
     144.06129863,
     -40.04772068
    ]
   },
   "properties": {
    "name": "15 SASSAFRAS STREET GRASSY 7256",
    "locID": "LOC000133817989",
    "tech": "NULL",
    "upgrade": "NULL_NA",
    "gnaf_pid": "GATAS716712700",
    "ee": false,
    "tech_change_status": "Not Planned"
   }
  },
  {
   "type": "Feature",
   "geometry": {
    "type": "Point",
    "coordinates": [
     144.04903469,
     -40.04751348
    ]
   },
   "properties": {
    "name": "SHOP 1, 7 GRASSY ROAD GRASSY 7256",
    "locID": "LOC000150784294",
    "tech": "NULL",
    "upgrade": "NULL_NA",
    "gnaf_pid": "GATAS717757427",
    "ee": false,
    "tech_change_status": "Not Planned"
   }
  },
  {
   "type": "Feature",
   "geometry": {
    "type": "Point",
    "coordinates": [
     144.04903469,
     -40.04751348
    ]
   },
   "properties": {
    "name": "SHOP 2, 7 GRASSY ROAD GRASSY 7256",
    "locID": "LOC000150784294",
    "tech": "NULL",
    "upgrade": "NULL_NA",
    "gnaf_pid": "GATAS717757428",
    "ee": false,
    "tech_change_status": "Not Planned"
   }
  },
  {
   "type": "Feature",
   "geometry": {
    "type": "Point",
    "coordinates": [
     144.04903469,
     -40.04751348
    ]
   },
   "properties": {
    "name": "SHOP 3, 7 GRASSY ROAD GRASSY 7256",
    "locID": "LOC000150784294",
    "tech": "NULL",
    "upgrade": "NULL_NA",
    "gnaf_pid": "GATAS717757429",
    "ee": false,
    "tech_change_status": "Not Planned"
   }
  },
  {
   "type": "Feature",
   "geometry": {
    "type": "Point",
    "coordinates": [
     144.04903469,
     -40.04751348
    ]
   },
   "properties": {
    "name": "SHOP 4, 7 GRASSY ROAD GRASSY 7256",
    "locID": "LOC000150784294",
    "tech": "NULL",
    "upgrade": "NULL_NA",
    "gnaf_pid": "GATAS717757430",
    "ee": false,
    "tech_change_status": "Not Planned"
   }
  },
  {
   "type": "Feature",
   "geometry": {
    "type": "Point",
    "coordinates": [
     144.05685187,
     -40.06028544
    ]
   },
   "properties": {
    "name": "255 GRASSY HARBOUR ROAD GRASSY 7256",
    "locID": "LOC000133818128",
    "tech": "SATELLITE",
    "upgrade": "NULL_NA",
    "gnaf_pid": "GATAS717912747",
    "ee": false,
    "tech_change_status": "Not Planned"
   }
  },
  {
   "type": "Feature",
   "geometry": {
    "type": "Point",
    "coordinates": [
     144.06351618,
     -40.0487573
    ]
   },
   "properties": {
    "name": "3 ACACIA STREET GRASSY 7256",
    "locID": "LOC000150783464",
    "tech": "NULL",
    "upgrade": "NULL_NA",
    "gnaf_pid": "GATAS718710787",
    "ee": false,
    "tech_change_status": "Not Planned"
   }
  },
  {
   "type": "Feature",
   "geometry": {
    "type": "Point",
    "coordinates": [
     144.06327739,
     -40.05017044
    ]
   },
   "properties": {
    "name": "4 ACACIA STREET GRASSY 7256",
    "locID": "LOC000150783472",
    "tech": "SATELLITE",
    "upgrade": "NULL_NA",
    "gnaf_pid": "GATAS718710788",
    "ee": false,
    "tech_change_status": "Not Planned"
   }
  },
  {
   "type": "Feature",
   "geometry": {
    "type": "Point",
    "coordinates": [
     144.06201971,
     -40.04667028
    ]
   },
   "properties": {
    "name": "25 BANKSIA STREET GRASSY 7256",
    "locID": "LOC000174560200",
    "tech": "SATELLITE",
    "upgrade": "NULL_NA",
    "gnaf_pid": "GATAS718710828",
    "ee": false,
    "tech_change_status": "Not Planned"
   }
  },
  {
   "type": "Feature",
   "geometry": {
    "type": "Point",
    "coordinates": [
     144.05965772,
     -40.04641537
    ]
   },
   "properties": {
    "name": "5 BANKSIA STREET GRASSY 7256",
    "locID": "LOC000150783527",
    "tech": "SATELLITE",
    "upgrade": "NULL_NA",
    "gnaf_pid": "GATAS718710831",
    "ee": false,
    "tech_change_status": "Not Planned"
   }
  },
  {
   "type": "Feature",
   "geometry": {
    "type": "Point",
    "coordinates": [
     144.05978978,
     -40.04698364
    ]
   },
   "properties": {
    "name": "8 BANKSIA STREET GRASSY 7256",
    "locID": "LOC000150783536",
    "tech": "NULL",
    "upgrade": "NULL_NA",
    "gnaf_pid": "GATAS718710832",
    "ee": false,
    "tech_change_status": "Not Planned"
   }
  },
  {
   "type": "Feature",
   "geometry": {
    "type": "Point",
    "coordinates": [
     144.05897978,
     -40.04814402
    ]
   },
   "properties": {
    "name": "13 BLACKWOOD STREET GRASSY 7256",
    "locID": "LOC000150783562",
    "tech": "NULL",
    "upgrade": "NULL_NA",
    "gnaf_pid": "GATAS718710860",
    "ee": false,
    "tech_change_status": "Not Planned"
   }
  },
  {
   "type": "Feature",
   "geometry": {
    "type": "Point",
    "coordinates": [
     144.05859244,
     -40.04813511
    ]
   },
   "properties": {
    "name": "17 BLACKWOOD STREET GRASSY 7256",
    "locID": "LOC100072049786",
    "tech": "NULL",
    "upgrade": "NULL_NA",
    "gnaf_pid": "GATAS718710861",
    "ee": false,
    "tech_change_status": "Not Planned"
   }
  },
  {
   "type": "Feature",
   "geometry": {
    "type": "Point",
    "coordinates": [
     144.05973847,
     -40.04728713
    ]
   },
   "properties": {
    "name": "24 BLACKWOOD STREET GRASSY 7256",
    "locID": "LOC000150783570",
    "tech": "NULL",
    "upgrade": "NULL_NA",
    "gnaf_pid": "GATAS718710863",
    "ee": false,
    "tech_change_status": "Not Planned"
   }
  },
  {
   "type": "Feature",
   "geometry": {
    "type": "Point",
    "coordinates": [
     144.05917517,
     -40.04728084
    ]
   },
   "properties": {
    "name": "25 BLACKWOOD STREET GRASSY 7256",
    "locID": "LOC000150783589",
    "tech": "NULL",
    "upgrade": "NULL_NA",
    "gnaf_pid": "GATAS718710864",
    "ee": false,
    "tech_change_status": "Not Planned"
   }
  },
  {
   "type": "Feature",
   "geometry": {
    "type": "Point",
    "coordinates": [
     144.05909595,
     -40.04680197
    ]
   },
   "properties": {
    "name": "31 BLACKWOOD STREET GRASSY 7256",
    "locID": "LOC100035631552",
    "tech": "NULL",
    "upgrade": "NULL_NA",
    "gnaf_pid": "GATAS718710866",
    "ee": false,
    "tech_change_status": "Not Planned"
   }
  },
  {
   "type": "Feature",
   "geometry": {
    "type": "Point",
    "coordinates": [
     144.05931213,
     -40.04969436
    ]
   },
   "properties": {
    "name": "1 BLUE GUM DRIVE GRASSY 7256",
    "locID": "LOC000150783625",
    "tech": "NULL",
    "upgrade": "NULL_NA",
    "gnaf_pid": "GATAS718710867",
    "ee": false,
    "tech_change_status": "Not Planned"
   }
  },
  {
   "type": "Feature",
   "geometry": {
    "type": "Point",
    "coordinates": [
     144.05874564,
     -40.04982125
    ]
   },
   "properties": {
    "name": "2 BLUE GUM DRIVE GRASSY 7256",
    "locID": "LOC000150783639",
    "tech": "NULL",
    "upgrade": "NULL_NA",
    "gnaf_pid": "GATAS718710868",
    "ee": false,
    "tech_change_status": "Not Planned"
   }
  },
  {
   "type": "Feature",
   "geometry": {
    "type": "Point",
    "coordinates": [
     144.06064969,
     -40.05047204
    ]
   },
   "properties": {
    "name": "32 BLUE GUM DRIVE GRASSY 7256",
    "locID": "LOC000150783656",
    "tech": "NULL",
    "upgrade": "NULL_NA",
    "gnaf_pid": "GATAS718710869",
    "ee": false,
    "tech_change_status": "Not Planned"
   }
  },
  {
   "type": "Feature",
   "geometry": {
    "type": "Point",
    "coordinates": [
     144.05930094,
     -40.04988864
    ]
   },
   "properties": {
    "name": "3 BLUE GUM DRIVE GRASSY 7256",
    "locID": "LOC000105583412",
    "tech": "NULL",
    "upgrade": "NULL_NA",
    "gnaf_pid": "GATAS718710870",
    "ee": false,
    "tech_change_status": "Not Planned"
   }
  },
  {
   "type": "Feature",
   "geometry": {
    "type": "Point",
    "coordinates": [
     144.06028873,
     -40.0498463
    ]
   },
   "properties": {
    "name": "42 BLUE GUM DRIVE GRASSY 7256",
    "locID": "LOC000150783660",
    "tech": "SATELLITE",
    "upgrade": "NULL_NA",
    "gnaf_pid": "GATAS718710871",
    "ee": false,
    "tech_change_status": "Not Planned"
   }
  },
  {
   "type": "Feature",
   "geometry": {
    "type": "Point",
    "coordinates": [
     144.05975916,
     -40.04976474
    ]
   },
   "properties": {
    "name": "43 BLUE GUM DRIVE GRASSY 7256",
    "locID": "LOC000150783687",
    "tech": "NULL",
    "upgrade": "NULL_NA",
    "gnaf_pid": "GATAS718710872",
    "ee": false,
    "tech_change_status": "Not Planned"
   }
  },
  {
   "type": "Feature",
   "geometry": {
    "type": "Point",
    "coordinates": [
     144.058156,
     -40.05069548
    ]
   },
   "properties": {
    "name": "6 BLUE GUM DRIVE GRASSY 7256",
    "locID": "LOC100078158014",
    "tech": "NULL",
    "upgrade": "NULL_NA",
    "gnaf_pid": "GATAS718710874",
    "ee": false,
    "tech_change_status": "Not Planned"
   }
  },
  {
   "type": "Feature",
   "geometry": {
    "type": "Point",
    "coordinates": [
     144.06264926,
     -40.04839538
    ]
   },
   "properties": {
    "name": "17 BORONIA DRIVE GRASSY 7256",
    "locID": "LOC000150783710",
    "tech": "SATELLITE",
    "upgrade": "NULL_NA",
    "gnaf_pid": "GATAS718710879",
    "ee": false,
    "tech_change_status": "Not Planned"
   }
  },
  {
   "type": "Feature",
   "geometry": {
    "type": "Point",
    "coordinates": [
     144.06269274,
     -40.0481847
    ]
   },
   "properties": {
    "name": "19 BORONIA DRIVE GRASSY 7256",
    "locID": "LOC000150783734",
    "tech": "NULL",
    "upgrade": "NULL_NA",
    "gnaf_pid": "GATAS718710880",
    "ee": false,
    "tech_change_status": "Not Planned"
   }
  },
  {
   "type": "Feature",
   "geometry": {
    "type": "Point",
    "coordinates": [
     144.06272883,
     -40.04798314
    ]
   },
   "properties": {
    "name": "21 BORONIA DRIVE GRASSY 7256",
    "locID": "LOC000150783752",
    "tech": "NULL",
    "upgrade": "NULL_NA",
    "gnaf_pid": "GATAS718710881",
    "ee": false,
    "tech_change_status": "Not Planned"
   }
  },
  {
   "type": "Feature",
   "geometry": {
    "type": "Point",
    "coordinates": [
     144.06277114,
     -40.04777603
    ]
   },
   "properties": {
    "name": "23 BORONIA DRIVE GRASSY 7256",
    "locID": "LOC000150783781",
    "tech": "SATELLITE",
    "upgrade": "NULL_NA",
    "gnaf_pid": "GATAS718710882",
    "ee": false,
    "tech_change_status": "Not Planned"
   }
  },
  {
   "type": "Feature",
   "geometry": {
    "type": "Point",
    "coordinates": [
     144.06278938,
     -40.04756699
    ]
   },
   "properties": {
    "name": "25 BORONIA DRIVE GRASSY 7256",
    "locID": "LOC000150783799",
    "tech": "NULL",
    "upgrade": "NULL_NA",
    "gnaf_pid": "GATAS718710883",
    "ee": false,
    "tech_change_status": "Not Planned"
   }
  },
  {
   "type": "Feature",
   "geometry": {
    "type": "Point",
    "coordinates": [
     144.06279846,
     -40.047383
    ]
   },
   "properties": {
    "name": "27 BORONIA DRIVE GRASSY 7256",
    "locID": "LOC000150783813",
    "tech": "SATELLITE",
    "upgrade": "NULL_NA",
    "gnaf_pid": "GATAS718710884",
    "ee": false,
    "tech_change_status": "Not Planned"
   }
  },
  {
   "type": "Feature",
   "geometry": {
    "type": "Point",
    "coordinates": [
     144.05028569,
     -40.04801506
    ]
   },
   "properties": {
    "name": "10 FERN TREE DRIVE GRASSY 7256",
    "locID": "LOC000150783878",
    "tech": "NULL",
    "upgrade": "NULL_NA",
    "gnaf_pid": "GATAS718710976",
    "ee": false,
    "tech_change_status": "Not Planned"
   }
  },
  {
   "type": "Feature",
   "geometry": {
    "type": "Point",
    "coordinates": [
     144.05081717,
     -40.0480671
    ]
   },
   "properties": {
    "name": "6 FERN TREE DRIVE GRASSY 7256",
    "locID": "LOC100020575106",
    "tech": "NULL",
    "upgrade": "NULL_NA",
    "gnaf_pid": "GATAS718710977",
    "ee": false,
    "tech_change_status": "Not Planned"
   }
  },
  {
   "type": "Feature",
   "geometry": {
    "type": "Point",
    "coordinates": [
     144.05049828,
     -40.04803588
    ]
   },
   "properties": {
    "name": "8 FERN TREE DRIVE GRASSY 7256",
    "locID": "LOC000150783897",
    "tech": "NULL",
    "upgrade": "NULL_NA",
    "gnaf_pid": "GATAS718710978",
    "ee": false,
    "tech_change_status": "Not Planned"
   }
  },
  {
   "type": "Feature",
   "geometry": {
    "type": "Point",
    "coordinates": [
     144.05156795,
     -40.04837143
    ]
   },
   "properties": {
    "name": "2839 GRASSY ROAD GRASSY 7256",
    "locID": "LOC000150784153",
    "tech": "SATELLITE",
    "upgrade": "NULL_NA",
    "gnaf_pid": "GATAS718711024",
    "ee": false,
    "tech_change_status": "Not Planned"
   }
  },
  {
   "type": "Feature",
   "geometry": {
    "type": "Point",
    "coordinates": [
     144.05185444,
     -40.04834446
    ]
   },
   "properties": {
    "name": "2841 GRASSY ROAD GRASSY 7256",
    "locID": "LOC000150784182",
    "tech": "NULL",
    "upgrade": "NULL_NA",
    "gnaf_pid": "GATAS718711026",
    "ee": false,
    "tech_change_status": "Not Planned"
   }
  },
  {
   "type": "Feature",
   "geometry": {
    "type": "Point",
    "coordinates": [
     144.05180834,
     -40.04905198
    ]
   },
   "properties": {
    "name": "2842 GRASSY ROAD GRASSY 7256",
    "locID": "LOC000150784202",
    "tech": "NULL",
    "upgrade": "NULL_NA",
    "gnaf_pid": "GATAS718711027",
    "ee": false,
    "tech_change_status": "Not Planned"
   }
  },
  {
   "type": "Feature",
   "geometry": {
    "type": "Point",
    "coordinates": [
     144.05209004,
     -40.04840163
    ]
   },
   "properties": {
    "name": "2843 GRASSY ROAD GRASSY 7256",
    "locID": "LOC000150784225",
    "tech": "NULL",
    "upgrade": "NULL_NA",
    "gnaf_pid": "GATAS718711028",
    "ee": false,
    "tech_change_status": "Not Planned"
   }
  },
  {
   "type": "Feature",
   "geometry": {
    "type": "Point",
    "coordinates": [
     144.05338259,
     -40.04970583
    ]
   },
   "properties": {
    "name": "2844 GRASSY ROAD GRASSY 7256",
    "locID": "LOC100078158005",
    "tech": "NULL",
    "upgrade": "NULL_NA",
    "gnaf_pid": "GATAS718711029",
    "ee": false,
    "tech_change_status": "Not Planned"
   }
  },
  {
   "type": "Feature",
   "geometry": {
    "type": "Point",
    "coordinates": [
     144.05291644,
     -40.04850935
    ]
   },
   "properties": {
    "name": "2847 GRASSY ROAD GRASSY 7256",
    "locID": "LOC000150784256",
    "tech": "SATELLITE",
    "upgrade": "NULL_NA",
    "gnaf_pid": "GATAS718711031",
    "ee": false,
    "tech_change_status": "Not Planned"
   }
  },
  {
   "type": "Feature",
   "geometry": {
    "type": "Point",
    "coordinates": [
     144.05264615,
     -40.04898147
    ]
   },
   "properties": {
    "name": "2848 GRASSY ROAD GRASSY 7256",
    "locID": "LOC000150784260",
    "tech": "NULL",
    "upgrade": "NULL_NA",
    "gnaf_pid": "GATAS718711032",
    "ee": false,
    "tech_change_status": "Not Planned"
   }
  },
  {
   "type": "Feature",
   "geometry": {
    "type": "Point",
    "coordinates": [
     144.05317808,
     -40.04854644
    ]
   },
   "properties": {
    "name": "2849 GRASSY ROAD GRASSY 7256",
    "locID": "LOC000150784273",
    "tech": "NULL",
    "upgrade": "NULL_NA",
    "gnaf_pid": "GATAS718711033",
    "ee": false,
    "tech_change_status": "Not Planned"
   }
  },
  {
   "type": "Feature",
   "geometry": {
    "type": "Point",
    "coordinates": [
     144.05287448,
     -40.04900652
    ]
   },
   "properties": {
    "name": "2850 GRASSY ROAD GRASSY 7256",
    "locID": "LOC000150784287",
    "tech": "NULL",
    "upgrade": "NULL_NA",
    "gnaf_pid": "GATAS718711034",
    "ee": false,
    "tech_change_status": "Not Planned"
   }
  },
  {
   "type": "Feature",
   "geometry": {
    "type": "Point",
    "coordinates": [
     144.0534442,
     -40.04858365
    ]
   },
   "properties": {
    "name": "2851 GRASSY ROAD GRASSY 7256",
    "locID": "LOC000150784294",
    "tech": "NULL",
    "upgrade": "NULL_NA",
    "gnaf_pid": "GATAS718711035",
    "ee": false,
    "tech_change_status": "Not Planned"
   }
  },
  {
   "type": "Feature",
   "geometry": {
    "type": "Point",
    "coordinates": [
     144.05310809,
     -40.04903227
    ]
   },
   "properties": {
    "name": "2852 GRASSY ROAD GRASSY 7256",
    "locID": "LOC000150784304",
    "tech": "SATELLITE",
    "upgrade": "NULL_NA",
    "gnaf_pid": "GATAS718711036",
    "ee": false,
    "tech_change_status": "Not Planned"
   }
  },
  {
   "type": "Feature",
   "geometry": {
    "type": "Point",
    "coordinates": [
     144.05368505,
     -40.04859561
    ]
   },
   "properties": {
    "name": "2853 GRASSY ROAD GRASSY 7256",
    "locID": "LOC000150784315",
    "tech": "NULL",
    "upgrade": "NULL_NA",
    "gnaf_pid": "GATAS718711037",
    "ee": false,
    "tech_change_status": "Not Planned"
   }
  },
  {
   "type": "Feature",
   "geometry": {
    "type": "Point",
    "coordinates": [
     144.05333673,
     -40.04905792
    ]
   },
   "properties": {
    "name": "2854 GRASSY ROAD GRASSY 7256",
    "locID": "LOC000150784327",
    "tech": "NULL",
    "upgrade": "NULL_NA",
    "gnaf_pid": "GATAS718711038",
    "ee": false,
    "tech_change_status": "Not Planned"
   }
  },
  {
   "type": "Feature",
   "geometry": {
    "type": "Point",
    "coordinates": [
     144.05413306,
     -40.04864543
    ]
   },
   "properties": {
    "name": "2855 GRASSY ROAD GRASSY 7256",
    "locID": "LOC000150784343",
    "tech": "NULL",
    "upgrade": "NULL_NA",
    "gnaf_pid": "GATAS718711039",
    "ee": false,
    "tech_change_status": "Not Planned"
   }
  },
  {
   "type": "Feature",
   "geometry": {
    "type": "Point",
    "coordinates": [
     144.05461653,
     -40.04839104
    ]
   },
   "properties": {
    "name": "2859 GRASSY ROAD GRASSY 7256",
    "locID": "LOC000150784362",
    "tech": "NULL",
    "upgrade": "NULL_NA",
    "gnaf_pid": "GATAS718711041",
    "ee": false,
    "tech_change_status": "Not Planned"
   }
  },
  {
   "type": "Feature",
   "geometry": {
    "type": "Point",
    "coordinates": [
     144.05484797,
     -40.0481064
    ]
   },
   "properties": {
    "name": "2863 GRASSY ROAD GRASSY 7256",
    "locID": "LOC000150784389",
    "tech": "NULL",
    "upgrade": "NULL_NA",
    "gnaf_pid": "GATAS718711042",
    "ee": false,
    "tech_change_status": "Not Planned"
   }
  },
  {
   "type": "Feature",
   "geometry": {
    "type": "Point",
    "coordinates": [
     144.05498515,
     -40.04787634
    ]
   },
   "properties": {
    "name": "2867 GRASSY ROAD GRASSY 7256",
    "locID": "LOC100078157950",
    "tech": "NULL",
    "upgrade": "NULL_NA",
    "gnaf_pid": "GATAS718711044",
    "ee": false,
    "tech_change_status": "Not Planned"
   }
  },
  {
   "type": "Feature",
   "geometry": {
    "type": "Point",
    "coordinates": [
     144.05607355,
     -40.04885102
    ]
   },
   "properties": {
    "name": "2868 GRASSY ROAD GRASSY 7256",
    "locID": "LOC100078157978",
    "tech": "NULL",
    "upgrade": "NULL_NA",
    "gnaf_pid": "GATAS718711045",
    "ee": false,
    "tech_change_status": "Not Planned"
   }
  },
  {
   "type": "Feature",
   "geometry": {
    "type": "Point",
    "coordinates": [
     144.05575335,
     -40.04783314
    ]
   },
   "properties": {
    "name": "2871 GRASSY ROAD GRASSY 7256",
    "locID": "LOC000150784406",
    "tech": "NULL",
    "upgrade": "NULL_NA",
    "gnaf_pid": "GATAS718711046",
    "ee": false,
    "tech_change_status": "Not Planned"
   }
  },
  {
   "type": "Feature",
   "geometry": {
    "type": "Point",
    "coordinates": [
     144.05635754,
     -40.04808797
    ]
   },
   "properties": {
    "name": "2873 GRASSY ROAD GRASSY 7256",
    "locID": "LOC000150784423",
    "tech": "NULL",
    "upgrade": "NULL_NA",
    "gnaf_pid": "GATAS718711048",
    "ee": false,
    "tech_change_status": "Not Planned"
   }
  },
  {
   "type": "Feature",
   "geometry": {
    "type": "Point",
    "coordinates": [
     144.05655166,
     -40.04890288
    ]
   },
   "properties": {
    "name": "2874 GRASSY ROAD GRASSY 7256",
    "locID": "LOC000150784434",
    "tech": "NULL",
    "upgrade": "NULL_NA",
    "gnaf_pid": "GATAS718711049",
    "ee": false,
    "tech_change_status": "Not Planned"
   }
  },
  {
   "type": "Feature",
   "geometry": {
    "type": "Point",
    "coordinates": [
     144.05683585,
     -40.04893423
    ]
   },
   "properties": {
    "name": "2876 GRASSY ROAD GRASSY 7256",
    "locID": "LOC000150784447",
    "tech": "SATELLITE",
    "upgrade": "NULL_NA",
    "gnaf_pid": "GATAS718711050",
    "ee": false,
    "tech_change_status": "Not Planned"
   }
  },
  {
   "type": "Feature",
   "geometry": {
    "type": "Point",
    "coordinates": [
     144.0567674,
     -40.04825585
    ]
   },
   "properties": {
    "name": "2877 GRASSY ROAD GRASSY 7256",
    "locID": "LOC000150784468",
    "tech": "NULL",
    "upgrade": "NULL_NA",
    "gnaf_pid": "GATAS718711051",
    "ee": false,
    "tech_change_status": "Not Planned"
   }
  },
  {
   "type": "Feature",
   "geometry": {
    "type": "Point",
    "coordinates": [
     144.05712421,
     -40.04832025
    ]
   },
   "properties": {
    "name": "2879 GRASSY ROAD GRASSY 7256",
    "locID": "LOC000150784481",
    "tech": "NULL",
    "upgrade": "NULL_NA",
    "gnaf_pid": "GATAS718711053",
    "ee": false,
    "tech_change_status": "Not Planned"
   }
  },
  {
   "type": "Feature",
   "geometry": {
    "type": "Point",
    "coordinates": [
     144.05742843,
     -40.04835235
    ]
   },
   "properties": {
    "name": "2881 GRASSY ROAD GRASSY 7256",
    "locID": "LOC000150784508",
    "tech": "NULL",
    "upgrade": "NULL_NA",
    "gnaf_pid": "GATAS718711055",
    "ee": false,
    "tech_change_status": "Not Planned"
   }
  },
  {
   "type": "Feature",
   "geometry": {
    "type": "Point",
    "coordinates": [
     144.05770513,
     -40.04901926
    ]
   },
   "properties": {
    "name": "2882 GRASSY ROAD GRASSY 7256",
    "locID": "LOC000150784520",
    "tech": "NULL",
    "upgrade": "NULL_NA",
    "gnaf_pid": "GATAS718711056",
    "ee": false,
    "tech_change_status": "Not Planned"
   }
  },
  {
   "type": "Feature",
   "geometry": {
    "type": "Point",
    "coordinates": [
     144.05792615,
     -40.04835841
    ]
   },
   "properties": {
    "name": "2885 GRASSY ROAD GRASSY 7256",
    "locID": "LOC000150784531",
    "tech": "NULL",
    "upgrade": "NULL_NA",
    "gnaf_pid": "GATAS718711058",
    "ee": false,
    "tech_change_status": "Not Planned"
   }
  },
  {
   "type": "Feature",
   "geometry": {
    "type": "Point",
    "coordinates": [
     144.05392624,
     -40.04741157
    ]
   },
   "properties": {
    "name": "15 KURRAJONG STREET GRASSY 7256",
    "locID": "LOC000150784583",
    "tech": "NULL",
    "upgrade": "NULL_NA",
    "gnaf_pid": "GATAS718711136",
    "ee": false,
    "tech_change_status": "Not Planned"
   }
  },
  {
   "type": "Feature",
   "geometry": {
    "type": "Point",
    "coordinates": [
     144.05412447,
     -40.04715912
    ]
   },
   "properties": {
    "name": "17 KURRAJONG STREET GRASSY 7256",
    "locID": "LOC000150784596",
    "tech": "NULL",
    "upgrade": "NULL_NA",
    "gnaf_pid": "GATAS718711137",
    "ee": false,
    "tech_change_status": "Not Planned"
   }
  },
  {
   "type": "Feature",
   "geometry": {
    "type": "Point",
    "coordinates": [
     144.05433637,
     -40.04687371
    ]
   },
   "properties": {
    "name": "19 KURRAJONG STREET GRASSY 7256",
    "locID": "LOC000150784614",
    "tech": "NULL",
    "upgrade": "NULL_NA",
    "gnaf_pid": "GATAS718711138",
    "ee": false,
    "tech_change_status": "Not Planned"
   }
  },
  {
   "type": "Feature",
   "geometry": {
    "type": "Point",
    "coordinates": [
     144.06218186,
     -40.04765687
    ]
   },
   "properties": {
    "name": "17 MYRTLE STREET GRASSY 7256",
    "locID": "LOC000150784755",
    "tech": "NULL",
    "upgrade": "NULL_NA",
    "gnaf_pid": "GATAS718711240",
    "ee": false,
    "tech_change_status": "Not Planned"
   }
  },
  {
   "type": "Feature",
   "geometry": {
    "type": "Point",
    "coordinates": [
     144.062212,
     -40.04747814
    ]
   },
   "properties": {
    "name": "19 MYRTLE STREET GRASSY 7256",
    "locID": "LOC000150784764",
    "tech": "NULL",
    "upgrade": "NULL_NA",
    "gnaf_pid": "GATAS718711241",
    "ee": false,
    "tech_change_status": "Not Planned"
   }
  },
  {
   "type": "Feature",
   "geometry": {
    "type": "Point",
    "coordinates": [
     144.06224319,
     -40.04729716
    ]
   },
   "properties": {
    "name": "21 MYRTLE STREET GRASSY 7256",
    "locID": "LOC100078157945",
    "tech": "NULL",
    "upgrade": "NULL_NA",
    "gnaf_pid": "GATAS718711242",
    "ee": false,
    "tech_change_status": "Not Planned"
   }
  },
  {
   "type": "Feature",
   "geometry": {
    "type": "Point",
    "coordinates": [
     144.06227572,
     -40.04711555
    ]
   },
   "properties": {
    "name": "23 MYRTLE STREET GRASSY 7256",
    "locID": "LOC000150784772",
    "tech": "NULL",
    "upgrade": "NULL_NA",
    "gnaf_pid": "GATAS718711243",
    "ee": false,
    "tech_change_status": "Not Planned"
   }
  },
  {
   "type": "Feature",
   "geometry": {
    "type": "Point",
    "coordinates": [
     144.06134955,
     -40.04737913
    ]
   },
   "properties": {
    "name": "19 SASSAFRAS STREET GRASSY 7256",
    "locID": "LOC000150784826",
    "tech": "SATELLITE",
    "upgrade": "NULL_NA",
    "gnaf_pid": "GATAS718711331",
    "ee": false,
    "tech_change_status": "Not Planned"
   }
  },
  {
   "type": "Feature",
   "geometry": {
    "type": "Point",
    "coordinates": [
     144.06190725,
     -40.04726662
    ]
   },
   "properties": {
    "name": "20 SASSAFRAS STREET GRASSY 7256",
    "locID": "LOC000150784842",
    "tech": "NULL",
    "upgrade": "NULL_NA",
    "gnaf_pid": "GATAS718711332",
    "ee": false,
    "tech_change_status": "Not Planned"
   }
  },
  {
   "type": "Feature",
   "geometry": {
    "type": "Point",
    "coordinates": [
     144.05275567,
     -40.04740741
    ]
   },
   "properties": {
    "name": "10 TI-TREE DRIVE GRASSY 7256",
    "locID": "LOC000150785067",
    "tech": "NULL",
    "upgrade": "NULL_NA",
    "gnaf_pid": "GATAS718711414",
    "ee": false,
    "tech_change_status": "Not Planned"
   }
  },
  {
   "type": "Feature",
   "geometry": {
    "type": "Point",
    "coordinates": [
     144.05275007,
     -40.047801
    ]
   },
   "properties": {
    "name": "11 TI-TREE DRIVE GRASSY 7256",
    "locID": "LOC000150785080",
    "tech": "NULL",
    "upgrade": "NULL_NA",
    "gnaf_pid": "GATAS718711415",
    "ee": false,
    "tech_change_status": "Not Planned"
   }
  },
  {
   "type": "Feature",
   "geometry": {
    "type": "Point",
    "coordinates": [
     144.05254103,
     -40.0474703
    ]
   },
   "properties": {
    "name": "12 TI-TREE DRIVE GRASSY 7256",
    "locID": "LOC000150785098",
    "tech": "NULL",
    "upgrade": "NULL_NA",
    "gnaf_pid": "GATAS718711416",
    "ee": false,
    "tech_change_status": "Not Planned"
   }
  },
  {
   "type": "Feature",
   "geometry": {
    "type": "Point",
    "coordinates": [
     144.05252404,
     -40.0478809
    ]
   },
   "properties": {
    "name": "13 TI-TREE DRIVE GRASSY 7256",
    "locID": "LOC000150785112",
    "tech": "NULL",
    "upgrade": "NULL_NA",
    "gnaf_pid": "GATAS718711417",
    "ee": false,
    "tech_change_status": "Not Planned"
   }
  },
  {
   "type": "Feature",
   "geometry": {
    "type": "Point",
    "coordinates": [
     144.05230747,
     -40.04753464
    ]
   },
   "properties": {
    "name": "14 TI-TREE DRIVE GRASSY 7256",
    "locID": "LOC000150785120",
    "tech": "NULL",
    "upgrade": "NULL_NA",
    "gnaf_pid": "GATAS718711418",
    "ee": false,
    "tech_change_status": "Not Planned"
   }
  },
  {
   "type": "Feature",
   "geometry": {
    "type": "Point",
    "coordinates": [
     144.05224872,
     -40.04794682
    ]
   },
   "properties": {
    "name": "15 TI-TREE DRIVE GRASSY 7256",
    "locID": "LOC000150785149",
    "tech": "NULL",
    "upgrade": "NULL_NA",
    "gnaf_pid": "GATAS718711419",
    "ee": false,
    "tech_change_status": "Not Planned"
   }
  },
  {
   "type": "Feature",
   "geometry": {
    "type": "Point",
    "coordinates": [
     144.05205108,
     -40.0476028
    ]
   },
   "properties": {
    "name": "16 TI-TREE DRIVE GRASSY 7256",
    "locID": "LOC000150785154",
    "tech": "NULL",
    "upgrade": "NULL_NA",
    "gnaf_pid": "GATAS718711420",
    "ee": false,
    "tech_change_status": "Not Planned"
   }
  },
  {
   "type": "Feature",
   "geometry": {
    "type": "Point",
    "coordinates": [
     144.05181876,
     -40.04772154
    ]
   },
   "properties": {
    "name": "18 TI-TREE DRIVE GRASSY 7256",
    "locID": "LOC000150785165",
    "tech": "NULL",
    "upgrade": "NULL_NA",
    "gnaf_pid": "GATAS718711421",
    "ee": false,
    "tech_change_status": "Not Planned"
   }
  },
  {
   "type": "Feature",
   "geometry": {
    "type": "Point",
    "coordinates": [
     144.05327706,
     -40.0473312
    ]
   },
   "properties": {
    "name": "6 TI-TREE DRIVE GRASSY 7256",
    "locID": "LOC000150785183",
    "tech": "NULL",
    "upgrade": "NULL_NA",
    "gnaf_pid": "GATAS718711422",
    "ee": false,
    "tech_change_status": "Not Planned"
   }
  },
  {
   "type": "Feature",
   "geometry": {
    "type": "Point",
    "coordinates": [
     144.05299759,
     -40.04732631
    ]
   },
   "properties": {
    "name": "8 TI-TREE DRIVE GRASSY 7256",
    "locID": "LOC100078157932",
    "tech": "NULL",
    "upgrade": "NULL_NA",
    "gnaf_pid": "GATAS718711423",
    "ee": false,
    "tech_change_status": "Not Planned"
   }
  },
  {
   "type": "Feature",
   "geometry": {
    "type": "Point",
    "coordinates": [
     144.06005053,
     -40.04836181
    ]
   },
   "properties": {
    "name": "13 WARATAH STREET GRASSY 7256",
    "locID": "LOC000150785257",
    "tech": "NULL",
    "upgrade": "NULL_NA",
    "gnaf_pid": "GATAS718711444",
    "ee": false,
    "tech_change_status": "Not Planned"
   }
  },
  {
   "type": "Feature",
   "geometry": {
    "type": "Point",
    "coordinates": [
     144.06089213,
     -40.04733561
    ]
   },
   "properties": {
    "name": "24 WARATAH STREET GRASSY 7256",
    "locID": "LOC000150785288",
    "tech": "NULL",
    "upgrade": "NULL_NA",
    "gnaf_pid": "GATAS718711447",
    "ee": false,
    "tech_change_status": "Not Planned"
   }
  },
  {
   "type": "Feature",
   "geometry": {
    "type": "Point",
    "coordinates": [
     144.06023533,
     -40.0472389
    ]
   },
   "properties": {
    "name": "25 WARATAH STREET GRASSY 7256",
    "locID": "LOC000150785290",
    "tech": "SATELLITE",
    "upgrade": "NULL_NA",
    "gnaf_pid": "GATAS718711448",
    "ee": false,
    "tech_change_status": "Not Planned"
   }
  },
  {
   "type": "Feature",
   "geometry": {
    "type": "Point",
    "coordinates": [
     144.06092396,
     -40.04714715
    ]
   },
   "properties": {
    "name": "26 WARATAH STREET GRASSY 7256",
    "locID": "LOC100078157921",
    "tech": "NULL",
    "upgrade": "NULL_NA",
    "gnaf_pid": "GATAS718711449",
    "ee": false,
    "tech_change_status": "Not Planned"
   }
  },
  {
   "type": "Feature",
   "geometry": {
    "type": "Point",
    "coordinates": [
     144.06027575,
     -40.04696041
    ]
   },
   "properties": {
    "name": "27 WARATAH STREET GRASSY 7256",
    "locID": "LOC000150785316",
    "tech": "NULL",
    "upgrade": "NULL_NA",
    "gnaf_pid": "GATAS718711450",
    "ee": false,
    "tech_change_status": "Not Planned"
   }
  },
  {
   "type": "Feature",
   "geometry": {
    "type": "Point",
    "coordinates": [
     144.06095267,
     -40.0469729
    ]
   },
   "properties": {
    "name": "28 WARATAH STREET GRASSY 7256",
    "locID": "LOC000150785328",
    "tech": "NULL",
    "upgrade": "NULL_NA",
    "gnaf_pid": "GATAS718711451",
    "ee": false,
    "tech_change_status": "Not Planned"
   }
  },
  {
   "type": "Feature",
   "geometry": {
    "type": "Point",
    "coordinates": [
     144.05995929,
     -40.04888476
    ]
   },
   "properties": {
    "name": "7 WARATAH STREET GRASSY 7256",
    "locID": "LOC000150785337",
    "tech": "SATELLITE",
    "upgrade": "NULL_NA",
    "gnaf_pid": "GATAS718711452",
    "ee": false,
    "tech_change_status": "Not Planned"
   }
  },
  {
   "type": "Feature",
   "geometry": {
    "type": "Point",
    "coordinates": [
     144.06000418,
     -40.0486293
    ]
   },
   "properties": {
    "name": "9 WARATAH STREET GRASSY 7256",
    "locID": "LOC000150785359",
    "tech": "NULL",
    "upgrade": "NULL_NA",
    "gnaf_pid": "GATAS718711453",
    "ee": false,
    "tech_change_status": "Not Planned"
   }
  },
  {
   "type": "Feature",
   "geometry": {
    "type": "Point",
    "coordinates": [
     144.05843721,
     -40.0500735
    ]
   },
   "properties": {
    "name": "4 BLUE GUM DRIVE GRASSY 7256",
    "locID": "LOC000150786184",
    "tech": "NULL",
    "upgrade": "NULL_NA",
    "gnaf_pid": "GATAS718819668",
    "ee": false,
    "tech_change_status": "Not Planned"
   }
  },
  {
   "type": "Feature",
   "geometry": {
    "type": "Point",
    "coordinates": [
     144.062815,
     -40.04713331
    ]
   },
   "properties": {
    "name": "29 BORONIA DRIVE GRASSY 7256",
    "locID": "LOC000150786197",
    "tech": "NULL",
    "upgrade": "NULL_NA",
    "gnaf_pid": "GATAS718819670",
    "ee": false,
    "tech_change_status": "Not Planned"
   }
  },
  {
   "type": "Feature",
   "geometry": {
    "type": "Point",
    "coordinates": [
     144.05517798,
     -40.04820098
    ]
   },
   "properties": {
    "name": "2865 GRASSY ROAD GRASSY 7256",
    "locID": "LOC100078157966",
    "tech": "NULL",
    "upgrade": "NULL_NA",
    "gnaf_pid": "GATAS718819886",
    "ee": false,
    "tech_change_status": "Not Planned"
   }
  },
  {
   "type": "Feature",
   "geometry": {
    "type": "Point",
    "coordinates": [
     144.05193164,
     -40.04766386
    ]
   },
   "properties": {
    "name": "16-18 TI-TREE DRIVE GRASSY 7256",
    "locID": "LOC000150785154",
    "tech": "NULL",
    "upgrade": "NULL_NA",
    "gnaf_pid": "GATAS718820211",
    "ee": false,
    "tech_change_status": "Not Planned"
   }
  },
  {
   "type": "Feature",
   "geometry": {
    "type": "Point",
    "coordinates": [
     144.05241179,
     -40.04895649
    ]
   },
   "properties": {
    "name": "2846 GRASSY ROAD GRASSY 7256",
    "locID": "LOC100078157984",
    "tech": "NULL",
    "upgrade": "NULL_NA",
    "gnaf_pid": "GATAS718831177",
    "ee": false,
    "tech_change_status": "Not Planned"
   }
  },
  {
   "type": "Feature",
   "geometry": {
    "type": "Point",
    "coordinates": [
     144.06137231,
     -40.04754255
    ]
   },
   "properties": {
    "name": "17 SASSAFRAS STREET GRASSY 7256",
    "locID": "LOC100072049772",
    "tech": "NULL",
    "upgrade": "NULL_NA",
    "gnaf_pid": "GATAS719960119",
    "ee": false,
    "tech_change_status": "Not Planned"
   }
  },
  {
   "type": "Feature",
   "geometry": {
    "type": "Point",
    "coordinates": [
     144.05792349,
     -40.04968167
    ]
   },
   "properties": {
    "name": "2A BLUE GUM DRIVE GRASSY 7256",
    "locID": "LOC100078157997",
    "tech": "NULL",
    "upgrade": "NULL_NA",
    "gnaf_pid": "GATAS720345305",
    "ee": false,
    "tech_change_status": "Not Planned"
   }
  },
  {
   "type": "Feature",
   "geometry": {
    "type": "Point",
    "coordinates": [
     144.05360974,
     -40.04772806
    ]
   },
   "properties": {
    "name": "1 TI-TREE DRIVE GRASSY 7256",
    "locID": "LOC000150785154",
    "tech": "NULL",
    "upgrade": "NULL_NA",
    "gnaf_pid": "GATAS720345533",
    "ee": false,
    "tech_change_status": "Not Planned"
   }
  }
 ]
}