{
 "type": "FeatureCollection",
 "generated": "2025-06-16T10:41:41.749966",
 "suburb": "HUON ISLAND",
 "features": [
  {
   "type": "Feature",
   "geometry": {
    "type": "Point",
    "coordinates": [
     147.14342947,
     -43.29036131
    ]
   },
   "properties": {
    "name": "62 HUON ISLAND ROAD HUON ISLAND 7112",
    "locID": "LOC100087473392",
    "tech": "WIRELESS",
    "upgrade": "NULL_NA",
    "gnaf_pid": "GATAS720640589",
    "ee": true,
    "tech_change_status": "Not Planned",
    "program_type": "Fixed Wireless and Satellite Upgrade Program",
    "target_eligibility_quarter": "NA"
   }
  },
  {
   "type": "Feature",
   "geometry": {
    "type": "Point",
    "coordinates": [
     147.14715765,
     -43.2861092
    ]
   },
   "properties": {
    "name": "2 HUON ISLAND ROAD HUON ISLAND 7112",
    "locID": "LOC000145994639",
    "tech": "WIRELESS",
    "upgrade": "NULL_NA",
    "gnaf_pid": "GATAS720640701",
    "ee": true,
    "tech_change_status": "Not Planned",
    "program_type": "Fixed Wireless and Satellite Upgrade Program",
    "target_eligibility_quarter": "NA"
   }
  }
 ]
}