{
 "type": "FeatureCollection",
 "generated": "2025-06-16T10:47:40.674735",
 "suburb": "JACKEYS MARSH",
 "features": [
  {
   "type": "Feature",
   "geometry": {
    "type": "Point",
    "coordinates": [
     146.65686192,
     -41.67996014
    ]
   },
   "properties": {
    "name": "540 JACKEYS MARSH ROAD JACKEYS MARSH 7304",
    "locID": "LOC000026241489",
    "tech": "SATELLITE",
    "upgrade": "NULL_NA",
    "gnaf_pid": "GATAS702266275",
    "ee": true,
    "tech_change_status": "Not Planned"
   }
  },
  {
   "type": "Feature",
   "geometry": {
    "type": "Point",
    "coordinates": [
     146.67961135,
     -41.68401927
    ]
   },
   "properties": {
    "name": "709 JACKEYS MARSH ROAD JACKEYS MARSH 7304",
    "locID": "LOC000048446409",
    "tech": "SATELLITE",
    "upgrade": "NULL_NA",
    "gnaf_pid": "GATAS702266278",
    "ee": true,
    "tech_change_status": "Not Planned"
   }
  },
  {
   "type": "Feature",
   "geometry": {
    "type": "Point",
    "coordinates": [
     146.65555426,
     -41.70655326
    ]
   },
   "properties": {
    "name": "301 SUGARLOAF ROAD JACKEYS MARSH 7304",
    "locID": "LOC000133726188",
    "tech": "SATELLITE",
    "upgrade": "NULL_NA",
    "gnaf_pid": "GATAS702342391",
    "ee": true,
    "tech_change_status": "Not Planned"
   }
  },
  {
   "type": "Feature",
   "geometry": {
    "type": "Point",
    "coordinates": [
     146.65475679,
     -41.69970632
    ]
   },
   "properties": {
    "name": "256 SUGARLOAF ROAD JACKEYS MARSH 7304",
    "locID": "LOC000013519961",
    "tech": "SATELLITE",
    "upgrade": "NULL_NA",
    "gnaf_pid": "GATAS702349931",
    "ee": true,
    "tech_change_status": "Not Planned"
   }
  },
  {
   "type": "Feature",
   "geometry": {
    "type": "Point",
    "coordinates": [
     146.65070232,
     -41.70381988
    ]
   },
   "properties": {
    "name": "322 SUGARLOAF ROAD JACKEYS MARSH 7304",
    "locID": "LOC000056141566",
    "tech": "SATELLITE",
    "upgrade": "NULL_NA",
    "gnaf_pid": "GATAS702349938",
    "ee": true,
    "tech_change_status": "Not Planned"
   }
  },
  {
   "type": "Feature",
   "geometry": {
    "type": "Point",
    "coordinates": [
     146.64883042,
     -41.71098001
    ]
   },
   "properties": {
    "name": "380 SUGARLOAF ROAD JACKEYS MARSH 7304",
    "locID": "LOC000095323974",
    "tech": "SATELLITE",
    "upgrade": "NULL_NA",
    "gnaf_pid": "GATAS702349941",
    "ee": true,
    "tech_change_status": "Not Planned"
   }
  },
  {
   "type": "Feature",
   "geometry": {
    "type": "Point",
    "coordinates": [
     146.65434278,
     -41.71100324
    ]
   },
   "properties": {
    "name": "381 SUGARLOAF ROAD JACKEYS MARSH 7304",
    "locID": "LOC000059364866",
    "tech": "NULL",
    "upgrade": "NULL_NA",
    "gnaf_pid": "GATAS702349947",
    "ee": true,
    "tech_change_status": "Not Planned"
   }
  },
  {
   "type": "Feature",
   "geometry": {
    "type": "Point",
    "coordinates": [
     146.66148945,
     -41.6735167
    ]
   },
   "properties": {
    "name": "50 WILLIAMS ROAD JACKEYS MARSH 7304",
    "locID": "LOC000039739758",
    "tech": "SATELLITE",
    "upgrade": "NULL_NA",
    "gnaf_pid": "GATAS702368932",
    "ee": true,
    "tech_change_status": "Not Planned"
   }
  },
  {
   "type": "Feature",
   "geometry": {
    "type": "Point",
    "coordinates": [
     146.6737448,
     -41.69580397
    ]
   },
   "properties": {
    "name": "746 JACKEYS MARSH ROAD JACKEYS MARSH 7304",
    "locID": "LOC000090941434",
    "tech": "SATELLITE",
    "upgrade": "NULL_NA",
    "gnaf_pid": "GATAS702470761",
    "ee": true,
    "tech_change_status": "Not Planned"
   }
  },
  {
   "type": "Feature",
   "geometry": {
    "type": "Point",
    "coordinates": [
     146.67092119,
     -41.69805671
    ]
   },
   "properties": {
    "name": "71 WIITEENA ROAD JACKEYS MARSH 7304",
    "locID": "LOC000143027036",
    "tech": "SATELLITE",
    "upgrade": "NULL_NA",
    "gnaf_pid": "GATAS702470762",
    "ee": true,
    "tech_change_status": "Not Planned"
   }
  },
  {
   "type": "Feature",
   "geometry": {
    "type": "Point",
    "coordinates": [
     146.67430876,
     -41.69121193
    ]
   },
   "properties": {
    "name": "750 JACKEYS MARSH ROAD JACKEYS MARSH 7304",
    "locID": "LOC000073815264",
    "tech": "SATELLITE",
    "upgrade": "NULL_NA",
    "gnaf_pid": "GATAS702472806",
    "ee": true,
    "tech_change_status": "Not Planned"
   }
  },
  {
   "type": "Feature",
   "geometry": {
    "type": "Point",
    "coordinates": [
     146.66016003,
     -41.71660902
    ]
   },
   "properties": {
    "name": "318 WIITEENA ROAD JACKEYS MARSH 7304",
    "locID": "LOC000148015689",
    "tech": "NULL",
    "upgrade": "NULL_NA",
    "gnaf_pid": "GATAS702472808",
    "ee": true,
    "tech_change_status": "Not Planned"
   }
  },
  {
   "type": "Feature",
   "geometry": {
    "type": "Point",
    "coordinates": [
     146.6727514,
     -41.70448401
    ]
   },
   "properties": {
    "name": "75 WIITEENA ROAD JACKEYS MARSH 7304",
    "locID": "LOC000036015520",
    "tech": "SATELLITE",
    "upgrade": "NULL_NA",
    "gnaf_pid": "GATAS702477126",
    "ee": true,
    "tech_change_status": "Not Planned"
   }
  },
  {
   "type": "Feature",
   "geometry": {
    "type": "Point",
    "coordinates": [
     146.639128,
     -41.70964176
    ]
   },
   "properties": {
    "name": "328 SUGARLOAF ROAD JACKEYS MARSH 7304",
    "locID": "LOC000034226153",
    "tech": "NULL",
    "upgrade": "NULL_NA",
    "gnaf_pid": "GATAS702477127",
    "ee": true,
    "tech_change_status": "Not Planned"
   }
  },
  {
   "type": "Feature",
   "geometry": {
    "type": "Point",
    "coordinates": [
     146.69171677,
     -41.69472107
    ]
   },
   "properties": {
    "name": "757 JACKEYS MARSH ROAD JACKEYS MARSH 7304",
    "locID": "LOC000054204865",
    "tech": "SATELLITE",
    "upgrade": "NULL_NA",
    "gnaf_pid": "GATAS702477128",
    "ee": true,
    "tech_change_status": "Not Planned"
   }
  },
  {
   "type": "Feature",
   "geometry": {
    "type": "Point",
    "coordinates": [
     146.69513757,
     -41.6904224
    ]
   },
   "properties": {
    "name": "761 JACKEYS MARSH ROAD JACKEYS MARSH 7304",
    "locID": "LOC000006770737",
    "tech": "NULL",
    "upgrade": "NULL_NA",
    "gnaf_pid": "GATAS702477129",
    "ee": true,
    "tech_change_status": "Not Planned"
   }
  },
  {
   "type": "Feature",
   "geometry": {
    "type": "Point",
    "coordinates": [
     146.67836992,
     -41.69060268
    ]
   },
   "properties": {
    "name": "752 JACKEYS MARSH ROAD JACKEYS MARSH 7304",
    "locID": "LOC000052285346",
    "tech": "SATELLITE",
    "upgrade": "NULL_NA",
    "gnaf_pid": "GATAS702477130",
    "ee": true,
    "tech_change_status": "Not Planned"
   }
  },
  {
   "type": "Feature",
   "geometry": {
    "type": "Point",
    "coordinates": [
     146.68328027,
     -41.69046126
    ]
   },
   "properties": {
    "name": "755 JACKEYS MARSH ROAD JACKEYS MARSH 7304",
    "locID": "LOC000084801229",
    "tech": "NULL",
    "upgrade": "NULL_NA",
    "gnaf_pid": "GATAS702477131",
    "ee": true,
    "tech_change_status": "Not Planned"
   }
  },
  {
   "type": "Feature",
   "geometry": {
    "type": "Point",
    "coordinates": [
     146.67407824,
     -41.70022202
    ]
   },
   "properties": {
    "name": "73 WIITEENA ROAD JACKEYS MARSH 7304",
    "locID": "LOC000001853793",
    "tech": "SATELLITE",
    "upgrade": "NULL_NA",
    "gnaf_pid": "GATAS702477269",
    "ee": true,
    "tech_change_status": "Not Planned"
   }
  },
  {
   "type": "Feature",
   "geometry": {
    "type": "Point",
    "coordinates": [
     146.67608484,
     -41.68528487
    ]
   },
   "properties": {
    "name": "735 JACKEYS MARSH ROAD JACKEYS MARSH 7304",
    "locID": "LOC000057547793",
    "tech": "NULL",
    "upgrade": "NULL_NA",
    "gnaf_pid": "GATAS702478031",
    "ee": true,
    "tech_change_status": "Not Planned"
   }
  },
  {
   "type": "Feature",
   "geometry": {
    "type": "Point",
    "coordinates": [
     146.68153239,
     -41.69577177
    ]
   },
   "properties": {
    "name": "748 JACKEYS MARSH ROAD JACKEYS MARSH 7304",
    "locID": "LOC000031998244",
    "tech": "NULL",
    "upgrade": "NULL_NA",
    "gnaf_pid": "GATAS702478032",
    "ee": true,
    "tech_change_status": "Not Planned"
   }
  },
  {
   "type": "Feature",
   "geometry": {
    "type": "Point",
    "coordinates": [
     146.66690677,
     -41.70309551
    ]
   },
   "properties": {
    "name": "77 WIITEENA ROAD JACKEYS MARSH 7304",
    "locID": "LOC000100607086",
    "tech": "SATELLITE",
    "upgrade": "NULL_NA",
    "gnaf_pid": "GATAS702478033",
    "ee": true,
    "tech_change_status": "Not Planned"
   }
  },
  {
   "type": "Feature",
   "geometry": {
    "type": "Point",
    "coordinates": [
     146.67893915,
     -41.67833573
    ]
   },
   "properties": {
    "name": "669 JACKEYS MARSH ROAD JACKEYS MARSH 7304",
    "locID": "LOC000030170867",
    "tech": "SATELLITE",
    "upgrade": "NULL_NA",
    "gnaf_pid": "GATAS702813558",
    "ee": true,
    "tech_change_status": "Not Planned"
   }
  },
  {
   "type": "Feature",
   "geometry": {
    "type": "Point",
    "coordinates": [
     146.69015895,
     -41.68844008
    ]
   },
   "properties": {
    "name": "759 JACKEYS MARSH ROAD JACKEYS MARSH 7304",
    "locID": "LOC000098253441",
    "tech": "NULL",
    "upgrade": "NULL_NA",
    "gnaf_pid": "GATAS702813566",
    "ee": true,
    "tech_change_status": "Not Planned"
   }
  },
  {
   "type": "Feature",
   "geometry": {
    "type": "Point",
    "coordinates": [
     146.66519798,
     -41.69399168
    ]
   },
   "properties": {
    "name": "69 WIITEENA ROAD JACKEYS MARSH 7304",
    "locID": "LOC000094324198",
    "tech": "NULL",
    "upgrade": "NULL_NA",
    "gnaf_pid": "GATAS702822334",
    "ee": true,
    "tech_change_status": "Not Planned"
   }
  },
  {
   "type": "Feature",
   "geometry": {
    "type": "Point",
    "coordinates": [
     146.66584753,
     -41.70887989
    ]
   },
   "properties": {
    "name": "244 WIITEENA ROAD JACKEYS MARSH 7304",
    "locID": "LOC000037092281",
    "tech": "SATELLITE",
    "upgrade": "NULL_NA",
    "gnaf_pid": "GATAS702822339",
    "ee": true,
    "tech_change_status": "Not Planned"
   }
  },
  {
   "type": "Feature",
   "geometry": {
    "type": "Point",
    "coordinates": [
     146.69152495,
     -41.69218004
    ]
   },
   "properties": {
    "name": "760 JACKEYS MARSH ROAD JACKEYS MARSH 7304",
    "locID": "LOC000098590965",
    "tech": "SATELLITE",
    "upgrade": "NULL_NA",
    "gnaf_pid": "GATAS717124085",
    "ee": true,
    "tech_change_status": "Not Planned"
   }
  },
  {
   "type": "Feature",
   "geometry": {
    "type": "Point",
    "coordinates": [
     146.65322108,
     -41.71600709
    ]
   },
   "properties": {
    "name": "387 SUGARLOAF ROAD JACKEYS MARSH 7304",
    "locID": "LOC000133726334",
    "tech": "SATELLITE",
    "upgrade": "NULL_NA",
    "gnaf_pid": "GATAS718182578",
    "ee": true,
    "tech_change_status": "Not Planned"
   }
  },
  {
   "type": "Feature",
   "geometry": {
    "type": "Point",
    "coordinates": [
     146.66491052,
     -41.716069
    ]
   },
   "properties": {
    "name": "UNIT 10, 318 WIITEENA ROAD JACKEYS MARSH 7304",
    "locID": "LOC000148015689",
    "tech": "NULL",
    "upgrade": "NULL_NA",
    "gnaf_pid": "GATAS718394431",
    "ee": true,
    "tech_change_status": "Not Planned"
   }
  },
  {
   "type": "Feature",
   "geometry": {
    "type": "Point",
    "coordinates": [
     146.65781435,
     -41.71504457
    ]
   },
   "properties": {
    "name": "UNIT 1, 318 WIITEENA ROAD JACKEYS MARSH 7304",
    "locID": "LOC000148015689",
    "tech": "NULL",
    "upgrade": "NULL_NA",
    "gnaf_pid": "GATAS718394432",
    "ee": true,
    "tech_change_status": "Not Planned"
   }
  },
  {
   "type": "Feature",
   "geometry": {
    "type": "Point",
    "coordinates": [
     146.65764936,
     -41.71665628
    ]
   },
   "properties": {
    "name": "UNIT 2, 318 WIITEENA ROAD JACKEYS MARSH 7304",
    "locID": "LOC000148015689",
    "tech": "NULL",
    "upgrade": "NULL_NA",
    "gnaf_pid": "GATAS718394433",
    "ee": true,
    "tech_change_status": "Not Planned"
   }
  },
  {
   "type": "Feature",
   "geometry": {
    "type": "Point",
    "coordinates": [
     146.65892664,
     -41.71629788
    ]
   },
   "properties": {
    "name": "UNIT 3, 318 WIITEENA ROAD JACKEYS MARSH 7304",
    "locID": "LOC000148015689",
    "tech": "NULL",
    "upgrade": "NULL_NA",
    "gnaf_pid": "GATAS718394434",
    "ee": true,
    "tech_change_status": "Not Planned"
   }
  },
  {
   "type": "Feature",
   "geometry": {
    "type": "Point",
    "coordinates": [
     146.66016003,
     -41.71660902
    ]
   },
   "properties": {
    "name": "UNIT 4, 318 WIITEENA ROAD JACKEYS MARSH 7304",
    "locID": "LOC000148015658",
    "tech": "NULL",
    "upgrade": "NULL_NA",
    "gnaf_pid": "GATAS718394435",
    "ee": true,
    "tech_change_status": "Not Planned"
   }
  },
  {
   "type": "Feature",
   "geometry": {
    "type": "Point",
    "coordinates": [
     146.66167532,
     -41.71708116
    ]
   },
   "properties": {
    "name": "UNIT 5, 318 WIITEENA ROAD JACKEYS MARSH 7304",
    "locID": "LOC000148015691",
    "tech": "NULL",
    "upgrade": "NULL_NA",
    "gnaf_pid": "GATAS718394436",
    "ee": true,
    "tech_change_status": "Not Planned"
   }
  },
  {
   "type": "Feature",
   "geometry": {
    "type": "Point",
    "coordinates": [
     146.66337655,
     -41.71727251
    ]
   },
   "properties": {
    "name": "UNIT 6, 318 WIITEENA ROAD JACKEYS MARSH 7304",
    "locID": "LOC000148015689",
    "tech": "NULL",
    "upgrade": "NULL_NA",
    "gnaf_pid": "GATAS718394437",
    "ee": true,
    "tech_change_status": "Not Planned"
   }
  },
  {
   "type": "Feature",
   "geometry": {
    "type": "Point",
    "coordinates": [
     146.66499661,
     -41.71742886
    ]
   },
   "properties": {
    "name": "UNIT 7, 318 WIITEENA ROAD JACKEYS MARSH 7304",
    "locID": "LOC000148015689",
    "tech": "NULL",
    "upgrade": "NULL_NA",
    "gnaf_pid": "GATAS718394438",
    "ee": true,
    "tech_change_status": "Not Planned"
   }
  },
  {
   "type": "Feature",
   "geometry": {
    "type": "Point",
    "coordinates": [
     146.66671665,
     -41.7171403
    ]
   },
   "properties": {
    "name": "UNIT 8, 318 WIITEENA ROAD JACKEYS MARSH 7304",
    "locID": "LOC000148015643",
    "tech": "SATELLITE",
    "upgrade": "NULL_NA",
    "gnaf_pid": "GATAS718394439",
    "ee": true,
    "tech_change_status": "Not Planned"
   }
  },
  {
   "type": "Feature",
   "geometry": {
    "type": "Point",
    "coordinates": [
     146.66684226,
     -41.71586731
    ]
   },
   "properties": {
    "name": "UNIT 9, 318 WIITEENA ROAD JACKEYS MARSH 7304",
    "locID": "LOC000148015689",
    "tech": "NULL",
    "upgrade": "NULL_NA",
    "gnaf_pid": "GATAS718394440",
    "ee": true,
    "tech_change_status": "Not Planned"
   }
  },
  {
   "type": "Feature",
   "geometry": {
    "type": "Point",
    "coordinates": [
     146.65420868,
     -41.67340281
    ]
   },
   "properties": {
    "name": "LOT 1 JACKEYS MARSH ROAD JACKEYS MARSH 7304",
    "locID": "LOC000174351538",
    "tech": "SATELLITE",
    "upgrade": "NULL_NA",
    "gnaf_pid": "GATAS718547504",
    "ee": true,
    "tech_change_status": "Not Planned"
   }
  }
 ]
}