{
 "type": "FeatureCollection",
 "generated": "2025-06-16T12:16:14.695013",
 "suburb": "MERSEY FOREST",
 "features": [
  {
   "type": "Feature",
   "geometry": {
    "type": "Point",
    "coordinates": [
     146.18990079,
     -41.60121184
    ]
   },
   "properties": {
    "name": "23 GADS HILL ROAD MERSEY FOREST 7304",
    "locID": "LOC000095311778",
    "tech": "SATELLITE",
    "upgrade": "NULL_NA",
    "gnaf_pid": "GATAS716624405",
    "ee": false,
    "tech_change_status": "Not Planned"
   }
  }
 ]
}