{
 "type": "FeatureCollection",
 "generated": "2025-06-16T12:21:54.305346",
 "suburb": "MILLERS BLUFF",
 "features": [
  {
   "type": "Feature",
   "geometry": {
    "type": "Point",
    "coordinates": [
     147.05270126,
     -41.99414237
    ]
   },
   "properties": {
    "name": "10 LAKE RIVER ROAD MILLERS BLUFF 7030",
    "locID": "LOC100079779793",
    "tech": "NULL",
    "upgrade": "NULL_NA",
    "gnaf_pid": "GATAS716712160",
    "ee": false,
    "tech_change_status": "Not Planned"
   }
  }
 ]
}