{
 "type": "FeatureCollection",
 "generated": "2025-06-16T13:18:33.481091",
 "suburb": "NORTH SCOTTSDALE",
 "features": [
  {
   "type": "Feature",
   "geometry": {
    "type": "Point",
    "coordinates": [
     147.53197285,
     -41.11096514
    ]
   },
   "properties": {
    "name": "80 BARNBOUGLE ROAD NORTH SCOTTSDALE 7260",
    "locID": "LOC000068081828",
    "tech": "WIRELESS",
    "upgrade": "NULL_NA",
    "gnaf_pid": "GATAS702188269",
    "ee": true,
    "tech_change_status": "Not Planned",
    "program_type": "Fixed Wireless and Satellite Upgrade Program",
    "target_eligibility_quarter": "NA"
   }
  },
  {
   "type": "Feature",
   "geometry": {
    "type": "Point",
    "coordinates": [
     147.51917546,
     -41.10490141
    ]
   },
   "properties": {
    "name": "161 BARNBOUGLE ROAD NORTH SCOTTSDALE 7260",
    "locID": "LOC000104327440",
    "tech": "SATELLITE",
    "upgrade": "NULL_NA",
    "gnaf_pid": "GATAS702193823",
    "ee": true,
    "tech_change_status": "Not Planned"
   }
  },
  {
   "type": "Feature",
   "geometry": {
    "type": "Point",
    "coordinates": [
     147.55302604,
     -41.14158403
    ]
   },
   "properties": {
    "name": "71 BISSETTS ROAD NORTH SCOTTSDALE 7260",
    "locID": "LOC000047302732",
    "tech": "WIRELESS",
    "upgrade": "NULL_NA",
    "gnaf_pid": "GATAS702199088",
    "ee": true,
    "tech_change_status": "Not Planned",
    "program_type": "Fixed Wireless and Satellite Upgrade Program",
    "target_eligibility_quarter": "NA"
   }
  },
  {
   "type": "Feature",
   "geometry": {
    "type": "Point",
    "coordinates": [
     147.55101266,
     -41.14561667
    ]
   },
   "properties": {
    "name": "82 BISSETTS ROAD NORTH SCOTTSDALE 7260",
    "locID": "LOC000109196216",
    "tech": "WIRELESS",
    "upgrade": "NULL_NA",
    "gnaf_pid": "GATAS702199089",
    "ee": true,
    "tech_change_status": "Not Planned",
    "program_type": "Fixed Wireless and Satellite Upgrade Program",
    "target_eligibility_quarter": "NA"
   }
  },
  {
   "type": "Feature",
   "geometry": {
    "type": "Point",
    "coordinates": [
     147.53161387,
     -41.11958213
    ]
   },
   "properties": {
    "name": "398 BURNSIDE ROAD NORTH SCOTTSDALE 7260",
    "locID": "LOC000083397458",
    "tech": "NULL",
    "upgrade": "NULL_NA",
    "gnaf_pid": "GATAS702212536",
    "ee": true,
    "tech_change_status": "Not Planned"
   }
  },
  {
   "type": "Feature",
   "geometry": {
    "type": "Point",
    "coordinates": [
     147.5191931,
     -41.12576828
    ]
   },
   "properties": {
    "name": "261 BURNSIDE ROAD NORTH SCOTTSDALE 7260",
    "locID": "LOC000082604249",
    "tech": "WIRELESS",
    "upgrade": "NULL_NA",
    "gnaf_pid": "GATAS702212542",
    "ee": true,
    "tech_change_status": "Not Planned",
    "program_type": "Fixed Wireless and Satellite Upgrade Program",
    "target_eligibility_quarter": "NA"
   }
  },
  {
   "type": "Feature",
   "geometry": {
    "type": "Point",
    "coordinates": [
     147.52382539,
     -41.12521353
    ]
   },
   "properties": {
    "name": "279 BURNSIDE ROAD NORTH SCOTTSDALE 7260",
    "locID": "LOC000098231491",
    "tech": "WIRELESS",
    "upgrade": "NULL_NA",
    "gnaf_pid": "GATAS702212543",
    "ee": true,
    "tech_change_status": "Not Planned",
    "program_type": "Fixed Wireless and Satellite Upgrade Program",
    "target_eligibility_quarter": "NA"
   }
  },
  {
   "type": "Feature",
   "geometry": {
    "type": "Point",
    "coordinates": [
     147.53590215,
     -41.11827384
    ]
   },
   "properties": {
    "name": "433 BURNSIDE ROAD NORTH SCOTTSDALE 7260",
    "locID": "LOC000082544383",
    "tech": "WIRELESS",
    "upgrade": "NULL_NA",
    "gnaf_pid": "GATAS702212544",
    "ee": true,
    "tech_change_status": "Not Planned",
    "program_type": "Fixed Wireless and Satellite Upgrade Program",
    "target_eligibility_quarter": "NA"
   }
  },
  {
   "type": "Feature",
   "geometry": {
    "type": "Point",
    "coordinates": [
     147.5402459,
     -41.12481771
    ]
   },
   "properties": {
    "name": "528 BURNSIDE ROAD NORTH SCOTTSDALE 7260",
    "locID": "LOC000013507140",
    "tech": "WIRELESS",
    "upgrade": "NULL_NA",
    "gnaf_pid": "GATAS702212545",
    "ee": true,
    "tech_change_status": "Not Planned",
    "program_type": "Fixed Wireless and Satellite Upgrade Program",
    "target_eligibility_quarter": "NA"
   }
  },
  {
   "type": "Feature",
   "geometry": {
    "type": "Point",
    "coordinates": [
     147.55990627,
     -41.11081312
    ]
   },
   "properties": {
    "name": "2 DORNAUFS ROAD NORTH SCOTTSDALE 7260",
    "locID": "LOC000040795273",
    "tech": "WIRELESS",
    "upgrade": "NULL_NA",
    "gnaf_pid": "GATAS702229055",
    "ee": true,
    "tech_change_status": "Not Planned",
    "program_type": "Fixed Wireless and Satellite Upgrade Program",
    "target_eligibility_quarter": "NA"
   }
  },
  {
   "type": "Feature",
   "geometry": {
    "type": "Point",
    "coordinates": [
     147.6148867,
     -41.08864167
    ]
   },
   "properties": {
    "name": "1424 FORESTER ROAD NORTH SCOTTSDALE 7260",
    "locID": "LOC000081765991",
    "tech": "SATELLITE",
    "upgrade": "NULL_NA",
    "gnaf_pid": "GATAS702249560",
    "ee": true,
    "tech_change_status": "Not Planned"
   }
  },
  {
   "type": "Feature",
   "geometry": {
    "type": "Point",
    "coordinates": [
     147.61646944,
     -41.09176893
    ]
   },
   "properties": {
    "name": "1425 FORESTER ROAD NORTH SCOTTSDALE 7260",
    "locID": "LOC000028382358",
    "tech": "SATELLITE",
    "upgrade": "NULL_NA",
    "gnaf_pid": "GATAS702249562",
    "ee": true,
    "tech_change_status": "Not Planned"
   }
  },
  {
   "type": "Feature",
   "geometry": {
    "type": "Point",
    "coordinates": [
     147.61106459,
     -41.09527551
    ]
   },
   "properties": {
    "name": "1453 FORESTER ROAD NORTH SCOTTSDALE 7260",
    "locID": "LOC000050020695",
    "tech": "SATELLITE",
    "upgrade": "NULL_NA",
    "gnaf_pid": "GATAS702249563",
    "ee": true,
    "tech_change_status": "Not Planned"
   }
  },
  {
   "type": "Feature",
   "geometry": {
    "type": "Point",
    "coordinates": [
     147.60533333,
     -41.08854449
    ]
   },
   "properties": {
    "name": "1466 FORESTER ROAD NORTH SCOTTSDALE 7260",
    "locID": "LOC000048054564",
    "tech": "SATELLITE",
    "upgrade": "NULL_NA",
    "gnaf_pid": "GATAS702249565",
    "ee": true,
    "tech_change_status": "Not Planned"
   }
  },
  {
   "type": "Feature",
   "geometry": {
    "type": "Point",
    "coordinates": [
     147.55487222,
     -41.1316355
    ]
   },
   "properties": {
    "name": "1038 JENSENS ROAD NORTH SCOTTSDALE 7260",
    "locID": "LOC000048885827",
    "tech": "SATELLITE",
    "upgrade": "NULL_NA",
    "gnaf_pid": "GATAS702278047",
    "ee": true,
    "tech_change_status": "Not Planned"
   }
  },
  {
   "type": "Feature",
   "geometry": {
    "type": "Point",
    "coordinates": [
     147.56096673,
     -41.13183737
    ]
   },
   "properties": {
    "name": "981 JENSENS ROAD NORTH SCOTTSDALE 7260",
    "locID": "LOC000100223634",
    "tech": "WIRELESS",
    "upgrade": "NULL_NA",
    "gnaf_pid": "GATAS702278048",
    "ee": true,
    "tech_change_status": "Not Planned",
    "program_type": "Fixed Wireless and Satellite Upgrade Program",
    "target_eligibility_quarter": "NA"
   }
  },
  {
   "type": "Feature",
   "geometry": {
    "type": "Point",
    "coordinates": [
     147.55404131,
     -41.1311036
    ]
   },
   "properties": {
    "name": "1050 JENSENS ROAD NORTH SCOTTSDALE 7260",
    "locID": "LOC000050861891",
    "tech": "WIRELESS",
    "upgrade": "NULL_NA",
    "gnaf_pid": "GATAS702278049",
    "ee": true,
    "tech_change_status": "Not Planned",
    "program_type": "Fixed Wireless and Satellite Upgrade Program",
    "target_eligibility_quarter": "NA"
   }
  },
  {
   "type": "Feature",
   "geometry": {
    "type": "Point",
    "coordinates": [
     147.55757389,
     -41.13217079
    ]
   },
   "properties": {
    "name": "1011 JENSENS ROAD NORTH SCOTTSDALE 7260",
    "locID": "LOC000099016480",
    "tech": "WIRELESS",
    "upgrade": "NULL_NA",
    "gnaf_pid": "GATAS702278050",
    "ee": true,
    "tech_change_status": "Not Planned",
    "program_type": "Fixed Wireless and Satellite Upgrade Program",
    "target_eligibility_quarter": "NA"
   }
  },
  {
   "type": "Feature",
   "geometry": {
    "type": "Point",
    "coordinates": [
     147.61370451,
     -41.14000872
    ]
   },
   "properties": {
    "name": "430 JENSENS ROAD NORTH SCOTTSDALE 7260",
    "locID": "LOC000085980541",
    "tech": "NULL",
    "upgrade": "NULL_NA",
    "gnaf_pid": "GATAS702278051",
    "ee": true,
    "tech_change_status": "Not Planned"
   }
  },
  {
   "type": "Feature",
   "geometry": {
    "type": "Point",
    "coordinates": [
     147.56612514,
     -41.13100256
    ]
   },
   "properties": {
    "name": "940 JENSENS ROAD NORTH SCOTTSDALE 7260",
    "locID": "LOC000082987785",
    "tech": "SATELLITE",
    "upgrade": "WIRELESS",
    "gnaf_pid": "GATAS702278052",
    "ee": true,
    "tech_change_status": "Eligible to Order",
    "program_type": "Fixed Wireless and Satellite Upgrade Program",
    "target_eligibility_quarter": "NA"
   }
  },
  {
   "type": "Feature",
   "geometry": {
    "type": "Point",
    "coordinates": [
     147.56556861,
     -41.12947958
    ]
   },
   "properties": {
    "name": "964 JENSENS ROAD NORTH SCOTTSDALE 7260",
    "locID": "LOC000009270054",
    "tech": "SATELLITE",
    "upgrade": "NULL_NA",
    "gnaf_pid": "GATAS702278053",
    "ee": true,
    "tech_change_status": "Not Planned"
   }
  },
  {
   "type": "Feature",
   "geometry": {
    "type": "Point",
    "coordinates": [
     147.61519748,
     -41.14400064
    ]
   },
   "properties": {
    "name": "427 JENSENS ROAD NORTH SCOTTSDALE 7260",
    "locID": "LOC000096917600",
    "tech": "NULL",
    "upgrade": "NULL_NA",
    "gnaf_pid": "GATAS702278054",
    "ee": true,
    "tech_change_status": "Not Planned"
   }
  },
  {
   "type": "Feature",
   "geometry": {
    "type": "Point",
    "coordinates": [
     147.55298826,
     -41.13704468
    ]
   },
   "properties": {
    "name": "80 LUCKY STRIKE ROAD NORTH SCOTTSDALE 7260",
    "locID": "LOC000106863800",
    "tech": "WIRELESS",
    "upgrade": "NULL_NA",
    "gnaf_pid": "GATAS702292161",
    "ee": true,
    "tech_change_status": "Eligible to Order",
    "program_type": "Fixed Wireless and Satellite Upgrade Program",
    "target_eligibility_quarter": "NA"
   }
  },
  {
   "type": "Feature",
   "geometry": {
    "type": "Point",
    "coordinates": [
     147.54794369,
     -41.13774721
    ]
   },
   "properties": {
    "name": "314 NORTH SCOTTSDALE ROAD NORTH SCOTTSDALE 7260",
    "locID": "LOC000002790557",
    "tech": "WIRELESS",
    "upgrade": "NULL_NA",
    "gnaf_pid": "GATAS702298969",
    "ee": true,
    "tech_change_status": "Not Planned",
    "program_type": "Fixed Wireless and Satellite Upgrade Program",
    "target_eligibility_quarter": "NA"
   }
  },
  {
   "type": "Feature",
   "geometry": {
    "type": "Point",
    "coordinates": [
     147.54471128,
     -41.13539869
    ]
   },
   "properties": {
    "name": "341 NORTH SCOTTSDALE ROAD NORTH SCOTTSDALE 7260",
    "locID": "LOC000013464048",
    "tech": "WIRELESS",
    "upgrade": "NULL_NA",
    "gnaf_pid": "GATAS702300914",
    "ee": true,
    "tech_change_status": "Not Planned",
    "program_type": "Fixed Wireless and Satellite Upgrade Program",
    "target_eligibility_quarter": "NA"
   }
  },
  {
   "type": "Feature",
   "geometry": {
    "type": "Point",
    "coordinates": [
     147.53482864,
     -41.14657916
    ]
   },
   "properties": {
    "name": "153 NORTH SCOTTSDALE ROAD NORTH SCOTTSDALE 7260",
    "locID": "LOC000023437838",
    "tech": "WIRELESS",
    "upgrade": "NULL_NA",
    "gnaf_pid": "GATAS702300915",
    "ee": true,
    "tech_change_status": "Not Planned",
    "program_type": "Fixed Wireless and Satellite Upgrade Program",
    "target_eligibility_quarter": "NA"
   }
  },
  {
   "type": "Feature",
   "geometry": {
    "type": "Point",
    "coordinates": [
     147.53748558,
     -41.13895708
    ]
   },
   "properties": {
    "name": "277 NORTH SCOTTSDALE ROAD NORTH SCOTTSDALE 7260",
    "locID": "LOC000068042761",
    "tech": "WIRELESS",
    "upgrade": "NULL_NA",
    "gnaf_pid": "GATAS702300918",
    "ee": true,
    "tech_change_status": "Not Planned",
    "program_type": "Fixed Wireless and Satellite Upgrade Program",
    "target_eligibility_quarter": "NA"
   }
  },
  {
   "type": "Feature",
   "geometry": {
    "type": "Point",
    "coordinates": [
     147.54963334,
     -41.12367712
    ]
   },
   "properties": {
    "name": "505 NORTH SCOTTSDALE ROAD NORTH SCOTTSDALE 7260",
    "locID": "LOC000035931466",
    "tech": "WIRELESS",
    "upgrade": "NULL_NA",
    "gnaf_pid": "GATAS702300920",
    "ee": true,
    "tech_change_status": "Not Planned",
    "program_type": "Fixed Wireless and Satellite Upgrade Program",
    "target_eligibility_quarter": "NA"
   }
  },
  {
   "type": "Feature",
   "geometry": {
    "type": "Point",
    "coordinates": [
     147.53828616,
     -41.14981717
    ]
   },
   "properties": {
    "name": "154 NORTH SCOTTSDALE ROAD NORTH SCOTTSDALE 7260",
    "locID": "LOC000022610741",
    "tech": "WIRELESS",
    "upgrade": "NULL_NA",
    "gnaf_pid": "GATAS702300923",
    "ee": true,
    "tech_change_status": "Not Planned",
    "program_type": "Fixed Wireless and Satellite Upgrade Program",
    "target_eligibility_quarter": "NA"
   }
  },
  {
   "type": "Feature",
   "geometry": {
    "type": "Point",
    "coordinates": [
     147.53797795,
     -41.10585361
    ]
   },
   "properties": {
    "name": "150 NORTHOLM ROAD NORTH SCOTTSDALE 7260",
    "locID": "LOC000092313772",
    "tech": "WIRELESS",
    "upgrade": "NULL_NA",
    "gnaf_pid": "GATAS702300948",
    "ee": true,
    "tech_change_status": "Not Planned",
    "program_type": "Fixed Wireless and Satellite Upgrade Program",
    "target_eligibility_quarter": "NA"
   }
  },
  {
   "type": "Feature",
   "geometry": {
    "type": "Point",
    "coordinates": [
     147.53646737,
     -41.14365978
    ]
   },
   "properties": {
    "name": "225 NORTH SCOTTSDALE ROAD NORTH SCOTTSDALE 7260",
    "locID": "LOC000098810052",
    "tech": "WIRELESS",
    "upgrade": "NULL_NA",
    "gnaf_pid": "GATAS702304265",
    "ee": true,
    "tech_change_status": "Not Planned",
    "program_type": "Fixed Wireless and Satellite Upgrade Program",
    "target_eligibility_quarter": "NA"
   }
  },
  {
   "type": "Feature",
   "geometry": {
    "type": "Point",
    "coordinates": [
     147.60022436,
     -41.08444228
    ]
   },
   "properties": {
    "name": "721 OLD WATERHOUSE ROAD NORTH SCOTTSDALE 7260",
    "locID": "LOC000087694283",
    "tech": "NULL",
    "upgrade": "NULL_NA",
    "gnaf_pid": "GATAS702311812",
    "ee": true,
    "tech_change_status": "Not Planned"
   }
  },
  {
   "type": "Feature",
   "geometry": {
    "type": "Point",
    "coordinates": [
     147.55979897,
     -41.1275927
    ]
   },
   "properties": {
    "name": "89 OLD WATERHOUSE ROAD NORTH SCOTTSDALE 7260",
    "locID": "LOC000103749269",
    "tech": "NULL",
    "upgrade": "NULL_NA",
    "gnaf_pid": "GATAS702311814",
    "ee": true,
    "tech_change_status": "Not Planned"
   }
  },
  {
   "type": "Feature",
   "geometry": {
    "type": "Point",
    "coordinates": [
     147.61210883,
     -41.06617175
    ]
   },
   "properties": {
    "name": "942 OLD WATERHOUSE ROAD NORTH SCOTTSDALE 7260",
    "locID": "LOC000056474485",
    "tech": "SATELLITE",
    "upgrade": "NULL_NA",
    "gnaf_pid": "GATAS702311815",
    "ee": true,
    "tech_change_status": "Not Planned"
   }
  },
  {
   "type": "Feature",
   "geometry": {
    "type": "Point",
    "coordinates": [
     147.55533885,
     -41.13103013
    ]
   },
   "properties": {
    "name": "10 OLD WATERHOUSE ROAD NORTH SCOTTSDALE 7260",
    "locID": "LOC000071359694",
    "tech": "SATELLITE",
    "upgrade": "NULL_NA",
    "gnaf_pid": "GATAS702312898",
    "ee": true,
    "tech_change_status": "Not Planned"
   }
  },
  {
   "type": "Feature",
   "geometry": {
    "type": "Point",
    "coordinates": [
     147.56175814,
     -41.12554206
    ]
   },
   "properties": {
    "name": "78 OLD WATERHOUSE ROAD NORTH SCOTTSDALE 7260",
    "locID": "LOC000004271891",
    "tech": "WIRELESS",
    "upgrade": "NULL_NA",
    "gnaf_pid": "GATAS702312899",
    "ee": true,
    "tech_change_status": "Not Planned",
    "program_type": "Fixed Wireless and Satellite Upgrade Program",
    "target_eligibility_quarter": "NA"
   }
  },
  {
   "type": "Feature",
   "geometry": {
    "type": "Point",
    "coordinates": [
     147.56612584,
     -41.12426283
    ]
   },
   "properties": {
    "name": "124 OLD WATERHOUSE ROAD NORTH SCOTTSDALE 7260",
    "locID": "LOC000044716671",
    "tech": "WIRELESS",
    "upgrade": "NULL_NA",
    "gnaf_pid": "GATAS702312900",
    "ee": true,
    "tech_change_status": "Not Planned",
    "program_type": "Fixed Wireless and Satellite Upgrade Program",
    "target_eligibility_quarter": "NA"
   }
  },
  {
   "type": "Feature",
   "geometry": {
    "type": "Point",
    "coordinates": [
     147.59776685,
     -41.08842216
    ]
   },
   "properties": {
    "name": "679 OLD WATERHOUSE ROAD NORTH SCOTTSDALE 7260",
    "locID": "LOC000102443467",
    "tech": "SATELLITE",
    "upgrade": "NULL_NA",
    "gnaf_pid": "GATAS702312901",
    "ee": true,
    "tech_change_status": "Not Planned"
   }
  },
  {
   "type": "Feature",
   "geometry": {
    "type": "Point",
    "coordinates": [
     147.54005162,
     -41.14102888
    ]
   },
   "properties": {
    "name": "15 WILLIAMS ROAD NORTH SCOTTSDALE 7260",
    "locID": "LOC000017041846",
    "tech": "WIRELESS",
    "upgrade": "NULL_NA",
    "gnaf_pid": "GATAS702368103",
    "ee": true,
    "tech_change_status": "Not Planned",
    "program_type": "Fixed Wireless and Satellite Upgrade Program",
    "target_eligibility_quarter": "NA"
   }
  },
  {
   "type": "Feature",
   "geometry": {
    "type": "Point",
    "coordinates": [
     147.5438867,
     -41.14899629
    ]
   },
   "properties": {
    "name": "88 WILLIAMS ROAD NORTH SCOTTSDALE 7260",
    "locID": "LOC000069907850",
    "tech": "WIRELESS",
    "upgrade": "NULL_NA",
    "gnaf_pid": "GATAS702368929",
    "ee": true,
    "tech_change_status": "Not Planned",
    "program_type": "Fixed Wireless and Satellite Upgrade Program",
    "target_eligibility_quarter": "NA"
   }
  },
  {
   "type": "Feature",
   "geometry": {
    "type": "Point",
    "coordinates": [
     147.54465858,
     -41.14413408
    ]
   },
   "properties": {
    "name": "71 WILLIAMS ROAD NORTH SCOTTSDALE 7260",
    "locID": "LOC000103170708",
    "tech": "WIRELESS",
    "upgrade": "NULL_NA",
    "gnaf_pid": "GATAS702368930",
    "ee": true,
    "tech_change_status": "Not Planned",
    "program_type": "Fixed Wireless and Satellite Upgrade Program",
    "target_eligibility_quarter": "NA"
   }
  },
  {
   "type": "Feature",
   "geometry": {
    "type": "Point",
    "coordinates": [
     147.53956221,
     -41.14327282
    ]
   },
   "properties": {
    "name": "10 WILLIAMS ROAD NORTH SCOTTSDALE 7260",
    "locID": "LOC000062076022",
    "tech": "WIRELESS",
    "upgrade": "NULL_NA",
    "gnaf_pid": "GATAS702368931",
    "ee": true,
    "tech_change_status": "Not Planned",
    "program_type": "Fixed Wireless and Satellite Upgrade Program",
    "target_eligibility_quarter": "NA"
   }
  },
  {
   "type": "Feature",
   "geometry": {
    "type": "Point",
    "coordinates": [
     147.56731682,
     -41.1152865
    ]
   },
   "properties": {
    "name": "720 NORTH SCOTTSDALE ROAD NORTH SCOTTSDALE 7260",
    "locID": "LOC000071544272",
    "tech": "WIRELESS",
    "upgrade": "NULL_NA",
    "gnaf_pid": "GATAS702508644",
    "ee": true,
    "tech_change_status": "Not Planned",
    "program_type": "Fixed Wireless and Satellite Upgrade Program",
    "target_eligibility_quarter": "NA"
   }
  },
  {
   "type": "Feature",
   "geometry": {
    "type": "Point",
    "coordinates": [
     147.55856717,
     -41.14971137
    ]
   },
   "properties": {
    "name": "135 WILLIAMS ROAD NORTH SCOTTSDALE 7260",
    "locID": "LOC000007692168",
    "tech": "WIRELESS",
    "upgrade": "NULL_NA",
    "gnaf_pid": "GATAS702508646",
    "ee": true,
    "tech_change_status": "Previous Tech Disconnected",
    "program_type": "Fixed Wireless and Satellite Upgrade Program",
    "target_eligibility_quarter": "NA"
   }
  },
  {
   "type": "Feature",
   "geometry": {
    "type": "Point",
    "coordinates": [
     147.52989639,
     -41.1199104
    ]
   },
   "properties": {
    "name": "8 BARNBOUGLE ROAD NORTH SCOTTSDALE 7260",
    "locID": "LOC100079766899",
    "tech": "WIRELESS",
    "upgrade": "NULL_NA",
    "gnaf_pid": "GATAS702508648",
    "ee": true,
    "tech_change_status": "Not Planned",
    "program_type": "Fixed Wireless and Satellite Upgrade Program",
    "target_eligibility_quarter": "NA"
   }
  },
  {
   "type": "Feature",
   "geometry": {
    "type": "Point",
    "coordinates": [
     147.5545789,
     -41.11834219
    ]
   },
   "properties": {
    "name": "631 NORTH SCOTTSDALE ROAD NORTH SCOTTSDALE 7260",
    "locID": "LOC000060305294",
    "tech": "WIRELESS",
    "upgrade": "NULL_NA",
    "gnaf_pid": "GATAS702508649",
    "ee": true,
    "tech_change_status": "Not Planned",
    "program_type": "Fixed Wireless and Satellite Upgrade Program",
    "target_eligibility_quarter": "NA"
   }
  },
  {
   "type": "Feature",
   "geometry": {
    "type": "Point",
    "coordinates": [
     147.53485317,
     -41.12374526
    ]
   },
   "properties": {
    "name": "368 BURNSIDE ROAD NORTH SCOTTSDALE 7260",
    "locID": "LOC000037151956",
    "tech": "WIRELESS",
    "upgrade": "NULL_NA",
    "gnaf_pid": "GATAS702512216",
    "ee": true,
    "tech_change_status": "Not Planned",
    "program_type": "Fixed Wireless and Satellite Upgrade Program",
    "target_eligibility_quarter": "NA"
   }
  },
  {
   "type": "Feature",
   "geometry": {
    "type": "Point",
    "coordinates": [
     147.5458491,
     -41.13027215
    ]
   },
   "properties": {
    "name": "425 NORTH SCOTTSDALE ROAD NORTH SCOTTSDALE 7260",
    "locID": "LOC000035065496",
    "tech": "WIRELESS",
    "upgrade": "NULL_NA",
    "gnaf_pid": "GATAS702512218",
    "ee": true,
    "tech_change_status": "Not Planned",
    "program_type": "Fixed Wireless and Satellite Upgrade Program",
    "target_eligibility_quarter": "NA"
   }
  },
  {
   "type": "Feature",
   "geometry": {
    "type": "Point",
    "coordinates": [
     147.61271184,
     -41.14725066
    ]
   },
   "properties": {
    "name": "395 JENSENS ROAD NORTH SCOTTSDALE 7260",
    "locID": "LOC000032470556",
    "tech": "NULL",
    "upgrade": "NULL_NA",
    "gnaf_pid": "GATAS702518676",
    "ee": true,
    "tech_change_status": "Not Planned"
   }
  },
  {
   "type": "Feature",
   "geometry": {
    "type": "Point",
    "coordinates": [
     147.54745744,
     -41.15300641
    ]
   },
   "properties": {
    "name": "178 WILLIAMS ROAD NORTH SCOTTSDALE 7260",
    "locID": "LOC000045310671",
    "tech": "WIRELESS",
    "upgrade": "NULL_NA",
    "gnaf_pid": "GATAS702520274",
    "ee": true,
    "tech_change_status": "Not Planned",
    "program_type": "Fixed Wireless and Satellite Upgrade Program",
    "target_eligibility_quarter": "NA"
   }
  },
  {
   "type": "Feature",
   "geometry": {
    "type": "Point",
    "coordinates": [
     147.53093242,
     -41.13284865
    ]
   },
   "properties": {
    "name": "308 BURNSIDE ROAD NORTH SCOTTSDALE 7260",
    "locID": "LOC000066174621",
    "tech": "WIRELESS",
    "upgrade": "NULL_NA",
    "gnaf_pid": "GATAS702520279",
    "ee": true,
    "tech_change_status": "Not Planned",
    "program_type": "Fixed Wireless and Satellite Upgrade Program",
    "target_eligibility_quarter": "NA"
   }
  },
  {
   "type": "Feature",
   "geometry": {
    "type": "Point",
    "coordinates": [
     147.55644793,
     -41.15763141
    ]
   },
   "properties": {
    "name": "137 WILLIAMS ROAD NORTH SCOTTSDALE 7260",
    "locID": "LOC000005076086",
    "tech": "WIRELESS",
    "upgrade": "NULL_NA",
    "gnaf_pid": "GATAS702532392",
    "ee": true,
    "tech_change_status": "Not Planned",
    "program_type": "Fixed Wireless and Satellite Upgrade Program",
    "target_eligibility_quarter": "NA"
   }
  },
  {
   "type": "Feature",
   "geometry": {
    "type": "Point",
    "coordinates": [
     147.54540773,
     -41.11137059
    ]
   },
   "properties": {
    "name": "605 NORTH SCOTTSDALE ROAD NORTH SCOTTSDALE 7260",
    "locID": "LOC000094416470",
    "tech": "WIRELESS",
    "upgrade": "NULL_NA",
    "gnaf_pid": "GATAS702532394",
    "ee": true,
    "tech_change_status": "Not Planned",
    "program_type": "Fixed Wireless and Satellite Upgrade Program",
    "target_eligibility_quarter": "NA"
   }
  },
  {
   "type": "Feature",
   "geometry": {
    "type": "Point",
    "coordinates": [
     147.61003193,
     -41.13748689
    ]
   },
   "properties": {
    "name": "480 JENSENS ROAD NORTH SCOTTSDALE 7260",
    "locID": "LOC000018767951",
    "tech": "SATELLITE",
    "upgrade": "NULL_NA",
    "gnaf_pid": "GATAS702532396",
    "ee": true,
    "tech_change_status": "Not Planned"
   }
  },
  {
   "type": "Feature",
   "geometry": {
    "type": "Point",
    "coordinates": [
     147.61282559,
     -41.14900071
    ]
   },
   "properties": {
    "name": "397 JENSENS ROAD NORTH SCOTTSDALE 7260",
    "locID": "LOC000100710808",
    "tech": "SATELLITE",
    "upgrade": "NULL_NA",
    "gnaf_pid": "GATAS702532398",
    "ee": true,
    "tech_change_status": "Not Planned"
   }
  },
  {
   "type": "Feature",
   "geometry": {
    "type": "Point",
    "coordinates": [
     147.53578505,
     -41.12124874
    ]
   },
   "properties": {
    "name": "435 BURNSIDE ROAD NORTH SCOTTSDALE 7260",
    "locID": "LOC000006218839",
    "tech": "SATELLITE",
    "upgrade": "NULL_NA",
    "gnaf_pid": "GATAS702532431",
    "ee": true,
    "tech_change_status": "Not Planned"
   }
  },
  {
   "type": "Feature",
   "geometry": {
    "type": "Point",
    "coordinates": [
     147.61272733,
     -41.15083126
    ]
   },
   "properties": {
    "name": "399 JENSENS ROAD NORTH SCOTTSDALE 7260",
    "locID": "LOC000062458943",
    "tech": "NULL",
    "upgrade": "NULL_NA",
    "gnaf_pid": "GATAS702532432",
    "ee": true,
    "tech_change_status": "Not Planned"
   }
  },
  {
   "type": "Feature",
   "geometry": {
    "type": "Point",
    "coordinates": [
     147.55868546,
     -41.1028622
    ]
   },
   "properties": {
    "name": "60 DORNAUFS ROAD NORTH SCOTTSDALE 7260",
    "locID": "LOC000014322672",
    "tech": "WIRELESS",
    "upgrade": "NULL_NA",
    "gnaf_pid": "GATAS702534411",
    "ee": true,
    "tech_change_status": "Not Planned",
    "program_type": "Fixed Wireless and Satellite Upgrade Program",
    "target_eligibility_quarter": "NA"
   }
  },
  {
   "type": "Feature",
   "geometry": {
    "type": "Point",
    "coordinates": [
     147.52552789,
     -41.12926785
    ]
   },
   "properties": {
    "name": "262 BURNSIDE ROAD NORTH SCOTTSDALE 7260",
    "locID": "LOC000037736514",
    "tech": "WIRELESS",
    "upgrade": "NULL_NA",
    "gnaf_pid": "GATAS702534414",
    "ee": true,
    "tech_change_status": "Not Planned",
    "program_type": "Fixed Wireless and Satellite Upgrade Program",
    "target_eligibility_quarter": "NA"
   }
  },
  {
   "type": "Feature",
   "geometry": {
    "type": "Point",
    "coordinates": [
     147.54089271,
     -41.14616089
    ]
   },
   "properties": {
    "name": "56 WILLIAMS ROAD NORTH SCOTTSDALE 7260",
    "locID": "LOC000104499325",
    "tech": "WIRELESS",
    "upgrade": "NULL_NA",
    "gnaf_pid": "GATAS715255606",
    "ee": true,
    "tech_change_status": "Not Planned",
    "program_type": "Fixed Wireless and Satellite Upgrade Program",
    "target_eligibility_quarter": "NA"
   }
  },
  {
   "type": "Feature",
   "geometry": {
    "type": "Point",
    "coordinates": [
     147.54417413,
     -41.13786122
    ]
   },
   "properties": {
    "name": "9 BISSETTS ROAD NORTH SCOTTSDALE 7260",
    "locID": "LOC000057216776",
    "tech": "WIRELESS",
    "upgrade": "NULL_NA",
    "gnaf_pid": "GATAS715272170",
    "ee": true,
    "tech_change_status": "Not Planned",
    "program_type": "Fixed Wireless and Satellite Upgrade Program",
    "target_eligibility_quarter": "NA"
   }
  },
  {
   "type": "Feature",
   "geometry": {
    "type": "Point",
    "coordinates": [
     147.52498123,
     -41.12202827
    ]
   },
   "properties": {
    "name": "345 BURNSIDE ROAD NORTH SCOTTSDALE 7260",
    "locID": "LOC000013458731",
    "tech": "WIRELESS",
    "upgrade": "NULL_NA",
    "gnaf_pid": "GATAS715274073",
    "ee": true,
    "tech_change_status": "Not Planned",
    "program_type": "Fixed Wireless and Satellite Upgrade Program",
    "target_eligibility_quarter": "NA"
   }
  },
  {
   "type": "Feature",
   "geometry": {
    "type": "Point",
    "coordinates": [
     147.61772553,
     -41.14825436
    ]
   },
   "properties": {
    "name": "283 JENSENS ROAD NORTH SCOTTSDALE 7260",
    "locID": "LOC000002731501",
    "tech": "SATELLITE",
    "upgrade": "NULL_NA",
    "gnaf_pid": "GATAS717990363",
    "ee": true,
    "tech_change_status": "Not Planned"
   }
  },
  {
   "type": "Feature",
   "geometry": {
    "type": "Point",
    "coordinates": [
     147.61880883,
     -41.14624218
    ]
   },
   "properties": {
    "name": "300 JENSENS ROAD NORTH SCOTTSDALE 7260",
    "locID": "LOC000110675754",
    "tech": "SATELLITE",
    "upgrade": "NULL_NA",
    "gnaf_pid": "GATAS718109871",
    "ee": true,
    "tech_change_status": "Not Planned"
   }
  },
  {
   "type": "Feature",
   "geometry": {
    "type": "Point",
    "coordinates": [
     147.54692156,
     -41.13472082
    ]
   },
   "properties": {
    "name": "119 NORTH SCOTTSDALE ROAD NORTH SCOTTSDALE 7260",
    "locID": "LOC000051560238",
    "tech": "WIRELESS",
    "upgrade": "NULL_NA",
    "gnaf_pid": "GATAS718831002",
    "ee": true,
    "tech_change_status": "Not Planned",
    "program_type": "Fixed Wireless and Satellite Upgrade Program",
    "target_eligibility_quarter": "NA"
   }
  },
  {
   "type": "Feature",
   "geometry": {
    "type": "Point",
    "coordinates": [
     147.61861371,
     -41.1518769
    ]
   },
   "properties": {
    "name": "221 JENSENS ROAD NORTH SCOTTSDALE 7260",
    "locID": "LOC100072050900",
    "tech": "NULL",
    "upgrade": "NULL_NA",
    "gnaf_pid": "GATAS719601999",
    "ee": true,
    "tech_change_status": "Not Planned"
   }
  },
  {
   "type": "Feature",
   "geometry": {
    "type": "Point",
    "coordinates": [
     147.53594588,
     -41.11408617
    ]
   },
   "properties": {
    "name": "56 PRIESTLEYS ROAD NORTH SCOTTSDALE 7260",
    "locID": "LOC100078159162",
    "tech": "NULL",
    "upgrade": "NULL_NA",
    "gnaf_pid": "GATAS720275851",
    "ee": true,
    "tech_change_status": "Not Planned"
   }
  },
  {
   "type": "Feature",
   "geometry": {
    "type": "Point",
    "coordinates": [
     147.51850203,
     -41.09134129
    ]
   },
   "properties": {
    "name": "1 BARNBOUGLE ROAD NORTH SCOTTSDALE 7260",
    "locID": "LOC000104327440",
    "tech": "SATELLITE",
    "upgrade": "NULL_NA",
    "gnaf_pid": "GATAS720346116",
    "ee": true,
    "tech_change_status": "Not Planned"
   }
  },
  {
   "type": "Feature",
   "geometry": {
    "type": "Point",
    "coordinates": [
     147.52531098,
     -41.11358364
    ]
   },
   "properties": {
    "name": "75 BARNBOUGLE ROAD NORTH SCOTTSDALE 7260",
    "locID": "LOC100078159143",
    "tech": "NULL",
    "upgrade": "NULL_NA",
    "gnaf_pid": "GATAS720484987",
    "ee": true,
    "tech_change_status": "Not Planned"
   }
  }
 ]
}