{
 "type": "FeatureCollection",
 "generated": "2025-06-16T14:48:52.330184",
 "suburb": "ROSNY PARK",
 "features": [
  {
   "type": "Feature",
   "geometry": {
    "type": "Point",
    "coordinates": [
     147.36532201,
     -42.86930304
    ]
   },
   "properties": {
    "name": "20 BASTICK STREET ROSNY PARK 7018",
    "locID": "LOC000147852949",
    "tech": "FTTP",
    "upgrade": "NULL_NA",
    "gnaf_pid": "GATAS702195509",
    "ee": true
   }
  },
  {
   "type": "Feature",
   "geometry": {
    "type": "Point",
    "coordinates": [
     147.36351483,
     -42.87066159
    ]
   },
   "properties": {
    "name": "40 BASTICK STREET ROSNY PARK 7018",
    "locID": "LOC000133623502",
    "tech": "FTTP",
    "upgrade": "NULL_NA",
    "gnaf_pid": "GATAS702195510",
    "ee": true
   }
  },
  {
   "type": "Feature",
   "geometry": {
    "type": "Point",
    "coordinates": [
     147.37161342,
     -42.8672919
    ]
   },
   "properties": {
    "name": "21 BAYFIELD STREET ROSNY PARK 7018",
    "locID": "LOC000067245380",
    "tech": "FTTP",
    "upgrade": "NULL_NA",
    "gnaf_pid": "GATAS702197676",
    "ee": true
   }
  },
  {
   "type": "Feature",
   "geometry": {
    "type": "Point",
    "coordinates": [
     147.37115443,
     -42.8671571
    ]
   },
   "properties": {
    "name": "17 BAYFIELD STREET ROSNY PARK 7018",
    "locID": "LOC000146818409",
    "tech": "FTTP",
    "upgrade": "NULL_NA",
    "gnaf_pid": "GATAS702197677",
    "ee": true
   }
  },
  {
   "type": "Feature",
   "geometry": {
    "type": "Point",
    "coordinates": [
     147.36987611,
     -42.86420833
    ]
   },
   "properties": {
    "name": "40-42 BLIGH STREET ROSNY PARK 7018",
    "locID": "LOC000049272225",
    "tech": "FTTP",
    "upgrade": "NULL_NA",
    "gnaf_pid": "GATAS702199580",
    "ee": true
   }
  },
  {
   "type": "Feature",
   "geometry": {
    "type": "Point",
    "coordinates": [
     147.37119839,
     -42.86405132
    ]
   },
   "properties": {
    "name": "27 BLIGH STREET ROSNY PARK 7018",
    "locID": "LOC000082901081",
    "tech": "FTTP",
    "upgrade": "NULL_NA",
    "gnaf_pid": "GATAS702199582",
    "ee": true
   }
  },
  {
   "type": "Feature",
   "geometry": {
    "type": "Point",
    "coordinates": [
     147.36911908,
     -42.86810974
    ]
   },
   "properties": {
    "name": "1 BLIGH STREET ROSNY PARK 7018",
    "locID": "LOC000090841684",
    "tech": "FTTP",
    "upgrade": "NULL_NA",
    "gnaf_pid": "GATAS702199583",
    "ee": true
   }
  },
  {
   "type": "Feature",
   "geometry": {
    "type": "Point",
    "coordinates": [
     147.36957205,
     -42.86717235
    ]
   },
   "properties": {
    "name": "7 BLIGH STREET ROSNY PARK 7018",
    "locID": "LOC000153928351",
    "tech": "FTTP",
    "upgrade": "NULL_NA",
    "gnaf_pid": "GATAS702199584",
    "ee": true
   }
  },
  {
   "type": "Feature",
   "geometry": {
    "type": "Point",
    "coordinates": [
     147.36902333,
     -42.864518
    ]
   },
   "properties": {
    "name": "38 BLIGH STREET ROSNY PARK 7018",
    "locID": "LOC000104365476",
    "tech": "FTTP",
    "upgrade": "NULL_NA",
    "gnaf_pid": "GATAS702199585",
    "ee": true
   }
  },
  {
   "type": "Feature",
   "geometry": {
    "type": "Point",
    "coordinates": [
     147.36998305,
     -42.86358134
    ]
   },
   "properties": {
    "name": "46 BLIGH STREET ROSNY PARK 7018",
    "locID": "LOC000054413042",
    "tech": "FTTP",
    "upgrade": "NULL_NA",
    "gnaf_pid": "GATAS702199586",
    "ee": true
   }
  },
  {
   "type": "Feature",
   "geometry": {
    "type": "Point",
    "coordinates": [
     147.37216545,
     -42.86652435
    ]
   },
   "properties": {
    "name": "26 BAYFIELD STREET ROSNY PARK 7018",
    "locID": "LOC000094991189",
    "tech": "FTTP",
    "upgrade": "NULL_NA",
    "gnaf_pid": "GATAS702199839",
    "ee": true
   }
  },
  {
   "type": "Feature",
   "geometry": {
    "type": "Point",
    "coordinates": [
     147.36938016,
     -42.86652184
    ]
   },
   "properties": {
    "name": "1 BAYFIELD STREET ROSNY PARK 7018",
    "locID": "LOC000136200984",
    "tech": "FTTP",
    "upgrade": "NULL_NA",
    "gnaf_pid": "GATAS702199847",
    "ee": true
   }
  },
  {
   "type": "Feature",
   "geometry": {
    "type": "Point",
    "coordinates": [
     147.36957645,
     -42.86657806
    ]
   },
   "properties": {
    "name": "3A-3B BAYFIELD STREET ROSNY PARK 7018",
    "locID": "LOC000153927827",
    "tech": "FTTP",
    "upgrade": "NULL_NA",
    "gnaf_pid": "GATAS702199848",
    "ee": true
   }
  },
  {
   "type": "Feature",
   "geometry": {
    "type": "Point",
    "coordinates": [
     147.37035997,
     -42.86682635
    ]
   },
   "properties": {
    "name": "11 BAYFIELD STREET ROSNY PARK 7018",
    "locID": "LOC000159605729",
    "tech": "FTTP",
    "upgrade": "NULL_NA",
    "gnaf_pid": "GATAS702199851",
    "ee": true
   }
  },
  {
   "type": "Feature",
   "geometry": {
    "type": "Point",
    "coordinates": [
     147.37097694,
     -42.86700796
    ]
   },
   "properties": {
    "name": "15 BAYFIELD STREET ROSNY PARK 7018",
    "locID": "LOC000036993299",
    "tech": "FTTP",
    "upgrade": "NULL_NA",
    "gnaf_pid": "GATAS702199997",
    "ee": true
   }
  },
  {
   "type": "Feature",
   "geometry": {
    "type": "Point",
    "coordinates": [
     147.37210635,
     -42.86735533
    ]
   },
   "properties": {
    "name": "25 BAYFIELD STREET ROSNY PARK 7018",
    "locID": "LOC000073889420",
    "tech": "FTTP",
    "upgrade": "NULL_NA",
    "gnaf_pid": "GATAS702199998",
    "ee": true
   }
  },
  {
   "type": "Feature",
   "geometry": {
    "type": "Point",
    "coordinates": [
     147.37188101,
     -42.86728551
    ]
   },
   "properties": {
    "name": "23 BAYFIELD STREET ROSNY PARK 7018",
    "locID": "LOC000102703975",
    "tech": "FTTP",
    "upgrade": "NULL_NA",
    "gnaf_pid": "GATAS702199999",
    "ee": true
   }
  },
  {
   "type": "Feature",
   "geometry": {
    "type": "Point",
    "coordinates": [
     147.37005955,
     -42.86609758
    ]
   },
   "properties": {
    "name": "6 BAYFIELD STREET ROSNY PARK 7018",
    "locID": "LOC000146833456",
    "tech": "FTTP",
    "upgrade": "NULL_NA",
    "gnaf_pid": "GATAS702200000",
    "ee": true
   }
  },
  {
   "type": "Feature",
   "geometry": {
    "type": "Point",
    "coordinates": [
     147.37025654,
     -42.86615583
    ]
   },
   "properties": {
    "name": "8 BAYFIELD STREET ROSNY PARK 7018",
    "locID": "LOC100072432341",
    "tech": "FTTP",
    "upgrade": "NULL_NA",
    "gnaf_pid": "GATAS702200001",
    "ee": true
   }
  },
  {
   "type": "Feature",
   "geometry": {
    "type": "Point",
    "coordinates": [
     147.36969198,
     -42.86607256
    ]
   },
   "properties": {
    "name": "2 BAYFIELD STREET ROSNY PARK 7018",
    "locID": "LOC000146819275",
    "tech": "FTTP",
    "upgrade": "NULL_NA",
    "gnaf_pid": "GATAS702200002",
    "ee": true
   }
  },
  {
   "type": "Feature",
   "geometry": {
    "type": "Point",
    "coordinates": [
     147.37250997,
     -42.86668
    ]
   },
   "properties": {
    "name": "SUITE 3, 32 BAYFIELD STREET ROSNY PARK 7018",
    "locID": "LOC000070611018",
    "tech": "FTTP",
    "upgrade": "NULL_NA",
    "gnaf_pid": "GATAS702200875",
    "ee": true
   }
  },
  {
   "type": "Feature",
   "geometry": {
    "type": "Point",
    "coordinates": [
     147.37252866,
     -42.8666367
    ]
   },
   "properties": {
    "name": "SUITE 4, 32 BAYFIELD STREET ROSNY PARK 7018",
    "locID": "LOC000070611018",
    "tech": "FTTP",
    "upgrade": "NULL_NA",
    "gnaf_pid": "GATAS702200876",
    "ee": true
   }
  },
  {
   "type": "Feature",
   "geometry": {
    "type": "Point",
    "coordinates": [
     147.37240085,
     -42.86683697
    ]
   },
   "properties": {
    "name": "SUITE 1, 32 BAYFIELD STREET ROSNY PARK 7018",
    "locID": "LOC000070611018",
    "tech": "FTTP",
    "upgrade": "NULL_NA",
    "gnaf_pid": "GATAS702200877",
    "ee": true
   }
  },
  {
   "type": "Feature",
   "geometry": {
    "type": "Point",
    "coordinates": [
     147.36993606,
     -42.86664722
    ]
   },
   "properties": {
    "name": "SUITE 2, 7 BAYFIELD STREET ROSNY PARK 7018",
    "locID": "LOC000135885177",
    "tech": "FTTP",
    "upgrade": "NULL_NA",
    "gnaf_pid": "GATAS702200878",
    "ee": true
   }
  },
  {
   "type": "Feature",
   "geometry": {
    "type": "Point",
    "coordinates": [
     147.37243776,
     -42.86681776
    ]
   },
   "properties": {
    "name": "UNIT 5, 32 BAYFIELD STREET ROSNY PARK 7018",
    "locID": "LOC000070611018",
    "tech": "FTTP",
    "upgrade": "NULL_NA",
    "gnaf_pid": "GATAS702200879",
    "ee": true
   }
  },
  {
   "type": "Feature",
   "geometry": {
    "type": "Point",
    "coordinates": [
     147.36982522,
     -42.86658865
    ]
   },
   "properties": {
    "name": "SUITE 2, 5 BAYFIELD STREET ROSNY PARK 7018",
    "locID": "LOC000135885154",
    "tech": "FTTP",
    "upgrade": "NULL_NA",
    "gnaf_pid": "GATAS702200880",
    "ee": true
   }
  },
  {
   "type": "Feature",
   "geometry": {
    "type": "Point",
    "coordinates": [
     147.37075095,
     -42.86698929
    ]
   },
   "properties": {
    "name": "SUITE 6, 13 BAYFIELD STREET ROSNY PARK 7018",
    "locID": "LOC000100496496",
    "tech": "FTTP",
    "upgrade": "NULL_NA",
    "gnaf_pid": "GATAS702200881",
    "ee": true
   }
  },
  {
   "type": "Feature",
   "geometry": {
    "type": "Point",
    "coordinates": [
     147.37037597,
     -42.8662239
    ]
   },
   "properties": {
    "name": "UNIT 1, 10 BAYFIELD STREET ROSNY PARK 7018",
    "locID": "LOC000133594114",
    "tech": "FTTP",
    "upgrade": "NULL_NA",
    "gnaf_pid": "GATAS702200882",
    "ee": true
   }
  },
  {
   "type": "Feature",
   "geometry": {
    "type": "Point",
    "coordinates": [
     147.37203317,
     -42.8667897
    ]
   },
   "properties": {
    "name": "UNIT 1, 30 BAYFIELD STREET ROSNY PARK 7018",
    "locID": "LOC000133573434",
    "tech": "FTTP",
    "upgrade": "NULL_NA",
    "gnaf_pid": "GATAS702200884",
    "ee": true
   }
  },
  {
   "type": "Feature",
   "geometry": {
    "type": "Point",
    "coordinates": [
     147.37203668,
     -42.86677976
    ]
   },
   "properties": {
    "name": "UNIT 2, 30 BAYFIELD STREET ROSNY PARK 7018",
    "locID": "LOC000136000053",
    "tech": "FTTP",
    "upgrade": "NULL_NA",
    "gnaf_pid": "GATAS702200885",
    "ee": true
   }
  },
  {
   "type": "Feature",
   "geometry": {
    "type": "Point",
    "coordinates": [
     147.37251551,
     -42.8667509
    ]
   },
   "properties": {
    "name": "SUITE 2, 32 BAYFIELD STREET ROSNY PARK 7018",
    "locID": "LOC000070611018",
    "tech": "FTTP",
    "upgrade": "NULL_NA",
    "gnaf_pid": "GATAS702200886",
    "ee": true
   }
  },
  {
   "type": "Feature",
   "geometry": {
    "type": "Point",
    "coordinates": [
     147.37225943,
     -42.86678661
    ]
   },
   "properties": {
    "name": "UNIT 3, 30 BAYFIELD STREET ROSNY PARK 7018",
    "locID": "LOC000136000053",
    "tech": "FTTP",
    "upgrade": "NULL_NA",
    "gnaf_pid": "GATAS702201030",
    "ee": true
   }
  },
  {
   "type": "Feature",
   "geometry": {
    "type": "Point",
    "coordinates": [
     147.37248046,
     -42.86662633
    ]
   },
   "properties": {
    "name": "SUITE 9, 32 BAYFIELD STREET ROSNY PARK 7018",
    "locID": "LOC000070611018",
    "tech": "FTTP",
    "upgrade": "NULL_NA",
    "gnaf_pid": "GATAS702201430",
    "ee": true
   }
  },
  {
   "type": "Feature",
   "geometry": {
    "type": "Point",
    "coordinates": [
     147.37225508,
     -42.86676768
    ]
   },
   "properties": {
    "name": "UNIT 4, 30 BAYFIELD STREET ROSNY PARK 7018",
    "locID": "LOC000133573423",
    "tech": "FTTP",
    "upgrade": "NULL_NA",
    "gnaf_pid": "GATAS702201431",
    "ee": true
   }
  },
  {
   "type": "Feature",
   "geometry": {
    "type": "Point",
    "coordinates": [
     147.36984621,
     -42.86586182
    ]
   },
   "properties": {
    "name": "15A BLIGH STREET ROSNY PARK 7018",
    "locID": "LOC000061725799",
    "tech": "FTTP",
    "upgrade": "NULL_NA",
    "gnaf_pid": "GATAS702201500",
    "ee": true
   }
  },
  {
   "type": "Feature",
   "geometry": {
    "type": "Point",
    "coordinates": [
     147.37125703,
     -42.86637852
    ]
   },
   "properties": {
    "name": "16 BAYFIELD STREET ROSNY PARK 7018",
    "locID": "LOC000046608538",
    "tech": "FTTP",
    "upgrade": "NULL_NA",
    "gnaf_pid": "GATAS702201695",
    "ee": true
   }
  },
  {
   "type": "Feature",
   "geometry": {
    "type": "Point",
    "coordinates": [
     147.37113971,
     -42.86581588
    ]
   },
   "properties": {
    "name": "4 BAYFIELD STREET ROSNY PARK 7018",
    "locID": "LOC000137158559",
    "tech": "FTTP",
    "upgrade": "NULL_NA",
    "gnaf_pid": "GATAS702201696",
    "ee": true
   }
  },
  {
   "type": "Feature",
   "geometry": {
    "type": "Point",
    "coordinates": [
     147.37080425,
     -42.86447652
    ]
   },
   "properties": {
    "name": "25 BLIGH STREET ROSNY PARK 7018",
    "locID": "LOC000075797936",
    "tech": "FTTP",
    "upgrade": "NULL_NA",
    "gnaf_pid": "GATAS702202808",
    "ee": true
   }
  },
  {
   "type": "Feature",
   "geometry": {
    "type": "Point",
    "coordinates": [
     147.36821896,
     -42.86643535
    ]
   },
   "properties": {
    "name": "26 BLIGH STREET ROSNY PARK 7018",
    "locID": "LOC000146820773",
    "tech": "FTTB",
    "upgrade": "NULL_NA",
    "gnaf_pid": "GATAS702203136",
    "ee": true
   }
  },
  {
   "type": "Feature",
   "geometry": {
    "type": "Point",
    "coordinates": [
     147.36996433,
     -42.8656279
    ]
   },
   "properties": {
    "name": "17A BLIGH STREET ROSNY PARK 7018",
    "locID": "LOC000095131363",
    "tech": "FTTP",
    "upgrade": "NULL_NA",
    "gnaf_pid": "GATAS702203188",
    "ee": true
   }
  },
  {
   "type": "Feature",
   "geometry": {
    "type": "Point",
    "coordinates": [
     147.37016617,
     -42.86686592
    ]
   },
   "properties": {
    "name": "9 BAYFIELD STREET ROSNY PARK 7018",
    "locID": "LOC000135885131",
    "tech": "FTTP",
    "upgrade": "NULL_NA",
    "gnaf_pid": "GATAS702203372",
    "ee": true
   }
  },
  {
   "type": "Feature",
   "geometry": {
    "type": "Point",
    "coordinates": [
     147.3690087,
     -42.86747665
    ]
   },
   "properties": {
    "name": "1A BLIGH STREET ROSNY PARK 7018",
    "locID": "LOC000090920365",
    "tech": "FTTP",
    "upgrade": "NULL_NA",
    "gnaf_pid": "GATAS702204208",
    "ee": true
   }
  },
  {
   "type": "Feature",
   "geometry": {
    "type": "Point",
    "coordinates": [
     147.37009283,
     -42.86541406
    ]
   },
   "properties": {
    "name": "SUITE 1, 17 BLIGH STREET ROSNY PARK 7018",
    "locID": "LOC000159608166",
    "tech": "FTTP",
    "upgrade": "NULL_NA",
    "gnaf_pid": "GATAS702204210",
    "ee": true
   }
  },
  {
   "type": "Feature",
   "geometry": {
    "type": "Point",
    "coordinates": [
     147.37138384,
     -42.867227
    ]
   },
   "properties": {
    "name": "19 BAYFIELD STREET ROSNY PARK 7018",
    "locID": "LOC000034842727",
    "tech": "FTTP",
    "upgrade": "NULL_NA",
    "gnaf_pid": "GATAS702205667",
    "ee": true
   }
  },
  {
   "type": "Feature",
   "geometry": {
    "type": "Point",
    "coordinates": [
     147.37078194,
     -42.86284797
    ]
   },
   "properties": {
    "name": "30 GORDONS HILL ROAD ROSNY PARK 7018",
    "locID": "LOC000067787912",
    "tech": "FTTP",
    "upgrade": "NULL_NA",
    "gnaf_pid": "GATAS702249941",
    "ee": true
   }
  },
  {
   "type": "Feature",
   "geometry": {
    "type": "Point",
    "coordinates": [
     147.37200055,
     -42.86562712
    ]
   },
   "properties": {
    "name": "8 GORDONS HILL ROAD ROSNY PARK 7018",
    "locID": "LOC000046958793",
    "tech": "FTTP",
    "upgrade": "NULL_NA",
    "gnaf_pid": "GATAS702251912",
    "ee": true
   }
  },
  {
   "type": "Feature",
   "geometry": {
    "type": "Point",
    "coordinates": [
     147.37194581,
     -42.86523208
    ]
   },
   "properties": {
    "name": "18 GORDONS HILL ROAD ROSNY PARK 7018",
    "locID": "LOC000074181062",
    "tech": "FTTP",
    "upgrade": "NULL_NA",
    "gnaf_pid": "GATAS702251995",
    "ee": true
   }
  },
  {
   "type": "Feature",
   "geometry": {
    "type": "Point",
    "coordinates": [
     147.36903553,
     -42.86885912
    ]
   },
   "properties": {
    "name": "15 ROSNY HILL ROAD ROSNY PARK 7018",
    "locID": "LOC000017113564",
    "tech": "FTTP",
    "upgrade": "NULL_NA",
    "gnaf_pid": "GATAS702322115",
    "ee": true
   }
  },
  {
   "type": "Feature",
   "geometry": {
    "type": "Point",
    "coordinates": [
     147.36928105,
     -42.86912099
    ]
   },
   "properties": {
    "name": "13 ROSNY HILL ROAD ROSNY PARK 7018",
    "locID": "LOC000021147325",
    "tech": "FTTP",
    "upgrade": "NULL_NA",
    "gnaf_pid": "GATAS702322116",
    "ee": true
   }
  },
  {
   "type": "Feature",
   "geometry": {
    "type": "Point",
    "coordinates": [
     147.3701735,
     -42.86906815
    ]
   },
   "properties": {
    "name": "5 ROSNY HILL ROAD ROSNY PARK 7018",
    "locID": "LOC000030183137",
    "tech": "FTTP",
    "upgrade": "NULL_NA",
    "gnaf_pid": "GATAS702322117",
    "ee": true
   }
  },
  {
   "type": "Feature",
   "geometry": {
    "type": "Point",
    "coordinates": [
     147.36995031,
     -42.86905474
    ]
   },
   "properties": {
    "name": "7 ROSNY HILL ROAD ROSNY PARK 7018",
    "locID": "LOC000092069328",
    "tech": "FTTP",
    "upgrade": "NULL_NA",
    "gnaf_pid": "GATAS702322118",
    "ee": true
   }
  },
  {
   "type": "Feature",
   "geometry": {
    "type": "Point",
    "coordinates": [
     147.36972767,
     -42.86903754
    ]
   },
   "properties": {
    "name": "9 ROSNY HILL ROAD ROSNY PARK 7018",
    "locID": "LOC000025065040",
    "tech": "FTTP",
    "upgrade": "NULL_NA",
    "gnaf_pid": "GATAS702322119",
    "ee": true
   }
  },
  {
   "type": "Feature",
   "geometry": {
    "type": "Point",
    "coordinates": [
     147.36950537,
     -42.86901768
    ]
   },
   "properties": {
    "name": "11 ROSNY HILL ROAD ROSNY PARK 7018",
    "locID": "LOC000108888021",
    "tech": "FTTP",
    "upgrade": "NULL_NA",
    "gnaf_pid": "GATAS702322120",
    "ee": true
   }
  },
  {
   "type": "Feature",
   "geometry": {
    "type": "Point",
    "coordinates": [
     147.3706131,
     -42.86908468
    ]
   },
   "properties": {
    "name": "1 ROSNY HILL ROAD ROSNY PARK 7018",
    "locID": "LOC000075340335",
    "tech": "FTTP",
    "upgrade": "NULL_NA",
    "gnaf_pid": "GATAS702322121",
    "ee": true
   }
  },
  {
   "type": "Feature",
   "geometry": {
    "type": "Point",
    "coordinates": [
     147.36969522,
     -42.86819524
    ]
   },
   "properties": {
    "name": "12 ROSNY HILL ROAD ROSNY PARK 7018",
    "locID": "LOC000053324684",
    "tech": "FTTP",
    "upgrade": "NULL_NA",
    "gnaf_pid": "GATAS702322122",
    "ee": true
   }
  },
  {
   "type": "Feature",
   "geometry": {
    "type": "Point",
    "coordinates": [
     147.3703792,
     -42.86824462
    ]
   },
   "properties": {
    "name": "4 ROSNY HILL ROAD ROSNY PARK 7018",
    "locID": "LOC000052548202",
    "tech": "FTTP",
    "upgrade": "NULL_NA",
    "gnaf_pid": "GATAS702322123",
    "ee": true
   }
  },
  {
   "type": "Feature",
   "geometry": {
    "type": "Point",
    "coordinates": [
     147.37070663,
     -42.86492089
    ]
   },
   "properties": {
    "name": "7 ROSS AVENUE ROSNY PARK 7018",
    "locID": "LOC000018760724",
    "tech": "FTTP",
    "upgrade": "NULL_NA",
    "gnaf_pid": "GATAS702322125",
    "ee": true
   }
  },
  {
   "type": "Feature",
   "geometry": {
    "type": "Point",
    "coordinates": [
     147.37110642,
     -42.86476823
    ]
   },
   "properties": {
    "name": "3 ROSS AVENUE ROSNY PARK 7018",
    "locID": "LOC000102833690",
    "tech": "FTTP",
    "upgrade": "NULL_NA",
    "gnaf_pid": "GATAS702322279",
    "ee": true
   }
  },
  {
   "type": "Feature",
   "geometry": {
    "type": "Point",
    "coordinates": [
     147.37038806,
     -42.86910588
    ]
   },
   "properties": {
    "name": "3 ROSNY HILL ROAD ROSNY PARK 7018",
    "locID": "LOC000097077854",
    "tech": "FTTP",
    "upgrade": "NULL_NA",
    "gnaf_pid": "GATAS702323058",
    "ee": true
   }
  },
  {
   "type": "Feature",
   "geometry": {
    "type": "Point",
    "coordinates": [
     147.37074102,
     -42.86539365
    ]
   },
   "properties": {
    "name": "18 ROSS AVENUE ROSNY PARK 7018",
    "locID": "LOC000136000082",
    "tech": "FTTP",
    "upgrade": "NULL_NA",
    "gnaf_pid": "GATAS702325601",
    "ee": true
   }
  },
  {
   "type": "Feature",
   "geometry": {
    "type": "Point",
    "coordinates": [
     147.37046614,
     -42.8647686
    ]
   },
   "properties": {
    "name": "9 ROSS AVENUE ROSNY PARK 7018",
    "locID": "LOC000073995408",
    "tech": "FTTP",
    "upgrade": "NULL_NA",
    "gnaf_pid": "GATAS702325602",
    "ee": true
   }
  },
  {
   "type": "Feature",
   "geometry": {
    "type": "Point",
    "coordinates": [
     147.37090645,
     -42.86482259
    ]
   },
   "properties": {
    "name": "5 ROSS AVENUE ROSNY PARK 7018",
    "locID": "LOC000106963901",
    "tech": "FTTP",
    "upgrade": "NULL_NA",
    "gnaf_pid": "GATAS702325722",
    "ee": true
   }
  },
  {
   "type": "Feature",
   "geometry": {
    "type": "Point",
    "coordinates": [
     147.36999527,
     -42.86665186
    ]
   },
   "properties": {
    "name": "SUITE 4, 7 BAYFIELD STREET ROSNY PARK 7018",
    "locID": "LOC000136271039",
    "tech": "FTTP",
    "upgrade": "NULL_NA",
    "gnaf_pid": "GATAS702365837",
    "ee": true
   }
  },
  {
   "type": "Feature",
   "geometry": {
    "type": "Point",
    "coordinates": [
     147.36998223,
     -42.86666619
    ]
   },
   "properties": {
    "name": "SUITE 3, 7 BAYFIELD STREET ROSNY PARK 7018",
    "locID": "LOC000100490564",
    "tech": "FTTP",
    "upgrade": "NULL_NA",
    "gnaf_pid": "GATAS702365838",
    "ee": true
   }
  },
  {
   "type": "Feature",
   "geometry": {
    "type": "Point",
    "coordinates": [
     147.3708609,
     -42.86688978
    ]
   },
   "properties": {
    "name": "SUITE 1, 13 BAYFIELD STREET ROSNY PARK 7018",
    "locID": "LOC000100496496",
    "tech": "FTTP",
    "upgrade": "NULL_NA",
    "gnaf_pid": "GATAS702368431",
    "ee": true
   }
  },
  {
   "type": "Feature",
   "geometry": {
    "type": "Point",
    "coordinates": [
     147.37077737,
     -42.86686399
    ]
   },
   "properties": {
    "name": "SUITE 2, 13 BAYFIELD STREET ROSNY PARK 7018",
    "locID": "LOC000100496496",
    "tech": "FTTP",
    "upgrade": "NULL_NA",
    "gnaf_pid": "GATAS702368432",
    "ee": true
   }
  },
  {
   "type": "Feature",
   "geometry": {
    "type": "Point",
    "coordinates": [
     147.37043586,
     -42.86623691
    ]
   },
   "properties": {
    "name": "UNIT 3, 10 BAYFIELD STREET ROSNY PARK 7018",
    "locID": "LOC000133594122",
    "tech": "FTTP",
    "upgrade": "NULL_NA",
    "gnaf_pid": "GATAS702368442",
    "ee": true
   }
  },
  {
   "type": "Feature",
   "geometry": {
    "type": "Point",
    "coordinates": [
     147.37009132,
     -42.86541177
    ]
   },
   "properties": {
    "name": "SUITE 2, 17 BLIGH STREET ROSNY PARK 7018",
    "locID": "LOC000159608166",
    "tech": "FTTP",
    "upgrade": "NULL_NA",
    "gnaf_pid": "GATAS702375483",
    "ee": true
   }
  },
  {
   "type": "Feature",
   "geometry": {
    "type": "Point",
    "coordinates": [
     147.37075076,
     -42.8669889
    ]
   },
   "properties": {
    "name": "SUITE 3, 13 BAYFIELD STREET ROSNY PARK 7018",
    "locID": "LOC000100496496",
    "tech": "FTTP",
    "upgrade": "NULL_NA",
    "gnaf_pid": "GATAS702377484",
    "ee": true
   }
  },
  {
   "type": "Feature",
   "geometry": {
    "type": "Point",
    "coordinates": [
     147.36999353,
     -42.86655816
    ]
   },
   "properties": {
    "name": "SUITE 1, 7 BAYFIELD STREET ROSNY PARK 7018",
    "locID": "LOC000135885219",
    "tech": "FTTP",
    "upgrade": "NULL_NA",
    "gnaf_pid": "GATAS702377485",
    "ee": true
   }
  },
  {
   "type": "Feature",
   "geometry": {
    "type": "Point",
    "coordinates": [
     147.37051473,
     -42.8661538
    ]
   },
   "properties": {
    "name": "UNIT 2, 10 BAYFIELD STREET ROSNY PARK 7018",
    "locID": "LOC000133594114",
    "tech": "FTTP",
    "upgrade": "NULL_NA",
    "gnaf_pid": "GATAS702377487",
    "ee": true
   }
  },
  {
   "type": "Feature",
   "geometry": {
    "type": "Point",
    "coordinates": [
     147.37074102,
     -42.86539365
    ]
   },
   "properties": {
    "name": "UNIT 1, 18 ROSS AVENUE ROSNY PARK 7018",
    "locID": "LOC000001863628",
    "tech": "FTTP",
    "upgrade": "NULL_NA",
    "gnaf_pid": "GATAS702555039",
    "ee": true
   }
  },
  {
   "type": "Feature",
   "geometry": {
    "type": "Point",
    "coordinates": [
     147.37074102,
     -42.86539365
    ]
   },
   "properties": {
    "name": "UNIT 2, 18 ROSS AVENUE ROSNY PARK 7018",
    "locID": "LOC000136000095",
    "tech": "FTTP",
    "upgrade": "NULL_NA",
    "gnaf_pid": "GATAS702555040",
    "ee": true
   }
  },
  {
   "type": "Feature",
   "geometry": {
    "type": "Point",
    "coordinates": [
     147.37074102,
     -42.86539365
    ]
   },
   "properties": {
    "name": "UNIT 3, 18 ROSS AVENUE ROSNY PARK 7018",
    "locID": "LOC000001857891",
    "tech": "FTTP",
    "upgrade": "NULL_NA",
    "gnaf_pid": "GATAS702555041",
    "ee": true
   }
  },
  {
   "type": "Feature",
   "geometry": {
    "type": "Point",
    "coordinates": [
     147.37126375,
     -42.86832306
    ]
   },
   "properties": {
    "name": "2 ROSNY HILL ROAD ROSNY PARK 7018",
    "locID": "LOC000027485146",
    "tech": "FTTP",
    "upgrade": "NULL_NA",
    "gnaf_pid": "GATAS702574171",
    "ee": true
   }
  },
  {
   "type": "Feature",
   "geometry": {
    "type": "Point",
    "coordinates": [
     147.37225508,
     -42.86676768
    ]
   },
   "properties": {
    "name": "30 BAYFIELD STREET ROSNY PARK 7018",
    "locID": "LOC000153927858",
    "tech": "FTTP",
    "upgrade": "NULL_NA",
    "gnaf_pid": "GATAS702681943",
    "ee": true
   }
  },
  {
   "type": "Feature",
   "geometry": {
    "type": "Point",
    "coordinates": [
     147.37081375,
     -42.86687522
    ]
   },
   "properties": {
    "name": "SUITE 5, 13 BAYFIELD STREET ROSNY PARK 7018",
    "locID": "LOC000100496496",
    "tech": "FTTP",
    "upgrade": "NULL_NA",
    "gnaf_pid": "GATAS702681945",
    "ee": true
   }
  },
  {
   "type": "Feature",
   "geometry": {
    "type": "Point",
    "coordinates": [
     147.36957645,
     -42.86657806
    ]
   },
   "properties": {
    "name": "3 BAYFIELD STREET ROSNY PARK 7018",
    "locID": "LOC000153927827",
    "tech": "FTTP",
    "upgrade": "NULL_NA",
    "gnaf_pid": "GATAS702681959",
    "ee": true
   }
  },
  {
   "type": "Feature",
   "geometry": {
    "type": "Point",
    "coordinates": [
     147.36999527,
     -42.86665186
    ]
   },
   "properties": {
    "name": "7 BAYFIELD STREET ROSNY PARK 7018",
    "locID": "LOC000153928346",
    "tech": "FTTP",
    "upgrade": "NULL_NA",
    "gnaf_pid": "GATAS702681961",
    "ee": true
   }
  },
  {
   "type": "Feature",
   "geometry": {
    "type": "Point",
    "coordinates": [
     147.37005955,
     -42.86609758
    ]
   },
   "properties": {
    "name": "SHOP 1, 6 BAYFIELD STREET ROSNY PARK 7018",
    "locID": "LOC000137785173",
    "tech": "FTTP",
    "upgrade": "NULL_NA",
    "gnaf_pid": "GATAS702682879",
    "ee": true
   }
  },
  {
   "type": "Feature",
   "geometry": {
    "type": "Point",
    "coordinates": [
     147.37005955,
     -42.86609758
    ]
   },
   "properties": {
    "name": "UNIT 2, 6 BAYFIELD STREET ROSNY PARK 7018",
    "locID": "LOC000006292700",
    "tech": "FTTP",
    "upgrade": "NULL_NA",
    "gnaf_pid": "GATAS702682880",
    "ee": true
   }
  },
  {
   "type": "Feature",
   "geometry": {
    "type": "Point",
    "coordinates": [
     147.37005955,
     -42.86609758
    ]
   },
   "properties": {
    "name": "SUITE 3, 6 BAYFIELD STREET ROSNY PARK 7018",
    "locID": "LOC000146833456",
    "tech": "FTTP",
    "upgrade": "NULL_NA",
    "gnaf_pid": "GATAS702682881",
    "ee": true
   }
  },
  {
   "type": "Feature",
   "geometry": {
    "type": "Point",
    "coordinates": [
     147.36982522,
     -42.86658865
    ]
   },
   "properties": {
    "name": "5 BAYFIELD STREET ROSNY PARK 7018",
    "locID": "LOC000035022972",
    "tech": "FTTP",
    "upgrade": "NULL_NA",
    "gnaf_pid": "GATAS702682885",
    "ee": true
   }
  },
  {
   "type": "Feature",
   "geometry": {
    "type": "Point",
    "coordinates": [
     147.37137386,
     -42.86533535
    ]
   },
   "properties": {
    "name": "10 ROSS AVENUE ROSNY PARK 7018",
    "locID": "LOC000065795275",
    "tech": "FTTP",
    "upgrade": "NULL_NA",
    "gnaf_pid": "GATAS702682892",
    "ee": true
   }
  },
  {
   "type": "Feature",
   "geometry": {
    "type": "Point",
    "coordinates": [
     147.37074102,
     -42.86539365
    ]
   },
   "properties": {
    "name": "SHOP 5, 18 ROSS AVENUE ROSNY PARK 7018",
    "locID": "LOC000136000082",
    "tech": "FTTP",
    "upgrade": "NULL_NA",
    "gnaf_pid": "GATAS702682894",
    "ee": true
   }
  },
  {
   "type": "Feature",
   "geometry": {
    "type": "Point",
    "coordinates": [
     147.3709579,
     -42.86504896
    ]
   },
   "properties": {
    "name": "1 ROSS AVENUE ROSNY PARK 7018",
    "locID": "LOC000026780152",
    "tech": "FTTP",
    "upgrade": "NULL_NA",
    "gnaf_pid": "GATAS702682895",
    "ee": true
   }
  },
  {
   "type": "Feature",
   "geometry": {
    "type": "Point",
    "coordinates": [
     147.37037597,
     -42.8662239
    ]
   },
   "properties": {
    "name": "10 BAYFIELD STREET ROSNY PARK 7018",
    "locID": "LOC000133594114",
    "tech": "FTTP",
    "upgrade": "NULL_NA",
    "gnaf_pid": "GATAS702683794",
    "ee": true
   }
  },
  {
   "type": "Feature",
   "geometry": {
    "type": "Point",
    "coordinates": [
     147.37075095,
     -42.86698929
    ]
   },
   "properties": {
    "name": "13 BAYFIELD STREET ROSNY PARK 7018",
    "locID": "LOC000100496496",
    "tech": "FTTP",
    "upgrade": "NULL_NA",
    "gnaf_pid": "GATAS702683796",
    "ee": true
   }
  },
  {
   "type": "Feature",
   "geometry": {
    "type": "Point",
    "coordinates": [
     147.37075076,
     -42.8669889
    ]
   },
   "properties": {
    "name": "UNIT 4, 13 BAYFIELD STREET ROSNY PARK 7018",
    "locID": "LOC000100496496",
    "tech": "FTTP",
    "upgrade": "NULL_NA",
    "gnaf_pid": "GATAS702683797",
    "ee": true
   }
  },
  {
   "type": "Feature",
   "geometry": {
    "type": "Point",
    "coordinates": [
     147.36969198,
     -42.86607256
    ]
   },
   "properties": {
    "name": "UNIT 1, 2 BAYFIELD STREET ROSNY PARK 7018",
    "locID": "LOC000006243629",
    "tech": "FTTP",
    "upgrade": "NULL_NA",
    "gnaf_pid": "GATAS702683804",
    "ee": true
   }
  },
  {
   "type": "Feature",
   "geometry": {
    "type": "Point",
    "coordinates": [
     147.37009283,
     -42.86541406
    ]
   },
   "properties": {
    "name": "17 BLIGH STREET ROSNY PARK 7018",
    "locID": "LOC000159608166",
    "tech": "FTTP",
    "upgrade": "NULL_NA",
    "gnaf_pid": "GATAS702686229",
    "ee": true
   }
  },
  {
   "type": "Feature",
   "geometry": {
    "type": "Point",
    "coordinates": [
     147.37199886,
     -42.86551095
    ]
   },
   "properties": {
    "name": "12 GORDONS HILL ROAD ROSNY PARK 7018",
    "locID": "LOC000053324684",
    "tech": "FTTP",
    "upgrade": "NULL_NA",
    "gnaf_pid": "GATAS702689623",
    "ee": true
   }
  },
  {
   "type": "Feature",
   "geometry": {
    "type": "Point",
    "coordinates": [
     147.37200055,
     -42.86562712
    ]
   },
   "properties": {
    "name": "8A GORDONS HILL ROAD ROSNY PARK 7018",
    "locID": "LOC000046617852",
    "tech": "FTTP",
    "upgrade": "NULL_NA",
    "gnaf_pid": "GATAS702689624",
    "ee": true
   }
  },
  {
   "type": "Feature",
   "geometry": {
    "type": "Point",
    "coordinates": [
     147.36969198,
     -42.86607256
    ]
   },
   "properties": {
    "name": "UNIT 2, 2 BAYFIELD STREET ROSNY PARK 7018",
    "locID": "LOC000006243808",
    "tech": "FTTP",
    "upgrade": "NULL_NA",
    "gnaf_pid": "GATAS702693542",
    "ee": true
   }
  },
  {
   "type": "Feature",
   "geometry": {
    "type": "Point",
    "coordinates": [
     147.36969198,
     -42.86607256
    ]
   },
   "properties": {
    "name": "UNIT 6, 2 BAYFIELD STREET ROSNY PARK 7018",
    "locID": "LOC000006292700",
    "tech": "FTTP",
    "upgrade": "NULL_NA",
    "gnaf_pid": "GATAS702693543",
    "ee": true
   }
  },
  {
   "type": "Feature",
   "geometry": {
    "type": "Point",
    "coordinates": [
     147.36976112,
     -42.86665705
    ]
   },
   "properties": {
    "name": "SUITE 1, 5 BAYFIELD STREET ROSNY PARK 7018",
    "locID": "LOC000035022972",
    "tech": "FTTP",
    "upgrade": "NULL_NA",
    "gnaf_pid": "GATAS715277166",
    "ee": true
   }
  },
  {
   "type": "Feature",
   "geometry": {
    "type": "Point",
    "coordinates": [
     147.37232655,
     -42.86615857
    ]
   },
   "properties": {
    "name": "2 GORDONS HILL ROAD ROSNY PARK 7018",
    "locID": "LOC000013490760",
    "tech": "FTTP",
    "upgrade": "NULL_NA",
    "gnaf_pid": "GATAS716463815",
    "ee": true
   }
  },
  {
   "type": "Feature",
   "geometry": {
    "type": "Point",
    "coordinates": [
     147.36903553,
     -42.86885912
    ]
   },
   "properties": {
    "name": "UNIT 1, 15 ROSNY HILL ROAD ROSNY PARK 7018",
    "locID": "LOC000017113564",
    "tech": "FTTP",
    "upgrade": "NULL_NA",
    "gnaf_pid": "GATAS717059298",
    "ee": true
   }
  },
  {
   "type": "Feature",
   "geometry": {
    "type": "Point",
    "coordinates": [
     147.36907976,
     -42.86909346
    ]
   },
   "properties": {
    "name": "UNIT 2, 15 ROSNY HILL ROAD ROSNY PARK 7018",
    "locID": "LOC000016949360",
    "tech": "FTTP",
    "upgrade": "NULL_NA",
    "gnaf_pid": "GATAS717059299",
    "ee": true
   }
  },
  {
   "type": "Feature",
   "geometry": {
    "type": "Point",
    "coordinates": [
     147.3641162,
     -42.8692713
    ]
   },
   "properties": {
    "name": "18 BASTICK STREET ROSNY PARK 7018",
    "locID": "LOC000133606827",
    "tech": "FTTP",
    "upgrade": "NULL_NA",
    "gnaf_pid": "GATAS717122776",
    "ee": true
   }
  },
  {
   "type": "Feature",
   "geometry": {
    "type": "Point",
    "coordinates": [
     147.37240085,
     -42.86683697
    ]
   },
   "properties": {
    "name": "32 BAYFIELD STREET ROSNY PARK 7018",
    "locID": "LOC000070611018",
    "tech": "FTTP",
    "upgrade": "NULL_NA",
    "gnaf_pid": "GATAS717234737",
    "ee": true
   }
  },
  {
   "type": "Feature",
   "geometry": {
    "type": "Point",
    "coordinates": [
     147.36724957,
     -42.8698944
    ]
   },
   "properties": {
    "name": "20 KANGAROO BAY DRIVE ROSNY PARK 7018",
    "locID": "LOC000162180896",
    "tech": "FTTP",
    "upgrade": "NULL_NA",
    "gnaf_pid": "GATAS717490416",
    "ee": true
   }
  },
  {
   "type": "Feature",
   "geometry": {
    "type": "Point",
    "coordinates": [
     147.37115443,
     -42.8671571
    ]
   },
   "properties": {
    "name": "SHOP 1, 17 BAYFIELD STREET ROSNY PARK 7018",
    "locID": "LOC000014214450",
    "tech": "FTTP",
    "upgrade": "NULL_NA",
    "gnaf_pid": "GATAS717840997",
    "ee": true
   }
  },
  {
   "type": "Feature",
   "geometry": {
    "type": "Point",
    "coordinates": [
     147.37025654,
     -42.86615583
    ]
   },
   "properties": {
    "name": "SUITE 1, 8 BAYFIELD STREET ROSNY PARK 7018",
    "locID": "LOC100072432341",
    "tech": "FTTP",
    "upgrade": "NULL_NA",
    "gnaf_pid": "GATAS717840998",
    "ee": true
   }
  },
  {
   "type": "Feature",
   "geometry": {
    "type": "Point",
    "coordinates": [
     147.37115443,
     -42.8671571
    ]
   },
   "properties": {
    "name": "SHOP 2, 17 BAYFIELD STREET ROSNY PARK 7018",
    "locID": "LOC000014300835",
    "tech": "FTTP",
    "upgrade": "NULL_NA",
    "gnaf_pid": "GATAS717840999",
    "ee": true
   }
  },
  {
   "type": "Feature",
   "geometry": {
    "type": "Point",
    "coordinates": [
     147.37025654,
     -42.86615583
    ]
   },
   "properties": {
    "name": "SUITE 2, 8 BAYFIELD STREET ROSNY PARK 7018",
    "locID": "LOC000006211127",
    "tech": "FTTP",
    "upgrade": "NULL_NA",
    "gnaf_pid": "GATAS717841000",
    "ee": true
   }
  },
  {
   "type": "Feature",
   "geometry": {
    "type": "Point",
    "coordinates": [
     147.37115443,
     -42.8671571
    ]
   },
   "properties": {
    "name": "SHOP 3, 17 BAYFIELD STREET ROSNY PARK 7018",
    "locID": "LOC000014316669",
    "tech": "FTTP",
    "upgrade": "NULL_NA",
    "gnaf_pid": "GATAS717841001",
    "ee": true
   }
  },
  {
   "type": "Feature",
   "geometry": {
    "type": "Point",
    "coordinates": [
     147.37025654,
     -42.86615583
    ]
   },
   "properties": {
    "name": "SUITE 3, 8 BAYFIELD STREET ROSNY PARK 7018",
    "locID": "LOC100072432341",
    "tech": "FTTP",
    "upgrade": "NULL_NA",
    "gnaf_pid": "GATAS717841002",
    "ee": true
   }
  },
  {
   "type": "Feature",
   "geometry": {
    "type": "Point",
    "coordinates": [
     147.37025654,
     -42.86615583
    ]
   },
   "properties": {
    "name": "SUITE 4, 8 BAYFIELD STREET ROSNY PARK 7018",
    "locID": "LOC100072432341",
    "tech": "FTTP",
    "upgrade": "NULL_NA",
    "gnaf_pid": "GATAS717841003",
    "ee": true
   }
  },
  {
   "type": "Feature",
   "geometry": {
    "type": "Point",
    "coordinates": [
     147.36938016,
     -42.86652184
    ]
   },
   "properties": {
    "name": "UNIT 2, 1 BAYFIELD STREET ROSNY PARK 7018",
    "locID": "LOC000006243629",
    "tech": "FTTP",
    "upgrade": "NULL_NA",
    "gnaf_pid": "GATAS718019949",
    "ee": true
   }
  },
  {
   "type": "Feature",
   "geometry": {
    "type": "Point",
    "coordinates": [
     147.36996433,
     -42.8656279
    ]
   },
   "properties": {
    "name": "SHOP 3, 17A BLIGH STREET ROSNY PARK 7018",
    "locID": "LOC000095128447",
    "tech": "FTTP",
    "upgrade": "NULL_NA",
    "gnaf_pid": "GATAS718019954",
    "ee": true
   }
  },
  {
   "type": "Feature",
   "geometry": {
    "type": "Point",
    "coordinates": [
     147.36932883,
     -42.86890716
    ]
   },
   "properties": {
    "name": "UNIT 1, 13 ROSNY HILL ROAD ROSNY PARK 7018",
    "locID": "LOC000133640993",
    "tech": "FTTP",
    "upgrade": "NULL_NA",
    "gnaf_pid": "GATAS718336540",
    "ee": true
   }
  },
  {
   "type": "Feature",
   "geometry": {
    "type": "Point",
    "coordinates": [
     147.36928105,
     -42.86912099
    ]
   },
   "properties": {
    "name": "UNIT 2, 13 ROSNY HILL ROAD ROSNY PARK 7018",
    "locID": "LOC000021147325",
    "tech": "FTTP",
    "upgrade": "NULL_NA",
    "gnaf_pid": "GATAS718336541",
    "ee": true
   }
  },
  {
   "type": "Feature",
   "geometry": {
    "type": "Point",
    "coordinates": [
     147.36957205,
     -42.86717235
    ]
   },
   "properties": {
    "name": "UNIT 1, 7 BLIGH STREET ROSNY PARK 7018",
    "locID": "LOC100072205058",
    "tech": "FTTP",
    "upgrade": "NULL_NA",
    "gnaf_pid": "GATAS718760467",
    "ee": true
   }
  },
  {
   "type": "Feature",
   "geometry": {
    "type": "Point",
    "coordinates": [
     147.36821896,
     -42.86643535
    ]
   },
   "properties": {
    "name": "SHOP 9K, 26 BLIGH STREET ROSNY PARK 7018",
    "locID": "LOC000146820773",
    "tech": "FTTB",
    "upgrade": "NULL_NA",
    "gnaf_pid": "GATAS719771890",
    "ee": true
   }
  },
  {
   "type": "Feature",
   "geometry": {
    "type": "Point",
    "coordinates": [
     147.36821896,
     -42.86643535
    ]
   },
   "properties": {
    "name": "SHOP 6A, 26 BLIGH STREET ROSNY PARK 7018",
    "locID": "LOC000098982759",
    "tech": "FTTB",
    "upgrade": "NULL_NA",
    "gnaf_pid": "GATAS719771891",
    "ee": true
   }
  },
  {
   "type": "Feature",
   "geometry": {
    "type": "Point",
    "coordinates": [
     147.36821896,
     -42.86643535
    ]
   },
   "properties": {
    "name": "SHOP 45U, 26 BLIGH STREET ROSNY PARK 7018",
    "locID": "LOC000146820773",
    "tech": "FTTB",
    "upgrade": "NULL_NA",
    "gnaf_pid": "GATAS719771892",
    "ee": true
   }
  },
  {
   "type": "Feature",
   "geometry": {
    "type": "Point",
    "coordinates": [
     147.36821896,
     -42.86643535
    ]
   },
   "properties": {
    "name": "SHOP 26A, 26 BLIGH STREET ROSNY PARK 7018",
    "locID": "LOC000146820773",
    "tech": "FTTB",
    "upgrade": "NULL_NA",
    "gnaf_pid": "GATAS719771893",
    "ee": true
   }
  },
  {
   "type": "Feature",
   "geometry": {
    "type": "Point",
    "coordinates": [
     147.36821896,
     -42.86643535
    ]
   },
   "properties": {
    "name": "SHOP 9A, 26 BLIGH STREET ROSNY PARK 7018",
    "locID": "LOC000146820773",
    "tech": "FTTB",
    "upgrade": "NULL_NA",
    "gnaf_pid": "GATAS719771894",
    "ee": true
   }
  },
  {
   "type": "Feature",
   "geometry": {
    "type": "Point",
    "coordinates": [
     147.36821896,
     -42.86643535
    ]
   },
   "properties": {
    "name": "UNIT 11U, 26 BLIGH STREET ROSNY PARK 7018",
    "locID": "LOC000146820773",
    "tech": "FTTB",
    "upgrade": "NULL_NA",
    "gnaf_pid": "GATAS719771895",
    "ee": true
   }
  },
  {
   "type": "Feature",
   "geometry": {
    "type": "Point",
    "coordinates": [
     147.36821896,
     -42.86643535
    ]
   },
   "properties": {
    "name": "UNIT 8U, 26 BLIGH STREET ROSNY PARK 7018",
    "locID": "LOC000146820773",
    "tech": "FTTB",
    "upgrade": "NULL_NA",
    "gnaf_pid": "GATAS719771896",
    "ee": true
   }
  },
  {
   "type": "Feature",
   "geometry": {
    "type": "Point",
    "coordinates": [
     147.36821896,
     -42.86643535
    ]
   },
   "properties": {
    "name": "UNIT 7G, 26 BLIGH STREET ROSNY PARK 7018",
    "locID": "LOC000146820773",
    "tech": "FTTB",
    "upgrade": "NULL_NA",
    "gnaf_pid": "GATAS719771897",
    "ee": true
   }
  },
  {
   "type": "Feature",
   "geometry": {
    "type": "Point",
    "coordinates": [
     147.36821896,
     -42.86643535
    ]
   },
   "properties": {
    "name": "UNIT 28, 26 BLIGH STREET ROSNY PARK 7018",
    "locID": "LOC000180653329",
    "tech": "FTTB",
    "upgrade": "NULL_NA",
    "gnaf_pid": "GATAS719771898",
    "ee": true
   }
  },
  {
   "type": "Feature",
   "geometry": {
    "type": "Point",
    "coordinates": [
     147.36821896,
     -42.86643535
    ]
   },
   "properties": {
    "name": "UNIT 13U, 26 BLIGH STREET ROSNY PARK 7018",
    "locID": "LOC000146820773",
    "tech": "FTTB",
    "upgrade": "NULL_NA",
    "gnaf_pid": "GATAS719771899",
    "ee": true
   }
  },
  {
   "type": "Feature",
   "geometry": {
    "type": "Point",
    "coordinates": [
     147.36821896,
     -42.86643535
    ]
   },
   "properties": {
    "name": "SHOP 35G, 26 BLIGH STREET ROSNY PARK 7018",
    "locID": "LOC000146820773",
    "tech": "FTTB",
    "upgrade": "NULL_NA",
    "gnaf_pid": "GATAS719771900",
    "ee": true
   }
  },
  {
   "type": "Feature",
   "geometry": {
    "type": "Point",
    "coordinates": [
     147.36821896,
     -42.86643535
    ]
   },
   "properties": {
    "name": "UNIT 23U, 26 BLIGH STREET ROSNY PARK 7018",
    "locID": "LOC000146820773",
    "tech": "FTTB",
    "upgrade": "NULL_NA",
    "gnaf_pid": "GATAS719771901",
    "ee": true
   }
  },
  {
   "type": "Feature",
   "geometry": {
    "type": "Point",
    "coordinates": [
     147.36821896,
     -42.86643535
    ]
   },
   "properties": {
    "name": "UNIT 18U, 26 BLIGH STREET ROSNY PARK 7018",
    "locID": "LOC000146820773",
    "tech": "FTTB",
    "upgrade": "NULL_NA",
    "gnaf_pid": "GATAS719771902",
    "ee": true
   }
  },
  {
   "type": "Feature",
   "geometry": {
    "type": "Point",
    "coordinates": [
     147.36821896,
     -42.86643535
    ]
   },
   "properties": {
    "name": "UNIT 26G, 26 BLIGH STREET ROSNY PARK 7018",
    "locID": "LOC000146820773",
    "tech": "FTTB",
    "upgrade": "NULL_NA",
    "gnaf_pid": "GATAS719771903",
    "ee": true
   }
  },
  {
   "type": "Feature",
   "geometry": {
    "type": "Point",
    "coordinates": [
     147.36821896,
     -42.86643535
    ]
   },
   "properties": {
    "name": "SHOP 28U, 26 BLIGH STREET ROSNY PARK 7018",
    "locID": "LOC000146820773",
    "tech": "FTTB",
    "upgrade": "NULL_NA",
    "gnaf_pid": "GATAS719771904",
    "ee": true
   }
  },
  {
   "type": "Feature",
   "geometry": {
    "type": "Point",
    "coordinates": [
     147.36821896,
     -42.86643535
    ]
   },
   "properties": {
    "name": "UNIT 39U, 26 BLIGH STREET ROSNY PARK 7018",
    "locID": "LOC000146820773",
    "tech": "FTTB",
    "upgrade": "NULL_NA",
    "gnaf_pid": "GATAS719771905",
    "ee": true
   }
  },
  {
   "type": "Feature",
   "geometry": {
    "type": "Point",
    "coordinates": [
     147.36821896,
     -42.86643535
    ]
   },
   "properties": {
    "name": "SHOP 7A, 26 BLIGH STREET ROSNY PARK 7018",
    "locID": "LOC000146820773",
    "tech": "FTTB",
    "upgrade": "NULL_NA",
    "gnaf_pid": "GATAS719771918",
    "ee": true
   }
  },
  {
   "type": "Feature",
   "geometry": {
    "type": "Point",
    "coordinates": [
     147.36821896,
     -42.86643535
    ]
   },
   "properties": {
    "name": "UNIT 41U, 26 BLIGH STREET ROSNY PARK 7018",
    "locID": "LOC000146820773",
    "tech": "FTTB",
    "upgrade": "NULL_NA",
    "gnaf_pid": "GATAS719771919",
    "ee": true
   }
  },
  {
   "type": "Feature",
   "geometry": {
    "type": "Point",
    "coordinates": [
     147.36821896,
     -42.86643535
    ]
   },
   "properties": {
    "name": "SHOP 51U, 26 BLIGH STREET ROSNY PARK 7018",
    "locID": "LOC000146820773",
    "tech": "FTTB",
    "upgrade": "NULL_NA",
    "gnaf_pid": "GATAS719771920",
    "ee": true
   }
  },
  {
   "type": "Feature",
   "geometry": {
    "type": "Point",
    "coordinates": [
     147.36821896,
     -42.86643535
    ]
   },
   "properties": {
    "name": "SHOP 40A, 26 BLIGH STREET ROSNY PARK 7018",
    "locID": "LOC000146820773",
    "tech": "FTTB",
    "upgrade": "NULL_NA",
    "gnaf_pid": "GATAS719771921",
    "ee": true
   }
  },
  {
   "type": "Feature",
   "geometry": {
    "type": "Point",
    "coordinates": [
     147.36821896,
     -42.86643535
    ]
   },
   "properties": {
    "name": "SHOP 42G, 26 BLIGH STREET ROSNY PARK 7018",
    "locID": "LOC000146820773",
    "tech": "FTTB",
    "upgrade": "NULL_NA",
    "gnaf_pid": "GATAS719771922",
    "ee": true
   }
  },
  {
   "type": "Feature",
   "geometry": {
    "type": "Point",
    "coordinates": [
     147.36821896,
     -42.86643535
    ]
   },
   "properties": {
    "name": "SHOP 10A, 26 BLIGH STREET ROSNY PARK 7018",
    "locID": "LOC000146820773",
    "tech": "FTTB",
    "upgrade": "NULL_NA",
    "gnaf_pid": "GATAS719771923",
    "ee": true
   }
  },
  {
   "type": "Feature",
   "geometry": {
    "type": "Point",
    "coordinates": [
     147.36821896,
     -42.86643535
    ]
   },
   "properties": {
    "name": "UNIT 24G, 26 BLIGH STREET ROSNY PARK 7018",
    "locID": "LOC000146820773",
    "tech": "FTTB",
    "upgrade": "NULL_NA",
    "gnaf_pid": "GATAS719771924",
    "ee": true
   }
  },
  {
   "type": "Feature",
   "geometry": {
    "type": "Point",
    "coordinates": [
     147.36821896,
     -42.86643535
    ]
   },
   "properties": {
    "name": "UNIT 12U, 26 BLIGH STREET ROSNY PARK 7018",
    "locID": "LOC000146820773",
    "tech": "FTTB",
    "upgrade": "NULL_NA",
    "gnaf_pid": "GATAS719771939",
    "ee": true
   }
  },
  {
   "type": "Feature",
   "geometry": {
    "type": "Point",
    "coordinates": [
     147.36821896,
     -42.86643535
    ]
   },
   "properties": {
    "name": "UNIT 25G, 26 BLIGH STREET ROSNY PARK 7018",
    "locID": "LOC000146820773",
    "tech": "FTTB",
    "upgrade": "NULL_NA",
    "gnaf_pid": "GATAS719771940",
    "ee": true
   }
  },
  {
   "type": "Feature",
   "geometry": {
    "type": "Point",
    "coordinates": [
     147.36821896,
     -42.86643535
    ]
   },
   "properties": {
    "name": "SHOP 46U, 26 BLIGH STREET ROSNY PARK 7018",
    "locID": "LOC000146820773",
    "tech": "FTTB",
    "upgrade": "NULL_NA",
    "gnaf_pid": "GATAS719771941",
    "ee": true
   }
  },
  {
   "type": "Feature",
   "geometry": {
    "type": "Point",
    "coordinates": [
     147.36821896,
     -42.86643535
    ]
   },
   "properties": {
    "name": "SHOP 1U, 26 BLIGH STREET ROSNY PARK 7018",
    "locID": "LOC000146820773",
    "tech": "FTTB",
    "upgrade": "NULL_NA",
    "gnaf_pid": "GATAS719771942",
    "ee": true
   }
  },
  {
   "type": "Feature",
   "geometry": {
    "type": "Point",
    "coordinates": [
     147.36821896,
     -42.86643535
    ]
   },
   "properties": {
    "name": "UNIT 16G, 26 BLIGH STREET ROSNY PARK 7018",
    "locID": "LOC000146820773",
    "tech": "FTTB",
    "upgrade": "NULL_NA",
    "gnaf_pid": "GATAS719771943",
    "ee": true
   }
  },
  {
   "type": "Feature",
   "geometry": {
    "type": "Point",
    "coordinates": [
     147.36821896,
     -42.86643535
    ]
   },
   "properties": {
    "name": "SHOP 32G, 26 BLIGH STREET ROSNY PARK 7018",
    "locID": "LOC000146820773",
    "tech": "FTTB",
    "upgrade": "NULL_NA",
    "gnaf_pid": "GATAS719771944",
    "ee": true
   }
  },
  {
   "type": "Feature",
   "geometry": {
    "type": "Point",
    "coordinates": [
     147.36821896,
     -42.86643535
    ]
   },
   "properties": {
    "name": "UNIT 48U, 26 BLIGH STREET ROSNY PARK 7018",
    "locID": "LOC000146820773",
    "tech": "FTTB",
    "upgrade": "NULL_NA",
    "gnaf_pid": "GATAS719771945",
    "ee": true
   }
  },
  {
   "type": "Feature",
   "geometry": {
    "type": "Point",
    "coordinates": [
     147.36821896,
     -42.86643535
    ]
   },
   "properties": {
    "name": "SHOP 1G, 26 BLIGH STREET ROSNY PARK 7018",
    "locID": "LOC000146820773",
    "tech": "FTTB",
    "upgrade": "NULL_NA",
    "gnaf_pid": "GATAS719771946",
    "ee": true
   }
  },
  {
   "type": "Feature",
   "geometry": {
    "type": "Point",
    "coordinates": [
     147.36821896,
     -42.86643535
    ]
   },
   "properties": {
    "name": "UNIT 27G, 26 BLIGH STREET ROSNY PARK 7018",
    "locID": "LOC000146820773",
    "tech": "FTTB",
    "upgrade": "NULL_NA",
    "gnaf_pid": "GATAS719771947",
    "ee": true
   }
  },
  {
   "type": "Feature",
   "geometry": {
    "type": "Point",
    "coordinates": [
     147.36821896,
     -42.86643535
    ]
   },
   "properties": {
    "name": "UNIT 23G, 26 BLIGH STREET ROSNY PARK 7018",
    "locID": "LOC000146820773",
    "tech": "FTTB",
    "upgrade": "NULL_NA",
    "gnaf_pid": "GATAS719771948",
    "ee": true
   }
  },
  {
   "type": "Feature",
   "geometry": {
    "type": "Point",
    "coordinates": [
     147.36821896,
     -42.86643535
    ]
   },
   "properties": {
    "name": "UNIT 29U, 26 BLIGH STREET ROSNY PARK 7018",
    "locID": "LOC000146820773",
    "tech": "FTTB",
    "upgrade": "NULL_NA",
    "gnaf_pid": "GATAS719771949",
    "ee": true
   }
  },
  {
   "type": "Feature",
   "geometry": {
    "type": "Point",
    "coordinates": [
     147.36821896,
     -42.86643535
    ]
   },
   "properties": {
    "name": "SHOP 60U, 26 BLIGH STREET ROSNY PARK 7018",
    "locID": "LOC000146820773",
    "tech": "FTTB",
    "upgrade": "NULL_NA",
    "gnaf_pid": "GATAS719771950",
    "ee": true
   }
  },
  {
   "type": "Feature",
   "geometry": {
    "type": "Point",
    "coordinates": [
     147.36821896,
     -42.86643535
    ]
   },
   "properties": {
    "name": "SHOP 39G, 26 BLIGH STREET ROSNY PARK 7018",
    "locID": "LOC000146820773",
    "tech": "FTTB",
    "upgrade": "NULL_NA",
    "gnaf_pid": "GATAS719771951",
    "ee": true
   }
  },
  {
   "type": "Feature",
   "geometry": {
    "type": "Point",
    "coordinates": [
     147.36821896,
     -42.86643535
    ]
   },
   "properties": {
    "name": "SHOP 38G, 26 BLIGH STREET ROSNY PARK 7018",
    "locID": "LOC000146820773",
    "tech": "FTTB",
    "upgrade": "NULL_NA",
    "gnaf_pid": "GATAS719771964",
    "ee": true
   }
  },
  {
   "type": "Feature",
   "geometry": {
    "type": "Point",
    "coordinates": [
     147.36821896,
     -42.86643535
    ]
   },
   "properties": {
    "name": "SHOP 2U, 26 BLIGH STREET ROSNY PARK 7018",
    "locID": "LOC000146820773",
    "tech": "FTTB",
    "upgrade": "NULL_NA",
    "gnaf_pid": "GATAS719771965",
    "ee": true
   }
  },
  {
   "type": "Feature",
   "geometry": {
    "type": "Point",
    "coordinates": [
     147.36821896,
     -42.86643535
    ]
   },
   "properties": {
    "name": "SHOP 3U, 26 BLIGH STREET ROSNY PARK 7018",
    "locID": "LOC000146820773",
    "tech": "FTTB",
    "upgrade": "NULL_NA",
    "gnaf_pid": "GATAS719771966",
    "ee": true
   }
  },
  {
   "type": "Feature",
   "geometry": {
    "type": "Point",
    "coordinates": [
     147.36821896,
     -42.86643535
    ]
   },
   "properties": {
    "name": "UNIT 52G, 26 BLIGH STREET ROSNY PARK 7018",
    "locID": "LOC000146820773",
    "tech": "FTTB",
    "upgrade": "NULL_NA",
    "gnaf_pid": "GATAS719771967",
    "ee": true
   }
  },
  {
   "type": "Feature",
   "geometry": {
    "type": "Point",
    "coordinates": [
     147.36821896,
     -42.86643535
    ]
   },
   "properties": {
    "name": "UNIT 22U, 26 BLIGH STREET ROSNY PARK 7018",
    "locID": "LOC000146820773",
    "tech": "FTTB",
    "upgrade": "NULL_NA",
    "gnaf_pid": "GATAS719771968",
    "ee": true
   }
  },
  {
   "type": "Feature",
   "geometry": {
    "type": "Point",
    "coordinates": [
     147.36821896,
     -42.86643535
    ]
   },
   "properties": {
    "name": "UNIT 19U, 26 BLIGH STREET ROSNY PARK 7018",
    "locID": "LOC000146820773",
    "tech": "FTTB",
    "upgrade": "NULL_NA",
    "gnaf_pid": "GATAS719771969",
    "ee": true
   }
  },
  {
   "type": "Feature",
   "geometry": {
    "type": "Point",
    "coordinates": [
     147.36821896,
     -42.86643535
    ]
   },
   "properties": {
    "name": "UNIT 61U, 26 BLIGH STREET ROSNY PARK 7018",
    "locID": "LOC000146820773",
    "tech": "FTTB",
    "upgrade": "NULL_NA",
    "gnaf_pid": "GATAS719771970",
    "ee": true
   }
  },
  {
   "type": "Feature",
   "geometry": {
    "type": "Point",
    "coordinates": [
     147.36821896,
     -42.86643535
    ]
   },
   "properties": {
    "name": "SHOP 44G, 26 BLIGH STREET ROSNY PARK 7018",
    "locID": "LOC000146820773",
    "tech": "FTTB",
    "upgrade": "NULL_NA",
    "gnaf_pid": "GATAS719771971",
    "ee": true
   }
  },
  {
   "type": "Feature",
   "geometry": {
    "type": "Point",
    "coordinates": [
     147.36821896,
     -42.86643535
    ]
   },
   "properties": {
    "name": "UNIT 24U, 26 BLIGH STREET ROSNY PARK 7018",
    "locID": "LOC000146820773",
    "tech": "FTTB",
    "upgrade": "NULL_NA",
    "gnaf_pid": "GATAS719771972",
    "ee": true
   }
  },
  {
   "type": "Feature",
   "geometry": {
    "type": "Point",
    "coordinates": [
     147.36821896,
     -42.86643535
    ]
   },
   "properties": {
    "name": "SHOP 3G, 26 BLIGH STREET ROSNY PARK 7018",
    "locID": "LOC000146820773",
    "tech": "FTTB",
    "upgrade": "NULL_NA",
    "gnaf_pid": "GATAS719771985",
    "ee": true
   }
  },
  {
   "type": "Feature",
   "geometry": {
    "type": "Point",
    "coordinates": [
     147.36821896,
     -42.86643535
    ]
   },
   "properties": {
    "name": "UNIT 40U, 26 BLIGH STREET ROSNY PARK 7018",
    "locID": "LOC000146820773",
    "tech": "FTTB",
    "upgrade": "NULL_NA",
    "gnaf_pid": "GATAS719771986",
    "ee": true
   }
  },
  {
   "type": "Feature",
   "geometry": {
    "type": "Point",
    "coordinates": [
     147.36821896,
     -42.86643535
    ]
   },
   "properties": {
    "name": "UNIT 52U, 26 BLIGH STREET ROSNY PARK 7018",
    "locID": "LOC000146820773",
    "tech": "FTTB",
    "upgrade": "NULL_NA",
    "gnaf_pid": "GATAS719771987",
    "ee": true
   }
  },
  {
   "type": "Feature",
   "geometry": {
    "type": "Point",
    "coordinates": [
     147.36821896,
     -42.86643535
    ]
   },
   "properties": {
    "name": "SHOP 43G, 26 BLIGH STREET ROSNY PARK 7018",
    "locID": "LOC000146820773",
    "tech": "FTTB",
    "upgrade": "NULL_NA",
    "gnaf_pid": "GATAS719771988",
    "ee": true
   }
  },
  {
   "type": "Feature",
   "geometry": {
    "type": "Point",
    "coordinates": [
     147.36821896,
     -42.86643535
    ]
   },
   "properties": {
    "name": "UNIT 8G, 26 BLIGH STREET ROSNY PARK 7018",
    "locID": "LOC000146820773",
    "tech": "FTTB",
    "upgrade": "NULL_NA",
    "gnaf_pid": "GATAS719771989",
    "ee": true
   }
  },
  {
   "type": "Feature",
   "geometry": {
    "type": "Point",
    "coordinates": [
     147.36821896,
     -42.86643535
    ]
   },
   "properties": {
    "name": "UNIT 44U, 26 BLIGH STREET ROSNY PARK 7018",
    "locID": "LOC000146820773",
    "tech": "FTTB",
    "upgrade": "NULL_NA",
    "gnaf_pid": "GATAS719771990",
    "ee": true
   }
  },
  {
   "type": "Feature",
   "geometry": {
    "type": "Point",
    "coordinates": [
     147.36821896,
     -42.86643535
    ]
   },
   "properties": {
    "name": "UNIT 10G, 26 BLIGH STREET ROSNY PARK 7018",
    "locID": "LOC000146820773",
    "tech": "FTTB",
    "upgrade": "NULL_NA",
    "gnaf_pid": "GATAS719771991",
    "ee": true
   }
  },
  {
   "type": "Feature",
   "geometry": {
    "type": "Point",
    "coordinates": [
     147.36821896,
     -42.86643535
    ]
   },
   "properties": {
    "name": "UNIT 62U, 26 BLIGH STREET ROSNY PARK 7018",
    "locID": "LOC000146820773",
    "tech": "FTTB",
    "upgrade": "NULL_NA",
    "gnaf_pid": "GATAS719771992",
    "ee": true
   }
  },
  {
   "type": "Feature",
   "geometry": {
    "type": "Point",
    "coordinates": [
     147.36821896,
     -42.86643535
    ]
   },
   "properties": {
    "name": "SHOP 36G, 26 BLIGH STREET ROSNY PARK 7018",
    "locID": "LOC000146820773",
    "tech": "FTTB",
    "upgrade": "NULL_NA",
    "gnaf_pid": "GATAS719771993",
    "ee": true
   }
  },
  {
   "type": "Feature",
   "geometry": {
    "type": "Point",
    "coordinates": [
     147.36821896,
     -42.86643535
    ]
   },
   "properties": {
    "name": "UNIT 14G, 26 BLIGH STREET ROSNY PARK 7018",
    "locID": "LOC000146820773",
    "tech": "FTTB",
    "upgrade": "NULL_NA",
    "gnaf_pid": "GATAS719771994",
    "ee": true
   }
  },
  {
   "type": "Feature",
   "geometry": {
    "type": "Point",
    "coordinates": [
     147.36821896,
     -42.86643535
    ]
   },
   "properties": {
    "name": "SHOP 27U, 26 BLIGH STREET ROSNY PARK 7018",
    "locID": "LOC000146820773",
    "tech": "FTTB",
    "upgrade": "NULL_NA",
    "gnaf_pid": "GATAS719771995",
    "ee": true
   }
  },
  {
   "type": "Feature",
   "geometry": {
    "type": "Point",
    "coordinates": [
     147.36821896,
     -42.86643535
    ]
   },
   "properties": {
    "name": "UNIT 25U, 26 BLIGH STREET ROSNY PARK 7018",
    "locID": "LOC000146820773",
    "tech": "FTTB",
    "upgrade": "NULL_NA",
    "gnaf_pid": "GATAS719771996",
    "ee": true
   }
  },
  {
   "type": "Feature",
   "geometry": {
    "type": "Point",
    "coordinates": [
     147.36821896,
     -42.86643535
    ]
   },
   "properties": {
    "name": "UNIT 21G, 26 BLIGH STREET ROSNY PARK 7018",
    "locID": "LOC000146820773",
    "tech": "FTTB",
    "upgrade": "NULL_NA",
    "gnaf_pid": "GATAS719771997",
    "ee": true
   }
  },
  {
   "type": "Feature",
   "geometry": {
    "type": "Point",
    "coordinates": [
     147.36821896,
     -42.86643535
    ]
   },
   "properties": {
    "name": "UNIT 32U, 26 BLIGH STREET ROSNY PARK 7018",
    "locID": "LOC000146820773",
    "tech": "FTTB",
    "upgrade": "NULL_NA",
    "gnaf_pid": "GATAS719771998",
    "ee": true
   }
  },
  {
   "type": "Feature",
   "geometry": {
    "type": "Point",
    "coordinates": [
     147.36821896,
     -42.86643535
    ]
   },
   "properties": {
    "name": "UNIT 5G, 26 BLIGH STREET ROSNY PARK 7018",
    "locID": "LOC000146820773",
    "tech": "FTTB",
    "upgrade": "NULL_NA",
    "gnaf_pid": "GATAS719771999",
    "ee": true
   }
  },
  {
   "type": "Feature",
   "geometry": {
    "type": "Point",
    "coordinates": [
     147.36821896,
     -42.86643535
    ]
   },
   "properties": {
    "name": "UNIT 15G, 26 BLIGH STREET ROSNY PARK 7018",
    "locID": "LOC000146820773",
    "tech": "FTTB",
    "upgrade": "NULL_NA",
    "gnaf_pid": "GATAS719772016",
    "ee": true
   }
  },
  {
   "type": "Feature",
   "geometry": {
    "type": "Point",
    "coordinates": [
     147.36821896,
     -42.86643535
    ]
   },
   "properties": {
    "name": "SHOP 33U, 26 BLIGH STREET ROSNY PARK 7018",
    "locID": "LOC000146820773",
    "tech": "FTTB",
    "upgrade": "NULL_NA",
    "gnaf_pid": "GATAS719772017",
    "ee": true
   }
  },
  {
   "type": "Feature",
   "geometry": {
    "type": "Point",
    "coordinates": [
     147.36821896,
     -42.86643535
    ]
   },
   "properties": {
    "name": "SHOP 4G, 26 BLIGH STREET ROSNY PARK 7018",
    "locID": "LOC000146820773",
    "tech": "FTTB",
    "upgrade": "NULL_NA",
    "gnaf_pid": "GATAS719772018",
    "ee": true
   }
  },
  {
   "type": "Feature",
   "geometry": {
    "type": "Point",
    "coordinates": [
     147.36821896,
     -42.86643535
    ]
   },
   "properties": {
    "name": "UNIT 35U, 26 BLIGH STREET ROSNY PARK 7018",
    "locID": "LOC000146820773",
    "tech": "FTTB",
    "upgrade": "NULL_NA",
    "gnaf_pid": "GATAS719772019",
    "ee": true
   }
  },
  {
   "type": "Feature",
   "geometry": {
    "type": "Point",
    "coordinates": [
     147.36821896,
     -42.86643535
    ]
   },
   "properties": {
    "name": "UNIT 38U, 26 BLIGH STREET ROSNY PARK 7018",
    "locID": "LOC000146820773",
    "tech": "FTTB",
    "upgrade": "NULL_NA",
    "gnaf_pid": "GATAS719772020",
    "ee": true
   }
  },
  {
   "type": "Feature",
   "geometry": {
    "type": "Point",
    "coordinates": [
     147.36821896,
     -42.86643535
    ]
   },
   "properties": {
    "name": "SHOP 40G, 26 BLIGH STREET ROSNY PARK 7018",
    "locID": "LOC000146820773",
    "tech": "FTTB",
    "upgrade": "NULL_NA",
    "gnaf_pid": "GATAS719772021",
    "ee": true
   }
  },
  {
   "type": "Feature",
   "geometry": {
    "type": "Point",
    "coordinates": [
     147.36821896,
     -42.86643535
    ]
   },
   "properties": {
    "name": "UNIT 20G, 26 BLIGH STREET ROSNY PARK 7018",
    "locID": "LOC000146820773",
    "tech": "FTTB",
    "upgrade": "NULL_NA",
    "gnaf_pid": "GATAS719772022",
    "ee": true
   }
  },
  {
   "type": "Feature",
   "geometry": {
    "type": "Point",
    "coordinates": [
     147.36821896,
     -42.86643535
    ]
   },
   "properties": {
    "name": "SHOP 50U, 26 BLIGH STREET ROSNY PARK 7018",
    "locID": "LOC000146820773",
    "tech": "FTTB",
    "upgrade": "NULL_NA",
    "gnaf_pid": "GATAS719772023",
    "ee": true
   }
  },
  {
   "type": "Feature",
   "geometry": {
    "type": "Point",
    "coordinates": [
     147.36821896,
     -42.86643535
    ]
   },
   "properties": {
    "name": "UNIT 42U, 26 BLIGH STREET ROSNY PARK 7018",
    "locID": "LOC000146820773",
    "tech": "FTTB",
    "upgrade": "NULL_NA",
    "gnaf_pid": "GATAS719772024",
    "ee": true
   }
  },
  {
   "type": "Feature",
   "geometry": {
    "type": "Point",
    "coordinates": [
     147.36821896,
     -42.86643535
    ]
   },
   "properties": {
    "name": "SHOP 34G, 26 BLIGH STREET ROSNY PARK 7018",
    "locID": "LOC000146820773",
    "tech": "FTTB",
    "upgrade": "NULL_NA",
    "gnaf_pid": "GATAS719772025",
    "ee": true
   }
  },
  {
   "type": "Feature",
   "geometry": {
    "type": "Point",
    "coordinates": [
     147.36821896,
     -42.86643535
    ]
   },
   "properties": {
    "name": "UNIT 26U, 26 BLIGH STREET ROSNY PARK 7018",
    "locID": "LOC000146820773",
    "tech": "FTTB",
    "upgrade": "NULL_NA",
    "gnaf_pid": "GATAS719772026",
    "ee": true
   }
  },
  {
   "type": "Feature",
   "geometry": {
    "type": "Point",
    "coordinates": [
     147.36821896,
     -42.86643535
    ]
   },
   "properties": {
    "name": "UNIT 47U, 26 BLIGH STREET ROSNY PARK 7018",
    "locID": "LOC000146820773",
    "tech": "FTTB",
    "upgrade": "NULL_NA",
    "gnaf_pid": "GATAS719772027",
    "ee": true
   }
  },
  {
   "type": "Feature",
   "geometry": {
    "type": "Point",
    "coordinates": [
     147.36821896,
     -42.86643535
    ]
   },
   "properties": {
    "name": "UNIT 20U, 26 BLIGH STREET ROSNY PARK 7018",
    "locID": "LOC000146820773",
    "tech": "FTTB",
    "upgrade": "NULL_NA",
    "gnaf_pid": "GATAS719772043",
    "ee": true
   }
  },
  {
   "type": "Feature",
   "geometry": {
    "type": "Point",
    "coordinates": [
     147.36821896,
     -42.86643535
    ]
   },
   "properties": {
    "name": "SHOP 53G, 26 BLIGH STREET ROSNY PARK 7018",
    "locID": "LOC000146820773",
    "tech": "FTTB",
    "upgrade": "NULL_NA",
    "gnaf_pid": "GATAS719772044",
    "ee": true
   }
  },
  {
   "type": "Feature",
   "geometry": {
    "type": "Point",
    "coordinates": [
     147.36821896,
     -42.86643535
    ]
   },
   "properties": {
    "name": "SHOP 31G, 26 BLIGH STREET ROSNY PARK 7018",
    "locID": "LOC000146820773",
    "tech": "FTTB",
    "upgrade": "NULL_NA",
    "gnaf_pid": "GATAS719772045",
    "ee": true
   }
  },
  {
   "type": "Feature",
   "geometry": {
    "type": "Point",
    "coordinates": [
     147.36821896,
     -42.86643535
    ]
   },
   "properties": {
    "name": "UNIT 4U, 26 BLIGH STREET ROSNY PARK 7018",
    "locID": "LOC000146820773",
    "tech": "FTTB",
    "upgrade": "NULL_NA",
    "gnaf_pid": "GATAS719772046",
    "ee": true
   }
  },
  {
   "type": "Feature",
   "geometry": {
    "type": "Point",
    "coordinates": [
     147.36821896,
     -42.86643535
    ]
   },
   "properties": {
    "name": "UNIT 18G, 26 BLIGH STREET ROSNY PARK 7018",
    "locID": "LOC000146820773",
    "tech": "FTTB",
    "upgrade": "NULL_NA",
    "gnaf_pid": "GATAS719772047",
    "ee": true
   }
  },
  {
   "type": "Feature",
   "geometry": {
    "type": "Point",
    "coordinates": [
     147.36821896,
     -42.86643535
    ]
   },
   "properties": {
    "name": "SHOP 1A, 26 BLIGH STREET ROSNY PARK 7018",
    "locID": "LOC000146820773",
    "tech": "FTTB",
    "upgrade": "NULL_NA",
    "gnaf_pid": "GATAS719772048",
    "ee": true
   }
  },
  {
   "type": "Feature",
   "geometry": {
    "type": "Point",
    "coordinates": [
     147.36821896,
     -42.86643535
    ]
   },
   "properties": {
    "name": "UNIT 29G, 26 BLIGH STREET ROSNY PARK 7018",
    "locID": "LOC000146820773",
    "tech": "FTTB",
    "upgrade": "NULL_NA",
    "gnaf_pid": "GATAS719772049",
    "ee": true
   }
  },
  {
   "type": "Feature",
   "geometry": {
    "type": "Point",
    "coordinates": [
     147.36821896,
     -42.86643535
    ]
   },
   "properties": {
    "name": "UNIT 5U, 26 BLIGH STREET ROSNY PARK 7018",
    "locID": "LOC000146820773",
    "tech": "FTTB",
    "upgrade": "NULL_NA",
    "gnaf_pid": "GATAS719772050",
    "ee": true
   }
  },
  {
   "type": "Feature",
   "geometry": {
    "type": "Point",
    "coordinates": [
     147.36821896,
     -42.86643535
    ]
   },
   "properties": {
    "name": "UNIT 10U, 26 BLIGH STREET ROSNY PARK 7018",
    "locID": "LOC000146820773",
    "tech": "FTTB",
    "upgrade": "NULL_NA",
    "gnaf_pid": "GATAS719772051",
    "ee": true
   }
  },
  {
   "type": "Feature",
   "geometry": {
    "type": "Point",
    "coordinates": [
     147.36821896,
     -42.86643535
    ]
   },
   "properties": {
    "name": "SHOP 26B, 26 BLIGH STREET ROSNY PARK 7018",
    "locID": "LOC000146820773",
    "tech": "FTTB",
    "upgrade": "NULL_NA",
    "gnaf_pid": "GATAS719772052",
    "ee": true
   }
  },
  {
   "type": "Feature",
   "geometry": {
    "type": "Point",
    "coordinates": [
     147.36821896,
     -42.86643535
    ]
   },
   "properties": {
    "name": "UNIT 17G, 26 BLIGH STREET ROSNY PARK 7018",
    "locID": "LOC000146820773",
    "tech": "FTTB",
    "upgrade": "NULL_NA",
    "gnaf_pid": "GATAS719772053",
    "ee": true
   }
  },
  {
   "type": "Feature",
   "geometry": {
    "type": "Point",
    "coordinates": [
     147.36821896,
     -42.86643535
    ]
   },
   "properties": {
    "name": "SHOP 4A, 26 BLIGH STREET ROSNY PARK 7018",
    "locID": "LOC000146820773",
    "tech": "FTTB",
    "upgrade": "NULL_NA",
    "gnaf_pid": "GATAS719772054",
    "ee": true
   }
  },
  {
   "type": "Feature",
   "geometry": {
    "type": "Point",
    "coordinates": [
     147.36821896,
     -42.86643535
    ]
   },
   "properties": {
    "name": "UNIT 57U, 26 BLIGH STREET ROSNY PARK 7018",
    "locID": "LOC000146820773",
    "tech": "FTTB",
    "upgrade": "NULL_NA",
    "gnaf_pid": "GATAS719772055",
    "ee": true
   }
  },
  {
   "type": "Feature",
   "geometry": {
    "type": "Point",
    "coordinates": [
     147.36821896,
     -42.86643535
    ]
   },
   "properties": {
    "name": "UNIT 13G, 26 BLIGH STREET ROSNY PARK 7018",
    "locID": "LOC000146820773",
    "tech": "FTTB",
    "upgrade": "NULL_NA",
    "gnaf_pid": "GATAS719772056",
    "ee": true
   }
  },
  {
   "type": "Feature",
   "geometry": {
    "type": "Point",
    "coordinates": [
     147.36821896,
     -42.86643535
    ]
   },
   "properties": {
    "name": "UNIT 7U, 26 BLIGH STREET ROSNY PARK 7018",
    "locID": "LOC000146820773",
    "tech": "FTTB",
    "upgrade": "NULL_NA",
    "gnaf_pid": "GATAS719772057",
    "ee": true
   }
  },
  {
   "type": "Feature",
   "geometry": {
    "type": "Point",
    "coordinates": [
     147.36821896,
     -42.86643535
    ]
   },
   "properties": {
    "name": "UNIT 14U, 26 BLIGH STREET ROSNY PARK 7018",
    "locID": "LOC000146820773",
    "tech": "FTTB",
    "upgrade": "NULL_NA",
    "gnaf_pid": "GATAS719772058",
    "ee": true
   }
  },
  {
   "type": "Feature",
   "geometry": {
    "type": "Point",
    "coordinates": [
     147.36821896,
     -42.86643535
    ]
   },
   "properties": {
    "name": "SHOP 37G, 26 BLIGH STREET ROSNY PARK 7018",
    "locID": "LOC000146820773",
    "tech": "FTTB",
    "upgrade": "NULL_NA",
    "gnaf_pid": "GATAS719772059",
    "ee": true
   }
  },
  {
   "type": "Feature",
   "geometry": {
    "type": "Point",
    "coordinates": [
     147.36821896,
     -42.86643535
    ]
   },
   "properties": {
    "name": "SHOP 2G, 26 BLIGH STREET ROSNY PARK 7018",
    "locID": "LOC000146820773",
    "tech": "FTTB",
    "upgrade": "NULL_NA",
    "gnaf_pid": "GATAS719772081",
    "ee": true
   }
  },
  {
   "type": "Feature",
   "geometry": {
    "type": "Point",
    "coordinates": [
     147.36821896,
     -42.86643535
    ]
   },
   "properties": {
    "name": "UNIT 21U, 26 BLIGH STREET ROSNY PARK 7018",
    "locID": "LOC000146820773",
    "tech": "FTTB",
    "upgrade": "NULL_NA",
    "gnaf_pid": "GATAS719772082",
    "ee": true
   }
  },
  {
   "type": "Feature",
   "geometry": {
    "type": "Point",
    "coordinates": [
     147.36821896,
     -42.86643535
    ]
   },
   "properties": {
    "name": "SHOP 53U, 26 BLIGH STREET ROSNY PARK 7018",
    "locID": "LOC000146820773",
    "tech": "FTTB",
    "upgrade": "NULL_NA",
    "gnaf_pid": "GATAS719772083",
    "ee": true
   }
  },
  {
   "type": "Feature",
   "geometry": {
    "type": "Point",
    "coordinates": [
     147.36821896,
     -42.86643535
    ]
   },
   "properties": {
    "name": "UNIT 16U, 26 BLIGH STREET ROSNY PARK 7018",
    "locID": "LOC000146820773",
    "tech": "FTTB",
    "upgrade": "NULL_NA",
    "gnaf_pid": "GATAS719772084",
    "ee": true
   }
  },
  {
   "type": "Feature",
   "geometry": {
    "type": "Point",
    "coordinates": [
     147.36821896,
     -42.86643535
    ]
   },
   "properties": {
    "name": "SHOP 41G, 26 BLIGH STREET ROSNY PARK 7018",
    "locID": "LOC000146820773",
    "tech": "FTTB",
    "upgrade": "NULL_NA",
    "gnaf_pid": "GATAS719772085",
    "ee": true
   }
  },
  {
   "type": "Feature",
   "geometry": {
    "type": "Point",
    "coordinates": [
     147.36821896,
     -42.86643535
    ]
   },
   "properties": {
    "name": "UNIT 56U, 26 BLIGH STREET ROSNY PARK 7018",
    "locID": "LOC000146820773",
    "tech": "FTTB",
    "upgrade": "NULL_NA",
    "gnaf_pid": "GATAS719772086",
    "ee": true
   }
  },
  {
   "type": "Feature",
   "geometry": {
    "type": "Point",
    "coordinates": [
     147.36821896,
     -42.86643535
    ]
   },
   "properties": {
    "name": "UNIT 11A, 26 BLIGH STREET ROSNY PARK 7018",
    "locID": "LOC000146820773",
    "tech": "FTTB",
    "upgrade": "NULL_NA",
    "gnaf_pid": "GATAS719772087",
    "ee": true
   }
  },
  {
   "type": "Feature",
   "geometry": {
    "type": "Point",
    "coordinates": [
     147.36821896,
     -42.86643535
    ]
   },
   "properties": {
    "name": "UNIT 31U, 26 BLIGH STREET ROSNY PARK 7018",
    "locID": "LOC000146820773",
    "tech": "FTTB",
    "upgrade": "NULL_NA",
    "gnaf_pid": "GATAS719772088",
    "ee": true
   }
  },
  {
   "type": "Feature",
   "geometry": {
    "type": "Point",
    "coordinates": [
     147.36821896,
     -42.86643535
    ]
   },
   "properties": {
    "name": "UNIT 9G, 26 BLIGH STREET ROSNY PARK 7018",
    "locID": "LOC000146820773",
    "tech": "FTTB",
    "upgrade": "NULL_NA",
    "gnaf_pid": "GATAS719772089",
    "ee": true
   }
  },
  {
   "type": "Feature",
   "geometry": {
    "type": "Point",
    "coordinates": [
     147.36821896,
     -42.86643535
    ]
   },
   "properties": {
    "name": "SHOP 30G, 26 BLIGH STREET ROSNY PARK 7018",
    "locID": "LOC000146820773",
    "tech": "FTTB",
    "upgrade": "NULL_NA",
    "gnaf_pid": "GATAS719772090",
    "ee": true
   }
  },
  {
   "type": "Feature",
   "geometry": {
    "type": "Point",
    "coordinates": [
     147.36821896,
     -42.86643535
    ]
   },
   "properties": {
    "name": "SHOP 16A, 26 BLIGH STREET ROSNY PARK 7018",
    "locID": "LOC000146820773",
    "tech": "FTTB",
    "upgrade": "NULL_NA",
    "gnaf_pid": "GATAS719772091",
    "ee": true
   }
  },
  {
   "type": "Feature",
   "geometry": {
    "type": "Point",
    "coordinates": [
     147.36821896,
     -42.86643535
    ]
   },
   "properties": {
    "name": "SHOP 9U, 26 BLIGH STREET ROSNY PARK 7018",
    "locID": "LOC000146820773",
    "tech": "FTTB",
    "upgrade": "NULL_NA",
    "gnaf_pid": "GATAS719772092",
    "ee": true
   }
  },
  {
   "type": "Feature",
   "geometry": {
    "type": "Point",
    "coordinates": [
     147.36821896,
     -42.86643535
    ]
   },
   "properties": {
    "name": "UNIT 15U, 26 BLIGH STREET ROSNY PARK 7018",
    "locID": "LOC000146820773",
    "tech": "FTTB",
    "upgrade": "NULL_NA",
    "gnaf_pid": "GATAS719772093",
    "ee": true
   }
  },
  {
   "type": "Feature",
   "geometry": {
    "type": "Point",
    "coordinates": [
     147.36821896,
     -42.86643535
    ]
   },
   "properties": {
    "name": "UNIT 6U, 26 BLIGH STREET ROSNY PARK 7018",
    "locID": "LOC000146820773",
    "tech": "FTTB",
    "upgrade": "NULL_NA",
    "gnaf_pid": "GATAS719772094",
    "ee": true
   }
  },
  {
   "type": "Feature",
   "geometry": {
    "type": "Point",
    "coordinates": [
     147.36821896,
     -42.86643535
    ]
   },
   "properties": {
    "name": "SHOP 23A, 26 BLIGH STREET ROSNY PARK 7018",
    "locID": "LOC000146820773",
    "tech": "FTTB",
    "upgrade": "NULL_NA",
    "gnaf_pid": "GATAS719772095",
    "ee": true
   }
  },
  {
   "type": "Feature",
   "geometry": {
    "type": "Point",
    "coordinates": [
     147.36821896,
     -42.86643535
    ]
   },
   "properties": {
    "name": "SHOP 36A, 26 BLIGH STREET ROSNY PARK 7018",
    "locID": "LOC000146820773",
    "tech": "FTTB",
    "upgrade": "NULL_NA",
    "gnaf_pid": "GATAS719772096",
    "ee": true
   }
  },
  {
   "type": "Feature",
   "geometry": {
    "type": "Point",
    "coordinates": [
     147.36821896,
     -42.86643535
    ]
   },
   "properties": {
    "name": "SHOP 6G, 26 BLIGH STREET ROSNY PARK 7018",
    "locID": "LOC000146820773",
    "tech": "FTTB",
    "upgrade": "NULL_NA",
    "gnaf_pid": "GATAS719772097",
    "ee": true
   }
  },
  {
   "type": "Feature",
   "geometry": {
    "type": "Point",
    "coordinates": [
     147.37005955,
     -42.86609758
    ]
   },
   "properties": {
    "name": "SUITE 1, LEVEL 2, 6 BAYFIELD STREET ROSNY PARK 7018",
    "locID": "LOC000146833456",
    "tech": "FTTP",
    "upgrade": "NULL_NA",
    "gnaf_pid": "GATAS720028085",
    "ee": true
   }
  },
  {
   "type": "Feature",
   "geometry": {
    "type": "Point",
    "coordinates": [
     147.37005955,
     -42.86609758
    ]
   },
   "properties": {
    "name": "SUITE 2, LEVEL 1, 6 BAYFIELD STREET ROSNY PARK 7018",
    "locID": "LOC000146833456",
    "tech": "FTTP",
    "upgrade": "NULL_NA",
    "gnaf_pid": "GATAS720028100",
    "ee": true
   }
  },
  {
   "type": "Feature",
   "geometry": {
    "type": "Point",
    "coordinates": [
     147.37005955,
     -42.86609758
    ]
   },
   "properties": {
    "name": "SUITE 2, LEVEL 3, 6 BAYFIELD STREET ROSNY PARK 7018",
    "locID": "LOC000146833456",
    "tech": "FTTP",
    "upgrade": "NULL_NA",
    "gnaf_pid": "GATAS720028101",
    "ee": true
   }
  },
  {
   "type": "Feature",
   "geometry": {
    "type": "Point",
    "coordinates": [
     147.37005955,
     -42.86609758
    ]
   },
   "properties": {
    "name": "SUITE 1, LEVEL 3, 6 BAYFIELD STREET ROSNY PARK 7018",
    "locID": "LOC000146833456",
    "tech": "FTTP",
    "upgrade": "NULL_NA",
    "gnaf_pid": "GATAS720028112",
    "ee": true
   }
  },
  {
   "type": "Feature",
   "geometry": {
    "type": "Point",
    "coordinates": [
     147.37005955,
     -42.86609758
    ]
   },
   "properties": {
    "name": "SUITE 1, LEVEL 1, 6 BAYFIELD STREET ROSNY PARK 7018",
    "locID": "LOC000146833456",
    "tech": "FTTP",
    "upgrade": "NULL_NA",
    "gnaf_pid": "GATAS720028139",
    "ee": true
   }
  },
  {
   "type": "Feature",
   "geometry": {
    "type": "Point",
    "coordinates": [
     147.37005955,
     -42.86609758
    ]
   },
   "properties": {
    "name": "SUITE 2, LEVEL 2, 6 BAYFIELD STREET ROSNY PARK 7018",
    "locID": "LOC000146833456",
    "tech": "FTTP",
    "upgrade": "NULL_NA",
    "gnaf_pid": "GATAS720028141",
    "ee": true
   }
  },
  {
   "type": "Feature",
   "geometry": {
    "type": "Point",
    "coordinates": [
     147.37025654,
     -42.86615583
    ]
   },
   "properties": {
    "name": "SUITE 5, 8 BAYFIELD STREET ROSNY PARK 7018",
    "locID": "LOC100072432341",
    "tech": "FTTP",
    "upgrade": "NULL_NA",
    "gnaf_pid": "GATAS720724684",
    "ee": true
   }
  },
  {
   "type": "Feature",
   "geometry": {
    "type": "Point",
    "coordinates": [
     147.37119839,
     -42.86405132
    ]
   },
   "properties": {
    "name": "UNIT 3, 27 BLIGH STREET ROSNY PARK 7018",
    "locID": "LOC100072205070",
    "tech": "FTTP",
    "upgrade": "NULL_NA",
    "gnaf_pid": "GATAS721470699",
    "ee": true
   }
  },
  {
   "type": "Feature",
   "geometry": {
    "type": "Point",
    "coordinates": [
     147.37119839,
     -42.86405132
    ]
   },
   "properties": {
    "name": "UNIT 2, 27 BLIGH STREET ROSNY PARK 7018",
    "locID": "LOC100072205058",
    "tech": "FTTP",
    "upgrade": "NULL_NA",
    "gnaf_pid": "GATAS721470740",
    "ee": true
   }
  },
  {
   "type": "Feature",
   "geometry": {
    "type": "Point",
    "coordinates": [
     147.37119839,
     -42.86405132
    ]
   },
   "properties": {
    "name": "UNIT 1, 27 BLIGH STREET ROSNY PARK 7018",
    "locID": "LOC100072205058",
    "tech": "FTTP",
    "upgrade": "NULL_NA",
    "gnaf_pid": "GATAS721470798",
    "ee": true
   }
  }
 ]
}