{
 "type": "FeatureCollection",
 "generated": "2025-06-16T15:42:11.245504",
 "suburb": "STONOR",
 "features": [
  {
   "type": "Feature",
   "geometry": {
    "type": "Point",
    "coordinates": [
     147.4095189,
     -42.38857063
    ]
   },
   "properties": {
    "name": "85 BLACK GATE ROAD STONOR 7119",
    "locID": "LOC000142392367",
    "tech": "SATELLITE",
    "upgrade": "WIRELESS",
    "gnaf_pid": "GATAS702199790",
    "ee": false,
    "tech_change_status": "Eligible to Order",
    "program_type": "Fixed Wireless and Satellite Upgrade Program",
    "target_eligibility_quarter": "NA"
   }
  },
  {
   "type": "Feature",
   "geometry": {
    "type": "Point",
    "coordinates": [
     147.41090106,
     -42.39491175
    ]
   },
   "properties": {
    "name": "253 BLACK GATE ROAD STONOR 7119",
    "locID": "LOC000077355028",
    "tech": "SATELLITE",
    "upgrade": "NULL_NA",
    "gnaf_pid": "GATAS702199791",
    "ee": false,
    "tech_change_status": "Not Planned"
   }
  },
  {
   "type": "Feature",
   "geometry": {
    "type": "Point",
    "coordinates": [
     147.38854572,
     -42.41837594
    ]
   },
   "properties": {
    "name": "1339 RHYNDASTON ROAD STONOR 7119",
    "locID": "LOC000070197401",
    "tech": "SATELLITE",
    "upgrade": "NULL_NA",
    "gnaf_pid": "GATAS702322528",
    "ee": false,
    "tech_change_status": "Not Planned"
   }
  },
  {
   "type": "Feature",
   "geometry": {
    "type": "Point",
    "coordinates": [
     147.38730727,
     -42.44057833
    ]
   },
   "properties": {
    "name": "1060 RHYNDASTON ROAD STONOR 7119",
    "locID": "LOC000098006263",
    "tech": "NULL",
    "upgrade": "NULL_NA",
    "gnaf_pid": "GATAS702322529",
    "ee": false,
    "tech_change_status": "Not Planned"
   }
  },
  {
   "type": "Feature",
   "geometry": {
    "type": "Point",
    "coordinates": [
     147.38727175,
     -42.43022456
    ]
   },
   "properties": {
    "name": "1178 RHYNDASTON ROAD STONOR 7119",
    "locID": "LOC000074094439",
    "tech": "SATELLITE",
    "upgrade": "NULL_NA",
    "gnaf_pid": "GATAS702336139",
    "ee": false,
    "tech_change_status": "Not Planned"
   }
  },
  {
   "type": "Feature",
   "geometry": {
    "type": "Point",
    "coordinates": [
     147.39085815,
     -42.40306469
    ]
   },
   "properties": {
    "name": "728 STONOR ROAD STONOR 7119",
    "locID": "LOC000062321568",
    "tech": "NULL",
    "upgrade": "NULL_NA",
    "gnaf_pid": "GATAS702340851",
    "ee": false,
    "tech_change_status": "Not Planned"
   }
  },
  {
   "type": "Feature",
   "geometry": {
    "type": "Point",
    "coordinates": [
     147.39159136,
     -42.40376785
    ]
   },
   "properties": {
    "name": "748 STONOR ROAD STONOR 7119",
    "locID": "LOC000069667845",
    "tech": "NULL",
    "upgrade": "NULL_NA",
    "gnaf_pid": "GATAS702340852",
    "ee": false,
    "tech_change_status": "Not Planned"
   }
  },
  {
   "type": "Feature",
   "geometry": {
    "type": "Point",
    "coordinates": [
     147.38040776,
     -42.39727039
    ]
   },
   "properties": {
    "name": "599 STONOR ROAD STONOR 7119",
    "locID": "LOC000005178297",
    "tech": "SATELLITE",
    "upgrade": "NULL_NA",
    "gnaf_pid": "GATAS702347070",
    "ee": false,
    "tech_change_status": "Not Planned"
   }
  },
  {
   "type": "Feature",
   "geometry": {
    "type": "Point",
    "coordinates": [
     147.43122264,
     -42.42601686
    ]
   },
   "properties": {
    "name": "1187 STONOR ROAD STONOR 7119",
    "locID": "LOC000043843873",
    "tech": "NULL",
    "upgrade": "NULL_NA",
    "gnaf_pid": "GATAS702347071",
    "ee": false,
    "tech_change_status": "Not Planned"
   }
  },
  {
   "type": "Feature",
   "geometry": {
    "type": "Point",
    "coordinates": [
     147.40031223,
     -42.40720796
    ]
   },
   "properties": {
    "name": "857 STONOR ROAD STONOR 7119",
    "locID": "LOC000056630874",
    "tech": "NULL",
    "upgrade": "NULL_NA",
    "gnaf_pid": "GATAS702347072",
    "ee": false,
    "tech_change_status": "Not Planned"
   }
  },
  {
   "type": "Feature",
   "geometry": {
    "type": "Point",
    "coordinates": [
     147.39985594,
     -42.41355285
    ]
   },
   "properties": {
    "name": "828 STONOR ROAD STONOR 7119",
    "locID": "LOC000074405866",
    "tech": "NULL",
    "upgrade": "NULL_NA",
    "gnaf_pid": "GATAS702347073",
    "ee": false,
    "tech_change_status": "Not Planned"
   }
  },
  {
   "type": "Feature",
   "geometry": {
    "type": "Point",
    "coordinates": [
     147.38192962,
     -42.40406881
    ]
   },
   "properties": {
    "name": "530 STONOR ROAD STONOR 7119",
    "locID": "LOC000061872676",
    "tech": "WIRELESS",
    "upgrade": "NULL_NA",
    "gnaf_pid": "GATAS702347074",
    "ee": false,
    "tech_change_status": "Not Planned",
    "program_type": "Fixed Wireless and Satellite Upgrade Program",
    "target_eligibility_quarter": "NA"
   }
  },
  {
   "type": "Feature",
   "geometry": {
    "type": "Point",
    "coordinates": [
     147.42187403,
     -42.41475918
    ]
   },
   "properties": {
    "name": "1063 STONOR ROAD STONOR 7119",
    "locID": "LOC000096627647",
    "tech": "NULL",
    "upgrade": "NULL_NA",
    "gnaf_pid": "GATAS702347076",
    "ee": false,
    "tech_change_status": "Not Planned"
   }
  },
  {
   "type": "Feature",
   "geometry": {
    "type": "Point",
    "coordinates": [
     147.38143022,
     -42.37112056
    ]
   },
   "properties": {
    "name": "661 STONOR ROAD STONOR 7119",
    "locID": "LOC000071592255",
    "tech": "WIRELESS",
    "upgrade": "NULL_NA",
    "gnaf_pid": "GATAS702347078",
    "ee": false,
    "tech_change_status": "Not Planned",
    "program_type": "Fixed Wireless and Satellite Upgrade Program",
    "target_eligibility_quarter": "NA"
   }
  },
  {
   "type": "Feature",
   "geometry": {
    "type": "Point",
    "coordinates": [
     147.42187403,
     -42.41475918
    ]
   },
   "properties": {
    "name": "1061 STONOR ROAD STONOR 7119",
    "locID": "LOC000094119037",
    "tech": "NULL",
    "upgrade": "NULL_NA",
    "gnaf_pid": "GATAS702590456",
    "ee": false,
    "tech_change_status": "Not Planned"
   }
  },
  {
   "type": "Feature",
   "geometry": {
    "type": "Point",
    "coordinates": [
     147.39146416,
     -42.40292509
    ]
   },
   "properties": {
    "name": "880 STONOR ROAD STONOR 7119",
    "locID": "LOC000094656894",
    "tech": "SATELLITE",
    "upgrade": "NULL_NA",
    "gnaf_pid": "GATAS702592606",
    "ee": false,
    "tech_change_status": "Not Planned"
   }
  },
  {
   "type": "Feature",
   "geometry": {
    "type": "Point",
    "coordinates": [
     147.38252997,
     -42.43396104
    ]
   },
   "properties": {
    "name": "1121 RHYNDASTON ROAD STONOR 7119",
    "locID": "LOC000098060996",
    "tech": "WIRELESS",
    "upgrade": "NULL_NA",
    "gnaf_pid": "GATAS702720081",
    "ee": false,
    "tech_change_status": "Not Planned",
    "program_type": "Fixed Wireless and Satellite Upgrade Program",
    "target_eligibility_quarter": "NA"
   }
  },
  {
   "type": "Feature",
   "geometry": {
    "type": "Point",
    "coordinates": [
     147.38662969,
     -42.43084544
    ]
   },
   "properties": {
    "name": "1169 RHYNDASTON ROAD STONOR 7119",
    "locID": "LOC000102656940",
    "tech": "NULL",
    "upgrade": "NULL_NA",
    "gnaf_pid": "GATAS702720082",
    "ee": false,
    "tech_change_status": "Not Planned"
   }
  },
  {
   "type": "Feature",
   "geometry": {
    "type": "Point",
    "coordinates": [
     147.42719699,
     -42.42282732
    ]
   },
   "properties": {
    "name": "1121 STONOR ROAD STONOR 7119",
    "locID": "LOC000150260572",
    "tech": "SATELLITE",
    "upgrade": "NULL_NA",
    "gnaf_pid": "GATAS718386421",
    "ee": false,
    "tech_change_status": "Not Planned"
   }
  },
  {
   "type": "Feature",
   "geometry": {
    "type": "Point",
    "coordinates": [
     147.35456122,
     -42.38551398
    ]
   },
   "properties": {
    "name": "360 STONOR ROAD STONOR 7119",
    "locID": "LOC000150260586",
    "tech": "SATELLITE",
    "upgrade": "WIRELESS",
    "gnaf_pid": "GATAS718820175",
    "ee": false,
    "tech_change_status": "Eligible to Order",
    "program_type": "Fixed Wireless and Satellite Upgrade Program",
    "target_eligibility_quarter": "NA"
   }
  },
  {
   "type": "Feature",
   "geometry": {
    "type": "Point",
    "coordinates": [
     147.40035571,
     -42.38350363
    ]
   },
   "properties": {
    "name": "140 BLACK GATE ROAD STONOR 7119",
    "locID": "LOC000171463929",
    "tech": "SATELLITE",
    "upgrade": "NULL_NA",
    "gnaf_pid": "GATAS719066302",
    "ee": false,
    "tech_change_status": "Not Planned"
   }
  }
 ]
}