{
 "type": "FeatureCollection",
 "generated": "2025-06-16T15:46:18.846643",
 "suburb": "STRATHGORDON",
 "features": [
  {
   "type": "Feature",
   "geometry": {
    "type": "Point",
    "coordinates": [
     146.04528109,
     -42.76498229
    ]
   },
   "properties": {
    "name": "50 SPRING STREET STRATHGORDON 7139",
    "locID": "LOC000098605901",
    "tech": "NULL",
    "upgrade": "NULL_NA",
    "gnaf_pid": "GATAS702581834",
    "ee": false,
    "tech_change_status": "Not Planned"
   }
  },
  {
   "type": "Feature",
   "geometry": {
    "type": "Point",
    "coordinates": [
     146.0455961,
     -42.76506858
    ]
   },
   "properties": {
    "name": "52 SPRING STREET STRATHGORDON 7139",
    "locID": "LOC000027573587",
    "tech": "NULL",
    "upgrade": "NULL_NA",
    "gnaf_pid": "GATAS702581837",
    "ee": false,
    "tech_change_status": "Not Planned"
   }
  },
  {
   "type": "Feature",
   "geometry": {
    "type": "Point",
    "coordinates": [
     146.04752043,
     -42.76760742
    ]
   },
   "properties": {
    "name": "1 BOYD CLOSE STRATHGORDON 7139",
    "locID": "LOC000048078623",
    "tech": "NULL",
    "upgrade": "NULL_NA",
    "gnaf_pid": "GATAS702584070",
    "ee": false,
    "tech_change_status": "Not Planned"
   }
  },
  {
   "type": "Feature",
   "geometry": {
    "type": "Point",
    "coordinates": [
     146.04736022,
     -42.76739391
    ]
   },
   "properties": {
    "name": "7 OLGA STREET STRATHGORDON 7139",
    "locID": "LOC000095604728",
    "tech": "NULL",
    "upgrade": "NULL_NA",
    "gnaf_pid": "GATAS702584071",
    "ee": false,
    "tech_change_status": "Not Planned"
   }
  },
  {
   "type": "Feature",
   "geometry": {
    "type": "Point",
    "coordinates": [
     146.04621289,
     -42.76747325
    ]
   },
   "properties": {
    "name": "1 OLGA STREET STRATHGORDON 7139",
    "locID": "LOC000045324557",
    "tech": "NULL",
    "upgrade": "NULL_NA",
    "gnaf_pid": "GATAS702584072",
    "ee": false,
    "tech_change_status": "Not Planned"
   }
  },
  {
   "type": "Feature",
   "geometry": {
    "type": "Point",
    "coordinates": [
     146.04512339,
     -42.76627186
    ]
   },
   "properties": {
    "name": "64 SPRING STREET STRATHGORDON 7139",
    "locID": "LOC000038177868",
    "tech": "NULL",
    "upgrade": "NULL_NA",
    "gnaf_pid": "GATAS702584073",
    "ee": false,
    "tech_change_status": "Not Planned"
   }
  },
  {
   "type": "Feature",
   "geometry": {
    "type": "Point",
    "coordinates": [
     146.0453958,
     -42.76596336
    ]
   },
   "properties": {
    "name": "62 SPRING STREET STRATHGORDON 7139",
    "locID": "LOC000022567154",
    "tech": "NULL",
    "upgrade": "NULL_NA",
    "gnaf_pid": "GATAS702584074",
    "ee": false,
    "tech_change_status": "Not Planned"
   }
  },
  {
   "type": "Feature",
   "geometry": {
    "type": "Point",
    "coordinates": [
     146.04736621,
     -42.76700286
    ]
   },
   "properties": {
    "name": "8 OLGA STREET STRATHGORDON 7139",
    "locID": "LOC000093221718",
    "tech": "NULL",
    "upgrade": "NULL_NA",
    "gnaf_pid": "GATAS702584076",
    "ee": false,
    "tech_change_status": "Not Planned"
   }
  },
  {
   "type": "Feature",
   "geometry": {
    "type": "Point",
    "coordinates": [
     146.04642771,
     -42.7668395
    ]
   },
   "properties": {
    "name": "18 OLGA STREET STRATHGORDON 7139",
    "locID": "LOC000104726929",
    "tech": "NULL",
    "upgrade": "NULL_NA",
    "gnaf_pid": "GATAS702584077",
    "ee": false,
    "tech_change_status": "Not Planned"
   }
  },
  {
   "type": "Feature",
   "geometry": {
    "type": "Point",
    "coordinates": [
     146.04497446,
     -42.76487813
    ]
   },
   "properties": {
    "name": "48 SPRING STREET STRATHGORDON 7139",
    "locID": "LOC000039397319",
    "tech": "NULL",
    "upgrade": "NULL_NA",
    "gnaf_pid": "GATAS702588048",
    "ee": false,
    "tech_change_status": "Not Planned"
   }
  },
  {
   "type": "Feature",
   "geometry": {
    "type": "Point",
    "coordinates": [
     146.04628325,
     -42.76521775
    ]
   },
   "properties": {
    "name": "54 SPRING STREET STRATHGORDON 7139",
    "locID": "LOC000054233830",
    "tech": "NULL",
    "upgrade": "NULL_NA",
    "gnaf_pid": "GATAS702588049",
    "ee": false,
    "tech_change_status": "Not Planned"
   }
  },
  {
   "type": "Feature",
   "geometry": {
    "type": "Point",
    "coordinates": [
     146.04777762,
     -42.76692184
    ]
   },
   "properties": {
    "name": "10 OLGA STREET STRATHGORDON 7139",
    "locID": "LOC000025123835",
    "tech": "NULL",
    "upgrade": "NULL_NA",
    "gnaf_pid": "GATAS702588050",
    "ee": false,
    "tech_change_status": "Not Planned"
   }
  },
  {
   "type": "Feature",
   "geometry": {
    "type": "Point",
    "coordinates": [
     146.04494913,
     -42.76652739
    ]
   },
   "properties": {
    "name": "66 SPRING STREET STRATHGORDON 7139",
    "locID": "LOC000041607391",
    "tech": "NULL",
    "upgrade": "NULL_NA",
    "gnaf_pid": "GATAS702588051",
    "ee": false,
    "tech_change_status": "Not Planned"
   }
  },
  {
   "type": "Feature",
   "geometry": {
    "type": "Point",
    "coordinates": [
     146.0455912,
     -42.76671253
    ]
   },
   "properties": {
    "name": "22B OLGA STREET STRATHGORDON 7139",
    "locID": "LOC100072056589",
    "tech": "NULL",
    "upgrade": "NULL_NA",
    "gnaf_pid": "GATAS719401528",
    "ee": false,
    "tech_change_status": "Not Planned"
   }
  },
  {
   "type": "Feature",
   "geometry": {
    "type": "Point",
    "coordinates": [
     146.04623754,
     -42.7670468
    ]
   },
   "properties": {
    "name": "2 OLGA STREET STRATHGORDON 7139",
    "locID": "LOC100072056589",
    "tech": "NULL",
    "upgrade": "NULL_NA",
    "gnaf_pid": "GATAS719401588",
    "ee": false,
    "tech_change_status": "Not Planned"
   }
  }
 ]
}