{
 "type": "FeatureCollection",
 "generated": "2025-06-16T15:49:45.745903",
 "suburb": "SURPRISE BAY",
 "features": [
  {
   "type": "Feature",
   "geometry": {
    "type": "Point",
    "coordinates": [
     143.8992622,
     -40.10660447
    ]
   },
   "properties": {
    "name": "110 SEAL ROCKS ROAD SURPRISE BAY 7256",
    "locID": "LOC100072049803",
    "tech": "NULL",
    "upgrade": "NULL_NA",
    "gnaf_pid": "GATAS719952147",
    "ee": false,
    "tech_change_status": "Not Planned"
   }
  }
 ]
}