{
 "type": "FeatureCollection",
 "generated": "2025-06-16T15:52:25.836116",
 "suburb": "SWANSTON",
 "features": [
  {
   "type": "Feature",
   "geometry": {
    "type": "Point",
    "coordinates": [
     147.77325716,
     -42.32745468
    ]
   },
   "properties": {
    "name": "91 DANIELS ROAD SWANSTON 7120",
    "locID": "LOC000084737363",
    "tech": "SATELLITE",
    "upgrade": "NULL_NA",
    "gnaf_pid": "GATAS702227798",
    "ee": false,
    "tech_change_status": "Not Planned"
   }
  },
  {
   "type": "Feature",
   "geometry": {
    "type": "Point",
    "coordinates": [
     147.72884098,
     -42.34643175
    ]
   },
   "properties": {
    "name": "1110 SWANSTON ROAD SWANSTON 7120",
    "locID": "LOC000082155890",
    "tech": "NULL",
    "upgrade": "NULL_NA",
    "gnaf_pid": "GATAS702337265",
    "ee": false,
    "tech_change_status": "Not Planned"
   }
  },
  {
   "type": "Feature",
   "geometry": {
    "type": "Point",
    "coordinates": [
     147.7541243,
     -42.30787064
    ]
   },
   "properties": {
    "name": "173 SWANSTON ROAD SWANSTON 7120",
    "locID": "LOC100078165221",
    "tech": "NULL",
    "upgrade": "NULL_NA",
    "gnaf_pid": "GATAS702708804",
    "ee": false,
    "tech_change_status": "Not Planned"
   }
  },
  {
   "type": "Feature",
   "geometry": {
    "type": "Point",
    "coordinates": [
     147.70781554,
     -42.3707959
    ]
   },
   "properties": {
    "name": "622 SWANSTON ROAD SWANSTON 7120",
    "locID": "LOC000082119933",
    "tech": "NULL",
    "upgrade": "NULL_NA",
    "gnaf_pid": "GATAS702708805",
    "ee": false,
    "tech_change_status": "Not Planned"
   }
  },
  {
   "type": "Feature",
   "geometry": {
    "type": "Point",
    "coordinates": [
     147.75620814,
     -42.34438058
    ]
   },
   "properties": {
    "name": "1156 SWANSTON ROAD SWANSTON 7120",
    "locID": "LOC000002673070",
    "tech": "SATELLITE",
    "upgrade": "NULL_NA",
    "gnaf_pid": "GATAS702708808",
    "ee": true,
    "tech_change_status": "Not Planned"
   }
  },
  {
   "type": "Feature",
   "geometry": {
    "type": "Point",
    "coordinates": [
     147.74951761,
     -42.38520333
    ]
   },
   "properties": {
    "name": "940 SWANSTON ROAD SWANSTON 7120",
    "locID": "LOC100078165221",
    "tech": "NULL",
    "upgrade": "NULL_NA",
    "gnaf_pid": "GATAS720485292",
    "ee": false,
    "tech_change_status": "Not Planned"
   }
  }
 ]
}