{
 "type": "FeatureCollection",
 "generated": "2025-06-16T16:00:15.261288",
 "suburb": "TARRALEAH",
 "features": [
  {
   "type": "Feature",
   "geometry": {
    "type": "Point",
    "coordinates": [
     146.4497469,
     -42.30140658
    ]
   },
   "properties": {
    "name": "1 NUNGINA STREET TARRALEAH 7140",
    "locID": "LOC000012584976",
    "tech": "NULL",
    "upgrade": "NULL_NA",
    "gnaf_pid": "GATAS702580646",
    "ee": false,
    "tech_change_status": "Not Planned"
   }
  },
  {
   "type": "Feature",
   "geometry": {
    "type": "Point",
    "coordinates": [
     146.44285929,
     -42.29631516
    ]
   },
   "properties": {
    "name": "7 OLDINA DRIVE TARRALEAH 7140",
    "locID": "LOC000031185519",
    "tech": "NULL",
    "upgrade": "NULL_NA",
    "gnaf_pid": "GATAS702582052",
    "ee": false,
    "tech_change_status": "Not Planned"
   }
  },
  {
   "type": "Feature",
   "geometry": {
    "type": "Point",
    "coordinates": [
     146.44610033,
     -42.30145968
    ]
   },
   "properties": {
    "name": "7 PALANA CRESCENT TARRALEAH 7140",
    "locID": "LOC000008460305",
    "tech": "NULL",
    "upgrade": "NULL_NA",
    "gnaf_pid": "GATAS702587605",
    "ee": false,
    "tech_change_status": "Not Planned"
   }
  },
  {
   "type": "Feature",
   "geometry": {
    "type": "Point",
    "coordinates": [
     146.4497469,
     -42.30140658
    ]
   },
   "properties": {
    "name": "4 NUNGINA STREET TARRALEAH 7140",
    "locID": "LOC000006803896",
    "tech": "NULL",
    "upgrade": "NULL_NA",
    "gnaf_pid": "GATAS702587709",
    "ee": false,
    "tech_change_status": "Not Planned"
   }
  },
  {
   "type": "Feature",
   "geometry": {
    "type": "Point",
    "coordinates": [
     146.44610033,
     -42.30145968
    ]
   },
   "properties": {
    "name": "12 PALANA CRESCENT TARRALEAH 7140",
    "locID": "LOC000008460305",
    "tech": "NULL",
    "upgrade": "NULL_NA",
    "gnaf_pid": "GATAS702600184",
    "ee": false,
    "tech_change_status": "Not Planned"
   }
  },
  {
   "type": "Feature",
   "geometry": {
    "type": "Point",
    "coordinates": [
     146.44285929,
     -42.29631516
    ]
   },
   "properties": {
    "name": "1 OLDINA DRIVE TARRALEAH 7140",
    "locID": "LOC000142971446",
    "tech": "NULL",
    "upgrade": "NULL_NA",
    "gnaf_pid": "GATAS702601843",
    "ee": false,
    "tech_change_status": "Not Planned"
   }
  },
  {
   "type": "Feature",
   "geometry": {
    "type": "Point",
    "coordinates": [
     146.44285929,
     -42.29631516
    ]
   },
   "properties": {
    "name": "5 OLDINA DRIVE TARRALEAH 7140",
    "locID": "LOC000048959259",
    "tech": "NULL",
    "upgrade": "NULL_NA",
    "gnaf_pid": "GATAS702605566",
    "ee": false,
    "tech_change_status": "Not Planned"
   }
  },
  {
   "type": "Feature",
   "geometry": {
    "type": "Point",
    "coordinates": [
     146.44370552,
     -42.30425371
    ]
   },
   "properties": {
    "name": "150 OLDINA DRIVE TARRALEAH 7140",
    "locID": "LOC000031185519",
    "tech": "NULL",
    "upgrade": "NULL_NA",
    "gnaf_pid": "GATAS717059214",
    "ee": false,
    "tech_change_status": "Not Planned"
   }
  },
  {
   "type": "Feature",
   "geometry": {
    "type": "Point",
    "coordinates": [
     146.44370552,
     -42.30425371
    ]
   },
   "properties": {
    "name": "HOUSE HS5, 150 OLDINA DRIVE TARRALEAH 7140",
    "locID": "LOC000031185519",
    "tech": "NULL",
    "upgrade": "NULL_NA",
    "gnaf_pid": "GATAS718183320",
    "ee": false,
    "tech_change_status": "Not Planned"
   }
  },
  {
   "type": "Feature",
   "geometry": {
    "type": "Point",
    "coordinates": [
     146.44370552,
     -42.30425371
    ]
   },
   "properties": {
    "name": "HOUSE 21, 150 OLDINA DRIVE TARRALEAH 7140",
    "locID": "LOC000031185519",
    "tech": "NULL",
    "upgrade": "NULL_NA",
    "gnaf_pid": "GATAS720883107",
    "ee": false,
    "tech_change_status": "Not Planned"
   }
  }
 ]
}