{
 "type": "FeatureCollection",
 "generated": "2025-06-15T02:50:37.310429",
 "suburb": "THOOPARA",
 "features": [
  {
   "type": "Feature",
   "geometry": {
    "type": "Point",
    "coordinates": [
     148.62752555,
     -20.53767689
    ]
   },
   "properties": {
    "name": "10641 BRUCE HIGHWAY THOOPARA 4800",
    "locID": "LOC000020961010",
    "tech": "WIRELESS",
    "upgrade": "NULL_NA",
    "gnaf_pid": "GAQLD161009512",
    "ee": true,
    "tech_change_status": "Not Planned",
    "program_type": "Fixed Wireless and Satellite Upgrade Program",
    "target_eligibility_quarter": "NA"
   }
  },
  {
   "type": "Feature",
   "geometry": {
    "type": "Point",
    "coordinates": [
     148.53685488,
     -20.58221915
    ]
   },
   "properties": {
    "name": "226 HOLCOMBE ROAD THOOPARA 4800",
    "locID": "LOC000129385642",
    "tech": "NULL",
    "upgrade": "NULL_NA",
    "gnaf_pid": "GAQLD161015911",
    "ee": true,
    "tech_change_status": "Not Planned"
   }
  },
  {
   "type": "Feature",
   "geometry": {
    "type": "Point",
    "coordinates": [
     148.60424943,
     -20.56353967
    ]
   },
   "properties": {
    "name": "176 MALONEY ROAD THOOPARA 4800",
    "locID": "LOC000036409191",
    "tech": "WIRELESS",
    "upgrade": "NULL_NA",
    "gnaf_pid": "GAQLD161018552",
    "ee": true,
    "tech_change_status": "Not Planned",
    "program_type": "Fixed Wireless and Satellite Upgrade Program",
    "target_eligibility_quarter": "NA"
   }
  },
  {
   "type": "Feature",
   "geometry": {
    "type": "Point",
    "coordinates": [
     148.60392094,
     -20.56484271
    ]
   },
   "properties": {
    "name": "178 MALONEY ROAD THOOPARA 4800",
    "locID": "LOC000104849214",
    "tech": "NULL",
    "upgrade": "NULL_NA",
    "gnaf_pid": "GAQLD161018553",
    "ee": true,
    "tech_change_status": "Not Planned"
   }
  },
  {
   "type": "Feature",
   "geometry": {
    "type": "Point",
    "coordinates": [
     148.60483554,
     -20.56792521
    ]
   },
   "properties": {
    "name": "191 MALONEY ROAD THOOPARA 4800",
    "locID": "LOC000109666922",
    "tech": "NULL",
    "upgrade": "NULL_NA",
    "gnaf_pid": "GAQLD161018554",
    "ee": true,
    "tech_change_status": "Not Planned"
   }
  },
  {
   "type": "Feature",
   "geometry": {
    "type": "Point",
    "coordinates": [
     148.60332,
     -20.56546079
    ]
   },
   "properties": {
    "name": "202 MALONEY ROAD THOOPARA 4800",
    "locID": "LOC000090118588",
    "tech": "SATELLITE",
    "upgrade": "NULL_NA",
    "gnaf_pid": "GAQLD161018555",
    "ee": true,
    "tech_change_status": "Not Planned"
   }
  },
  {
   "type": "Feature",
   "geometry": {
    "type": "Point",
    "coordinates": [
     148.589518,
     -20.59631748
    ]
   },
   "properties": {
    "name": "579 MALONEY ROAD THOOPARA 4800",
    "locID": "LOC000006842519",
    "tech": "WIRELESS",
    "upgrade": "NULL_NA",
    "gnaf_pid": "GAQLD161018557",
    "ee": true,
    "tech_change_status": "Not Planned",
    "program_type": "Fixed Wireless and Satellite Upgrade Program",
    "target_eligibility_quarter": "NA"
   }
  },
  {
   "type": "Feature",
   "geometry": {
    "type": "Point",
    "coordinates": [
     148.58571813,
     -20.59580653
    ]
   },
   "properties": {
    "name": "621 MALONEY ROAD THOOPARA 4800",
    "locID": "LOC000009519125",
    "tech": "NULL",
    "upgrade": "NULL_NA",
    "gnaf_pid": "GAQLD161018558",
    "ee": true,
    "tech_change_status": "Not Planned"
   }
  },
  {
   "type": "Feature",
   "geometry": {
    "type": "Point",
    "coordinates": [
     148.57920291,
     -20.58902211
    ]
   },
   "properties": {
    "name": "670 MALONEY ROAD THOOPARA 4800",
    "locID": "LOC000035865421",
    "tech": "NULL",
    "upgrade": "NULL_NA",
    "gnaf_pid": "GAQLD161018559",
    "ee": true,
    "tech_change_status": "Not Planned"
   }
  },
  {
   "type": "Feature",
   "geometry": {
    "type": "Point",
    "coordinates": [
     148.57757854,
     -20.58617626
    ]
   },
   "properties": {
    "name": "720 MALONEY ROAD THOOPARA 4800",
    "locID": "LOC000064084083",
    "tech": "NULL",
    "upgrade": "NULL_NA",
    "gnaf_pid": "GAQLD161018560",
    "ee": true,
    "tech_change_status": "Not Planned"
   }
  },
  {
   "type": "Feature",
   "geometry": {
    "type": "Point",
    "coordinates": [
     148.57579667,
     -20.58684766
    ]
   },
   "properties": {
    "name": "726 MALONEY ROAD THOOPARA 4800",
    "locID": "LOC000102622247",
    "tech": "NULL",
    "upgrade": "NULL_NA",
    "gnaf_pid": "GAQLD161018561",
    "ee": true,
    "tech_change_status": "Not Planned"
   }
  },
  {
   "type": "Feature",
   "geometry": {
    "type": "Point",
    "coordinates": [
     148.51664348,
     -20.58616734
    ]
   },
   "properties": {
    "name": "LOT 17 HOLCOMBE ROAD THOOPARA 4800",
    "locID": "LOC000129385642",
    "tech": "NULL",
    "upgrade": "NULL_NA",
    "gnaf_pid": "GAQLD161181662",
    "ee": true,
    "tech_change_status": "Not Planned"
   }
  },
  {
   "type": "Feature",
   "geometry": {
    "type": "Point",
    "coordinates": [
     148.51008207,
     -20.58083426
    ]
   },
   "properties": {
    "name": "LOT 18 HOLCOMBE ROAD THOOPARA 4800",
    "locID": "LOC000129385642",
    "tech": "NULL",
    "upgrade": "NULL_NA",
    "gnaf_pid": "GAQLD161181663",
    "ee": true,
    "tech_change_status": "Not Planned"
   }
  },
  {
   "type": "Feature",
   "geometry": {
    "type": "Point",
    "coordinates": [
     148.52143751,
     -20.59002848
    ]
   },
   "properties": {
    "name": "LOT 19 HOLCOMBE ROAD THOOPARA 4800",
    "locID": "LOC000129385642",
    "tech": "NULL",
    "upgrade": "NULL_NA",
    "gnaf_pid": "GAQLD161181664",
    "ee": true,
    "tech_change_status": "Not Planned"
   }
  },
  {
   "type": "Feature",
   "geometry": {
    "type": "Point",
    "coordinates": [
     148.5230839,
     -20.58833829
    ]
   },
   "properties": {
    "name": "LOT 1 HOLCOMBE ROAD THOOPARA 4800",
    "locID": "LOC000129385642",
    "tech": "NULL",
    "upgrade": "NULL_NA",
    "gnaf_pid": "GAQLD161181665",
    "ee": true,
    "tech_change_status": "Not Planned"
   }
  },
  {
   "type": "Feature",
   "geometry": {
    "type": "Point",
    "coordinates": [
     148.52527267,
     -20.58573811
    ]
   },
   "properties": {
    "name": "LOT 20 HOLCOMBE ROAD THOOPARA 4800",
    "locID": "LOC000129385642",
    "tech": "NULL",
    "upgrade": "NULL_NA",
    "gnaf_pid": "GAQLD161181666",
    "ee": true,
    "tech_change_status": "Not Planned"
   }
  },
  {
   "type": "Feature",
   "geometry": {
    "type": "Point",
    "coordinates": [
     148.52903868,
     -20.58457437
    ]
   },
   "properties": {
    "name": "LOT 21 HOLCOMBE ROAD THOOPARA 4800",
    "locID": "LOC000129385642",
    "tech": "NULL",
    "upgrade": "NULL_NA",
    "gnaf_pid": "GAQLD161181667",
    "ee": true,
    "tech_change_status": "Not Planned"
   }
  },
  {
   "type": "Feature",
   "geometry": {
    "type": "Point",
    "coordinates": [
     148.53283834,
     -20.58334255
    ]
   },
   "properties": {
    "name": "LOT 22 HOLCOMBE ROAD THOOPARA 4800",
    "locID": "LOC000129385642",
    "tech": "NULL",
    "upgrade": "NULL_NA",
    "gnaf_pid": "GAQLD161181668",
    "ee": true,
    "tech_change_status": "Not Planned"
   }
  },
  {
   "type": "Feature",
   "geometry": {
    "type": "Point",
    "coordinates": [
     148.54164042,
     -20.58253481
    ]
   },
   "properties": {
    "name": "LOT 24 HOLCOMBE ROAD THOOPARA 4800",
    "locID": "LOC000129385642",
    "tech": "NULL",
    "upgrade": "NULL_NA",
    "gnaf_pid": "GAQLD161181669",
    "ee": true,
    "tech_change_status": "Not Planned"
   }
  },
  {
   "type": "Feature",
   "geometry": {
    "type": "Point",
    "coordinates": [
     148.53285623,
     -20.56339584
    ]
   },
   "properties": {
    "name": "LOT 5018 HOLCOMBE ROAD THOOPARA 4800",
    "locID": "LOC000129385642",
    "tech": "NULL",
    "upgrade": "NULL_NA",
    "gnaf_pid": "GAQLD161181670",
    "ee": true,
    "tech_change_status": "Not Planned"
   }
  },
  {
   "type": "Feature",
   "geometry": {
    "type": "Point",
    "coordinates": [
     148.58074232,
     -20.58667895
    ]
   },
   "properties": {
    "name": "LOT 1 MALONEY ROAD THOOPARA 4800",
    "locID": "LOC000076492614",
    "tech": "WIRELESS",
    "upgrade": "NULL_NA",
    "gnaf_pid": "GAQLD161224041",
    "ee": true,
    "tech_change_status": "Not Planned",
    "program_type": "Fixed Wireless and Satellite Upgrade Program",
    "target_eligibility_quarter": "NA"
   }
  },
  {
   "type": "Feature",
   "geometry": {
    "type": "Point",
    "coordinates": [
     148.58674879,
     -20.58741487
    ]
   },
   "properties": {
    "name": "LOT 2 MALONEY ROAD THOOPARA 4800",
    "locID": "LOC000064084083",
    "tech": "NULL",
    "upgrade": "NULL_NA",
    "gnaf_pid": "GAQLD161224042",
    "ee": true,
    "tech_change_status": "Not Planned"
   }
  },
  {
   "type": "Feature",
   "geometry": {
    "type": "Point",
    "coordinates": [
     148.60871334,
     -20.56086972
    ]
   },
   "properties": {
    "name": "LOT 3 MALONEY ROAD THOOPARA 4800",
    "locID": "LOC000009519125",
    "tech": "NULL",
    "upgrade": "NULL_NA",
    "gnaf_pid": "GAQLD161224045",
    "ee": true,
    "tech_change_status": "Not Planned"
   }
  },
  {
   "type": "Feature",
   "geometry": {
    "type": "Point",
    "coordinates": [
     148.58283075,
     -20.58749436
    ]
   },
   "properties": {
    "name": "LOT 4 MALONEY ROAD THOOPARA 4800",
    "locID": "LOC000102622247",
    "tech": "NULL",
    "upgrade": "NULL_NA",
    "gnaf_pid": "GAQLD161224048",
    "ee": true,
    "tech_change_status": "Not Planned"
   }
  },
  {
   "type": "Feature",
   "geometry": {
    "type": "Point",
    "coordinates": [
     148.58174452,
     -20.59408304
    ]
   },
   "properties": {
    "name": "LOT 5 MALONEY ROAD THOOPARA 4800",
    "locID": "LOC000035865421",
    "tech": "NULL",
    "upgrade": "NULL_NA",
    "gnaf_pid": "GAQLD161224049",
    "ee": true,
    "tech_change_status": "Not Planned"
   }
  },
  {
   "type": "Feature",
   "geometry": {
    "type": "Point",
    "coordinates": [
     148.59974911,
     -20.56488593
    ]
   },
   "properties": {
    "name": "LOT 7 MALONEY ROAD THOOPARA 4800",
    "locID": "LOC000064084083",
    "tech": "NULL",
    "upgrade": "NULL_NA",
    "gnaf_pid": "GAQLD161224054",
    "ee": true,
    "tech_change_status": "Not Planned"
   }
  },
  {
   "type": "Feature",
   "geometry": {
    "type": "Point",
    "coordinates": [
     148.55007342,
     -20.56862397
    ]
   },
   "properties": {
    "name": "LOT 76 THOOPARA ROAD THOOPARA 4800",
    "locID": "LOC100056421794",
    "tech": "WIRELESS",
    "upgrade": "NULL_NA",
    "gnaf_pid": "GAQLD161330102",
    "ee": true,
    "tech_change_status": "Not Planned",
    "program_type": "Fixed Wireless and Satellite Upgrade Program",
    "target_eligibility_quarter": "NA"
   }
  },
  {
   "type": "Feature",
   "geometry": {
    "type": "Point",
    "coordinates": [
     148.55601264,
     -20.5634904
    ]
   },
   "properties": {
    "name": "LOT 51 THOOPARA ROAD THOOPARA 4800",
    "locID": "LOC100056421794",
    "tech": "WIRELESS",
    "upgrade": "NULL_NA",
    "gnaf_pid": "GAQLD161461112",
    "ee": true,
    "tech_change_status": "Not Planned",
    "program_type": "Fixed Wireless and Satellite Upgrade Program",
    "target_eligibility_quarter": "NA"
   }
  },
  {
   "type": "Feature",
   "geometry": {
    "type": "Point",
    "coordinates": [
     148.56367208,
     -20.53024703
    ]
   },
   "properties": {
    "name": "LOT 62 THOOPARA ROAD THOOPARA 4800",
    "locID": "LOC000009519125",
    "tech": "NULL",
    "upgrade": "NULL_NA",
    "gnaf_pid": "GAQLD161461113",
    "ee": true,
    "tech_change_status": "Not Planned"
   }
  },
  {
   "type": "Feature",
   "geometry": {
    "type": "Point",
    "coordinates": [
     148.62516873,
     -20.53961895
    ]
   },
   "properties": {
    "name": "10605 BRUCE HIGHWAY THOOPARA 4800",
    "locID": "LOC000019183194",
    "tech": "WIRELESS",
    "upgrade": "NULL_NA",
    "gnaf_pid": "GAQLD161777863",
    "ee": true,
    "tech_change_status": "Eligible to Order",
    "program_type": "Fixed Wireless and Satellite Upgrade Program",
    "target_eligibility_quarter": "NA"
   }
  },
  {
   "type": "Feature",
   "geometry": {
    "type": "Point",
    "coordinates": [
     148.56715366,
     -20.57770287
    ]
   },
   "properties": {
    "name": "733 MALONEY ROAD THOOPARA 4800",
    "locID": "LOC000036826767",
    "tech": "NULL",
    "upgrade": "NULL_NA",
    "gnaf_pid": "GAQLD161790418",
    "ee": true,
    "tech_change_status": "Not Planned"
   }
  },
  {
   "type": "Feature",
   "geometry": {
    "type": "Point",
    "coordinates": [
     148.57422084,
     -20.57936202
    ]
   },
   "properties": {
    "name": "8 MALONEY ROAD THOOPARA 4800",
    "locID": "LOC000036409191",
    "tech": "WIRELESS",
    "upgrade": "NULL_NA",
    "gnaf_pid": "GAQLD161790419",
    "ee": true,
    "tech_change_status": "Not Planned",
    "program_type": "Fixed Wireless and Satellite Upgrade Program",
    "target_eligibility_quarter": "NA"
   }
  },
  {
   "type": "Feature",
   "geometry": {
    "type": "Point",
    "coordinates": [
     148.605814,
     -20.55822779
    ]
   },
   "properties": {
    "name": "130 MALONEY ROAD THOOPARA 4800",
    "locID": "LOC000076492614",
    "tech": "WIRELESS",
    "upgrade": "NULL_NA",
    "gnaf_pid": "GAQLD162606058",
    "ee": true,
    "tech_change_status": "Not Planned",
    "program_type": "Fixed Wireless and Satellite Upgrade Program",
    "target_eligibility_quarter": "NA"
   }
  },
  {
   "type": "Feature",
   "geometry": {
    "type": "Point",
    "coordinates": [
     148.5678237,
     -20.56564862
    ]
   },
   "properties": {
    "name": "LOT 78 GUNYARRA ROAD THOOPARA 4800",
    "locID": "LOC100056421794",
    "tech": "WIRELESS",
    "upgrade": "NULL_NA",
    "gnaf_pid": "GAQLD162826936",
    "ee": true,
    "tech_change_status": "Not Planned",
    "program_type": "Fixed Wireless and Satellite Upgrade Program",
    "target_eligibility_quarter": "NA"
   }
  },
  {
   "type": "Feature",
   "geometry": {
    "type": "Point",
    "coordinates": [
     148.57817375,
     -20.54151823
    ]
   },
   "properties": {
    "name": "LOT 79 GUNYARRA ROAD THOOPARA 4800",
    "locID": "LOC100056421794",
    "tech": "WIRELESS",
    "upgrade": "NULL_NA",
    "gnaf_pid": "GAQLD162826937",
    "ee": true,
    "tech_change_status": "Not Planned",
    "program_type": "Fixed Wireless and Satellite Upgrade Program",
    "target_eligibility_quarter": "NA"
   }
  },
  {
   "type": "Feature",
   "geometry": {
    "type": "Point",
    "coordinates": [
     148.57452253,
     -20.5853003
    ]
   },
   "properties": {
    "name": "728 MALONEY ROAD THOOPARA 4800",
    "locID": "LOC000013438103",
    "tech": "SATELLITE",
    "upgrade": "NULL_NA",
    "gnaf_pid": "GAQLD162969471",
    "ee": true,
    "tech_change_status": "Not Planned"
   }
  },
  {
   "type": "Feature",
   "geometry": {
    "type": "Point",
    "coordinates": [
     148.60522673,
     -20.52593761
    ]
   },
   "properties": {
    "name": "317-335 GUNYARRA ROAD THOOPARA 4800",
    "locID": "LOC000079097507",
    "tech": "WIRELESS",
    "upgrade": "NULL_NA",
    "gnaf_pid": "GAQLD163254622",
    "ee": true,
    "tech_change_status": "Not Planned",
    "program_type": "Fixed Wireless and Satellite Upgrade Program",
    "target_eligibility_quarter": "NA"
   }
  },
  {
   "type": "Feature",
   "geometry": {
    "type": "Point",
    "coordinates": [
     148.57919411,
     -20.58759887
    ]
   },
   "properties": {
    "name": "710 MALONEY ROAD THOOPARA 4800",
    "locID": "LOC000129342887",
    "tech": "NULL",
    "upgrade": "NULL_NA",
    "gnaf_pid": "GAQLD424990768",
    "ee": true,
    "tech_change_status": "Not Planned"
   }
  },
  {
   "type": "Feature",
   "geometry": {
    "type": "Point",
    "coordinates": [
     148.52930883,
     -20.53290758
    ]
   },
   "properties": {
    "name": "LOT 75 GUNYARRA ROAD THOOPARA 4800",
    "locID": "LOC100056421794",
    "tech": "WIRELESS",
    "upgrade": "NULL_NA",
    "gnaf_pid": "GAQLD425589143",
    "ee": true,
    "tech_change_status": "Not Planned",
    "program_type": "Fixed Wireless and Satellite Upgrade Program",
    "target_eligibility_quarter": "NA"
   }
  },
  {
   "type": "Feature",
   "geometry": {
    "type": "Point",
    "coordinates": [
     148.6128379,
     -20.5527157
    ]
   },
   "properties": {
    "name": "20 MALONEY ROAD THOOPARA 4800",
    "locID": "LOC100071890676",
    "tech": "WIRELESS",
    "upgrade": "NULL_NA",
    "gnaf_pid": "GAQLD425796352",
    "ee": true,
    "tech_change_status": "Eligible to Order",
    "program_type": "Fixed Wireless and Satellite Upgrade Program",
    "target_eligibility_quarter": "NA"
   }
  },
  {
   "type": "Feature",
   "geometry": {
    "type": "Point",
    "coordinates": [
     148.60859609,
     -20.56372772
    ]
   },
   "properties": {
    "name": "14 VICKERS ROAD THOOPARA 4800",
    "locID": "LOC100086209751",
    "tech": "WIRELESS",
    "upgrade": "NULL_NA",
    "gnaf_pid": "GAQLD721430068",
    "ee": true,
    "tech_change_status": "Not Planned",
    "program_type": "Fixed Wireless and Satellite Upgrade Program",
    "target_eligibility_quarter": "NA"
   }
  }
 ]
}