{
 "type": "FeatureCollection",
 "generated": "2025-06-15T02:54:52.503946",
 "suburb": "THORNTON BEACH",
 "features": [
  {
   "type": "Feature",
   "geometry": {
    "type": "Point",
    "coordinates": [
     145.44049885,
     -16.17338228
    ]
   },
   "properties": {
    "name": "LOT 10 CAPE TRIBULATION ROAD THORNTON BEACH 4873",
    "locID": "LOC000129749539",
    "tech": "SATELLITE",
    "upgrade": "NULL_NA",
    "gnaf_pid": "GAQLD158948792",
    "ee": true,
    "tech_change_status": "Not Planned"
   }
  },
  {
   "type": "Feature",
   "geometry": {
    "type": "Point",
    "coordinates": [
     145.44040342,
     -16.17353868
    ]
   },
   "properties": {
    "name": "LOT 11 CAPE TRIBULATION ROAD THORNTON BEACH 4873",
    "locID": "LOC000129749539",
    "tech": "SATELLITE",
    "upgrade": "NULL_NA",
    "gnaf_pid": "GAQLD161093441",
    "ee": true,
    "tech_change_status": "Not Planned"
   }
  },
  {
   "type": "Feature",
   "geometry": {
    "type": "Point",
    "coordinates": [
     145.44068944,
     -16.17306919
    ]
   },
   "properties": {
    "name": "LOT 8 CAPE TRIBULATION ROAD THORNTON BEACH 4873",
    "locID": "LOC000129749539",
    "tech": "SATELLITE",
    "upgrade": "NULL_NA",
    "gnaf_pid": "GAQLD161093447",
    "ee": true,
    "tech_change_status": "Not Planned"
   }
  },
  {
   "type": "Feature",
   "geometry": {
    "type": "Point",
    "coordinates": [
     145.44501316,
     -16.14916337
    ]
   },
   "properties": {
    "name": "LOT 86 CAPE TRIBULATION ROAD THORNTON BEACH 4873",
    "locID": "LOC000129749539",
    "tech": "SATELLITE",
    "upgrade": "NULL_NA",
    "gnaf_pid": "GAQLD162951976",
    "ee": true,
    "tech_change_status": "Not Planned"
   }
  },
  {
   "type": "Feature",
   "geometry": {
    "type": "Point",
    "coordinates": [
     145.43226253,
     -16.17266351
    ]
   },
   "properties": {
    "name": "LOT 98 CAPE TRIBULATION ROAD THORNTON BEACH 4873",
    "locID": "LOC000129749539",
    "tech": "SATELLITE",
    "upgrade": "NULL_NA",
    "gnaf_pid": "GAQLD162951977",
    "ee": true,
    "tech_change_status": "Not Planned"
   }
  },
  {
   "type": "Feature",
   "geometry": {
    "type": "Point",
    "coordinates": [
     145.440308,
     -16.17369527
    ]
   },
   "properties": {
    "name": "2571 CAPE TRIBULATION ROAD THORNTON BEACH 4873",
    "locID": "LOC000129735668",
    "tech": "SATELLITE",
    "upgrade": "NULL_NA",
    "gnaf_pid": "GAQLD163248348",
    "ee": true,
    "tech_change_status": "Not Planned"
   }
  },
  {
   "type": "Feature",
   "geometry": {
    "type": "Point",
    "coordinates": [
     145.44059402,
     -16.1732259
    ]
   },
   "properties": {
    "name": "2575 CAPE TRIBULATION ROAD THORNTON BEACH 4873",
    "locID": "LOC000110808437",
    "tech": "NULL",
    "upgrade": "NULL_NA",
    "gnaf_pid": "GAQLD163248349",
    "ee": true,
    "tech_change_status": "Not Planned"
   }
  },
  {
   "type": "Feature",
   "geometry": {
    "type": "Point",
    "coordinates": [
     145.44078451,
     -16.17291334
    ]
   },
   "properties": {
    "name": "2581 CAPE TRIBULATION ROAD THORNTON BEACH 4873",
    "locID": "LOC000110318591",
    "tech": "SATELLITE",
    "upgrade": "NULL_NA",
    "gnaf_pid": "GAQLD163248350",
    "ee": true,
    "tech_change_status": "Not Planned"
   }
  },
  {
   "type": "Feature",
   "geometry": {
    "type": "Point",
    "coordinates": [
     145.44088,
     -16.17275638
    ]
   },
   "properties": {
    "name": "2583 CAPE TRIBULATION ROAD THORNTON BEACH 4873",
    "locID": "LOC000110495351",
    "tech": "SATELLITE",
    "upgrade": "NULL_NA",
    "gnaf_pid": "GAQLD163248351",
    "ee": true,
    "tech_change_status": "Not Planned"
   }
  },
  {
   "type": "Feature",
   "geometry": {
    "type": "Point",
    "coordinates": [
     145.4410704,
     -16.17244235
    ]
   },
   "properties": {
    "name": "2587 CAPE TRIBULATION ROAD THORNTON BEACH 4873",
    "locID": "LOC000110252693",
    "tech": "SATELLITE",
    "upgrade": "NULL_NA",
    "gnaf_pid": "GAQLD163248352",
    "ee": true,
    "tech_change_status": "Not Planned"
   }
  },
  {
   "type": "Feature",
   "geometry": {
    "type": "Point",
    "coordinates": [
     145.44112182,
     -16.17358819
    ]
   },
   "properties": {
    "name": "2588 CAPE TRIBULATION ROAD THORNTON BEACH 4873",
    "locID": "LOC000113085311",
    "tech": "SATELLITE",
    "upgrade": "NULL_NA",
    "gnaf_pid": "GAQLD163248353",
    "ee": true,
    "tech_change_status": "Not Planned"
   }
  },
  {
   "type": "Feature",
   "geometry": {
    "type": "Point",
    "coordinates": [
     145.44116496,
     -16.17228602
    ]
   },
   "properties": {
    "name": "2589 CAPE TRIBULATION ROAD THORNTON BEACH 4873",
    "locID": "LOC000110440317",
    "tech": "NULL",
    "upgrade": "NULL_NA",
    "gnaf_pid": "GAQLD163248354",
    "ee": true,
    "tech_change_status": "Not Planned"
   }
  },
  {
   "type": "Feature",
   "geometry": {
    "type": "Point",
    "coordinates": [
     145.441259,
     -16.17213097
    ]
   },
   "properties": {
    "name": "2591 CAPE TRIBULATION ROAD THORNTON BEACH 4873",
    "locID": "LOC000113353554",
    "tech": "SATELLITE",
    "upgrade": "NULL_NA",
    "gnaf_pid": "GAQLD163248355",
    "ee": true,
    "tech_change_status": "Not Planned"
   }
  },
  {
   "type": "Feature",
   "geometry": {
    "type": "Point",
    "coordinates": [
     145.44136006,
     -16.17196807
    ]
   },
   "properties": {
    "name": "2593 CAPE TRIBULATION ROAD THORNTON BEACH 4873",
    "locID": "LOC000112779514",
    "tech": "NULL",
    "upgrade": "NULL_NA",
    "gnaf_pid": "GAQLD163248356",
    "ee": true,
    "tech_change_status": "Not Planned"
   }
  },
  {
   "type": "Feature",
   "geometry": {
    "type": "Point",
    "coordinates": [
     145.43635802,
     -16.15153554
    ]
   },
   "properties": {
    "name": "2865 CAPE TRIBULATION ROAD THORNTON BEACH 4873",
    "locID": "LOC000111804887",
    "tech": "NULL",
    "upgrade": "NULL_NA",
    "gnaf_pid": "GAQLD163248358",
    "ee": true,
    "tech_change_status": "Not Planned"
   }
  },
  {
   "type": "Feature",
   "geometry": {
    "type": "Point",
    "coordinates": [
     145.44267485,
     -16.16889028
    ]
   },
   "properties": {
    "name": "LOT 65 CAPE TRIBULATION ROAD THORNTON BEACH 4873",
    "locID": "LOC000129749539",
    "tech": "SATELLITE",
    "upgrade": "NULL_NA",
    "gnaf_pid": "GAQLD163303867",
    "ee": true,
    "tech_change_status": "Not Planned"
   }
  },
  {
   "type": "Feature",
   "geometry": {
    "type": "Point",
    "coordinates": [
     145.44135666,
     -16.17057053
    ]
   },
   "properties": {
    "name": "LOT 99 CAPE TRIBULATION ROAD THORNTON BEACH 4873",
    "locID": "LOC000129749539",
    "tech": "SATELLITE",
    "upgrade": "NULL_NA",
    "gnaf_pid": "GAQLD163303868",
    "ee": true,
    "tech_change_status": "Not Planned"
   }
  },
  {
   "type": "Feature",
   "geometry": {
    "type": "Point",
    "coordinates": [
     145.43117121,
     -16.14763601
    ]
   },
   "properties": {
    "name": "3017 CAPE TRIBULATION ROAD THORNTON BEACH 4873",
    "locID": "LOC000005970242",
    "tech": "SATELLITE",
    "upgrade": "NULL_NA",
    "gnaf_pid": "GAQLD163365876",
    "ee": false,
    "tech_change_status": "Not Planned"
   }
  },
  {
   "type": "Feature",
   "geometry": {
    "type": "Point",
    "coordinates": [
     145.44097534,
     -16.1725993
    ]
   },
   "properties": {
    "name": "2585 CAPE TRIBULATION ROAD THORNTON BEACH 4873",
    "locID": "LOC100079002081",
    "tech": "NULL",
    "upgrade": "NULL_NA",
    "gnaf_pid": "GAQLD719623370",
    "ee": true,
    "tech_change_status": "Not Planned"
   }
  },
  {
   "type": "Feature",
   "geometry": {
    "type": "Point",
    "coordinates": [
     145.44021954,
     -16.17385475
    ]
   },
   "properties": {
    "name": "2569 CAPE TRIBULATION ROAD THORNTON BEACH 4873",
    "locID": "LOC100077997125",
    "tech": "NULL",
    "upgrade": "NULL_NA",
    "gnaf_pid": "GAQLD720374481",
    "ee": true,
    "tech_change_status": "Not Planned"
   }
  },
  {
   "type": "Feature",
   "geometry": {
    "type": "Point",
    "coordinates": [
     145.44033225,
     -16.17236868
    ]
   },
   "properties": {
    "name": "LOT 21 CAPE TRIBULATION ROAD THORNTON BEACH 4873",
    "locID": "LOC000129749539",
    "tech": "SATELLITE",
    "upgrade": "NULL_NA",
    "gnaf_pid": "GAQLD720933550",
    "ee": true,
    "tech_change_status": "Not Planned"
   }
  },
  {
   "type": "Feature",
   "geometry": {
    "type": "Point",
    "coordinates": [
     145.44073511,
     -16.17299052
    ]
   },
   "properties": {
    "name": "2579 CAPE TRIBULATION ROAD THORNTON BEACH 4873",
    "locID": "LOC000129749539",
    "tech": "SATELLITE",
    "upgrade": "NULL_NA",
    "gnaf_pid": "GAQLD721081490",
    "ee": true,
    "tech_change_status": "Not Planned"
   }
  }
 ]
}