{
 "type": "FeatureCollection",
 "generated": "2025-06-15T03:43:22.302174",
 "suburb": "TURRAWULLA",
 "features": [
  {
   "type": "Feature",
   "geometry": {
    "type": "Point",
    "coordinates": [
     148.28523181,
     -21.29361157
    ]
   },
   "properties": {
    "name": "LOT 11 TURRAWULLA ROAD TURRAWULLA 4742",
    "locID": "LOC000172886122",
    "tech": "SATELLITE",
    "upgrade": "NULL_NA",
    "gnaf_pid": "GAQLD163175904",
    "ee": false,
    "tech_change_status": "Not Planned"
   }
  }
 ]
}