{
 "type": "FeatureCollection",
 "generated": "2025-06-15T04:25:40.437858",
 "suburb": "WAIKOLA",
 "features": [
  {
   "type": "Feature",
   "geometry": {
    "type": "Point",
    "coordinates": [
     149.1997513,
     -26.01546188
    ]
   },
   "properties": {
    "name": "LOT 3 ROMA - TAROOM ROAD WAIKOLA 4420",
    "locID": "LOC000142307564",
    "tech": "SATELLITE",
    "upgrade": "NULL_NA",
    "gnaf_pid": "GAQLD161942213",
    "ee": false,
    "tech_change_status": "Not Planned"
   }
  },
  {
   "type": "Feature",
   "geometry": {
    "type": "Point",
    "coordinates": [
     149.12820861,
     -25.97481341
    ]
   },
   "properties": {
    "name": "933 NUGGET HILLS ROAD WAIKOLA 4420",
    "locID": "LOC000186661763",
    "tech": "NULL",
    "upgrade": "NULL_NA",
    "gnaf_pid": "GAQLD162359505",
    "ee": false,
    "tech_change_status": "Not Planned"
   }
  },
  {
   "type": "Feature",
   "geometry": {
    "type": "Point",
    "coordinates": [
     149.28750851,
     -26.10539266
    ]
   },
   "properties": {
    "name": "1581 PINE HILLS ROAD WAIKOLA 4420",
    "locID": "LOC000161475619",
    "tech": "SATELLITE",
    "upgrade": "NULL_NA",
    "gnaf_pid": "GAQLD163172667",
    "ee": false,
    "tech_change_status": "Not Planned"
   }
  },
  {
   "type": "Feature",
   "geometry": {
    "type": "Point",
    "coordinates": [
     149.2140914,
     -26.26362123
    ]
   },
   "properties": {
    "name": "LOT 8 PINE HILLS ROAD WAIKOLA 4420",
    "locID": "LOC000161475619",
    "tech": "SATELLITE",
    "upgrade": "NULL_NA",
    "gnaf_pid": "GAQLD163172668",
    "ee": false,
    "tech_change_status": "Not Planned"
   }
  },
  {
   "type": "Feature",
   "geometry": {
    "type": "Point",
    "coordinates": [
     149.2004512,
     -26.28856493
    ]
   },
   "properties": {
    "name": "LOT 9 PINE HILLS ROAD WAIKOLA 4420",
    "locID": "LOC000161475619",
    "tech": "SATELLITE",
    "upgrade": "NULL_NA",
    "gnaf_pid": "GAQLD163172669",
    "ee": false,
    "tech_change_status": "Not Planned"
   }
  },
  {
   "type": "Feature",
   "geometry": {
    "type": "Point",
    "coordinates": [
     149.19865727,
     -25.97690137
    ]
   },
   "properties": {
    "name": "670 NUGGET HILLS ROAD WAIKOLA 4420",
    "locID": "LOC000186661763",
    "tech": "NULL",
    "upgrade": "NULL_NA",
    "gnaf_pid": "GAQLD719335096",
    "ee": false,
    "tech_change_status": "Not Planned"
   }
  }
 ]
}