{
 "type": "FeatureCollection",
 "generated": "2025-06-15T04:27:53.046781",
 "suburb": "WALKERS POINT",
 "features": [
  {
   "type": "Feature",
   "geometry": {
    "type": "Point",
    "coordinates": [
     152.76147576,
     -25.53799165
    ]
   },
   "properties": {
    "name": "LOT 1246 EDEN STREET WALKERS POINT 4650",
    "locID": "LOC000027420027",
    "tech": "WIRELESS",
    "upgrade": "NULL_NA",
    "gnaf_pid": "GAQLD155935034",
    "ee": true,
    "tech_change_status": "Eligible to Order",
    "program_type": "Fixed Wireless and Satellite Upgrade Program",
    "target_eligibility_quarter": "NA"
   }
  },
  {
   "type": "Feature",
   "geometry": {
    "type": "Point",
    "coordinates": [
     152.74282679,
     -25.5164353
    ]
   },
   "properties": {
    "name": "LOT 1 WALKERS POINT ROAD WALKERS POINT 4650",
    "locID": "LOC000034162459",
    "tech": "WIRELESS",
    "upgrade": "NULL_NA",
    "gnaf_pid": "GAQLD155935043",
    "ee": true,
    "tech_change_status": "Not Planned",
    "program_type": "Fixed Wireless and Satellite Upgrade Program",
    "target_eligibility_quarter": "NA"
   }
  },
  {
   "type": "Feature",
   "geometry": {
    "type": "Point",
    "coordinates": [
     152.74004684,
     -25.5227211
    ]
   },
   "properties": {
    "name": "210 WALKERS POINT ROAD WALKERS POINT 4650",
    "locID": "LOC000065842844",
    "tech": "WIRELESS",
    "upgrade": "NULL_NA",
    "gnaf_pid": "GAQLD155935044",
    "ee": true,
    "tech_change_status": "Not Planned",
    "program_type": "Fixed Wireless and Satellite Upgrade Program",
    "target_eligibility_quarter": "NA"
   }
  },
  {
   "type": "Feature",
   "geometry": {
    "type": "Point",
    "coordinates": [
     152.73887094,
     -25.5178112
    ]
   },
   "properties": {
    "name": "236 WALKERS POINT ROAD WALKERS POINT 4650",
    "locID": "LOC000076115884",
    "tech": "WIRELESS",
    "upgrade": "NULL_NA",
    "gnaf_pid": "GAQLD155935045",
    "ee": true,
    "tech_change_status": "Not Planned",
    "program_type": "Fixed Wireless and Satellite Upgrade Program",
    "target_eligibility_quarter": "NA"
   }
  },
  {
   "type": "Feature",
   "geometry": {
    "type": "Point",
    "coordinates": [
     152.73968095,
     -25.51799721
    ]
   },
   "properties": {
    "name": "238 WALKERS POINT ROAD WALKERS POINT 4650",
    "locID": "LOC000037599494",
    "tech": "WIRELESS",
    "upgrade": "NULL_NA",
    "gnaf_pid": "GAQLD155935046",
    "ee": true,
    "tech_change_status": "Not Planned",
    "program_type": "Fixed Wireless and Satellite Upgrade Program",
    "target_eligibility_quarter": "NA"
   }
  },
  {
   "type": "Feature",
   "geometry": {
    "type": "Point",
    "coordinates": [
     152.73839023,
     -25.51665063
    ]
   },
   "properties": {
    "name": "245 WALKERS POINT ROAD WALKERS POINT 4650",
    "locID": "LOC000034162459",
    "tech": "WIRELESS",
    "upgrade": "NULL_NA",
    "gnaf_pid": "GAQLD155935047",
    "ee": true,
    "tech_change_status": "Not Planned",
    "program_type": "Fixed Wireless and Satellite Upgrade Program",
    "target_eligibility_quarter": "NA"
   }
  },
  {
   "type": "Feature",
   "geometry": {
    "type": "Point",
    "coordinates": [
     152.73947772,
     -25.51599165
    ]
   },
   "properties": {
    "name": "264 WALKERS POINT ROAD WALKERS POINT 4650",
    "locID": "LOC000105944952",
    "tech": "WIRELESS",
    "upgrade": "NULL_NA",
    "gnaf_pid": "GAQLD155935048",
    "ee": true,
    "tech_change_status": "Not Planned",
    "program_type": "Fixed Wireless and Satellite Upgrade Program",
    "target_eligibility_quarter": "NA"
   }
  },
  {
   "type": "Feature",
   "geometry": {
    "type": "Point",
    "coordinates": [
     152.7325318,
     -25.51175281
    ]
   },
   "properties": {
    "name": "269 WALKERS POINT ROAD WALKERS POINT 4650",
    "locID": "LOC000096576959",
    "tech": "WIRELESS",
    "upgrade": "NULL_NA",
    "gnaf_pid": "GAQLD155935049",
    "ee": true,
    "tech_change_status": "Not Planned",
    "program_type": "Fixed Wireless and Satellite Upgrade Program",
    "target_eligibility_quarter": "NA"
   }
  },
  {
   "type": "Feature",
   "geometry": {
    "type": "Point",
    "coordinates": [
     152.74078413,
     -25.51340792
    ]
   },
   "properties": {
    "name": "288 WALKERS POINT ROAD WALKERS POINT 4650",
    "locID": "LOC000057944078",
    "tech": "WIRELESS",
    "upgrade": "NULL_NA",
    "gnaf_pid": "GAQLD155935050",
    "ee": true,
    "tech_change_status": "Not Planned",
    "program_type": "Fixed Wireless and Satellite Upgrade Program",
    "target_eligibility_quarter": "NA"
   }
  },
  {
   "type": "Feature",
   "geometry": {
    "type": "Point",
    "coordinates": [
     152.74160407,
     -25.51292086
    ]
   },
   "properties": {
    "name": "300 WALKERS POINT ROAD WALKERS POINT 4650",
    "locID": "LOC000067250465",
    "tech": "WIRELESS",
    "upgrade": "NULL_NA",
    "gnaf_pid": "GAQLD155935051",
    "ee": true,
    "tech_change_status": "Not Planned",
    "program_type": "Fixed Wireless and Satellite Upgrade Program",
    "target_eligibility_quarter": "NA"
   }
  },
  {
   "type": "Feature",
   "geometry": {
    "type": "Point",
    "coordinates": [
     152.74211158,
     -25.50639282
    ]
   },
   "properties": {
    "name": "368 WALKERS POINT ROAD WALKERS POINT 4650",
    "locID": "LOC000033374282",
    "tech": "WIRELESS",
    "upgrade": "NULL_NA",
    "gnaf_pid": "GAQLD155935052",
    "ee": true,
    "tech_change_status": "Not Planned",
    "program_type": "Fixed Wireless and Satellite Upgrade Program",
    "target_eligibility_quarter": "NA"
   }
  },
  {
   "type": "Feature",
   "geometry": {
    "type": "Point",
    "coordinates": [
     152.73679254,
     -25.50800771
    ]
   },
   "properties": {
    "name": "379 WALKERS POINT ROAD WALKERS POINT 4650",
    "locID": "LOC000055315629",
    "tech": "WIRELESS",
    "upgrade": "NULL_NA",
    "gnaf_pid": "GAQLD155935053",
    "ee": true,
    "tech_change_status": "Not Planned",
    "program_type": "Fixed Wireless and Satellite Upgrade Program",
    "target_eligibility_quarter": "NA"
   }
  },
  {
   "type": "Feature",
   "geometry": {
    "type": "Point",
    "coordinates": [
     152.74541686,
     -25.49874716
    ]
   },
   "properties": {
    "name": "428 WALKERS POINT ROAD WALKERS POINT 4650",
    "locID": "LOC000105016766",
    "tech": "WIRELESS",
    "upgrade": "NULL_NA",
    "gnaf_pid": "GAQLD155936786",
    "ee": true,
    "tech_change_status": "Not Planned",
    "program_type": "Fixed Wireless and Satellite Upgrade Program",
    "target_eligibility_quarter": "NA"
   }
  },
  {
   "type": "Feature",
   "geometry": {
    "type": "Point",
    "coordinates": [
     152.73951709,
     -25.49861702
    ]
   },
   "properties": {
    "name": "437 WALKERS POINT ROAD WALKERS POINT 4650",
    "locID": "LOC000055585081",
    "tech": "WIRELESS",
    "upgrade": "NULL_NA",
    "gnaf_pid": "GAQLD155936787",
    "ee": true,
    "tech_change_status": "Not Planned",
    "program_type": "Fixed Wireless and Satellite Upgrade Program",
    "target_eligibility_quarter": "NA"
   }
  },
  {
   "type": "Feature",
   "geometry": {
    "type": "Point",
    "coordinates": [
     152.73984984,
     -25.49722949
    ]
   },
   "properties": {
    "name": "465 WALKERS POINT ROAD WALKERS POINT 4650",
    "locID": "LOC000086777439",
    "tech": "WIRELESS",
    "upgrade": "NULL_NA",
    "gnaf_pid": "GAQLD155936788",
    "ee": true,
    "tech_change_status": "Not Planned",
    "program_type": "Fixed Wireless and Satellite Upgrade Program",
    "target_eligibility_quarter": "NA"
   }
  },
  {
   "type": "Feature",
   "geometry": {
    "type": "Point",
    "coordinates": [
     152.7401075,
     -25.49630003
    ]
   },
   "properties": {
    "name": "503 WALKERS POINT ROAD WALKERS POINT 4650",
    "locID": "LOC000030718985",
    "tech": "WIRELESS",
    "upgrade": "NULL_NA",
    "gnaf_pid": "GAQLD155936789",
    "ee": true,
    "tech_change_status": "Not Planned",
    "program_type": "Fixed Wireless and Satellite Upgrade Program",
    "target_eligibility_quarter": "NA"
   }
  },
  {
   "type": "Feature",
   "geometry": {
    "type": "Point",
    "coordinates": [
     152.74063925,
     -25.49416627
    ]
   },
   "properties": {
    "name": "517 WALKERS POINT ROAD WALKERS POINT 4650",
    "locID": "LOC000043584491",
    "tech": "WIRELESS",
    "upgrade": "NULL_NA",
    "gnaf_pid": "GAQLD155936790",
    "ee": true,
    "tech_change_status": "Not Planned",
    "program_type": "Fixed Wireless and Satellite Upgrade Program",
    "target_eligibility_quarter": "NA"
   }
  },
  {
   "type": "Feature",
   "geometry": {
    "type": "Point",
    "coordinates": [
     152.74439647,
     -25.48962674
    ]
   },
   "properties": {
    "name": "550 WALKERS POINT ROAD WALKERS POINT 4650",
    "locID": "LOC000037321243",
    "tech": "WIRELESS",
    "upgrade": "NULL_NA",
    "gnaf_pid": "GAQLD155936791",
    "ee": true,
    "tech_change_status": "Not Planned",
    "program_type": "Fixed Wireless and Satellite Upgrade Program",
    "target_eligibility_quarter": "NA"
   }
  },
  {
   "type": "Feature",
   "geometry": {
    "type": "Point",
    "coordinates": [
     152.73942188,
     -25.48552442
    ]
   },
   "properties": {
    "name": "635 WALKERS POINT ROAD WALKERS POINT 4650",
    "locID": "LOC000062565280",
    "tech": "WIRELESS",
    "upgrade": "NULL_NA",
    "gnaf_pid": "GAQLD155936792",
    "ee": true,
    "tech_change_status": "Not Planned",
    "program_type": "Fixed Wireless and Satellite Upgrade Program",
    "target_eligibility_quarter": "NA"
   }
  },
  {
   "type": "Feature",
   "geometry": {
    "type": "Point",
    "coordinates": [
     152.74143775,
     -25.48280068
    ]
   },
   "properties": {
    "name": "646 WALKERS POINT ROAD WALKERS POINT 4650",
    "locID": "LOC000068770867",
    "tech": "WIRELESS",
    "upgrade": "NULL_NA",
    "gnaf_pid": "GAQLD155936793",
    "ee": true,
    "tech_change_status": "Not Planned",
    "program_type": "Fixed Wireless and Satellite Upgrade Program",
    "target_eligibility_quarter": "NA"
   }
  },
  {
   "type": "Feature",
   "geometry": {
    "type": "Point",
    "coordinates": [
     152.74099777,
     -25.48152085
    ]
   },
   "properties": {
    "name": "660 WALKERS POINT ROAD WALKERS POINT 4650",
    "locID": "LOC000044985102",
    "tech": "WIRELESS",
    "upgrade": "NULL_NA",
    "gnaf_pid": "GAQLD155936794",
    "ee": true,
    "tech_change_status": "Not Planned",
    "program_type": "Fixed Wireless and Satellite Upgrade Program",
    "target_eligibility_quarter": "NA"
   }
  },
  {
   "type": "Feature",
   "geometry": {
    "type": "Point",
    "coordinates": [
     152.74290974,
     -25.48218663
    ]
   },
   "properties": {
    "name": "678 WALKERS POINT ROAD WALKERS POINT 4650",
    "locID": "LOC000029780271",
    "tech": "WIRELESS",
    "upgrade": "NULL_NA",
    "gnaf_pid": "GAQLD155936795",
    "ee": true,
    "tech_change_status": "Not Planned",
    "program_type": "Fixed Wireless and Satellite Upgrade Program",
    "target_eligibility_quarter": "NA"
   }
  },
  {
   "type": "Feature",
   "geometry": {
    "type": "Point",
    "coordinates": [
     152.74145813,
     -25.47868702
    ]
   },
   "properties": {
    "name": "698 WALKERS POINT ROAD WALKERS POINT 4650",
    "locID": "LOC000027472646",
    "tech": "WIRELESS",
    "upgrade": "NULL_NA",
    "gnaf_pid": "GAQLD155936796",
    "ee": true,
    "tech_change_status": "Not Planned",
    "program_type": "Fixed Wireless and Satellite Upgrade Program",
    "target_eligibility_quarter": "NA"
   }
  },
  {
   "type": "Feature",
   "geometry": {
    "type": "Point",
    "coordinates": [
     152.75229651,
     -25.50886661
    ]
   },
   "properties": {
    "name": "LOT 1 BEAVER ROCK ROAD WALKERS POINT 4650",
    "locID": "LOC000024039521",
    "tech": "WIRELESS",
    "upgrade": "NULL_NA",
    "gnaf_pid": "GAQLD155942633",
    "ee": true,
    "tech_change_status": "Not Planned",
    "program_type": "Fixed Wireless and Satellite Upgrade Program",
    "target_eligibility_quarter": "NA"
   }
  },
  {
   "type": "Feature",
   "geometry": {
    "type": "Point",
    "coordinates": [
     152.73761441,
     -25.50170025
    ]
   },
   "properties": {
    "name": "407 WALKERS POINT ROAD WALKERS POINT 4650",
    "locID": "LOC000044797262",
    "tech": "WIRELESS",
    "upgrade": "NULL_NA",
    "gnaf_pid": "GAQLD156088703",
    "ee": true,
    "tech_change_status": "Not Planned",
    "program_type": "Fixed Wireless and Satellite Upgrade Program",
    "target_eligibility_quarter": "NA"
   }
  },
  {
   "type": "Feature",
   "geometry": {
    "type": "Point",
    "coordinates": [
     152.74193372,
     -25.47987508
    ]
   },
   "properties": {
    "name": "686 WALKERS POINT ROAD WALKERS POINT 4650",
    "locID": "LOC100077357109",
    "tech": "WIRELESS",
    "upgrade": "NULL_NA",
    "gnaf_pid": "GAQLD156088704",
    "ee": true,
    "tech_change_status": "Not Planned",
    "program_type": "Fixed Wireless and Satellite Upgrade Program",
    "target_eligibility_quarter": "NA"
   }
  },
  {
   "type": "Feature",
   "geometry": {
    "type": "Point",
    "coordinates": [
     152.73794582,
     -25.47974326
    ]
   },
   "properties": {
    "name": "637 WALKERS POINT ROAD WALKERS POINT 4650",
    "locID": "LOC000106083839",
    "tech": "WIRELESS",
    "upgrade": "NULL_NA",
    "gnaf_pid": "GAQLD158794719",
    "ee": true,
    "tech_change_status": "Not Planned",
    "program_type": "Fixed Wireless and Satellite Upgrade Program",
    "target_eligibility_quarter": "NA"
   }
  },
  {
   "type": "Feature",
   "geometry": {
    "type": "Point",
    "coordinates": [
     152.74505537,
     -25.49424621
    ]
   },
   "properties": {
    "name": "484 WALKERS POINT ROAD WALKERS POINT 4650",
    "locID": "LOC000043756520",
    "tech": "WIRELESS",
    "upgrade": "NULL_NA",
    "gnaf_pid": "GAQLD158814863",
    "ee": true,
    "tech_change_status": "Not Planned",
    "program_type": "Fixed Wireless and Satellite Upgrade Program",
    "target_eligibility_quarter": "NA"
   }
  },
  {
   "type": "Feature",
   "geometry": {
    "type": "Point",
    "coordinates": [
     152.73837565,
     -25.50064655
    ]
   },
   "properties": {
    "name": "421 WALKERS POINT ROAD WALKERS POINT 4650",
    "locID": "LOC000054868177",
    "tech": "WIRELESS",
    "upgrade": "NULL_NA",
    "gnaf_pid": "GAQLD158835080",
    "ee": true,
    "tech_change_status": "Not Planned",
    "program_type": "Fixed Wireless and Satellite Upgrade Program",
    "target_eligibility_quarter": "NA"
   }
  },
  {
   "type": "Feature",
   "geometry": {
    "type": "Point",
    "coordinates": [
     152.74201978,
     -25.48035817
    ]
   },
   "properties": {
    "name": "10 CLIFT ROAD WALKERS POINT 4650",
    "locID": "LOC000043476039",
    "tech": "WIRELESS",
    "upgrade": "NULL_NA",
    "gnaf_pid": "GAQLD158841372",
    "ee": true,
    "tech_change_status": "Not Planned",
    "program_type": "Fixed Wireless and Satellite Upgrade Program",
    "target_eligibility_quarter": "NA"
   }
  },
  {
   "type": "Feature",
   "geometry": {
    "type": "Point",
    "coordinates": [
     152.73903023,
     -25.47099416
    ]
   },
   "properties": {
    "name": "LOT 121 WALKERS POINT ROAD WALKERS POINT 4650",
    "locID": "LOC000114762949",
    "tech": "WIRELESS",
    "upgrade": "NULL_NA",
    "gnaf_pid": "GAQLD161343231",
    "ee": true,
    "tech_change_status": "Not Planned",
    "program_type": "Fixed Wireless and Satellite Upgrade Program",
    "target_eligibility_quarter": "NA"
   }
  },
  {
   "type": "Feature",
   "geometry": {
    "type": "Point",
    "coordinates": [
     152.73970594,
     -25.47310692
    ]
   },
   "properties": {
    "name": "LOT 122 WALKERS POINT ROAD WALKERS POINT 4650",
    "locID": "LOC000038104844",
    "tech": "FTTC",
    "upgrade": "FTTP_SA",
    "gnaf_pid": "GAQLD161343232",
    "ee": true,
    "tech_change_status": "Eligible to Order"
   }
  },
  {
   "type": "Feature",
   "geometry": {
    "type": "Point",
    "coordinates": [
     152.73733652,
     -25.46878747
    ]
   },
   "properties": {
    "name": "LOT 20 WALKERS POINT ROAD WALKERS POINT 4650",
    "locID": "LOC000164056170",
    "tech": "FTTN",
    "upgrade": "FTTP_SA",
    "gnaf_pid": "GAQLD161343237",
    "ee": true,
    "tech_change_status": "Eligible to Order",
    "program_type": "On-Demand N2P SDU/MDU Simple",
    "target_eligibility_quarter": "NA"
   }
  },
  {
   "type": "Feature",
   "geometry": {
    "type": "Point",
    "coordinates": [
     152.74076295,
     -25.47568358
    ]
   },
   "properties": {
    "name": "LOT 2 WALKERS POINT ROAD WALKERS POINT 4650",
    "locID": "LOC000076115884",
    "tech": "WIRELESS",
    "upgrade": "NULL_NA",
    "gnaf_pid": "GAQLD161343239",
    "ee": true,
    "tech_change_status": "Not Planned",
    "program_type": "Fixed Wireless and Satellite Upgrade Program",
    "target_eligibility_quarter": "NA"
   }
  },
  {
   "type": "Feature",
   "geometry": {
    "type": "Point",
    "coordinates": [
     152.75682149,
     -25.50841204
    ]
   },
   "properties": {
    "name": "82 NICKOLS ROAD WALKERS POINT 4650",
    "locID": "LOC000054845093",
    "tech": "WIRELESS",
    "upgrade": "NULL_NA",
    "gnaf_pid": "GAQLD161793466",
    "ee": true,
    "tech_change_status": "Not Planned",
    "program_type": "Fixed Wireless and Satellite Upgrade Program",
    "target_eligibility_quarter": "NA"
   }
  },
  {
   "type": "Feature",
   "geometry": {
    "type": "Point",
    "coordinates": [
     152.74923014,
     -25.51638387
    ]
   },
   "properties": {
    "name": "124 BEAVER ROCK ROAD WALKERS POINT 4650",
    "locID": "LOC000064254859",
    "tech": "WIRELESS",
    "upgrade": "NULL_NA",
    "gnaf_pid": "GAQLD161807043",
    "ee": true,
    "tech_change_status": "Not Planned",
    "program_type": "Fixed Wireless and Satellite Upgrade Program",
    "target_eligibility_quarter": "NA"
   }
  },
  {
   "type": "Feature",
   "geometry": {
    "type": "Point",
    "coordinates": [
     152.75433902,
     -25.52139451
    ]
   },
   "properties": {
    "name": "174 BEAVER ROCK ROAD WALKERS POINT 4650",
    "locID": "LOC000177700102",
    "tech": "WIRELESS",
    "upgrade": "NULL_NA",
    "gnaf_pid": "GAQLD161807049",
    "ee": true,
    "tech_change_status": "Not Planned",
    "program_type": "Fixed Wireless and Satellite Upgrade Program",
    "target_eligibility_quarter": "NA"
   }
  },
  {
   "type": "Feature",
   "geometry": {
    "type": "Point",
    "coordinates": [
     152.76176598,
     -25.51539338
    ]
   },
   "properties": {
    "name": "223 BEAVER ROCK ROAD WALKERS POINT 4650",
    "locID": "LOC000103525555",
    "tech": "WIRELESS",
    "upgrade": "NULL_NA",
    "gnaf_pid": "GAQLD161807050",
    "ee": true,
    "tech_change_status": "Not Planned",
    "program_type": "Fixed Wireless and Satellite Upgrade Program",
    "target_eligibility_quarter": "NA"
   }
  },
  {
   "type": "Feature",
   "geometry": {
    "type": "Point",
    "coordinates": [
     152.7620372,
     -25.52263568
    ]
   },
   "properties": {
    "name": "258 BEAVER ROCK ROAD WALKERS POINT 4650",
    "locID": "LOC000010787036",
    "tech": "WIRELESS",
    "upgrade": "NULL_NA",
    "gnaf_pid": "GAQLD161807051",
    "ee": true,
    "tech_change_status": "Not Planned",
    "program_type": "Fixed Wireless and Satellite Upgrade Program",
    "target_eligibility_quarter": "NA"
   }
  },
  {
   "type": "Feature",
   "geometry": {
    "type": "Point",
    "coordinates": [
     152.74355187,
     -25.50736125
    ]
   },
   "properties": {
    "name": "28 BEAVER ROCK ROAD WALKERS POINT 4650",
    "locID": "LOC000024039521",
    "tech": "WIRELESS",
    "upgrade": "NULL_NA",
    "gnaf_pid": "GAQLD161807054",
    "ee": true,
    "tech_change_status": "Not Planned",
    "program_type": "Fixed Wireless and Satellite Upgrade Program",
    "target_eligibility_quarter": "NA"
   }
  },
  {
   "type": "Feature",
   "geometry": {
    "type": "Point",
    "coordinates": [
     152.75917815,
     -25.5306666
    ]
   },
   "properties": {
    "name": "224 EDEN STREET WALKERS POINT 4650",
    "locID": "LOC000010724238",
    "tech": "WIRELESS",
    "upgrade": "NULL_NA",
    "gnaf_pid": "GAQLD162615494",
    "ee": true,
    "tech_change_status": "Not Planned",
    "program_type": "Fixed Wireless and Satellite Upgrade Program",
    "target_eligibility_quarter": "NA"
   }
  },
  {
   "type": "Feature",
   "geometry": {
    "type": "Point",
    "coordinates": [
     152.73479082,
     -25.51651002
    ]
   },
   "properties": {
    "name": "42 EDEN STREET WALKERS POINT 4650",
    "locID": "LOC000054826344",
    "tech": "WIRELESS",
    "upgrade": "NULL_NA",
    "gnaf_pid": "GAQLD162615495",
    "ee": true,
    "tech_change_status": "Not Planned",
    "program_type": "Fixed Wireless and Satellite Upgrade Program",
    "target_eligibility_quarter": "NA"
   }
  },
  {
   "type": "Feature",
   "geometry": {
    "type": "Point",
    "coordinates": [
     152.7321711,
     -25.51394479
    ]
   },
   "properties": {
    "name": "52 EDEN STREET WALKERS POINT 4650",
    "locID": "LOC000095232829",
    "tech": "WIRELESS",
    "upgrade": "NULL_NA",
    "gnaf_pid": "GAQLD162615496",
    "ee": true,
    "tech_change_status": "Not Planned",
    "program_type": "Fixed Wireless and Satellite Upgrade Program",
    "target_eligibility_quarter": "NA"
   }
  },
  {
   "type": "Feature",
   "geometry": {
    "type": "Point",
    "coordinates": [
     152.73127776,
     -25.51489405
    ]
   },
   "properties": {
    "name": "64 EDEN STREET WALKERS POINT 4650",
    "locID": "LOC000098887347",
    "tech": "WIRELESS",
    "upgrade": "NULL_NA",
    "gnaf_pid": "GAQLD162615497",
    "ee": true,
    "tech_change_status": "Not Planned",
    "program_type": "Fixed Wireless and Satellite Upgrade Program",
    "target_eligibility_quarter": "NA"
   }
  },
  {
   "type": "Feature",
   "geometry": {
    "type": "Point",
    "coordinates": [
     152.73259338,
     -25.51559255
    ]
   },
   "properties": {
    "name": "68 EDEN STREET WALKERS POINT 4650",
    "locID": "LOC000027420027",
    "tech": "WIRELESS",
    "upgrade": "NULL_NA",
    "gnaf_pid": "GAQLD162615498",
    "ee": true,
    "tech_change_status": "Eligible to Order",
    "program_type": "Fixed Wireless and Satellite Upgrade Program",
    "target_eligibility_quarter": "NA"
   }
  },
  {
   "type": "Feature",
   "geometry": {
    "type": "Point",
    "coordinates": [
     152.73259338,
     -25.51559255
    ]
   },
   "properties": {
    "name": "74 EDEN STREET WALKERS POINT 4650",
    "locID": "LOC000008252782",
    "tech": "WIRELESS",
    "upgrade": "NULL_NA",
    "gnaf_pid": "GAQLD162615499",
    "ee": true,
    "tech_change_status": "Not Planned",
    "program_type": "Fixed Wireless and Satellite Upgrade Program",
    "target_eligibility_quarter": "NA"
   }
  },
  {
   "type": "Feature",
   "geometry": {
    "type": "Point",
    "coordinates": [
     152.74514419,
     -25.52327402
    ]
   },
   "properties": {
    "name": "82 EDEN STREET WALKERS POINT 4650",
    "locID": "LOC100077357145",
    "tech": "WIRELESS",
    "upgrade": "NULL_NA",
    "gnaf_pid": "GAQLD162615500",
    "ee": true,
    "tech_change_status": "Not Planned",
    "program_type": "Fixed Wireless and Satellite Upgrade Program",
    "target_eligibility_quarter": "NA"
   }
  },
  {
   "type": "Feature",
   "geometry": {
    "type": "Point",
    "coordinates": [
     152.74285552,
     -25.51992726
    ]
   },
   "properties": {
    "name": "9 EDEN STREET WALKERS POINT 4650",
    "locID": "LOC000051227176",
    "tech": "WIRELESS",
    "upgrade": "NULL_NA",
    "gnaf_pid": "GAQLD162615501",
    "ee": true,
    "tech_change_status": "Not Planned",
    "program_type": "Fixed Wireless and Satellite Upgrade Program",
    "target_eligibility_quarter": "NA"
   }
  },
  {
   "type": "Feature",
   "geometry": {
    "type": "Point",
    "coordinates": [
     152.73259338,
     -25.51559255
    ]
   },
   "properties": {
    "name": "68-74 EDEN STREET WALKERS POINT 4650",
    "locID": "LOC000128614841",
    "tech": "WIRELESS",
    "upgrade": "NULL_NA",
    "gnaf_pid": "GAQLD163162571",
    "ee": true,
    "tech_change_status": "Not Planned",
    "program_type": "Fixed Wireless and Satellite Upgrade Program",
    "target_eligibility_quarter": "NA"
   }
  },
  {
   "type": "Feature",
   "geometry": {
    "type": "Point",
    "coordinates": [
     152.73474775,
     -25.47213409
    ]
   },
   "properties": {
    "name": "681 WALKERS POINT ROAD WALKERS POINT 4650",
    "locID": "LOC000128614856",
    "tech": "WIRELESS",
    "upgrade": "NULL_NA",
    "gnaf_pid": "GAQLD163176264",
    "ee": true,
    "tech_change_status": "Not Planned",
    "program_type": "Fixed Wireless and Satellite Upgrade Program",
    "target_eligibility_quarter": "NA"
   }
  },
  {
   "type": "Feature",
   "geometry": {
    "type": "Point",
    "coordinates": [
     152.74533353,
     -25.51024827
    ]
   },
   "properties": {
    "name": "91 WALKERS POINT ROAD WALKERS POINT 4650",
    "locID": "LOC000084188185",
    "tech": "WIRELESS",
    "upgrade": "NULL_NA",
    "gnaf_pid": "GAQLD163176265",
    "ee": true,
    "tech_change_status": "Not Planned",
    "program_type": "Fixed Wireless and Satellite Upgrade Program",
    "target_eligibility_quarter": "NA"
   }
  },
  {
   "type": "Feature",
   "geometry": {
    "type": "Point",
    "coordinates": [
     152.73761441,
     -25.50170025
    ]
   },
   "properties": {
    "name": "UNIT A, 407 WALKERS POINT ROAD WALKERS POINT 4650",
    "locID": "LOC000128623994",
    "tech": "WIRELESS",
    "upgrade": "NULL_NA",
    "gnaf_pid": "GAQLD163356343",
    "ee": true,
    "tech_change_status": "Not Planned",
    "program_type": "Fixed Wireless and Satellite Upgrade Program",
    "target_eligibility_quarter": "NA"
   }
  },
  {
   "type": "Feature",
   "geometry": {
    "type": "Point",
    "coordinates": [
     152.74104973,
     -25.49261258
    ]
   },
   "properties": {
    "name": "537 WALKERS POINT ROAD WALKERS POINT 4650",
    "locID": "LOC000114762949",
    "tech": "WIRELESS",
    "upgrade": "NULL_NA",
    "gnaf_pid": "GAQLD425345871",
    "ee": true,
    "tech_change_status": "Not Planned",
    "program_type": "Fixed Wireless and Satellite Upgrade Program",
    "target_eligibility_quarter": "NA"
   }
  }
 ]
}