{
 "type": "FeatureCollection",
 "generated": "2025-06-15T04:59:47.747146",
 "suburb": "WEIPA AIRPORT",
 "features": [
  {
   "type": "Feature",
   "geometry": {
    "type": "Point",
    "coordinates": [
     141.92473112,
     -12.68126196
    ]
   },
   "properties": {
    "name": "LOT 168 JOHN EVANS DRIVE WEIPA AIRPORT 4874",
    "locID": "LOC000129754940",
    "tech": "NULL",
    "upgrade": "NULL_NA",
    "gnaf_pid": "GAQLD161191969",
    "ee": true,
    "tech_change_status": "Not Planned"
   }
  },
  {
   "type": "Feature",
   "geometry": {
    "type": "Point",
    "coordinates": [
     141.9253187,
     -12.68218634
    ]
   },
   "properties": {
    "name": "LOT 332 JOHN EVANS DRIVE WEIPA AIRPORT 4874",
    "locID": "LOC000129754940",
    "tech": "NULL",
    "upgrade": "NULL_NA",
    "gnaf_pid": "GAQLD161191971",
    "ee": true,
    "tech_change_status": "Not Planned"
   }
  },
  {
   "type": "Feature",
   "geometry": {
    "type": "Point",
    "coordinates": [
     141.92441997,
     -12.68087184
    ]
   },
   "properties": {
    "name": "LOT 337 JOHN EVANS DRIVE WEIPA AIRPORT 4874",
    "locID": "LOC000129754940",
    "tech": "NULL",
    "upgrade": "NULL_NA",
    "gnaf_pid": "GAQLD161191972",
    "ee": true,
    "tech_change_status": "Not Planned"
   }
  },
  {
   "type": "Feature",
   "geometry": {
    "type": "Point",
    "coordinates": [
     141.92349438,
     -12.682914
    ]
   },
   "properties": {
    "name": "LOT 338 JOHN EVANS DRIVE WEIPA AIRPORT 4874",
    "locID": "LOC000129754940",
    "tech": "NULL",
    "upgrade": "NULL_NA",
    "gnaf_pid": "GAQLD161191973",
    "ee": true,
    "tech_change_status": "Not Planned"
   }
  }
 ]
}