{
 "type": "FeatureCollection",
 "generated": "2025-06-15T05:05:28.324384",
 "suburb": "WELSBY",
 "features": [
  {
   "type": "Feature",
   "geometry": {
    "type": "Point",
    "coordinates": [
     153.15505981,
     -27.02919769
    ]
   },
   "properties": {
    "name": "LOT 10 HEATHLAND STREET WELSBY 4507",
    "locID": "LOC100032450337",
    "tech": "FTTN",
    "upgrade": "NULL_NA",
    "gnaf_pid": "GAQLD162897172",
    "ee": true,
    "tech_change_status": "Not Planned"
   }
  },
  {
   "type": "Feature",
   "geometry": {
    "type": "Point",
    "coordinates": [
     153.16058103,
     -27.02331581
    ]
   },
   "properties": {
    "name": "LOT 63 HEATHLAND STREET WELSBY 4507",
    "locID": "LOC000128391903",
    "tech": "FTTN",
    "upgrade": "NULL_NA",
    "gnaf_pid": "GAQLD162897173",
    "ee": true,
    "tech_change_status": "Not Planned"
   }
  },
  {
   "type": "Feature",
   "geometry": {
    "type": "Point",
    "coordinates": [
     153.14790905,
     -27.02146663
    ]
   },
   "properties": {
    "name": "LOT 66 HEATHLAND STREET WELSBY 4507",
    "locID": "LOC000128391903",
    "tech": "FTTN",
    "upgrade": "NULL_NA",
    "gnaf_pid": "GAQLD720202777",
    "ee": true,
    "tech_change_status": "Not Planned"
   }
  }
 ]
}