{
 "type": "FeatureCollection",
 "generated": "2025-06-15T05:06:04.067817",
 "suburb": "WENGENVILLE",
 "features": [
  {
   "type": "Feature",
   "geometry": {
    "type": "Point",
    "coordinates": [
     151.63914332,
     -26.85461712
    ]
   },
   "properties": {
    "name": "212 RED CEDAR DRIVE WENGENVILLE 4615",
    "locID": "LOC000014028047",
    "tech": "SATELLITE",
    "upgrade": "NULL_NA",
    "gnaf_pid": "GAQLD158871863",
    "ee": false,
    "tech_change_status": "Not Planned"
   }
  },
  {
   "type": "Feature",
   "geometry": {
    "type": "Point",
    "coordinates": [
     151.68223793,
     -26.80071785
    ]
   },
   "properties": {
    "name": "LOT 7 WENGENVILLE GLENCLIFFE ROAD WENGENVILLE 4615",
    "locID": "LOC000128664462",
    "tech": "SATELLITE",
    "upgrade": "NULL_NA",
    "gnaf_pid": "GAQLD161350522",
    "ee": false,
    "tech_change_status": "Not Planned"
   }
  },
  {
   "type": "Feature",
   "geometry": {
    "type": "Point",
    "coordinates": [
     151.70098735,
     -26.84430339
    ]
   },
   "properties": {
    "name": "114 WENGEN CREEK ROAD WENGENVILLE 4615",
    "locID": "LOC000025818023",
    "tech": "SATELLITE",
    "upgrade": "NULL_NA",
    "gnaf_pid": "GAQLD161372675",
    "ee": false,
    "tech_change_status": "Not Planned"
   }
  },
  {
   "type": "Feature",
   "geometry": {
    "type": "Point",
    "coordinates": [
     151.69936307,
     -26.83797653
    ]
   },
   "properties": {
    "name": "3 WENGEN CREEK ROAD WENGENVILLE 4615",
    "locID": "LOC000031646894",
    "tech": "SATELLITE",
    "upgrade": "NULL_NA",
    "gnaf_pid": "GAQLD161970252",
    "ee": false,
    "tech_change_status": "Not Planned"
   }
  },
  {
   "type": "Feature",
   "geometry": {
    "type": "Point",
    "coordinates": [
     151.64504661,
     -26.8550792
    ]
   },
   "properties": {
    "name": "151 SADDLE TREE CREEK ROAD WENGENVILLE 4615",
    "locID": "LOC000003418820",
    "tech": "SATELLITE",
    "upgrade": "NULL_NA",
    "gnaf_pid": "GAQLD162737029",
    "ee": false,
    "tech_change_status": "Not Planned"
   }
  },
  {
   "type": "Feature",
   "geometry": {
    "type": "Point",
    "coordinates": [
     151.6438489,
     -26.85586529
    ]
   },
   "properties": {
    "name": "179 SADDLE TREE CREEK ROAD WENGENVILLE 4615",
    "locID": "LOC000078216310",
    "tech": "SATELLITE",
    "upgrade": "NULL_NA",
    "gnaf_pid": "GAQLD162737030",
    "ee": false,
    "tech_change_status": "Not Planned"
   }
  },
  {
   "type": "Feature",
   "geometry": {
    "type": "Point",
    "coordinates": [
     151.64027287,
     -26.85565421
    ]
   },
   "properties": {
    "name": "195 SADDLE TREE CREEK ROAD WENGENVILLE 4615",
    "locID": "LOC000055301252",
    "tech": "WIRELESS",
    "upgrade": "NULL_NA",
    "gnaf_pid": "GAQLD162737031",
    "ee": false,
    "tech_change_status": "Not Planned"
   }
  },
  {
   "type": "Feature",
   "geometry": {
    "type": "Point",
    "coordinates": [
     151.6346688,
     -26.85486534
    ]
   },
   "properties": {
    "name": "226 SADDLE TREE CREEK ROAD WENGENVILLE 4615",
    "locID": "LOC000067192844",
    "tech": "SATELLITE",
    "upgrade": "NULL_NA",
    "gnaf_pid": "GAQLD162737033",
    "ee": false,
    "tech_change_status": "Not Planned"
   }
  },
  {
   "type": "Feature",
   "geometry": {
    "type": "Point",
    "coordinates": [
     151.63390351,
     -26.85627463
    ]
   },
   "properties": {
    "name": "232 SADDLE TREE CREEK ROAD WENGENVILLE 4615",
    "locID": "LOC000007640441",
    "tech": "SATELLITE",
    "upgrade": "NULL_NA",
    "gnaf_pid": "GAQLD162749915",
    "ee": false,
    "tech_change_status": "Not Planned"
   }
  },
  {
   "type": "Feature",
   "geometry": {
    "type": "Point",
    "coordinates": [
     151.63888982,
     -26.85952377
    ]
   },
   "properties": {
    "name": "5 RED CEDAR DRIVE WENGENVILLE 4615",
    "locID": "LOC000031703418",
    "tech": "SATELLITE",
    "upgrade": "NULL_NA",
    "gnaf_pid": "GAQLD162945657",
    "ee": false,
    "tech_change_status": "Not Planned"
   }
  },
  {
   "type": "Feature",
   "geometry": {
    "type": "Point",
    "coordinates": [
     151.65413521,
     -26.78620119
    ]
   },
   "properties": {
    "name": "200 TUCKERS ROAD WENGENVILLE 4615",
    "locID": "LOC000078523172",
    "tech": "WIRELESS",
    "upgrade": "NULL_NA",
    "gnaf_pid": "GAQLD163065341",
    "ee": true,
    "tech_change_status": "Not Planned",
    "program_type": "Fixed Wireless and Satellite Upgrade Program",
    "target_eligibility_quarter": "NA"
   }
  },
  {
   "type": "Feature",
   "geometry": {
    "type": "Point",
    "coordinates": [
     151.637804,
     -26.86030905
    ]
   },
   "properties": {
    "name": "LOT 12 RED CEDAR DRIVE WENGENVILLE 4615",
    "locID": "LOC000108527449",
    "tech": "SATELLITE",
    "upgrade": "NULL_NA",
    "gnaf_pid": "GAQLD163191834",
    "ee": false,
    "tech_change_status": "Not Planned"
   }
  },
  {
   "type": "Feature",
   "geometry": {
    "type": "Point",
    "coordinates": [
     151.63356137,
     -26.86213373
    ]
   },
   "properties": {
    "name": "27 RED CEDAR DRIVE WENGENVILLE 4615",
    "locID": "LOC000020905783",
    "tech": "SATELLITE",
    "upgrade": "NULL_NA",
    "gnaf_pid": "GAQLD163191835",
    "ee": false,
    "tech_change_status": "Not Planned"
   }
  },
  {
   "type": "Feature",
   "geometry": {
    "type": "Point",
    "coordinates": [
     151.63238744,
     -26.85955779
    ]
   },
   "properties": {
    "name": "28 RED CEDAR DRIVE WENGENVILLE 4615",
    "locID": "LOC000083210625",
    "tech": "SATELLITE",
    "upgrade": "NULL_NA",
    "gnaf_pid": "GAQLD163191836",
    "ee": false,
    "tech_change_status": "Not Planned"
   }
  },
  {
   "type": "Feature",
   "geometry": {
    "type": "Point",
    "coordinates": [
     151.63724329,
     -26.85723992
    ]
   },
   "properties": {
    "name": "LOT 4 RED CEDAR DRIVE WENGENVILLE 4615",
    "locID": "LOC000108527449",
    "tech": "SATELLITE",
    "upgrade": "NULL_NA",
    "gnaf_pid": "GAQLD163191837",
    "ee": false,
    "tech_change_status": "Not Planned"
   }
  },
  {
   "type": "Feature",
   "geometry": {
    "type": "Point",
    "coordinates": [
     151.63586007,
     -26.85800637
    ]
   },
   "properties": {
    "name": "LOT 5 RED CEDAR DRIVE WENGENVILLE 4615",
    "locID": "LOC000031703418",
    "tech": "SATELLITE",
    "upgrade": "NULL_NA",
    "gnaf_pid": "GAQLD163191838",
    "ee": false,
    "tech_change_status": "Not Planned"
   }
  },
  {
   "type": "Feature",
   "geometry": {
    "type": "Point",
    "coordinates": [
     151.69224996,
     -26.85357504
    ]
   },
   "properties": {
    "name": "LOT 19 WENGEN CREEK ROAD WENGENVILLE 4615",
    "locID": "LOC000055301252",
    "tech": "WIRELESS",
    "upgrade": "NULL_NA",
    "gnaf_pid": "GAQLD163193816",
    "ee": false,
    "tech_change_status": "Not Planned"
   }
  },
  {
   "type": "Feature",
   "geometry": {
    "type": "Point",
    "coordinates": [
     151.73196619,
     -26.85450988
    ]
   },
   "properties": {
    "name": "LOT 67 DUGDELL ROAD WENGENVILLE 4615",
    "locID": "LOC000104850377",
    "tech": "SATELLITE",
    "upgrade": "NULL_NA",
    "gnaf_pid": "GAQLD425037022",
    "ee": false,
    "tech_change_status": "Not Planned"
   }
  },
  {
   "type": "Feature",
   "geometry": {
    "type": "Point",
    "coordinates": [
     151.64161804,
     -26.85441571
    ]
   },
   "properties": {
    "name": "LOT 24 SADDLE TREE CREEK ROAD WENGENVILLE 4615",
    "locID": "LOC000067192844",
    "tech": "SATELLITE",
    "upgrade": "NULL_NA",
    "gnaf_pid": "GAQLD425040223",
    "ee": false,
    "tech_change_status": "Not Planned"
   }
  },
  {
   "type": "Feature",
   "geometry": {
    "type": "Point",
    "coordinates": [
     151.63962492,
     -26.85885628
    ]
   },
   "properties": {
    "name": "2 SILKY OAK DRIVE WENGENVILLE 4615",
    "locID": "LOC000128643731",
    "tech": "SATELLITE",
    "upgrade": "NULL_NA",
    "gnaf_pid": "GAQLD425040373",
    "ee": false,
    "tech_change_status": "Not Planned"
   }
  },
  {
   "type": "Feature",
   "geometry": {
    "type": "Point",
    "coordinates": [
     151.6393839,
     -26.85682399
    ]
   },
   "properties": {
    "name": "9 SILKY OAK DRIVE WENGENVILLE 4615",
    "locID": "LOC100078024636",
    "tech": "SATELLITE",
    "upgrade": "NULL_NA",
    "gnaf_pid": "GAQLD425040374",
    "ee": false,
    "tech_change_status": "Not Planned"
   }
  },
  {
   "type": "Feature",
   "geometry": {
    "type": "Point",
    "coordinates": [
     151.66509823,
     -26.81114063
    ]
   },
   "properties": {
    "name": "283 WENGENVILLE GLENCLIFFE ROAD WENGENVILLE 4615",
    "locID": "LOC000190719883",
    "tech": "SATELLITE",
    "upgrade": "NULL_NA",
    "gnaf_pid": "GAQLD425041615",
    "ee": false,
    "tech_change_status": "Not Planned"
   }
  },
  {
   "type": "Feature",
   "geometry": {
    "type": "Point",
    "coordinates": [
     151.70162563,
     -26.81427644
    ]
   },
   "properties": {
    "name": "LOT 24 WENGENVILLE GLENCLIFFE ROAD WENGENVILLE 4615",
    "locID": "LOC000128664462",
    "tech": "SATELLITE",
    "upgrade": "NULL_NA",
    "gnaf_pid": "GAQLD425041618",
    "ee": false,
    "tech_change_status": "Not Planned"
   }
  },
  {
   "type": "Feature",
   "geometry": {
    "type": "Point",
    "coordinates": [
     151.69224996,
     -26.85357504
    ]
   },
   "properties": {
    "name": "LOT 242 WENGEN CREEK ROAD WENGENVILLE 4615",
    "locID": "LOC000031646894",
    "tech": "SATELLITE",
    "upgrade": "NULL_NA",
    "gnaf_pid": "GAQLD425153642",
    "ee": false,
    "tech_change_status": "Not Planned"
   }
  },
  {
   "type": "Feature",
   "geometry": {
    "type": "Point",
    "coordinates": [
     151.63694367,
     -26.8588394
    ]
   },
   "properties": {
    "name": "LOT 13 RED CEDAR DRIVE WENGENVILLE 4615",
    "locID": "LOC000031703418",
    "tech": "SATELLITE",
    "upgrade": "NULL_NA",
    "gnaf_pid": "GAQLD425241399",
    "ee": false,
    "tech_change_status": "Not Planned"
   }
  },
  {
   "type": "Feature",
   "geometry": {
    "type": "Point",
    "coordinates": [
     151.63694367,
     -26.8588394
    ]
   },
   "properties": {
    "name": "LOT 21 RED CEDAR DRIVE WENGENVILLE 4615",
    "locID": "LOC000014028047",
    "tech": "SATELLITE",
    "upgrade": "NULL_NA",
    "gnaf_pid": "GAQLD425241403",
    "ee": false,
    "tech_change_status": "Not Planned"
   }
  },
  {
   "type": "Feature",
   "geometry": {
    "type": "Point",
    "coordinates": [
     151.63694367,
     -26.8588394
    ]
   },
   "properties": {
    "name": "LOT 2 RED CEDAR DRIVE WENGENVILLE 4615",
    "locID": "LOC000014028047",
    "tech": "SATELLITE",
    "upgrade": "NULL_NA",
    "gnaf_pid": "GAQLD425241407",
    "ee": false,
    "tech_change_status": "Not Planned"
   }
  },
  {
   "type": "Feature",
   "geometry": {
    "type": "Point",
    "coordinates": [
     151.63694367,
     -26.8588394
    ]
   },
   "properties": {
    "name": "LOT 7 RED CEDAR DRIVE WENGENVILLE 4615",
    "locID": "LOC000083210625",
    "tech": "SATELLITE",
    "upgrade": "NULL_NA",
    "gnaf_pid": "GAQLD425241409",
    "ee": false,
    "tech_change_status": "Not Planned"
   }
  },
  {
   "type": "Feature",
   "geometry": {
    "type": "Point",
    "coordinates": [
     151.63694367,
     -26.8588394
    ]
   },
   "properties": {
    "name": "LOT 9 RED CEDAR DRIVE WENGENVILLE 4615",
    "locID": "LOC000020905783",
    "tech": "SATELLITE",
    "upgrade": "NULL_NA",
    "gnaf_pid": "GAQLD425241410",
    "ee": false,
    "tech_change_status": "Not Planned"
   }
  },
  {
   "type": "Feature",
   "geometry": {
    "type": "Point",
    "coordinates": [
     151.69224996,
     -26.85357504
    ]
   },
   "properties": {
    "name": "LOT 10 WENGEN CREEK ROAD WENGENVILLE 4615",
    "locID": "LOC000016296505",
    "tech": "SATELLITE",
    "upgrade": "NULL_NA",
    "gnaf_pid": "GAQLD425499926",
    "ee": true,
    "tech_change_status": "Not Planned"
   }
  },
  {
   "type": "Feature",
   "geometry": {
    "type": "Point",
    "coordinates": [
     151.67647239,
     -26.78463643
    ]
   },
   "properties": {
    "name": "LOT 41 ELLESMERE ROAD WENGENVILLE 4615",
    "locID": "LOC100071911316",
    "tech": "SATELLITE",
    "upgrade": "NULL_NA",
    "gnaf_pid": "GAQLD425748454",
    "ee": false,
    "tech_change_status": "Not Planned"
   }
  },
  {
   "type": "Feature",
   "geometry": {
    "type": "Point",
    "coordinates": [
     151.66290919,
     -26.78287844
    ]
   },
   "properties": {
    "name": "LOT 46 GLENCLIFFE ROAD WENGENVILLE 4615",
    "locID": "LOC000128664462",
    "tech": "SATELLITE",
    "upgrade": "NULL_NA",
    "gnaf_pid": "GAQLD719125254",
    "ee": false,
    "tech_change_status": "Not Planned"
   }
  },
  {
   "type": "Feature",
   "geometry": {
    "type": "Point",
    "coordinates": [
     151.69702705,
     -26.83614659
    ]
   },
   "properties": {
    "name": "LOT 61 MAIDENWELL - BUNYA MOUNTAINS ROAD WENGENVILLE 4615",
    "locID": "LOC000085819970",
    "tech": "SATELLITE",
    "upgrade": "NULL_NA",
    "gnaf_pid": "GAQLD719125257",
    "ee": false,
    "tech_change_status": "Not Planned"
   }
  },
  {
   "type": "Feature",
   "geometry": {
    "type": "Point",
    "coordinates": [
     151.70661309,
     -26.84271815
    ]
   },
   "properties": {
    "name": "LOT 2 MAIDENWELL - BUNYA MOUNTAINS ROAD WENGENVILLE 4615",
    "locID": "LOC000085819970",
    "tech": "SATELLITE",
    "upgrade": "NULL_NA",
    "gnaf_pid": "GAQLD719125744",
    "ee": false,
    "tech_change_status": "Not Planned"
   }
  },
  {
   "type": "Feature",
   "geometry": {
    "type": "Point",
    "coordinates": [
     151.72283924,
     -26.82988788
    ]
   },
   "properties": {
    "name": "931 MAIDENWELL - BUNYA MOUNTAINS ROAD WENGENVILLE 4615",
    "locID": "LOC000085819970",
    "tech": "SATELLITE",
    "upgrade": "NULL_NA",
    "gnaf_pid": "GAQLD719126242",
    "ee": false,
    "tech_change_status": "Not Planned"
   }
  },
  {
   "type": "Feature",
   "geometry": {
    "type": "Point",
    "coordinates": [
     151.69580606,
     -26.83713659
    ]
   },
   "properties": {
    "name": "LOT 62 MAIDENWELL - BUNYA MOUNTAINS ROAD WENGENVILLE 4615",
    "locID": "LOC000085819970",
    "tech": "SATELLITE",
    "upgrade": "NULL_NA",
    "gnaf_pid": "GAQLD719126257",
    "ee": false,
    "tech_change_status": "Not Planned"
   }
  },
  {
   "type": "Feature",
   "geometry": {
    "type": "Point",
    "coordinates": [
     151.67656955,
     -26.82169119
    ]
   },
   "properties": {
    "name": "1468 MAIDENWELL - BUNYA MOUNTAINS ROAD WENGENVILLE 4615",
    "locID": "LOC000085819970",
    "tech": "SATELLITE",
    "upgrade": "NULL_NA",
    "gnaf_pid": "GAQLD719128737",
    "ee": false,
    "tech_change_status": "Not Planned"
   }
  },
  {
   "type": "Feature",
   "geometry": {
    "type": "Point",
    "coordinates": [
     151.73069479,
     -26.83020987
    ]
   },
   "properties": {
    "name": "LOT 64 MAIDENWELL - BUNYA MOUNTAINS ROAD WENGENVILLE 4615",
    "locID": "LOC000085819970",
    "tech": "SATELLITE",
    "upgrade": "NULL_NA",
    "gnaf_pid": "GAQLD719130610",
    "ee": false,
    "tech_change_status": "Not Planned"
   }
  },
  {
   "type": "Feature",
   "geometry": {
    "type": "Point",
    "coordinates": [
     151.72662056,
     -26.81353728
    ]
   },
   "properties": {
    "name": "LOT 7 MAIDENWELL - BUNYA MOUNTAINS ROAD WENGENVILLE 4615",
    "locID": "LOC000085819970",
    "tech": "SATELLITE",
    "upgrade": "NULL_NA",
    "gnaf_pid": "GAQLD719131049",
    "ee": false,
    "tech_change_status": "Not Planned"
   }
  },
  {
   "type": "Feature",
   "geometry": {
    "type": "Point",
    "coordinates": [
     151.69827086,
     -26.83474426
    ]
   },
   "properties": {
    "name": "LOT 63 MAIDENWELL - BUNYA MOUNTAINS ROAD WENGENVILLE 4615",
    "locID": "LOC000085819970",
    "tech": "SATELLITE",
    "upgrade": "NULL_NA",
    "gnaf_pid": "GAQLD719132819",
    "ee": false,
    "tech_change_status": "Not Planned"
   }
  },
  {
   "type": "Feature",
   "geometry": {
    "type": "Point",
    "coordinates": [
     151.72994597,
     -26.8380594
    ]
   },
   "properties": {
    "name": "709 MAIDENWELL - BUNYA MOUNTAINS ROAD WENGENVILLE 4615",
    "locID": "LOC000085819970",
    "tech": "SATELLITE",
    "upgrade": "NULL_NA",
    "gnaf_pid": "GAQLD719135182",
    "ee": false,
    "tech_change_status": "Not Planned"
   }
  },
  {
   "type": "Feature",
   "geometry": {
    "type": "Point",
    "coordinates": [
     151.72526465,
     -26.79417045
    ]
   },
   "properties": {
    "name": "LOT 5 MAIDENWELL - BUNYA MOUNTAINS ROAD WENGENVILLE 4615",
    "locID": "LOC000085819970",
    "tech": "SATELLITE",
    "upgrade": "NULL_NA",
    "gnaf_pid": "GAQLD719136229",
    "ee": false,
    "tech_change_status": "Not Planned"
   }
  },
  {
   "type": "Feature",
   "geometry": {
    "type": "Point",
    "coordinates": [
     151.71490884,
     -26.83603407
    ]
   },
   "properties": {
    "name": "LOT 19 MAIDENWELL - BUNYA MOUNTAINS ROAD WENGENVILLE 4615",
    "locID": "LOC000085819970",
    "tech": "SATELLITE",
    "upgrade": "NULL_NA",
    "gnaf_pid": "GAQLD719138078",
    "ee": false,
    "tech_change_status": "Not Planned"
   }
  },
  {
   "type": "Feature",
   "geometry": {
    "type": "Point",
    "coordinates": [
     151.70510338,
     -26.82741299
    ]
   },
   "properties": {
    "name": "1014 MAIDENWELL - BUNYA MOUNTAINS ROAD WENGENVILLE 4615",
    "locID": "LOC000085819970",
    "tech": "SATELLITE",
    "upgrade": "NULL_NA",
    "gnaf_pid": "GAQLD719138098",
    "ee": false,
    "tech_change_status": "Not Planned"
   }
  },
  {
   "type": "Feature",
   "geometry": {
    "type": "Point",
    "coordinates": [
     151.69543619,
     -26.83763917
    ]
   },
   "properties": {
    "name": "1196 MAIDENWELL - BUNYA MOUNTAINS ROAD WENGENVILLE 4615",
    "locID": "LOC000085819970",
    "tech": "SATELLITE",
    "upgrade": "NULL_NA",
    "gnaf_pid": "GAQLD719138818",
    "ee": false,
    "tech_change_status": "Not Planned"
   }
  },
  {
   "type": "Feature",
   "geometry": {
    "type": "Point",
    "coordinates": [
     151.70763244,
     -26.80617132
    ]
   },
   "properties": {
    "name": "LOT 23 MAIDENWELL - BUNYA MOUNTAINS ROAD WENGENVILLE 4615",
    "locID": "LOC000085819970",
    "tech": "SATELLITE",
    "upgrade": "NULL_NA",
    "gnaf_pid": "GAQLD719138819",
    "ee": false,
    "tech_change_status": "Not Planned"
   }
  },
  {
   "type": "Feature",
   "geometry": {
    "type": "Point",
    "coordinates": [
     151.71619239,
     -26.81934176
    ]
   },
   "properties": {
    "name": "924 MAIDENWELL - BUNYA MOUNTAINS ROAD WENGENVILLE 4615",
    "locID": "LOC000085819970",
    "tech": "SATELLITE",
    "upgrade": "NULL_NA",
    "gnaf_pid": "GAQLD719140271",
    "ee": false,
    "tech_change_status": "Not Planned"
   }
  },
  {
   "type": "Feature",
   "geometry": {
    "type": "Point",
    "coordinates": [
     151.7373449,
     -26.83271948
    ]
   },
   "properties": {
    "name": "LOT 1 MAIDENWELL - BUNYA MOUNTAINS ROAD WENGENVILLE 4615",
    "locID": "LOC000085819970",
    "tech": "SATELLITE",
    "upgrade": "NULL_NA",
    "gnaf_pid": "GAQLD719140329",
    "ee": false,
    "tech_change_status": "Not Planned"
   }
  },
  {
   "type": "Feature",
   "geometry": {
    "type": "Point",
    "coordinates": [
     151.71059896,
     -26.84081189
    ]
   },
   "properties": {
    "name": "LOT 18 MAIDENWELL - BUNYA MOUNTAINS ROAD WENGENVILLE 4615",
    "locID": "LOC000085819970",
    "tech": "SATELLITE",
    "upgrade": "NULL_NA",
    "gnaf_pid": "GAQLD719140704",
    "ee": false,
    "tech_change_status": "Not Planned"
   }
  },
  {
   "type": "Feature",
   "geometry": {
    "type": "Point",
    "coordinates": [
     151.74303095,
     -26.84006572
    ]
   },
   "properties": {
    "name": "503 MAIDENWELL - BUNYA MOUNTAINS ROAD WENGENVILLE 4615",
    "locID": "LOC000085819970",
    "tech": "SATELLITE",
    "upgrade": "NULL_NA",
    "gnaf_pid": "GAQLD719141044",
    "ee": false,
    "tech_change_status": "Not Planned"
   }
  },
  {
   "type": "Feature",
   "geometry": {
    "type": "Point",
    "coordinates": [
     151.66121034,
     -26.82930896
    ]
   },
   "properties": {
    "name": "1522 MAIDENWELL - BUNYA MOUNTAINS ROAD WENGENVILLE 4615",
    "locID": "LOC000085819970",
    "tech": "SATELLITE",
    "upgrade": "NULL_NA",
    "gnaf_pid": "GAQLD719141268",
    "ee": false,
    "tech_change_status": "Not Planned"
   }
  },
  {
   "type": "Feature",
   "geometry": {
    "type": "Point",
    "coordinates": [
     151.698713,
     -26.83841075
    ]
   },
   "properties": {
    "name": "LOT 69 MAIDENWELL - BUNYA MOUNTAINS ROAD WENGENVILLE 4615",
    "locID": "LOC000085819970",
    "tech": "SATELLITE",
    "upgrade": "NULL_NA",
    "gnaf_pid": "GAQLD719141325",
    "ee": false,
    "tech_change_status": "Not Planned"
   }
  },
  {
   "type": "Feature",
   "geometry": {
    "type": "Point",
    "coordinates": [
     151.68932308,
     -26.83234905
    ]
   },
   "properties": {
    "name": "LOT 27 MAIDENWELL - BUNYA MOUNTAINS ROAD WENGENVILLE 4615",
    "locID": "LOC000085819970",
    "tech": "SATELLITE",
    "upgrade": "NULL_NA",
    "gnaf_pid": "GAQLD719142793",
    "ee": false,
    "tech_change_status": "Not Planned"
   }
  },
  {
   "type": "Feature",
   "geometry": {
    "type": "Point",
    "coordinates": [
     151.66194181,
     -26.84614474
    ]
   },
   "properties": {
    "name": "1677 MAIDENWELL - BUNYA MOUNTAINS ROAD WENGENVILLE 4615",
    "locID": "LOC000085819970",
    "tech": "SATELLITE",
    "upgrade": "NULL_NA",
    "gnaf_pid": "GAQLD719143544",
    "ee": false,
    "tech_change_status": "Not Planned"
   }
  },
  {
   "type": "Feature",
   "geometry": {
    "type": "Point",
    "coordinates": [
     151.73832199,
     -26.81066416
    ]
   },
   "properties": {
    "name": "LOT 8 MAIDENWELL - BUNYA MOUNTAINS ROAD WENGENVILLE 4615",
    "locID": "LOC000085819970",
    "tech": "SATELLITE",
    "upgrade": "NULL_NA",
    "gnaf_pid": "GAQLD719143580",
    "ee": false,
    "tech_change_status": "Not Planned"
   }
  },
  {
   "type": "Feature",
   "geometry": {
    "type": "Point",
    "coordinates": [
     151.68676763,
     -26.84334074
    ]
   },
   "properties": {
    "name": "LOT 30 MAIDENWELL - BUNYA MOUNTAINS ROAD WENGENVILLE 4615",
    "locID": "LOC000085819970",
    "tech": "SATELLITE",
    "upgrade": "NULL_NA",
    "gnaf_pid": "GAQLD719143747",
    "ee": false,
    "tech_change_status": "Not Planned"
   }
  },
  {
   "type": "Feature",
   "geometry": {
    "type": "Point",
    "coordinates": [
     151.64713007,
     -26.84415562
    ]
   },
   "properties": {
    "name": "LOT 34 MAIDENWELL - BUNYA MOUNTAINS ROAD WENGENVILLE 4615",
    "locID": "LOC000085819970",
    "tech": "SATELLITE",
    "upgrade": "NULL_NA",
    "gnaf_pid": "GAQLD719143818",
    "ee": false,
    "tech_change_status": "Not Planned"
   }
  },
  {
   "type": "Feature",
   "geometry": {
    "type": "Point",
    "coordinates": [
     151.71715512,
     -26.80126826
    ]
   },
   "properties": {
    "name": "LOT 6 MAIDENWELL - BUNYA MOUNTAINS ROAD WENGENVILLE 4615",
    "locID": "LOC000085819970",
    "tech": "SATELLITE",
    "upgrade": "NULL_NA",
    "gnaf_pid": "GAQLD719143834",
    "ee": false,
    "tech_change_status": "Not Planned"
   }
  },
  {
   "type": "Feature",
   "geometry": {
    "type": "Point",
    "coordinates": [
     151.67231127,
     -26.83533922
    ]
   },
   "properties": {
    "name": "LOT 29 MAIDENWELL - BUNYA MOUNTAINS ROAD WENGENVILLE 4615",
    "locID": "LOC000085819970",
    "tech": "SATELLITE",
    "upgrade": "NULL_NA",
    "gnaf_pid": "GAQLD719174696",
    "ee": false,
    "tech_change_status": "Not Planned"
   }
  },
  {
   "type": "Feature",
   "geometry": {
    "type": "Point",
    "coordinates": [
     151.69916005,
     -26.83744867
    ]
   },
   "properties": {
    "name": "LOT 65 MAIDENWELL - BUNYA MOUNTAINS ROAD WENGENVILLE 4615",
    "locID": "LOC000085819970",
    "tech": "SATELLITE",
    "upgrade": "NULL_NA",
    "gnaf_pid": "GAQLD719175828",
    "ee": false,
    "tech_change_status": "Not Planned"
   }
  },
  {
   "type": "Feature",
   "geometry": {
    "type": "Point",
    "coordinates": [
     151.69916005,
     -26.83744867
    ]
   },
   "properties": {
    "name": "LOT 33 MAIDENWELL - BUNYA MOUNTAINS ROAD WENGENVILLE 4615",
    "locID": "LOC000085819970",
    "tech": "SATELLITE",
    "upgrade": "NULL_NA",
    "gnaf_pid": "GAQLD719176262",
    "ee": false,
    "tech_change_status": "Not Planned"
   }
  },
  {
   "type": "Feature",
   "geometry": {
    "type": "Point",
    "coordinates": [
     151.69916005,
     -26.83744867
    ]
   },
   "properties": {
    "name": "LOT 51 MAIDENWELL - BUNYA MOUNTAINS ROAD WENGENVILLE 4615",
    "locID": "LOC000085819970",
    "tech": "SATELLITE",
    "upgrade": "NULL_NA",
    "gnaf_pid": "GAQLD719176685",
    "ee": false,
    "tech_change_status": "Not Planned"
   }
  },
  {
   "type": "Feature",
   "geometry": {
    "type": "Point",
    "coordinates": [
     151.69916005,
     -26.83744867
    ]
   },
   "properties": {
    "name": "LOT 3 MAIDENWELL - BUNYA MOUNTAINS ROAD WENGENVILLE 4615",
    "locID": "LOC000085819970",
    "tech": "SATELLITE",
    "upgrade": "NULL_NA",
    "gnaf_pid": "GAQLD719176695",
    "ee": false,
    "tech_change_status": "Not Planned"
   }
  },
  {
   "type": "Feature",
   "geometry": {
    "type": "Point",
    "coordinates": [
     151.69916005,
     -26.83744867
    ]
   },
   "properties": {
    "name": "LOT 67 MAIDENWELL - BUNYA MOUNTAINS ROAD WENGENVILLE 4615",
    "locID": "LOC000085819970",
    "tech": "SATELLITE",
    "upgrade": "NULL_NA",
    "gnaf_pid": "GAQLD719176843",
    "ee": false,
    "tech_change_status": "Not Planned"
   }
  },
  {
   "type": "Feature",
   "geometry": {
    "type": "Point",
    "coordinates": [
     151.69916005,
     -26.83744867
    ]
   },
   "properties": {
    "name": "LOT 21 MAIDENWELL - BUNYA MOUNTAINS ROAD WENGENVILLE 4615",
    "locID": "LOC000085819970",
    "tech": "SATELLITE",
    "upgrade": "NULL_NA",
    "gnaf_pid": "GAQLD719177064",
    "ee": false,
    "tech_change_status": "Not Planned"
   }
  },
  {
   "type": "Feature",
   "geometry": {
    "type": "Point",
    "coordinates": [
     151.73059896,
     -26.84890098
    ]
   },
   "properties": {
    "name": "193 DUGDELL ROAD WENGENVILLE 4615",
    "locID": "LOC000104850377",
    "tech": "SATELLITE",
    "upgrade": "NULL_NA",
    "gnaf_pid": "GAQLD719477623",
    "ee": false,
    "tech_change_status": "Not Planned"
   }
  },
  {
   "type": "Feature",
   "geometry": {
    "type": "Point",
    "coordinates": [
     151.68223793,
     -26.80071785
    ]
   },
   "properties": {
    "name": "LOT 47 WENGENVILLE GLENCLIFFE ROAD WENGENVILLE 4615",
    "locID": "LOC000128664462",
    "tech": "SATELLITE",
    "upgrade": "NULL_NA",
    "gnaf_pid": "GAQLD719486541",
    "ee": false,
    "tech_change_status": "Not Planned"
   }
  },
  {
   "type": "Feature",
   "geometry": {
    "type": "Point",
    "coordinates": [
     151.68223793,
     -26.80071785
    ]
   },
   "properties": {
    "name": "LOT 1 WENGENVILLE GLENCLIFFE ROAD WENGENVILLE 4615",
    "locID": "LOC000128664462",
    "tech": "SATELLITE",
    "upgrade": "NULL_NA",
    "gnaf_pid": "GAQLD719486714",
    "ee": false,
    "tech_change_status": "Not Planned"
   }
  },
  {
   "type": "Feature",
   "geometry": {
    "type": "Point",
    "coordinates": [
     151.68933959,
     -26.78561129
    ]
   },
   "properties": {
    "name": "LOT 2 WENGENVILLE GLENCLIFFE ROAD WENGENVILLE 4615",
    "locID": "LOC000128664462",
    "tech": "SATELLITE",
    "upgrade": "NULL_NA",
    "gnaf_pid": "GAQLD719487169",
    "ee": false,
    "tech_change_status": "Not Planned"
   }
  },
  {
   "type": "Feature",
   "geometry": {
    "type": "Point",
    "coordinates": [
     151.68223793,
     -26.80071785
    ]
   },
   "properties": {
    "name": "LOT 48 WENGENVILLE GLENCLIFFE ROAD WENGENVILLE 4615",
    "locID": "LOC000128664462",
    "tech": "SATELLITE",
    "upgrade": "NULL_NA",
    "gnaf_pid": "GAQLD719487228",
    "ee": false,
    "tech_change_status": "Not Planned"
   }
  },
  {
   "type": "Feature",
   "geometry": {
    "type": "Point",
    "coordinates": [
     151.7280365,
     -26.82414799
    ]
   },
   "properties": {
    "name": "810 WENGENVILLE GLENCLIFFE ROAD WENGENVILLE 4615",
    "locID": "LOC000128664462",
    "tech": "SATELLITE",
    "upgrade": "NULL_NA",
    "gnaf_pid": "GAQLD719953466",
    "ee": false,
    "tech_change_status": "Not Planned"
   }
  },
  {
   "type": "Feature",
   "geometry": {
    "type": "Point",
    "coordinates": [
     151.69037455,
     -26.81082311
    ]
   },
   "properties": {
    "name": "LOT 25 WENGENVILLE GLENCLIFFE ROAD WENGENVILLE 4615",
    "locID": "LOC000128664462",
    "tech": "SATELLITE",
    "upgrade": "NULL_NA",
    "gnaf_pid": "GAQLD720663568",
    "ee": false,
    "tech_change_status": "Not Planned"
   }
  },
  {
   "type": "Feature",
   "geometry": {
    "type": "Point",
    "coordinates": [
     151.69403476,
     -26.82269575
    ]
   },
   "properties": {
    "name": "LOT 26 WENGENVILLE GLENCLIFFE ROAD WENGENVILLE 4615",
    "locID": "LOC000128664462",
    "tech": "SATELLITE",
    "upgrade": "NULL_NA",
    "gnaf_pid": "GAQLD720667637",
    "ee": false,
    "tech_change_status": "Not Planned"
   }
  },
  {
   "type": "Feature",
   "geometry": {
    "type": "Point",
    "coordinates": [
     151.68229703,
     -26.80458615
    ]
   },
   "properties": {
    "name": "LOT 43 WENGENVILLE GLENCLIFFE ROAD WENGENVILLE 4615",
    "locID": "LOC000128664462",
    "tech": "SATELLITE",
    "upgrade": "NULL_NA",
    "gnaf_pid": "GAQLD720668787",
    "ee": false,
    "tech_change_status": "Not Planned"
   }
  },
  {
   "type": "Feature",
   "geometry": {
    "type": "Point",
    "coordinates": [
     151.64419901,
     -26.79036342
    ]
   },
   "properties": {
    "name": "LOT 48 TUCKERS ROAD WENGENVILLE 4615",
    "locID": "LOC000078523172",
    "tech": "WIRELESS",
    "upgrade": "NULL_NA",
    "gnaf_pid": "GAQLD720673750",
    "ee": true,
    "tech_change_status": "Not Planned",
    "program_type": "Fixed Wireless and Satellite Upgrade Program",
    "target_eligibility_quarter": "NA"
   }
  },
  {
   "type": "Feature",
   "geometry": {
    "type": "Point",
    "coordinates": [
     151.6803754,
     -26.79429998
    ]
   },
   "properties": {
    "name": "LOT 42 ELLESMERE ROAD WENGENVILLE 4615",
    "locID": "LOC100071911316",
    "tech": "SATELLITE",
    "upgrade": "NULL_NA",
    "gnaf_pid": "GAQLD720676487",
    "ee": false,
    "tech_change_status": "Not Planned"
   }
  },
  {
   "type": "Feature",
   "geometry": {
    "type": "Point",
    "coordinates": [
     151.7237879,
     -26.8470559
    ]
   },
   "properties": {
    "name": "LOT 11 DUGDELL ROAD WENGENVILLE 4615",
    "locID": "LOC000104850377",
    "tech": "SATELLITE",
    "upgrade": "NULL_NA",
    "gnaf_pid": "GAQLD721118316",
    "ee": false,
    "tech_change_status": "Not Planned"
   }
  }
 ]
}