{
 "type": "FeatureCollection",
 "generated": "2025-06-15T05:21:50.510588",
 "suburb": "WEST POINT",
 "features": [
  {
   "type": "Feature",
   "geometry": {
    "type": "Point",
    "coordinates": [
     146.80652813,
     -19.14558326
    ]
   },
   "properties": {
    "name": "22 SUNGLOW AVENUE WEST POINT 4819",
    "locID": "LOC000069809563",
    "tech": "NULL",
    "upgrade": "NULL_NA",
    "gnaf_pid": "GAQLD161798841",
    "ee": true,
    "tech_change_status": "Not Planned"
   }
  },
  {
   "type": "Feature",
   "geometry": {
    "type": "Point",
    "coordinates": [
     146.80528212,
     -19.14362169
    ]
   },
   "properties": {
    "name": "27 SUNGLOW AVENUE WEST POINT 4819",
    "locID": "LOC000075098841",
    "tech": "SATELLITE",
    "upgrade": "NULL_NA",
    "gnaf_pid": "GAQLD161798842",
    "ee": true,
    "tech_change_status": "Not Planned"
   }
  },
  {
   "type": "Feature",
   "geometry": {
    "type": "Point",
    "coordinates": [
     146.806674,
     -19.14227285
    ]
   },
   "properties": {
    "name": "39 SUNGLOW AVENUE WEST POINT 4819",
    "locID": "LOC000064484415",
    "tech": "NULL",
    "upgrade": "NULL_NA",
    "gnaf_pid": "GAQLD161798843",
    "ee": true,
    "tech_change_status": "Not Planned"
   }
  },
  {
   "type": "Feature",
   "geometry": {
    "type": "Point",
    "coordinates": [
     146.80794452,
     -19.14384772
    ]
   },
   "properties": {
    "name": "40 SUNGLOW AVENUE WEST POINT 4819",
    "locID": "LOC000058884661",
    "tech": "NULL",
    "upgrade": "NULL_NA",
    "gnaf_pid": "GAQLD161798844",
    "ee": true,
    "tech_change_status": "Not Planned"
   }
  },
  {
   "type": "Feature",
   "geometry": {
    "type": "Point",
    "coordinates": [
     146.81191826,
     -19.15269324
    ]
   },
   "properties": {
    "name": "412 WEST POINT ROAD WEST POINT 4819",
    "locID": "LOC000053079992",
    "tech": "NULL",
    "upgrade": "NULL_NA",
    "gnaf_pid": "GAQLD161801499",
    "ee": true,
    "tech_change_status": "Not Planned"
   }
  },
  {
   "type": "Feature",
   "geometry": {
    "type": "Point",
    "coordinates": [
     146.80662261,
     -19.14758175
    ]
   },
   "properties": {
    "name": "476 WEST POINT ROAD WEST POINT 4819",
    "locID": "LOC000017837923",
    "tech": "SATELLITE",
    "upgrade": "NULL_NA",
    "gnaf_pid": "GAQLD161801500",
    "ee": true,
    "tech_change_status": "Not Planned"
   }
  },
  {
   "type": "Feature",
   "geometry": {
    "type": "Point",
    "coordinates": [
     146.80549973,
     -19.14629534
    ]
   },
   "properties": {
    "name": "510 WEST POINT ROAD WEST POINT 4819",
    "locID": "LOC000074442804",
    "tech": "SATELLITE",
    "upgrade": "WIRELESS",
    "gnaf_pid": "GAQLD161801501",
    "ee": true,
    "tech_change_status": "Eligible to Order",
    "program_type": "Fixed Wireless and Satellite Upgrade Program",
    "target_eligibility_quarter": "NA"
   }
  },
  {
   "type": "Feature",
   "geometry": {
    "type": "Point",
    "coordinates": [
     146.80278905,
     -19.14607652
    ]
   },
   "properties": {
    "name": "517 WEST POINT ROAD WEST POINT 4819",
    "locID": "LOC000016222911",
    "tech": "WIRELESS",
    "upgrade": "NULL_NA",
    "gnaf_pid": "GAQLD161801502",
    "ee": true,
    "tech_change_status": "Not Planned",
    "program_type": "Fixed Wireless and Satellite Upgrade Program",
    "target_eligibility_quarter": "NA"
   }
  },
  {
   "type": "Feature",
   "geometry": {
    "type": "Point",
    "coordinates": [
     146.80009703,
     -19.14066584
    ]
   },
   "properties": {
    "name": "600 WEST POINT ROAD WEST POINT 4819",
    "locID": "LOC000099531371",
    "tech": "NULL",
    "upgrade": "NULL_NA",
    "gnaf_pid": "GAQLD161801503",
    "ee": true,
    "tech_change_status": "Not Planned"
   }
  },
  {
   "type": "Feature",
   "geometry": {
    "type": "Point",
    "coordinates": [
     146.79004376,
     -19.13433095
    ]
   },
   "properties": {
    "name": "720 WEST POINT ROAD WEST POINT 4819",
    "locID": "LOC100078004036",
    "tech": "NULL",
    "upgrade": "NULL_NA",
    "gnaf_pid": "GAQLD161801504",
    "ee": true,
    "tech_change_status": "Not Planned"
   }
  },
  {
   "type": "Feature",
   "geometry": {
    "type": "Point",
    "coordinates": [
     146.80143264,
     -19.14140721
    ]
   },
   "properties": {
    "name": "570 WEST POINT ROAD WEST POINT 4819",
    "locID": "LOC000048086261",
    "tech": "NULL",
    "upgrade": "NULL_NA",
    "gnaf_pid": "GAQLD162379948",
    "ee": true,
    "tech_change_status": "Not Planned"
   }
  },
  {
   "type": "Feature",
   "geometry": {
    "type": "Point",
    "coordinates": [
     146.79129707,
     -19.13519198
    ]
   },
   "properties": {
    "name": "LOT 145 WEST POINT ROAD WEST POINT 4819",
    "locID": "LOC000129600980",
    "tech": "WIRELESS",
    "upgrade": "NULL_NA",
    "gnaf_pid": "GAQLD163286309",
    "ee": true,
    "tech_change_status": "Eligible to Order",
    "program_type": "Fixed Wireless and Satellite Upgrade Program",
    "target_eligibility_quarter": "NA"
   }
  },
  {
   "type": "Feature",
   "geometry": {
    "type": "Point",
    "coordinates": [
     146.79816516,
     -19.14116301
    ]
   },
   "properties": {
    "name": "LOT 184 WEST POINT ROAD WEST POINT 4819",
    "locID": "LOC000129600980",
    "tech": "WIRELESS",
    "upgrade": "NULL_NA",
    "gnaf_pid": "GAQLD163286312",
    "ee": true,
    "tech_change_status": "Eligible to Order",
    "program_type": "Fixed Wireless and Satellite Upgrade Program",
    "target_eligibility_quarter": "NA"
   }
  },
  {
   "type": "Feature",
   "geometry": {
    "type": "Point",
    "coordinates": [
     146.78338933,
     -19.13310208
    ]
   },
   "properties": {
    "name": "LOT 19 WEST POINT ROAD WEST POINT 4819",
    "locID": "LOC000129600980",
    "tech": "WIRELESS",
    "upgrade": "NULL_NA",
    "gnaf_pid": "GAQLD163286315",
    "ee": true,
    "tech_change_status": "Eligible to Order",
    "program_type": "Fixed Wireless and Satellite Upgrade Program",
    "target_eligibility_quarter": "NA"
   }
  },
  {
   "type": "Feature",
   "geometry": {
    "type": "Point",
    "coordinates": [
     146.81002645,
     -19.14949857
    ]
   },
   "properties": {
    "name": "426 WEST POINT ROAD WEST POINT 4819",
    "locID": "LOC000129593897",
    "tech": "SATELLITE",
    "upgrade": "NULL_NA",
    "gnaf_pid": "GAQLD163286319",
    "ee": true,
    "tech_change_status": "Not Planned"
   }
  },
  {
   "type": "Feature",
   "geometry": {
    "type": "Point",
    "coordinates": [
     146.81871144,
     -19.12476553
    ]
   },
   "properties": {
    "name": "LOT 456 WEST POINT ROAD WEST POINT 4819",
    "locID": "LOC000129600980",
    "tech": "WIRELESS",
    "upgrade": "NULL_NA",
    "gnaf_pid": "GAQLD163286320",
    "ee": true,
    "tech_change_status": "Eligible to Order",
    "program_type": "Fixed Wireless and Satellite Upgrade Program",
    "target_eligibility_quarter": "NA"
   }
  },
  {
   "type": "Feature",
   "geometry": {
    "type": "Point",
    "coordinates": [
     146.79675016,
     -19.14617006
    ]
   },
   "properties": {
    "name": "491 WEST POINT ROAD WEST POINT 4819",
    "locID": "LOC000129593969",
    "tech": "WIRELESS",
    "upgrade": "NULL_NA",
    "gnaf_pid": "GAQLD163286322",
    "ee": true,
    "tech_change_status": "Not Planned",
    "program_type": "Fixed Wireless and Satellite Upgrade Program",
    "target_eligibility_quarter": "NA"
   }
  },
  {
   "type": "Feature",
   "geometry": {
    "type": "Point",
    "coordinates": [
     146.78480311,
     -19.13378623
    ]
   },
   "properties": {
    "name": "772 WEST POINT ROAD WEST POINT 4819",
    "locID": "LOC000110869244",
    "tech": "WIRELESS",
    "upgrade": "NULL_NA",
    "gnaf_pid": "GAQLD163286327",
    "ee": true,
    "tech_change_status": "Not Planned",
    "program_type": "Fixed Wireless and Satellite Upgrade Program",
    "target_eligibility_quarter": "NA"
   }
  },
  {
   "type": "Feature",
   "geometry": {
    "type": "Point",
    "coordinates": [
     146.78444991,
     -19.1337332
    ]
   },
   "properties": {
    "name": "776 WEST POINT ROAD WEST POINT 4819",
    "locID": "LOC000110272325",
    "tech": "SATELLITE",
    "upgrade": "NULL_NA",
    "gnaf_pid": "GAQLD163286328",
    "ee": true,
    "tech_change_status": "Not Planned"
   }
  },
  {
   "type": "Feature",
   "geometry": {
    "type": "Point",
    "coordinates": [
     146.78405917,
     -19.13366251
    ]
   },
   "properties": {
    "name": "780 WEST POINT ROAD WEST POINT 4819",
    "locID": "LOC000110324218",
    "tech": "SATELLITE",
    "upgrade": "WIRELESS",
    "gnaf_pid": "GAQLD163286329",
    "ee": true,
    "tech_change_status": "Eligible to Order",
    "program_type": "Fixed Wireless and Satellite Upgrade Program",
    "target_eligibility_quarter": "NA"
   }
  },
  {
   "type": "Feature",
   "geometry": {
    "type": "Point",
    "coordinates": [
     146.78386687,
     -19.133633
    ]
   },
   "properties": {
    "name": "782 WEST POINT ROAD WEST POINT 4819",
    "locID": "LOC000112743694",
    "tech": "WIRELESS",
    "upgrade": "NULL_NA",
    "gnaf_pid": "GAQLD163286330",
    "ee": true,
    "tech_change_status": "Not Planned",
    "program_type": "Fixed Wireless and Satellite Upgrade Program",
    "target_eligibility_quarter": "NA"
   }
  },
  {
   "type": "Feature",
   "geometry": {
    "type": "Point",
    "coordinates": [
     146.7833143,
     -19.13353255
    ]
   },
   "properties": {
    "name": "784-788 WEST POINT ROAD WEST POINT 4819",
    "locID": "LOC000110253919",
    "tech": "WIRELESS",
    "upgrade": "NULL_NA",
    "gnaf_pid": "GAQLD163286331",
    "ee": true,
    "tech_change_status": "Not Planned",
    "program_type": "Fixed Wireless and Satellite Upgrade Program",
    "target_eligibility_quarter": "NA"
   }
  },
  {
   "type": "Feature",
   "geometry": {
    "type": "Point",
    "coordinates": [
     146.78312249,
     -19.13350902
    ]
   },
   "properties": {
    "name": "790 WEST POINT ROAD WEST POINT 4819",
    "locID": "LOC000129600980",
    "tech": "WIRELESS",
    "upgrade": "NULL_NA",
    "gnaf_pid": "GAQLD163286332",
    "ee": true,
    "tech_change_status": "Eligible to Order",
    "program_type": "Fixed Wireless and Satellite Upgrade Program",
    "target_eligibility_quarter": "NA"
   }
  },
  {
   "type": "Feature",
   "geometry": {
    "type": "Point",
    "coordinates": [
     146.78462362,
     -19.13376351
    ]
   },
   "properties": {
    "name": "774 WEST POINT ROAD WEST POINT 4819",
    "locID": "LOC000110938789",
    "tech": "WIRELESS",
    "upgrade": "NULL_NA",
    "gnaf_pid": "GAQLD163292081",
    "ee": true,
    "tech_change_status": "Not Planned",
    "program_type": "Fixed Wireless and Satellite Upgrade Program",
    "target_eligibility_quarter": "NA"
   }
  },
  {
   "type": "Feature",
   "geometry": {
    "type": "Point",
    "coordinates": [
     146.79816516,
     -19.14116301
    ]
   },
   "properties": {
    "name": "LOT 161 WEST POINT ROAD WEST POINT 4819",
    "locID": "LOC000129600980",
    "tech": "WIRELESS",
    "upgrade": "NULL_NA",
    "gnaf_pid": "GAQLD425005681",
    "ee": true,
    "tech_change_status": "Eligible to Order",
    "program_type": "Fixed Wireless and Satellite Upgrade Program",
    "target_eligibility_quarter": "NA"
   }
  },
  {
   "type": "Feature",
   "geometry": {
    "type": "Point",
    "coordinates": [
     146.79025793,
     -19.13195404
    ]
   },
   "properties": {
    "name": "LOT 39 WEST POINT ROAD WEST POINT 4819",
    "locID": "LOC000129600980",
    "tech": "WIRELESS",
    "upgrade": "NULL_NA",
    "gnaf_pid": "GAQLD425005682",
    "ee": true,
    "tech_change_status": "Eligible to Order",
    "program_type": "Fixed Wireless and Satellite Upgrade Program",
    "target_eligibility_quarter": "NA"
   }
  },
  {
   "type": "Feature",
   "geometry": {
    "type": "Point",
    "coordinates": [
     146.79391022,
     -19.13830969
    ]
   },
   "properties": {
    "name": "LOT 40 WEST POINT ROAD WEST POINT 4819",
    "locID": "LOC000129600980",
    "tech": "WIRELESS",
    "upgrade": "NULL_NA",
    "gnaf_pid": "GAQLD425005683",
    "ee": true,
    "tech_change_status": "Eligible to Order",
    "program_type": "Fixed Wireless and Satellite Upgrade Program",
    "target_eligibility_quarter": "NA"
   }
  },
  {
   "type": "Feature",
   "geometry": {
    "type": "Point",
    "coordinates": [
     146.78424524,
     -19.13370975
    ]
   },
   "properties": {
    "name": "778 WEST POINT ROAD WEST POINT 4819",
    "locID": "LOC000129600951",
    "tech": "WIRELESS",
    "upgrade": "NULL_NA",
    "gnaf_pid": "GAQLD425041628",
    "ee": true,
    "tech_change_status": "Not Planned",
    "program_type": "Fixed Wireless and Satellite Upgrade Program",
    "target_eligibility_quarter": "NA"
   }
  },
  {
   "type": "Feature",
   "geometry": {
    "type": "Point",
    "coordinates": [
     146.78576727,
     -19.1334063
    ]
   },
   "properties": {
    "name": "LOT 10 WEST POINT ROAD WEST POINT 4819",
    "locID": "LOC000110869244",
    "tech": "WIRELESS",
    "upgrade": "NULL_NA",
    "gnaf_pid": "GAQLD425153672",
    "ee": true,
    "tech_change_status": "Not Planned",
    "program_type": "Fixed Wireless and Satellite Upgrade Program",
    "target_eligibility_quarter": "NA"
   }
  },
  {
   "type": "Feature",
   "geometry": {
    "type": "Point",
    "coordinates": [
     146.79816516,
     -19.14116301
    ]
   },
   "properties": {
    "name": "LOT 9 WEST POINT ROAD WEST POINT 4819",
    "locID": "LOC000110938789",
    "tech": "WIRELESS",
    "upgrade": "NULL_NA",
    "gnaf_pid": "GAQLD425153673",
    "ee": true,
    "tech_change_status": "Not Planned",
    "program_type": "Fixed Wireless and Satellite Upgrade Program",
    "target_eligibility_quarter": "NA"
   }
  },
  {
   "type": "Feature",
   "geometry": {
    "type": "Point",
    "coordinates": [
     146.79816516,
     -19.14116301
    ]
   },
   "properties": {
    "name": "804 WEST POINT ROAD WEST POINT 4819",
    "locID": "LOC000113985572",
    "tech": "WIRELESS",
    "upgrade": "NULL_NA",
    "gnaf_pid": "GAQLD719723198",
    "ee": true,
    "tech_change_status": "Eligible to Order",
    "program_type": "Fixed Wireless and Satellite Upgrade Program",
    "target_eligibility_quarter": "NA"
   }
  },
  {
   "type": "Feature",
   "geometry": {
    "type": "Point",
    "coordinates": [
     146.78358191,
     -19.13312905
    ]
   },
   "properties": {
    "name": "789 WEST POINT ROAD WEST POINT 4819",
    "locID": "LOC000129563985",
    "tech": "SATELLITE",
    "upgrade": "WIRELESS",
    "gnaf_pid": "GAQLD720977207",
    "ee": true,
    "tech_change_status": "Eligible to Order",
    "program_type": "Fixed Wireless and Satellite Upgrade Program",
    "target_eligibility_quarter": "NA"
   }
  },
  {
   "type": "Feature",
   "geometry": {
    "type": "Point",
    "coordinates": [
     146.78275502,
     -19.13218621
    ]
   },
   "properties": {
    "name": "814 WEST POINT ROAD WEST POINT 4819",
    "locID": "LOC100087313733",
    "tech": "WIRELESS",
    "upgrade": "NULL_NA",
    "gnaf_pid": "GAQLD721114155",
    "ee": true,
    "tech_change_status": "Not Planned",
    "program_type": "Fixed Wireless and Satellite Upgrade Program",
    "target_eligibility_quarter": "NA"
   }
  },
  {
   "type": "Feature",
   "geometry": {
    "type": "Point",
    "coordinates": [
     146.78303438,
     -19.13244539
    ]
   },
   "properties": {
    "name": "810 WEST POINT ROAD WEST POINT 4819",
    "locID": "LOC100087307918",
    "tech": "WIRELESS",
    "upgrade": "NULL_NA",
    "gnaf_pid": "GAQLD721114160",
    "ee": true,
    "tech_change_status": "Not Planned",
    "program_type": "Fixed Wireless and Satellite Upgrade Program",
    "target_eligibility_quarter": "NA"
   }
  },
  {
   "type": "Feature",
   "geometry": {
    "type": "Point",
    "coordinates": [
     146.78236429,
     -19.13180281
    ]
   },
   "properties": {
    "name": "820 WEST POINT ROAD WEST POINT 4819",
    "locID": "LOC000129564042",
    "tech": "WIRELESS",
    "upgrade": "NULL_NA",
    "gnaf_pid": "GAQLD721114820",
    "ee": true,
    "tech_change_status": "Not Planned",
    "program_type": "Fixed Wireless and Satellite Upgrade Program",
    "target_eligibility_quarter": "NA"
   }
  },
  {
   "type": "Feature",
   "geometry": {
    "type": "Point",
    "coordinates": [
     146.78338955,
     -19.13310547
    ]
   },
   "properties": {
    "name": "791 WEST POINT ROAD WEST POINT 4819",
    "locID": "LOC100087307892",
    "tech": "WIRELESS",
    "upgrade": "NULL_NA",
    "gnaf_pid": "GAQLD721116115",
    "ee": true,
    "tech_change_status": "Not Planned",
    "program_type": "Fixed Wireless and Satellite Upgrade Program",
    "target_eligibility_quarter": "NA"
   }
  },
  {
   "type": "Feature",
   "geometry": {
    "type": "Point",
    "coordinates": [
     146.78288558,
     -19.13232587
    ]
   },
   "properties": {
    "name": "812 WEST POINT ROAD WEST POINT 4819",
    "locID": "LOC100087307939",
    "tech": "WIRELESS",
    "upgrade": "NULL_NA",
    "gnaf_pid": "GAQLD721116604",
    "ee": true,
    "tech_change_status": "Not Planned",
    "program_type": "Fixed Wireless and Satellite Upgrade Program",
    "target_eligibility_quarter": "NA"
   }
  },
  {
   "type": "Feature",
   "geometry": {
    "type": "Point",
    "coordinates": [
     146.78319663,
     -19.13308772
    ]
   },
   "properties": {
    "name": "793 WEST POINT ROAD WEST POINT 4819",
    "locID": "LOC100078004027",
    "tech": "WIRELESS",
    "upgrade": "NULL_NA",
    "gnaf_pid": "GAQLD721116759",
    "ee": true,
    "tech_change_status": "Not Planned",
    "program_type": "Fixed Wireless and Satellite Upgrade Program",
    "target_eligibility_quarter": "NA"
   }
  },
  {
   "type": "Feature",
   "geometry": {
    "type": "Point",
    "coordinates": [
     146.78261283,
     -19.13205086
    ]
   },
   "properties": {
    "name": "816 WEST POINT ROAD WEST POINT 4819",
    "locID": "LOC100087313746",
    "tech": "WIRELESS",
    "upgrade": "NULL_NA",
    "gnaf_pid": "GAQLD721117132",
    "ee": true,
    "tech_change_status": "Not Planned",
    "program_type": "Fixed Wireless and Satellite Upgrade Program",
    "target_eligibility_quarter": "NA"
   }
  },
  {
   "type": "Feature",
   "geometry": {
    "type": "Point",
    "coordinates": [
     146.78433771,
     -19.13323499
    ]
   },
   "properties": {
    "name": "781 WEST POINT ROAD WEST POINT 4819",
    "locID": "LOC000129563928",
    "tech": "WIRELESS",
    "upgrade": "NULL_NA",
    "gnaf_pid": "GAQLD721118102",
    "ee": true,
    "tech_change_status": "Not Planned",
    "program_type": "Fixed Wireless and Satellite Upgrade Program",
    "target_eligibility_quarter": "NA"
   }
  },
  {
   "type": "Feature",
   "geometry": {
    "type": "Point",
    "coordinates": [
     146.78452427,
     -19.13328207
    ]
   },
   "properties": {
    "name": "779 WEST POINT ROAD WEST POINT 4819",
    "locID": "LOC000159556935",
    "tech": "SATELLITE",
    "upgrade": "NULL_NA",
    "gnaf_pid": "GAQLD721118769",
    "ee": true,
    "tech_change_status": "Not Planned"
   }
  },
  {
   "type": "Feature",
   "geometry": {
    "type": "Point",
    "coordinates": [
     146.78469799,
     -19.13331176
    ]
   },
   "properties": {
    "name": "777 WEST POINT ROAD WEST POINT 4819",
    "locID": "LOC000129563900",
    "tech": "SATELLITE",
    "upgrade": "NULL_NA",
    "gnaf_pid": "GAQLD721118829",
    "ee": true,
    "tech_change_status": "Not Planned"
   }
  },
  {
   "type": "Feature",
   "geometry": {
    "type": "Point",
    "coordinates": [
     146.78222207,
     -19.13167929
    ]
   },
   "properties": {
    "name": "822 WEST POINT ROAD WEST POINT 4819",
    "locID": "LOC100087308040",
    "tech": "WIRELESS",
    "upgrade": "NULL_NA",
    "gnaf_pid": "GAQLD721118837",
    "ee": true,
    "tech_change_status": "Not Planned",
    "program_type": "Fixed Wireless and Satellite Upgrade Program",
    "target_eligibility_quarter": "NA"
   }
  },
  {
   "type": "Feature",
   "geometry": {
    "type": "Point",
    "coordinates": [
     146.78208551,
     -19.13153771
    ]
   },
   "properties": {
    "name": "824 WEST POINT ROAD WEST POINT 4819",
    "locID": "LOC000112767551",
    "tech": "WIRELESS",
    "upgrade": "NULL_NA",
    "gnaf_pid": "GAQLD721118906",
    "ee": true,
    "tech_change_status": "Not Planned",
    "program_type": "Fixed Wireless and Satellite Upgrade Program",
    "target_eligibility_quarter": "NA"
   }
  },
  {
   "type": "Feature",
   "geometry": {
    "type": "Point",
    "coordinates": [
     146.78415204,
     -19.13322316
    ]
   },
   "properties": {
    "name": "783 WEST POINT ROAD WEST POINT 4819",
    "locID": "LOC000129563944",
    "tech": "WIRELESS",
    "upgrade": "NULL_NA",
    "gnaf_pid": "GAQLD721119375",
    "ee": true,
    "tech_change_status": "Not Planned",
    "program_type": "Fixed Wireless and Satellite Upgrade Program",
    "target_eligibility_quarter": "NA"
   }
  },
  {
   "type": "Feature",
   "geometry": {
    "type": "Point",
    "coordinates": [
     146.78395929,
     -19.13317607
    ]
   },
   "properties": {
    "name": "785 WEST POINT ROAD WEST POINT 4819",
    "locID": "LOC100087772853",
    "tech": "WIRELESS",
    "upgrade": "NULL_NA",
    "gnaf_pid": "GAQLD721120255",
    "ee": true,
    "tech_change_status": "Not Planned",
    "program_type": "Fixed Wireless and Satellite Upgrade Program",
    "target_eligibility_quarter": "NA"
   }
  },
  {
   "type": "Feature",
   "geometry": {
    "type": "Point",
    "coordinates": [
     146.78250698,
     -19.13192074
    ]
   },
   "properties": {
    "name": "818 WEST POINT ROAD WEST POINT 4819",
    "locID": "LOC100087308029",
    "tech": "WIRELESS",
    "upgrade": "NULL_NA",
    "gnaf_pid": "GAQLD721148431",
    "ee": true,
    "tech_change_status": "Not Planned",
    "program_type": "Fixed Wireless and Satellite Upgrade Program",
    "target_eligibility_quarter": "NA"
   }
  }
 ]
}