{
 "type": "FeatureCollection",
 "generated": "2025-06-15T05:50:21.489283",
 "suburb": "WINCHESTER",
 "features": [
  {
   "type": "Feature",
   "geometry": {
    "type": "Point",
    "coordinates": [
     148.12736182,
     -22.20008313
    ]
   },
   "properties": {
    "name": "LOT 18 PEAK DOWNS HIGHWAY WINCHESTER 4721",
    "locID": "LOC000053372583",
    "tech": "FTTN",
    "upgrade": "FTTP_SA",
    "gnaf_pid": "GAQLD161273910",
    "ee": true,
    "tech_change_status": "Eligible to Order",
    "program_type": "On-Demand N2P SDU/MDU Simple",
    "target_eligibility_quarter": "NA"
   }
  },
  {
   "type": "Feature",
   "geometry": {
    "type": "Point",
    "coordinates": [
     148.17915283,
     -22.14732821
    ]
   },
   "properties": {
    "name": "LOT 1 PEAK DOWNS MINE ROAD WINCHESTER 4721",
    "locID": "LOC100076622741",
    "tech": "NULL",
    "upgrade": "NULL_NA",
    "gnaf_pid": "GAQLD163172277",
    "ee": false,
    "tech_change_status": "Not Planned"
   }
  },
  {
   "type": "Feature",
   "geometry": {
    "type": "Point",
    "coordinates": [
     147.94411856,
     -22.31597728
    ]
   },
   "properties": {
    "name": "5665 PEAK DOWNS HIGHWAY WINCHESTER 4721",
    "locID": "LOC000129383258",
    "tech": "SATELLITE",
    "upgrade": "NULL_NA",
    "gnaf_pid": "GAQLD425058736",
    "ee": false,
    "tech_change_status": "Not Planned"
   }
  },
  {
   "type": "Feature",
   "geometry": {
    "type": "Point",
    "coordinates": [
     148.18900236,
     -22.1748772
    ]
   },
   "properties": {
    "name": "LOT 7 PEAK DOWNS MINE ROAD WINCHESTER 4721",
    "locID": "LOC000162449037",
    "tech": "SATELLITE",
    "upgrade": "NULL_NA",
    "gnaf_pid": "GAQLD425478439",
    "ee": true,
    "tech_change_status": "Not Planned"
   }
  },
  {
   "type": "Feature",
   "geometry": {
    "type": "Point",
    "coordinates": [
     148.07830476,
     -22.30410478
    ]
   },
   "properties": {
    "name": "5924 PEAK DOWNS HIGHWAY WINCHESTER 4721",
    "locID": "LOC000148095296",
    "tech": "NULL",
    "upgrade": "NULL_NA",
    "gnaf_pid": "GAQLD425478497",
    "ee": false,
    "tech_change_status": "Not Planned"
   }
  },
  {
   "type": "Feature",
   "geometry": {
    "type": "Point",
    "coordinates": [
     148.20837814,
     -22.15557124
    ]
   },
   "properties": {
    "name": "831 PEAK DOWNS MINE ROAD WINCHESTER 4721",
    "locID": "LOC000162449037",
    "tech": "SATELLITE",
    "upgrade": "NULL_NA",
    "gnaf_pid": "GAQLD425642101",
    "ee": true,
    "tech_change_status": "Not Planned"
   }
  },
  {
   "type": "Feature",
   "geometry": {
    "type": "Point",
    "coordinates": [
     148.15726619,
     -22.18756931
    ]
   },
   "properties": {
    "name": "LOT 4 PEAK DOWNS MINE ROAD WINCHESTER 4721",
    "locID": "LOC100076622741",
    "tech": "NULL",
    "upgrade": "NULL_NA",
    "gnaf_pid": "GAQLD719128289",
    "ee": false,
    "tech_change_status": "Not Planned"
   }
  },
  {
   "type": "Feature",
   "geometry": {
    "type": "Point",
    "coordinates": [
     148.21841179,
     -22.25608431
    ]
   },
   "properties": {
    "name": "LOT 5 PEAK DOWNS MINE ROAD WINCHESTER 4721",
    "locID": "LOC000162449037",
    "tech": "SATELLITE",
    "upgrade": "NULL_NA",
    "gnaf_pid": "GAQLD719136928",
    "ee": true,
    "tech_change_status": "Not Planned"
   }
  }
 ]
}