{
 "type": "FeatureCollection",
 "generated": "2025-06-15T05:51:05.544859",
 "suburb": "WINDERA",
 "features": [
  {
   "type": "Feature",
   "geometry": {
    "type": "Point",
    "coordinates": [
     151.79457625,
     -26.01727856
    ]
   },
   "properties": {
    "name": "592 MORGANS ROAD WINDERA 4605",
    "locID": "LOC000096234189",
    "tech": "SATELLITE",
    "upgrade": "NULL_NA",
    "gnaf_pid": "GAQLD155981554",
    "ee": true,
    "tech_change_status": "Not Planned"
   }
  },
  {
   "type": "Feature",
   "geometry": {
    "type": "Point",
    "coordinates": [
     151.79252852,
     -26.02692266
    ]
   },
   "properties": {
    "name": "509 MORGANS ROAD WINDERA 4605",
    "locID": "LOC000051032809",
    "tech": "WIRELESS",
    "upgrade": "NULL_NA",
    "gnaf_pid": "GAQLD157279462",
    "ee": true,
    "tech_change_status": "Not Planned",
    "program_type": "Fixed Wireless and Satellite Upgrade Program",
    "target_eligibility_quarter": "Sep 2025"
   }
  },
  {
   "type": "Feature",
   "geometry": {
    "type": "Point",
    "coordinates": [
     151.78837188,
     -25.97732417
    ]
   },
   "properties": {
    "name": "1044 MORGANS ROAD WINDERA 4605",
    "locID": "LOC000077453719",
    "tech": "NULL",
    "upgrade": "NULL_NA",
    "gnaf_pid": "GAQLD158874958",
    "ee": false,
    "tech_change_status": "Not Planned"
   }
  },
  {
   "type": "Feature",
   "geometry": {
    "type": "Point",
    "coordinates": [
     151.79581729,
     -25.9981137
    ]
   },
   "properties": {
    "name": "915 MORGANS ROAD WINDERA 4605",
    "locID": "LOC000106578609",
    "tech": "SATELLITE",
    "upgrade": "NULL_NA",
    "gnaf_pid": "GAQLD158878524",
    "ee": false,
    "tech_change_status": "Not Planned"
   }
  },
  {
   "type": "Feature",
   "geometry": {
    "type": "Point",
    "coordinates": [
     151.8071885,
     -26.03106529
    ]
   },
   "properties": {
    "name": "426 MORGANS ROAD WINDERA 4605",
    "locID": "LOC000089348100",
    "tech": "SATELLITE",
    "upgrade": "NULL_NA",
    "gnaf_pid": "GAQLD160204748",
    "ee": true,
    "tech_change_status": "Not Planned"
   }
  },
  {
   "type": "Feature",
   "geometry": {
    "type": "Point",
    "coordinates": [
     151.81134606,
     -26.02286903
    ]
   },
   "properties": {
    "name": "536 MORGANS ROAD WINDERA 4605",
    "locID": "LOC000102771745",
    "tech": "SATELLITE",
    "upgrade": "NULL_NA",
    "gnaf_pid": "GAQLD160205246",
    "ee": true,
    "tech_change_status": "Not Planned"
   }
  },
  {
   "type": "Feature",
   "geometry": {
    "type": "Point",
    "coordinates": [
     151.75250135,
     -26.04671898
    ]
   },
   "properties": {
    "name": "487 SCHMIDHAUSERS ROAD WINDERA 4605",
    "locID": "LOC000042956597",
    "tech": "SATELLITE",
    "upgrade": "NULL_NA",
    "gnaf_pid": "GAQLD160220693",
    "ee": true,
    "tech_change_status": "Not Planned"
   }
  },
  {
   "type": "Feature",
   "geometry": {
    "type": "Point",
    "coordinates": [
     151.82040539,
     -26.05449619
    ]
   },
   "properties": {
    "name": "114 WILSONS ROAD WINDERA 4605",
    "locID": "LOC000085775849",
    "tech": "SATELLITE",
    "upgrade": "NULL_NA",
    "gnaf_pid": "GAQLD160220700",
    "ee": true,
    "tech_change_status": "Not Planned"
   }
  },
  {
   "type": "Feature",
   "geometry": {
    "type": "Point",
    "coordinates": [
     151.82126915,
     -26.03805886
    ]
   },
   "properties": {
    "name": "96 KRATZMANNS ROAD WINDERA 4605",
    "locID": "LOC000011663626",
    "tech": "SATELLITE",
    "upgrade": "NULL_NA",
    "gnaf_pid": "GAQLD160953104",
    "ee": true,
    "tech_change_status": "Not Planned"
   }
  },
  {
   "type": "Feature",
   "geometry": {
    "type": "Point",
    "coordinates": [
     151.84728921,
     -25.98874547
    ]
   },
   "properties": {
    "name": "LOT 3 MURGON - GAYNDAH ROAD WINDERA 4605",
    "locID": "LOC000051498870",
    "tech": "SATELLITE",
    "upgrade": "NULL_NA",
    "gnaf_pid": "GAQLD161249918",
    "ee": true,
    "tech_change_status": "Not Planned"
   }
  },
  {
   "type": "Feature",
   "geometry": {
    "type": "Point",
    "coordinates": [
     151.82390194,
     -26.01530661
    ]
   },
   "properties": {
    "name": "239 BISHOPS ROAD WINDERA 4605",
    "locID": "LOC000089915011",
    "tech": "SATELLITE",
    "upgrade": "NULL_NA",
    "gnaf_pid": "GAQLD161617373",
    "ee": true,
    "tech_change_status": "Not Planned"
   }
  },
  {
   "type": "Feature",
   "geometry": {
    "type": "Point",
    "coordinates": [
     151.81837054,
     -26.03086309
    ]
   },
   "properties": {
    "name": "85 BISHOPS ROAD WINDERA 4605",
    "locID": "LOC000055369403",
    "tech": "SATELLITE",
    "upgrade": "NULL_NA",
    "gnaf_pid": "GAQLD161617374",
    "ee": true,
    "tech_change_status": "Not Planned"
   }
  },
  {
   "type": "Feature",
   "geometry": {
    "type": "Point",
    "coordinates": [
     151.79245416,
     -26.04056706
    ]
   },
   "properties": {
    "name": "293 KRATZMANNS ROAD WINDERA 4605",
    "locID": "LOC000035341087",
    "tech": "NULL",
    "upgrade": "NULL_NA",
    "gnaf_pid": "GAQLD161632236",
    "ee": true,
    "tech_change_status": "Not Planned"
   }
  },
  {
   "type": "Feature",
   "geometry": {
    "type": "Point",
    "coordinates": [
     151.78741911,
     -26.02061476
    ]
   },
   "properties": {
    "name": "LOT 3 MCANTEE ROAD WINDERA 4605",
    "locID": "LOC000128769116",
    "tech": "SATELLITE",
    "upgrade": "NULL_NA",
    "gnaf_pid": "GAQLD161634858",
    "ee": false,
    "tech_change_status": "Not Planned"
   }
  },
  {
   "type": "Feature",
   "geometry": {
    "type": "Point",
    "coordinates": [
     151.77827579,
     -26.02555334
    ]
   },
   "properties": {
    "name": "LOT 49 MCANTEE ROAD WINDERA 4605",
    "locID": "LOC000128769116",
    "tech": "SATELLITE",
    "upgrade": "NULL_NA",
    "gnaf_pid": "GAQLD161634859",
    "ee": false,
    "tech_change_status": "Not Planned"
   }
  },
  {
   "type": "Feature",
   "geometry": {
    "type": "Point",
    "coordinates": [
     151.7588556,
     -26.00476464
    ]
   },
   "properties": {
    "name": "LOT 51 MCANTEE ROAD WINDERA 4605",
    "locID": "LOC000128769116",
    "tech": "SATELLITE",
    "upgrade": "NULL_NA",
    "gnaf_pid": "GAQLD161634860",
    "ee": false,
    "tech_change_status": "Not Planned"
   }
  },
  {
   "type": "Feature",
   "geometry": {
    "type": "Point",
    "coordinates": [
     151.75553243,
     -25.99046263
    ]
   },
   "properties": {
    "name": "LOT 52 MCANTEE ROAD WINDERA 4605",
    "locID": "LOC000128769116",
    "tech": "SATELLITE",
    "upgrade": "NULL_NA",
    "gnaf_pid": "GAQLD161634861",
    "ee": false,
    "tech_change_status": "Not Planned"
   }
  },
  {
   "type": "Feature",
   "geometry": {
    "type": "Point",
    "coordinates": [
     151.77423239,
     -25.99292132
    ]
   },
   "properties": {
    "name": "LOT 53 MCANTEE ROAD WINDERA 4605",
    "locID": "LOC000128769116",
    "tech": "SATELLITE",
    "upgrade": "NULL_NA",
    "gnaf_pid": "GAQLD161634862",
    "ee": false,
    "tech_change_status": "Not Planned"
   }
  },
  {
   "type": "Feature",
   "geometry": {
    "type": "Point",
    "coordinates": [
     151.77830913,
     -26.00592896
    ]
   },
   "properties": {
    "name": "LOT 54 MCANTEE ROAD WINDERA 4605",
    "locID": "LOC000128769116",
    "tech": "SATELLITE",
    "upgrade": "NULL_NA",
    "gnaf_pid": "GAQLD161634863",
    "ee": false,
    "tech_change_status": "Not Planned"
   }
  },
  {
   "type": "Feature",
   "geometry": {
    "type": "Point",
    "coordinates": [
     151.80515408,
     -26.06087159
    ]
   },
   "properties": {
    "name": "10 MORGANS ROAD WINDERA 4605",
    "locID": "LOC000043248133",
    "tech": "SATELLITE",
    "upgrade": "NULL_NA",
    "gnaf_pid": "GAQLD161635833",
    "ee": true,
    "tech_change_status": "Not Planned"
   }
  },
  {
   "type": "Feature",
   "geometry": {
    "type": "Point",
    "coordinates": [
     151.76410975,
     -25.96000479
    ]
   },
   "properties": {
    "name": "1610 MORGANS ROAD WINDERA 4605",
    "locID": "LOC000090009784",
    "tech": "SATELLITE",
    "upgrade": "NULL_NA",
    "gnaf_pid": "GAQLD161635834",
    "ee": false,
    "tech_change_status": "Not Planned"
   }
  },
  {
   "type": "Feature",
   "geometry": {
    "type": "Point",
    "coordinates": [
     151.8037202,
     -26.05303425
    ]
   },
   "properties": {
    "name": "200 MORGANS ROAD WINDERA 4605",
    "locID": "LOC000073581527",
    "tech": "SATELLITE",
    "upgrade": "NULL_NA",
    "gnaf_pid": "GAQLD161635835",
    "ee": true,
    "tech_change_status": "Not Planned"
   }
  },
  {
   "type": "Feature",
   "geometry": {
    "type": "Point",
    "coordinates": [
     151.78651918,
     -26.0563953
    ]
   },
   "properties": {
    "name": "LOT 24 MORGANS ROAD WINDERA 4605",
    "locID": "LOC000102771745",
    "tech": "SATELLITE",
    "upgrade": "NULL_NA",
    "gnaf_pid": "GAQLD161635837",
    "ee": true,
    "tech_change_status": "Not Planned"
   }
  },
  {
   "type": "Feature",
   "geometry": {
    "type": "Point",
    "coordinates": [
     151.80933381,
     -26.04919396
    ]
   },
   "properties": {
    "name": "LOT 2 MORGANS ROAD WINDERA 4605",
    "locID": "LOC000077453719",
    "tech": "NULL",
    "upgrade": "NULL_NA",
    "gnaf_pid": "GAQLD161635838",
    "ee": false,
    "tech_change_status": "Not Planned"
   }
  },
  {
   "type": "Feature",
   "geometry": {
    "type": "Point",
    "coordinates": [
     151.77839012,
     -25.9837378
    ]
   },
   "properties": {
    "name": "LOT 3 MORGANS ROAD WINDERA 4605",
    "locID": "LOC000102771745",
    "tech": "SATELLITE",
    "upgrade": "NULL_NA",
    "gnaf_pid": "GAQLD161635839",
    "ee": true,
    "tech_change_status": "Not Planned"
   }
  },
  {
   "type": "Feature",
   "geometry": {
    "type": "Point",
    "coordinates": [
     151.79946898,
     -26.02942793
    ]
   },
   "properties": {
    "name": "465 MORGANS ROAD WINDERA 4605",
    "locID": "LOC000065765575",
    "tech": "SATELLITE",
    "upgrade": "NULL_NA",
    "gnaf_pid": "GAQLD161635840",
    "ee": true,
    "tech_change_status": "Not Planned"
   }
  },
  {
   "type": "Feature",
   "geometry": {
    "type": "Point",
    "coordinates": [
     151.80805199,
     -26.00928511
    ]
   },
   "properties": {
    "name": "692 MORGANS ROAD WINDERA 4605",
    "locID": "LOC000010835198",
    "tech": "NULL",
    "upgrade": "NULL_NA",
    "gnaf_pid": "GAQLD161635842",
    "ee": true,
    "tech_change_status": "Not Planned"
   }
  },
  {
   "type": "Feature",
   "geometry": {
    "type": "Point",
    "coordinates": [
     151.80412631,
     -25.99741908
    ]
   },
   "properties": {
    "name": "850 MORGANS ROAD WINDERA 4605",
    "locID": "LOC000074381315",
    "tech": "SATELLITE",
    "upgrade": "NULL_NA",
    "gnaf_pid": "GAQLD161635843",
    "ee": true,
    "tech_change_status": "Not Planned"
   }
  },
  {
   "type": "Feature",
   "geometry": {
    "type": "Point",
    "coordinates": [
     151.79170106,
     -26.00154084
    ]
   },
   "properties": {
    "name": "907 MORGANS ROAD WINDERA 4605",
    "locID": "LOC000073986813",
    "tech": "SATELLITE",
    "upgrade": "NULL_NA",
    "gnaf_pid": "GAQLD161635844",
    "ee": false,
    "tech_change_status": "Not Planned"
   }
  },
  {
   "type": "Feature",
   "geometry": {
    "type": "Point",
    "coordinates": [
     151.80207372,
     -25.98067419
    ]
   },
   "properties": {
    "name": "LOT 98 MORGANS ROAD WINDERA 4605",
    "locID": "LOC000102771745",
    "tech": "SATELLITE",
    "upgrade": "NULL_NA",
    "gnaf_pid": "GAQLD161635847",
    "ee": true,
    "tech_change_status": "Not Planned"
   }
  },
  {
   "type": "Feature",
   "geometry": {
    "type": "Point",
    "coordinates": [
     151.84386296,
     -26.01909532
    ]
   },
   "properties": {
    "name": "LOT 83 MURGON - GAYNDAH ROAD WINDERA 4605",
    "locID": "LOC000038307184",
    "tech": "SATELLITE",
    "upgrade": "NULL_NA",
    "gnaf_pid": "GAQLD161636269",
    "ee": true,
    "tech_change_status": "Not Planned"
   }
  },
  {
   "type": "Feature",
   "geometry": {
    "type": "Point",
    "coordinates": [
     151.82557561,
     -26.05007485
    ]
   },
   "properties": {
    "name": "14 WILSONS ROAD WINDERA 4605",
    "locID": "LOC000128783161",
    "tech": "NULL",
    "upgrade": "NULL_NA",
    "gnaf_pid": "GAQLD161647504",
    "ee": true,
    "tech_change_status": "Not Planned"
   }
  },
  {
   "type": "Feature",
   "geometry": {
    "type": "Point",
    "coordinates": [
     151.82521494,
     -26.06567381
    ]
   },
   "properties": {
    "name": "LOT 14 WILSONS ROAD WINDERA 4605",
    "locID": "LOC000128783161",
    "tech": "NULL",
    "upgrade": "NULL_NA",
    "gnaf_pid": "GAQLD161647505",
    "ee": true,
    "tech_change_status": "Not Planned"
   }
  },
  {
   "type": "Feature",
   "geometry": {
    "type": "Point",
    "coordinates": [
     151.82626681,
     -26.05351204
    ]
   },
   "properties": {
    "name": "16 WILSONS ROAD WINDERA 4605",
    "locID": "LOC000005747121",
    "tech": "SATELLITE",
    "upgrade": "NULL_NA",
    "gnaf_pid": "GAQLD161647506",
    "ee": true,
    "tech_change_status": "Not Planned"
   }
  },
  {
   "type": "Feature",
   "geometry": {
    "type": "Point",
    "coordinates": [
     151.82348701,
     -26.07440764
    ]
   },
   "properties": {
    "name": "LOT 8 WILSONS ROAD WINDERA 4605",
    "locID": "LOC000095164219",
    "tech": "NULL",
    "upgrade": "NULL_NA",
    "gnaf_pid": "GAQLD161647509",
    "ee": true,
    "tech_change_status": "Not Planned"
   }
  },
  {
   "type": "Feature",
   "geometry": {
    "type": "Point",
    "coordinates": [
     151.84475501,
     -26.00493824
    ]
   },
   "properties": {
    "name": "3158 MURGON - GAYNDAH ROAD WINDERA 4605",
    "locID": "LOC000021507454",
    "tech": "SATELLITE",
    "upgrade": "NULL_NA",
    "gnaf_pid": "GAQLD161705172",
    "ee": true,
    "tech_change_status": "Not Planned"
   }
  },
  {
   "type": "Feature",
   "geometry": {
    "type": "Point",
    "coordinates": [
     151.84521209,
     -26.00173611
    ]
   },
   "properties": {
    "name": "3230 MURGON - GAYNDAH ROAD WINDERA 4605",
    "locID": "LOC000095249564",
    "tech": "NULL",
    "upgrade": "NULL_NA",
    "gnaf_pid": "GAQLD161705173",
    "ee": true,
    "tech_change_status": "Not Planned"
   }
  },
  {
   "type": "Feature",
   "geometry": {
    "type": "Point",
    "coordinates": [
     151.82845142,
     -25.99243958
    ]
   },
   "properties": {
    "name": "3269 MURGON - GAYNDAH ROAD WINDERA 4605",
    "locID": "LOC000051498870",
    "tech": "SATELLITE",
    "upgrade": "NULL_NA",
    "gnaf_pid": "GAQLD161705174",
    "ee": true,
    "tech_change_status": "Not Planned"
   }
  },
  {
   "type": "Feature",
   "geometry": {
    "type": "Point",
    "coordinates": [
     151.84677745,
     -25.99213451
    ]
   },
   "properties": {
    "name": "3316 MURGON - GAYNDAH ROAD WINDERA 4605",
    "locID": "LOC000008642917",
    "tech": "SATELLITE",
    "upgrade": "NULL_NA",
    "gnaf_pid": "GAQLD161705176",
    "ee": true,
    "tech_change_status": "Not Planned"
   }
  },
  {
   "type": "Feature",
   "geometry": {
    "type": "Point",
    "coordinates": [
     151.84928105,
     -25.9821284
    ]
   },
   "properties": {
    "name": "3474 MURGON - GAYNDAH ROAD WINDERA 4605",
    "locID": "LOC000014879119",
    "tech": "SATELLITE",
    "upgrade": "NULL_NA",
    "gnaf_pid": "GAQLD161705177",
    "ee": true,
    "tech_change_status": "Not Planned"
   }
  },
  {
   "type": "Feature",
   "geometry": {
    "type": "Point",
    "coordinates": [
     151.84679481,
     -25.97719149
    ]
   },
   "properties": {
    "name": "3513 MURGON - GAYNDAH ROAD WINDERA 4605",
    "locID": "LOC000023205362",
    "tech": "SATELLITE",
    "upgrade": "NULL_NA",
    "gnaf_pid": "GAQLD161705178",
    "ee": true,
    "tech_change_status": "Not Planned"
   }
  },
  {
   "type": "Feature",
   "geometry": {
    "type": "Point",
    "coordinates": [
     151.86158377,
     -25.97851848
    ]
   },
   "properties": {
    "name": "3570 MURGON - GAYNDAH ROAD WINDERA 4605",
    "locID": "LOC000037108478",
    "tech": "SATELLITE",
    "upgrade": "NULL_NA",
    "gnaf_pid": "GAQLD161705179",
    "ee": false,
    "tech_change_status": "Not Planned"
   }
  },
  {
   "type": "Feature",
   "geometry": {
    "type": "Point",
    "coordinates": [
     151.76745249,
     -25.95515149
    ]
   },
   "properties": {
    "name": "LOT 1 MORGANS ROAD WINDERA 4605",
    "locID": "LOC000073581527",
    "tech": "SATELLITE",
    "upgrade": "NULL_NA",
    "gnaf_pid": "GAQLD161740278",
    "ee": true,
    "tech_change_status": "Not Planned"
   }
  },
  {
   "type": "Feature",
   "geometry": {
    "type": "Point",
    "coordinates": [
     151.78339425,
     -25.96198567
    ]
   },
   "properties": {
    "name": "LOT 95 MORGANS ROAD WINDERA 4605",
    "locID": "LOC000102771745",
    "tech": "SATELLITE",
    "upgrade": "NULL_NA",
    "gnaf_pid": "GAQLD161740279",
    "ee": true,
    "tech_change_status": "Not Planned"
   }
  },
  {
   "type": "Feature",
   "geometry": {
    "type": "Point",
    "coordinates": [
     151.82807522,
     -26.0318426
    ]
   },
   "properties": {
    "name": "LOT 87 BISHOPS ROAD WINDERA 4605",
    "locID": "LOC000055369403",
    "tech": "SATELLITE",
    "upgrade": "NULL_NA",
    "gnaf_pid": "GAQLD161745541",
    "ee": true,
    "tech_change_status": "Not Planned"
   }
  },
  {
   "type": "Feature",
   "geometry": {
    "type": "Point",
    "coordinates": [
     151.86402716,
     -25.98658057
    ]
   },
   "properties": {
    "name": "52 DAVIS ROAD WINDERA 4605",
    "locID": "LOC000012539211",
    "tech": "SATELLITE",
    "upgrade": "NULL_NA",
    "gnaf_pid": "GAQLD162284224",
    "ee": true,
    "tech_change_status": "Not Planned"
   }
  },
  {
   "type": "Feature",
   "geometry": {
    "type": "Point",
    "coordinates": [
     151.83014345,
     -26.04618006
    ]
   },
   "properties": {
    "name": "LOT 1 KRATZMANNS ROAD WINDERA 4605",
    "locID": "LOC000035341087",
    "tech": "NULL",
    "upgrade": "NULL_NA",
    "gnaf_pid": "GAQLD162287819",
    "ee": true,
    "tech_change_status": "Not Planned"
   }
  },
  {
   "type": "Feature",
   "geometry": {
    "type": "Point",
    "coordinates": [
     151.82396652,
     -26.08003736
    ]
   },
   "properties": {
    "name": "LOT 1 WILSONS ROAD WINDERA 4605",
    "locID": "LOC000018221932",
    "tech": "SATELLITE",
    "upgrade": "NULL_NA",
    "gnaf_pid": "GAQLD162295701",
    "ee": true,
    "tech_change_status": "Not Planned"
   }
  },
  {
   "type": "Feature",
   "geometry": {
    "type": "Point",
    "coordinates": [
     151.76109726,
     -25.96800785
    ]
   },
   "properties": {
    "name": "1489 MORGANS ROAD WINDERA 4605",
    "locID": "LOC000128755504",
    "tech": "SATELLITE",
    "upgrade": "NULL_NA",
    "gnaf_pid": "GAQLD162358477",
    "ee": false,
    "tech_change_status": "Not Planned"
   }
  },
  {
   "type": "Feature",
   "geometry": {
    "type": "Point",
    "coordinates": [
     151.82904444,
     -26.05384525
    ]
   },
   "properties": {
    "name": "2588 MURGON - GAYNDAH ROAD WINDERA 4605",
    "locID": "LOC000081124501",
    "tech": "NULL",
    "upgrade": "NULL_NA",
    "gnaf_pid": "GAQLD162736429",
    "ee": true,
    "tech_change_status": "Not Planned"
   }
  },
  {
   "type": "Feature",
   "geometry": {
    "type": "Point",
    "coordinates": [
     151.83030476,
     -26.04270271
    ]
   },
   "properties": {
    "name": "2749 MURGON - GAYNDAH ROAD WINDERA 4605",
    "locID": "LOC000038307184",
    "tech": "SATELLITE",
    "upgrade": "NULL_NA",
    "gnaf_pid": "GAQLD162736431",
    "ee": true,
    "tech_change_status": "Not Planned"
   }
  },
  {
   "type": "Feature",
   "geometry": {
    "type": "Point",
    "coordinates": [
     151.86094303,
     -25.99396214
    ]
   },
   "properties": {
    "name": "LOT 111 DAVIS ROAD WINDERA 4605",
    "locID": "LOC000012539211",
    "tech": "SATELLITE",
    "upgrade": "NULL_NA",
    "gnaf_pid": "GAQLD162825421",
    "ee": true,
    "tech_change_status": "Not Planned"
   }
  },
  {
   "type": "Feature",
   "geometry": {
    "type": "Point",
    "coordinates": [
     151.86284755,
     -26.00114203
    ]
   },
   "properties": {
    "name": "LOT 112 DAVIS ROAD WINDERA 4605",
    "locID": "LOC000012539211",
    "tech": "SATELLITE",
    "upgrade": "NULL_NA",
    "gnaf_pid": "GAQLD162825422",
    "ee": true,
    "tech_change_status": "Not Planned"
   }
  },
  {
   "type": "Feature",
   "geometry": {
    "type": "Point",
    "coordinates": [
     151.84621974,
     -25.97316234
    ]
   },
   "properties": {
    "name": "LOT 127 MURGON - GAYNDAH ROAD WINDERA 4605",
    "locID": "LOC000038307184",
    "tech": "SATELLITE",
    "upgrade": "NULL_NA",
    "gnaf_pid": "GAQLD162829741",
    "ee": true,
    "tech_change_status": "Not Planned"
   }
  },
  {
   "type": "Feature",
   "geometry": {
    "type": "Point",
    "coordinates": [
     151.85267764,
     -25.96955932
    ]
   },
   "properties": {
    "name": "LOT 4 MURGON - GAYNDAH ROAD WINDERA 4605",
    "locID": "LOC000008642917",
    "tech": "SATELLITE",
    "upgrade": "NULL_NA",
    "gnaf_pid": "GAQLD162829742",
    "ee": true,
    "tech_change_status": "Not Planned"
   }
  },
  {
   "type": "Feature",
   "geometry": {
    "type": "Point",
    "coordinates": [
     151.8443787,
     -26.00815429
    ]
   },
   "properties": {
    "name": "LOT 9 MURGON - GAYNDAH ROAD WINDERA 4605",
    "locID": "LOC000038307184",
    "tech": "SATELLITE",
    "upgrade": "NULL_NA",
    "gnaf_pid": "GAQLD162829746",
    "ee": true,
    "tech_change_status": "Not Planned"
   }
  },
  {
   "type": "Feature",
   "geometry": {
    "type": "Point",
    "coordinates": [
     151.84200997,
     -26.04191808
    ]
   },
   "properties": {
    "name": "2726 MURGON - GAYNDAH ROAD WINDERA 4605",
    "locID": "LOC000044878016",
    "tech": "NULL",
    "upgrade": "NULL_NA",
    "gnaf_pid": "GAQLD162848680",
    "ee": true,
    "tech_change_status": "Not Planned"
   }
  },
  {
   "type": "Feature",
   "geometry": {
    "type": "Point",
    "coordinates": [
     151.84851012,
     -25.97938596
    ]
   },
   "properties": {
    "name": "1674 MURGON - GAYNDAH ROAD WINDERA 4605",
    "locID": "LOC000036050249",
    "tech": "SATELLITE",
    "upgrade": "NULL_NA",
    "gnaf_pid": "GAQLD162969687",
    "ee": true,
    "tech_change_status": "Not Planned"
   }
  },
  {
   "type": "Feature",
   "geometry": {
    "type": "Point",
    "coordinates": [
     151.81437744,
     -25.97893173
    ]
   },
   "properties": {
    "name": "LOT 169 MURGON - GAYNDAH ROAD WINDERA 4605",
    "locID": "LOC000038307184",
    "tech": "SATELLITE",
    "upgrade": "NULL_NA",
    "gnaf_pid": "GAQLD424847698",
    "ee": true,
    "tech_change_status": "Not Planned"
   }
  },
  {
   "type": "Feature",
   "geometry": {
    "type": "Point",
    "coordinates": [
     151.75118707,
     -26.02284802
    ]
   },
   "properties": {
    "name": "LOT 48 SCHMIDHAUSERS ROAD WINDERA 4605",
    "locID": "LOC000042956597",
    "tech": "SATELLITE",
    "upgrade": "NULL_NA",
    "gnaf_pid": "GAQLD425040250",
    "ee": true,
    "tech_change_status": "Not Planned"
   }
  },
  {
   "type": "Feature",
   "geometry": {
    "type": "Point",
    "coordinates": [
     151.82669284,
     -26.02503847
    ]
   },
   "properties": {
    "name": "LOT 88 BISHOPS ROAD WINDERA 4605",
    "locID": "LOC000055369403",
    "tech": "SATELLITE",
    "upgrade": "NULL_NA",
    "gnaf_pid": "GAQLD425198775",
    "ee": true,
    "tech_change_status": "Not Planned"
   }
  },
  {
   "type": "Feature",
   "geometry": {
    "type": "Point",
    "coordinates": [
     151.8553027,
     -25.96558803
    ]
   },
   "properties": {
    "name": "LOT 1 BOONIMBA ROAD WINDERA 4605",
    "locID": "LOC100080640409",
    "tech": "NULL",
    "upgrade": "NULL_NA",
    "gnaf_pid": "GAQLD719266723",
    "ee": true,
    "tech_change_status": "Not Planned"
   }
  },
  {
   "type": "Feature",
   "geometry": {
    "type": "Point",
    "coordinates": [
     151.84576111,
     -25.99850405
    ]
   },
   "properties": {
    "name": "3274 MURGON - GAYNDAH ROAD WINDERA 4605",
    "locID": "LOC100078018113",
    "tech": "SATELLITE",
    "upgrade": "NULL_NA",
    "gnaf_pid": "GAQLD719566961",
    "ee": true,
    "tech_change_status": "Not Planned"
   }
  },
  {
   "type": "Feature",
   "geometry": {
    "type": "Point",
    "coordinates": [
     151.82117863,
     -26.04484321
    ]
   },
   "properties": {
    "name": "95 KRATZMANNS ROAD WINDERA 4605",
    "locID": "LOC100086187759",
    "tech": "NULL",
    "upgrade": "NULL_NA",
    "gnaf_pid": "GAQLD719954437",
    "ee": true,
    "tech_change_status": "Not Planned"
   }
  },
  {
   "type": "Feature",
   "geometry": {
    "type": "Point",
    "coordinates": [
     151.83638912,
     -25.96764647
    ]
   },
   "properties": {
    "name": "217 BOONIMBA ROAD WINDERA 4605",
    "locID": "LOC100080640409",
    "tech": "NULL",
    "upgrade": "NULL_NA",
    "gnaf_pid": "GAQLD720464380",
    "ee": true,
    "tech_change_status": "Not Planned"
   }
  },
  {
   "type": "Feature",
   "geometry": {
    "type": "Point",
    "coordinates": [
     151.79547434,
     -25.95400391
    ]
   },
   "properties": {
    "name": "LOT 19 MORGANS ROAD WINDERA 4605",
    "locID": "LOC000102771745",
    "tech": "SATELLITE",
    "upgrade": "NULL_NA",
    "gnaf_pid": "GAQLD720671100",
    "ee": true,
    "tech_change_status": "Not Planned"
   }
  },
  {
   "type": "Feature",
   "geometry": {
    "type": "Point",
    "coordinates": [
     151.83475514,
     -26.01464967
    ]
   },
   "properties": {
    "name": "LOT 84 MURGON-GAYNDAH ROAD WINDERA 4605",
    "locID": "LOC000038307184",
    "tech": "SATELLITE",
    "upgrade": "NULL_NA",
    "gnaf_pid": "GAQLD721145138",
    "ee": true,
    "tech_change_status": "Not Planned"
   }
  },
  {
   "type": "Feature",
   "geometry": {
    "type": "Point",
    "coordinates": [
     151.84790754,
     -25.98539457
    ]
   },
   "properties": {
    "name": "LOT 2 MURGON-GAYNDAH ROAD WINDERA 4605",
    "locID": "LOC000142808210",
    "tech": "SATELLITE",
    "upgrade": "NULL_NA",
    "gnaf_pid": "GAQLD721146410",
    "ee": true,
    "tech_change_status": "Not Planned"
   }
  },
  {
   "type": "Feature",
   "geometry": {
    "type": "Point",
    "coordinates": [
     151.83030476,
     -26.04270271
    ]
   },
   "properties": {
    "name": "2749 MURGON-GAYNDAH ROAD WINDERA 4605",
    "locID": "LOC000038307184",
    "tech": "SATELLITE",
    "upgrade": "NULL_NA",
    "gnaf_pid": "GAQLD721147179",
    "ee": true,
    "tech_change_status": "Not Planned"
   }
  },
  {
   "type": "Feature",
   "geometry": {
    "type": "Point",
    "coordinates": [
     151.8311939,
     -26.04625914
    ]
   },
   "properties": {
    "name": "LOT 1 MURGON-GAYNDAH ROAD WINDERA 4605",
    "locID": "LOC000014879119",
    "tech": "SATELLITE",
    "upgrade": "NULL_NA",
    "gnaf_pid": "GAQLD721147838",
    "ee": true,
    "tech_change_status": "Not Planned"
   }
  },
  {
   "type": "Feature",
   "geometry": {
    "type": "Point",
    "coordinates": [
     151.83093881,
     -26.04342574
    ]
   },
   "properties": {
    "name": "LOT 3 MURGON-GAYNDAH ROAD WINDERA 4605",
    "locID": "LOC000051498870",
    "tech": "SATELLITE",
    "upgrade": "NULL_NA",
    "gnaf_pid": "GAQLD721147974",
    "ee": true,
    "tech_change_status": "Not Planned"
   }
  },
  {
   "type": "Feature",
   "geometry": {
    "type": "Point",
    "coordinates": [
     151.82904444,
     -26.05384525
    ]
   },
   "properties": {
    "name": "2588 MURGON-GAYNDAH ROAD WINDERA 4605",
    "locID": "LOC000081124501",
    "tech": "NULL",
    "upgrade": "NULL_NA",
    "gnaf_pid": "GAQLD721148224",
    "ee": true,
    "tech_change_status": "Not Planned"
   }
  },
  {
   "type": "Feature",
   "geometry": {
    "type": "Point",
    "coordinates": [
     151.84200997,
     -26.04191808
    ]
   },
   "properties": {
    "name": "2726 MURGON-GAYNDAH ROAD WINDERA 4605",
    "locID": "LOC000044878016",
    "tech": "NULL",
    "upgrade": "NULL_NA",
    "gnaf_pid": "GAQLD721148380",
    "ee": true,
    "tech_change_status": "Not Planned"
   }
  },
  {
   "type": "Feature",
   "geometry": {
    "type": "Point",
    "coordinates": [
     151.84386296,
     -26.01909532
    ]
   },
   "properties": {
    "name": "LOT 83 MURGON-GAYNDAH ROAD WINDERA 4605",
    "locID": "LOC000038307184",
    "tech": "SATELLITE",
    "upgrade": "NULL_NA",
    "gnaf_pid": "GAQLD721148668",
    "ee": true,
    "tech_change_status": "Not Planned"
   }
  },
  {
   "type": "Feature",
   "geometry": {
    "type": "Point",
    "coordinates": [
     151.84494805,
     -26.01344695
    ]
   },
   "properties": {
    "name": "LOT 82 MURGON-GAYNDAH ROAD WINDERA 4605",
    "locID": "LOC000038307184",
    "tech": "SATELLITE",
    "upgrade": "NULL_NA",
    "gnaf_pid": "GAQLD721149225",
    "ee": true,
    "tech_change_status": "Not Planned"
   }
  },
  {
   "type": "Feature",
   "geometry": {
    "type": "Point",
    "coordinates": [
     151.82895796,
     -26.03885879
    ]
   },
   "properties": {
    "name": "LOT 126 MURGON-GAYNDAH ROAD WINDERA 4605",
    "locID": "LOC000038307184",
    "tech": "SATELLITE",
    "upgrade": "NULL_NA",
    "gnaf_pid": "GAQLD721150946",
    "ee": true,
    "tech_change_status": "Not Planned"
   }
  },
  {
   "type": "Feature",
   "geometry": {
    "type": "Point",
    "coordinates": [
     151.8310189,
     -26.04512608
    ]
   },
   "properties": {
    "name": "LOT 13 MURGON-GAYNDAH ROAD WINDERA 4605",
    "locID": "LOC000038307184",
    "tech": "SATELLITE",
    "upgrade": "NULL_NA",
    "gnaf_pid": "GAQLD721150969",
    "ee": true,
    "tech_change_status": "Not Planned"
   }
  },
  {
   "type": "Feature",
   "geometry": {
    "type": "Point",
    "coordinates": [
     151.82975269,
     -26.03988544
    ]
   },
   "properties": {
    "name": "LOT 125 MURGON-GAYNDAH ROAD WINDERA 4605",
    "locID": "LOC000038307184",
    "tech": "SATELLITE",
    "upgrade": "NULL_NA",
    "gnaf_pid": "GAQLD721151890",
    "ee": true,
    "tech_change_status": "Not Planned"
   }
  },
  {
   "type": "Feature",
   "geometry": {
    "type": "Point",
    "coordinates": [
     151.83076823,
     -26.03849206
    ]
   },
   "properties": {
    "name": "LOT 6 MURGON-GAYNDAH ROAD WINDERA 4605",
    "locID": "LOC100078018113",
    "tech": "SATELLITE",
    "upgrade": "NULL_NA",
    "gnaf_pid": "GAQLD721189747",
    "ee": true,
    "tech_change_status": "Not Planned"
   }
  },
  {
   "type": "Feature",
   "geometry": {
    "type": "Point",
    "coordinates": [
     151.79309189,
     -26.03423037
    ]
   },
   "properties": {
    "name": "LOT 18 KRATZMANNS ROAD WINDERA 4605",
    "locID": "LOC000035341087",
    "tech": "NULL",
    "upgrade": "NULL_NA",
    "gnaf_pid": "GAQLD721393623",
    "ee": true,
    "tech_change_status": "Not Planned"
   }
  }
 ]
}