{
 "type": "FeatureCollection",
 "generated": "2025-06-15T05:51:59.316045",
 "suburb": "WINDERMERE",
 "features": [
  {
   "type": "Feature",
   "geometry": {
    "type": "Point",
    "coordinates": [
     152.42803555,
     -24.86805339
    ]
   },
   "properties": {
    "name": "719 ELLIOTT HEADS ROAD WINDERMERE 4670",
    "locID": "LOC000076578811",
    "tech": "WIRELESS",
    "upgrade": "NULL_NA",
    "gnaf_pid": "GAQLD155973781",
    "ee": true,
    "tech_change_status": "Not Planned",
    "program_type": "Fixed Wireless and Satellite Upgrade Program",
    "target_eligibility_quarter": "NA"
   }
  },
  {
   "type": "Feature",
   "geometry": {
    "type": "Point",
    "coordinates": [
     152.44084983,
     -24.86462457
    ]
   },
   "properties": {
    "name": "856 ELLIOTT HEADS ROAD WINDERMERE 4670",
    "locID": "LOC000020798155",
    "tech": "WIRELESS",
    "upgrade": "NULL_NA",
    "gnaf_pid": "GAQLD155973782",
    "ee": true,
    "tech_change_status": "Not Planned",
    "program_type": "Fixed Wireless and Satellite Upgrade Program",
    "target_eligibility_quarter": "NA"
   }
  },
  {
   "type": "Feature",
   "geometry": {
    "type": "Point",
    "coordinates": [
     152.42487189,
     -24.86184137
    ]
   },
   "properties": {
    "name": "LOT 1 HEIDKES ROAD WINDERMERE 4670",
    "locID": "LOC000111759998",
    "tech": "WIRELESS",
    "upgrade": "NULL_NA",
    "gnaf_pid": "GAQLD155973783",
    "ee": true,
    "tech_change_status": "Not Planned",
    "program_type": "Fixed Wireless and Satellite Upgrade Program",
    "target_eligibility_quarter": "NA"
   }
  },
  {
   "type": "Feature",
   "geometry": {
    "type": "Point",
    "coordinates": [
     152.42128773,
     -24.86324704
    ]
   },
   "properties": {
    "name": "112 HEIDKES ROAD WINDERMERE 4670",
    "locID": "LOC000091361089",
    "tech": "WIRELESS",
    "upgrade": "NULL_NA",
    "gnaf_pid": "GAQLD155973784",
    "ee": true,
    "tech_change_status": "Not Planned",
    "program_type": "Fixed Wireless and Satellite Upgrade Program",
    "target_eligibility_quarter": "NA"
   }
  },
  {
   "type": "Feature",
   "geometry": {
    "type": "Point",
    "coordinates": [
     152.41488548,
     -24.86252305
    ]
   },
   "properties": {
    "name": "77 HEIDKES ROAD WINDERMERE 4670",
    "locID": "LOC000041503754",
    "tech": "WIRELESS",
    "upgrade": "NULL_NA",
    "gnaf_pid": "GAQLD155973785",
    "ee": true,
    "tech_change_status": "Not Planned",
    "program_type": "Fixed Wireless and Satellite Upgrade Program",
    "target_eligibility_quarter": "NA"
   }
  },
  {
   "type": "Feature",
   "geometry": {
    "type": "Point",
    "coordinates": [
     152.43267277,
     -24.85983589
    ]
   },
   "properties": {
    "name": "200 HUMMOCK ROAD WINDERMERE 4670",
    "locID": "LOC000083528143",
    "tech": "WIRELESS",
    "upgrade": "NULL_NA",
    "gnaf_pid": "GAQLD155973787",
    "ee": true,
    "tech_change_status": "Not Planned",
    "program_type": "Fixed Wireless and Satellite Upgrade Program",
    "target_eligibility_quarter": "NA"
   }
  },
  {
   "type": "Feature",
   "geometry": {
    "type": "Point",
    "coordinates": [
     152.41988491,
     -24.85207217
    ]
   },
   "properties": {
    "name": "154 WINDERMERE ROAD WINDERMERE 4670",
    "locID": "LOC000046077012",
    "tech": "WIRELESS",
    "upgrade": "NULL_NA",
    "gnaf_pid": "GAQLD155974811",
    "ee": true,
    "tech_change_status": "Not Planned",
    "program_type": "Fixed Wireless and Satellite Upgrade Program",
    "target_eligibility_quarter": "NA"
   }
  },
  {
   "type": "Feature",
   "geometry": {
    "type": "Point",
    "coordinates": [
     152.41057575,
     -24.86096847
    ]
   },
   "properties": {
    "name": "LOT 1 ASHFIELD ROAD WINDERMERE 4670",
    "locID": "LOC000008658894",
    "tech": "WIRELESS",
    "upgrade": "NULL_NA",
    "gnaf_pid": "GAQLD155981570",
    "ee": true,
    "tech_change_status": "Not Planned",
    "program_type": "Fixed Wireless and Satellite Upgrade Program",
    "target_eligibility_quarter": "NA"
   }
  },
  {
   "type": "Feature",
   "geometry": {
    "type": "Point",
    "coordinates": [
     152.40536276,
     -24.8608132
    ]
   },
   "properties": {
    "name": "179 ASHFIELD ROAD WINDERMERE 4670",
    "locID": "LOC000008658894",
    "tech": "WIRELESS",
    "upgrade": "NULL_NA",
    "gnaf_pid": "GAQLD155981571",
    "ee": true,
    "tech_change_status": "Not Planned",
    "program_type": "Fixed Wireless and Satellite Upgrade Program",
    "target_eligibility_quarter": "NA"
   }
  },
  {
   "type": "Feature",
   "geometry": {
    "type": "Point",
    "coordinates": [
     152.40917518,
     -24.86848743
    ]
   },
   "properties": {
    "name": "275 ASHFIELD ROAD WINDERMERE 4670",
    "locID": "LOC000041922427",
    "tech": "WIRELESS",
    "upgrade": "NULL_NA",
    "gnaf_pid": "GAQLD155981572",
    "ee": true,
    "tech_change_status": "Not Planned",
    "program_type": "Fixed Wireless and Satellite Upgrade Program",
    "target_eligibility_quarter": "NA"
   }
  },
  {
   "type": "Feature",
   "geometry": {
    "type": "Point",
    "coordinates": [
     152.40951966,
     -24.86918139
    ]
   },
   "properties": {
    "name": "279 ASHFIELD ROAD WINDERMERE 4670",
    "locID": "LOC000045995472",
    "tech": "WIRELESS",
    "upgrade": "NULL_NA",
    "gnaf_pid": "GAQLD155981573",
    "ee": true,
    "tech_change_status": "Not Planned",
    "program_type": "Fixed Wireless and Satellite Upgrade Program",
    "target_eligibility_quarter": "NA"
   }
  },
  {
   "type": "Feature",
   "geometry": {
    "type": "Point",
    "coordinates": [
     152.410267,
     -24.86863965
    ]
   },
   "properties": {
    "name": "281 ASHFIELD ROAD WINDERMERE 4670",
    "locID": "LOC000085488472",
    "tech": "WIRELESS",
    "upgrade": "NULL_NA",
    "gnaf_pid": "GAQLD155981574",
    "ee": true,
    "tech_change_status": "Not Planned",
    "program_type": "Fixed Wireless and Satellite Upgrade Program",
    "target_eligibility_quarter": "NA"
   }
  },
  {
   "type": "Feature",
   "geometry": {
    "type": "Point",
    "coordinates": [
     152.41178544,
     -24.87239977
    ]
   },
   "properties": {
    "name": "333 ASHFIELD ROAD WINDERMERE 4670",
    "locID": "LOC000013422200",
    "tech": "WIRELESS",
    "upgrade": "NULL_NA",
    "gnaf_pid": "GAQLD155981575",
    "ee": true,
    "tech_change_status": "Not Planned",
    "program_type": "Fixed Wireless and Satellite Upgrade Program",
    "target_eligibility_quarter": "NA"
   }
  },
  {
   "type": "Feature",
   "geometry": {
    "type": "Point",
    "coordinates": [
     152.46187442,
     -24.84970282
    ]
   },
   "properties": {
    "name": "596 WINDERMERE ROAD WINDERMERE 4670",
    "locID": "LOC000024122270",
    "tech": "WIRELESS",
    "upgrade": "NULL_NA",
    "gnaf_pid": "GAQLD155985784",
    "ee": true,
    "tech_change_status": "Not Planned",
    "program_type": "Fixed Wireless and Satellite Upgrade Program",
    "target_eligibility_quarter": "NA"
   }
  },
  {
   "type": "Feature",
   "geometry": {
    "type": "Point",
    "coordinates": [
     152.41398481,
     -24.85437579
    ]
   },
   "properties": {
    "name": "90 WINDERMERE ROAD WINDERMERE 4670",
    "locID": "LOC000046923394",
    "tech": "WIRELESS",
    "upgrade": "NULL_NA",
    "gnaf_pid": "GAQLD155985785",
    "ee": true,
    "tech_change_status": "Not Planned",
    "program_type": "Fixed Wireless and Satellite Upgrade Program",
    "target_eligibility_quarter": "NA"
   }
  },
  {
   "type": "Feature",
   "geometry": {
    "type": "Point",
    "coordinates": [
     152.4168023,
     -24.85825485
    ]
   },
   "properties": {
    "name": "94 WINDERMERE ROAD WINDERMERE 4670",
    "locID": "LOC000045428712",
    "tech": "WIRELESS",
    "upgrade": "NULL_NA",
    "gnaf_pid": "GAQLD155985786",
    "ee": true,
    "tech_change_status": "Not Planned",
    "program_type": "Fixed Wireless and Satellite Upgrade Program",
    "target_eligibility_quarter": "NA"
   }
  },
  {
   "type": "Feature",
   "geometry": {
    "type": "Point",
    "coordinates": [
     152.43648603,
     -24.86569001
    ]
   },
   "properties": {
    "name": "810 ELLIOTT HEADS ROAD WINDERMERE 4670",
    "locID": "LOC000037714020",
    "tech": "WIRELESS",
    "upgrade": "NULL_NA",
    "gnaf_pid": "GAQLD156061111",
    "ee": true,
    "tech_change_status": "Not Planned",
    "program_type": "Fixed Wireless and Satellite Upgrade Program",
    "target_eligibility_quarter": "NA"
   }
  },
  {
   "type": "Feature",
   "geometry": {
    "type": "Point",
    "coordinates": [
     152.42568159,
     -24.84994709
    ]
   },
   "properties": {
    "name": "218 WINDERMERE ROAD WINDERMERE 4670",
    "locID": "LOC000100652472",
    "tech": "WIRELESS",
    "upgrade": "NULL_NA",
    "gnaf_pid": "GAQLD158852364",
    "ee": true,
    "tech_change_status": "Not Planned",
    "program_type": "Fixed Wireless and Satellite Upgrade Program",
    "target_eligibility_quarter": "NA"
   }
  },
  {
   "type": "Feature",
   "geometry": {
    "type": "Point",
    "coordinates": [
     152.40835984,
     -24.85787231
    ]
   },
   "properties": {
    "name": "6 WINDERMERE ROAD WINDERMERE 4670",
    "locID": "LOC000064013632",
    "tech": "WIRELESS",
    "upgrade": "NULL_NA",
    "gnaf_pid": "GAQLD158852365",
    "ee": true,
    "tech_change_status": "Not Planned",
    "program_type": "Fixed Wireless and Satellite Upgrade Program",
    "target_eligibility_quarter": "NA"
   }
  },
  {
   "type": "Feature",
   "geometry": {
    "type": "Point",
    "coordinates": [
     152.42458182,
     -24.86926089
    ]
   },
   "properties": {
    "name": "683 ELLIOTT HEADS ROAD WINDERMERE 4670",
    "locID": "LOC000021526866",
    "tech": "WIRELESS",
    "upgrade": "NULL_NA",
    "gnaf_pid": "GAQLD158856234",
    "ee": true,
    "tech_change_status": "Not Planned",
    "program_type": "Fixed Wireless and Satellite Upgrade Program",
    "target_eligibility_quarter": "NA"
   }
  },
  {
   "type": "Feature",
   "geometry": {
    "type": "Point",
    "coordinates": [
     152.42503775,
     -24.8693203
    ]
   },
   "properties": {
    "name": "687 ELLIOTT HEADS ROAD WINDERMERE 4670",
    "locID": "LOC000086030880",
    "tech": "WIRELESS",
    "upgrade": "NULL_NA",
    "gnaf_pid": "GAQLD158856235",
    "ee": true,
    "tech_change_status": "Not Planned",
    "program_type": "Fixed Wireless and Satellite Upgrade Program",
    "target_eligibility_quarter": "NA"
   }
  },
  {
   "type": "Feature",
   "geometry": {
    "type": "Point",
    "coordinates": [
     152.41861985,
     -24.85257775
    ]
   },
   "properties": {
    "name": "140 WINDERMERE ROAD WINDERMERE 4670",
    "locID": "LOC000045371272",
    "tech": "WIRELESS",
    "upgrade": "NULL_NA",
    "gnaf_pid": "GAQLD158856241",
    "ee": true,
    "tech_change_status": "Not Planned",
    "program_type": "Fixed Wireless and Satellite Upgrade Program",
    "target_eligibility_quarter": "NA"
   }
  },
  {
   "type": "Feature",
   "geometry": {
    "type": "Point",
    "coordinates": [
     152.4221445,
     -24.85918499
    ]
   },
   "properties": {
    "name": "159 HEIDKES ROAD WINDERMERE 4670",
    "locID": "LOC000070091806",
    "tech": "WIRELESS",
    "upgrade": "NULL_NA",
    "gnaf_pid": "GAQLD158856242",
    "ee": true,
    "tech_change_status": "Not Planned",
    "program_type": "Fixed Wireless and Satellite Upgrade Program",
    "target_eligibility_quarter": "NA"
   }
  },
  {
   "type": "Feature",
   "geometry": {
    "type": "Point",
    "coordinates": [
     152.43026318,
     -24.86471584
    ]
   },
   "properties": {
    "name": "763 ELLIOTT HEADS ROAD WINDERMERE 4670",
    "locID": "LOC000027665504",
    "tech": "WIRELESS",
    "upgrade": "NULL_NA",
    "gnaf_pid": "GAQLD158856244",
    "ee": true,
    "tech_change_status": "Not Planned",
    "program_type": "Fixed Wireless and Satellite Upgrade Program",
    "target_eligibility_quarter": "NA"
   }
  },
  {
   "type": "Feature",
   "geometry": {
    "type": "Point",
    "coordinates": [
     152.41306162,
     -24.8738227
    ]
   },
   "properties": {
    "name": "559 ELLIOTT HEADS ROAD WINDERMERE 4670",
    "locID": "LOC000106069682",
    "tech": "WIRELESS",
    "upgrade": "NULL_NA",
    "gnaf_pid": "GAQLD158856245",
    "ee": true,
    "tech_change_status": "Not Planned",
    "program_type": "Fixed Wireless and Satellite Upgrade Program",
    "target_eligibility_quarter": "NA"
   }
  },
  {
   "type": "Feature",
   "geometry": {
    "type": "Point",
    "coordinates": [
     152.41921912,
     -24.852338
    ]
   },
   "properties": {
    "name": "148 WINDERMERE ROAD WINDERMERE 4670",
    "locID": "LOC000073315589",
    "tech": "WIRELESS",
    "upgrade": "NULL_NA",
    "gnaf_pid": "GAQLD158856246",
    "ee": true,
    "tech_change_status": "Not Planned",
    "program_type": "Fixed Wireless and Satellite Upgrade Program",
    "target_eligibility_quarter": "NA"
   }
  },
  {
   "type": "Feature",
   "geometry": {
    "type": "Point",
    "coordinates": [
     152.41400977,
     -24.87346071
    ]
   },
   "properties": {
    "name": "561 ELLIOTT HEADS ROAD WINDERMERE 4670",
    "locID": "LOC000072654072",
    "tech": "WIRELESS",
    "upgrade": "NULL_NA",
    "gnaf_pid": "GAQLD158863200",
    "ee": true,
    "tech_change_status": "Not Planned",
    "program_type": "Fixed Wireless and Satellite Upgrade Program",
    "target_eligibility_quarter": "NA"
   }
  },
  {
   "type": "Feature",
   "geometry": {
    "type": "Point",
    "coordinates": [
     152.45394734,
     -24.84797142
    ]
   },
   "properties": {
    "name": "520 WINDERMERE ROAD WINDERMERE 4670",
    "locID": "LOC000096011849",
    "tech": "WIRELESS",
    "upgrade": "NULL_NA",
    "gnaf_pid": "GAQLD158863201",
    "ee": true,
    "tech_change_status": "Not Planned",
    "program_type": "Fixed Wireless and Satellite Upgrade Program",
    "target_eligibility_quarter": "NA"
   }
  },
  {
   "type": "Feature",
   "geometry": {
    "type": "Point",
    "coordinates": [
     152.44808691,
     -24.85251655
    ]
   },
   "properties": {
    "name": "472 WINDERMERE ROAD WINDERMERE 4670",
    "locID": "LOC000024113739",
    "tech": "WIRELESS",
    "upgrade": "NULL_NA",
    "gnaf_pid": "GAQLD158863202",
    "ee": true,
    "tech_change_status": "Not Planned",
    "program_type": "Fixed Wireless and Satellite Upgrade Program",
    "target_eligibility_quarter": "NA"
   }
  },
  {
   "type": "Feature",
   "geometry": {
    "type": "Point",
    "coordinates": [
     152.41448857,
     -24.85422996
    ]
   },
   "properties": {
    "name": "96 WINDERMERE ROAD WINDERMERE 4670",
    "locID": "LOC000006623252",
    "tech": "WIRELESS",
    "upgrade": "NULL_NA",
    "gnaf_pid": "GAQLD158863203",
    "ee": true,
    "tech_change_status": "Not Planned",
    "program_type": "Fixed Wireless and Satellite Upgrade Program",
    "target_eligibility_quarter": "NA"
   }
  },
  {
   "type": "Feature",
   "geometry": {
    "type": "Point",
    "coordinates": [
     152.42340253,
     -24.85325953
    ]
   },
   "properties": {
    "name": "176 WINDERMERE ROAD WINDERMERE 4670",
    "locID": "LOC000100896419",
    "tech": "WIRELESS",
    "upgrade": "NULL_NA",
    "gnaf_pid": "GAQLD158863204",
    "ee": true,
    "tech_change_status": "Not Planned",
    "program_type": "Fixed Wireless and Satellite Upgrade Program",
    "target_eligibility_quarter": "NA"
   }
  },
  {
   "type": "Feature",
   "geometry": {
    "type": "Point",
    "coordinates": [
     152.46019725,
     -24.84972751
    ]
   },
   "properties": {
    "name": "580 WINDERMERE ROAD WINDERMERE 4670",
    "locID": "LOC000066911513",
    "tech": "WIRELESS",
    "upgrade": "NULL_NA",
    "gnaf_pid": "GAQLD158863205",
    "ee": true,
    "tech_change_status": "Not Planned",
    "program_type": "Fixed Wireless and Satellite Upgrade Program",
    "target_eligibility_quarter": "NA"
   }
  },
  {
   "type": "Feature",
   "geometry": {
    "type": "Point",
    "coordinates": [
     152.41898117,
     -24.85243311
    ]
   },
   "properties": {
    "name": "146 WINDERMERE ROAD WINDERMERE 4670",
    "locID": "LOC000086010246",
    "tech": "WIRELESS",
    "upgrade": "NULL_NA",
    "gnaf_pid": "GAQLD158863207",
    "ee": true,
    "tech_change_status": "Not Planned",
    "program_type": "Fixed Wireless and Satellite Upgrade Program",
    "target_eligibility_quarter": "NA"
   }
  },
  {
   "type": "Feature",
   "geometry": {
    "type": "Point",
    "coordinates": [
     152.41103876,
     -24.86198349
    ]
   },
   "properties": {
    "name": "213 ASHFIELD ROAD WINDERMERE 4670",
    "locID": "LOC000068970863",
    "tech": "WIRELESS",
    "upgrade": "NULL_NA",
    "gnaf_pid": "GAQLD158863269",
    "ee": true,
    "tech_change_status": "Not Planned",
    "program_type": "Fixed Wireless and Satellite Upgrade Program",
    "target_eligibility_quarter": "NA"
   }
  },
  {
   "type": "Feature",
   "geometry": {
    "type": "Point",
    "coordinates": [
     152.40915113,
     -24.86488956
    ]
   },
   "properties": {
    "name": "227 ASHFIELD ROAD WINDERMERE 4670",
    "locID": "LOC000067231243",
    "tech": "WIRELESS",
    "upgrade": "NULL_NA",
    "gnaf_pid": "GAQLD158867820",
    "ee": true,
    "tech_change_status": "Not Planned",
    "program_type": "Fixed Wireless and Satellite Upgrade Program",
    "target_eligibility_quarter": "NA"
   }
  },
  {
   "type": "Feature",
   "geometry": {
    "type": "Point",
    "coordinates": [
     152.44625161,
     -24.86672094
    ]
   },
   "properties": {
    "name": "920 ELLIOTT HEADS ROAD WINDERMERE 4670",
    "locID": "LOC000064640510",
    "tech": "WIRELESS",
    "upgrade": "NULL_NA",
    "gnaf_pid": "GAQLD158871582",
    "ee": true,
    "tech_change_status": "Not Planned",
    "program_type": "Fixed Wireless and Satellite Upgrade Program",
    "target_eligibility_quarter": "NA"
   }
  },
  {
   "type": "Feature",
   "geometry": {
    "type": "Point",
    "coordinates": [
     152.43939285,
     -24.86466706
    ]
   },
   "properties": {
    "name": "844 ELLIOTT HEADS ROAD WINDERMERE 4670",
    "locID": "LOC000037538148",
    "tech": "WIRELESS",
    "upgrade": "NULL_NA",
    "gnaf_pid": "GAQLD158871583",
    "ee": true,
    "tech_change_status": "Not Planned",
    "program_type": "Fixed Wireless and Satellite Upgrade Program",
    "target_eligibility_quarter": "NA"
   }
  },
  {
   "type": "Feature",
   "geometry": {
    "type": "Point",
    "coordinates": [
     152.43843797,
     -24.86376045
    ]
   },
   "properties": {
    "name": "825 ELLIOTT HEADS ROAD WINDERMERE 4670",
    "locID": "LOC000035710875",
    "tech": "WIRELESS",
    "upgrade": "NULL_NA",
    "gnaf_pid": "GAQLD158871584",
    "ee": true,
    "tech_change_status": "Not Planned",
    "program_type": "Fixed Wireless and Satellite Upgrade Program",
    "target_eligibility_quarter": "NA"
   }
  },
  {
   "type": "Feature",
   "geometry": {
    "type": "Point",
    "coordinates": [
     152.4291247,
     -24.86797372
    ]
   },
   "properties": {
    "name": "899 ELLIOTT HEADS ROAD WINDERMERE 4670",
    "locID": "LOC000075373458",
    "tech": "WIRELESS",
    "upgrade": "NULL_NA",
    "gnaf_pid": "GAQLD158871585",
    "ee": true,
    "tech_change_status": "Not Planned",
    "program_type": "Fixed Wireless and Satellite Upgrade Program",
    "target_eligibility_quarter": "NA"
   }
  },
  {
   "type": "Feature",
   "geometry": {
    "type": "Point",
    "coordinates": [
     152.43415054,
     -24.8546619
    ]
   },
   "properties": {
    "name": "149 HUMMOCK ROAD WINDERMERE 4670",
    "locID": "LOC000046048497",
    "tech": "WIRELESS",
    "upgrade": "NULL_NA",
    "gnaf_pid": "GAQLD158871587",
    "ee": true,
    "tech_change_status": "Not Planned",
    "program_type": "Fixed Wireless and Satellite Upgrade Program",
    "target_eligibility_quarter": "NA"
   }
  },
  {
   "type": "Feature",
   "geometry": {
    "type": "Point",
    "coordinates": [
     152.4405067,
     -24.86341507
    ]
   },
   "properties": {
    "name": "855 ELLIOTT HEADS ROAD WINDERMERE 4670",
    "locID": "LOC000096535398",
    "tech": "WIRELESS",
    "upgrade": "NULL_NA",
    "gnaf_pid": "GAQLD158871588",
    "ee": true,
    "tech_change_status": "Not Planned",
    "program_type": "Fixed Wireless and Satellite Upgrade Program",
    "target_eligibility_quarter": "NA"
   }
  },
  {
   "type": "Feature",
   "geometry": {
    "type": "Point",
    "coordinates": [
     152.4290351,
     -24.85972901
    ]
   },
   "properties": {
    "name": "188 HUMMOCK ROAD WINDERMERE 4670",
    "locID": "LOC000079993772",
    "tech": "WIRELESS",
    "upgrade": "NULL_NA",
    "gnaf_pid": "GAQLD158871589",
    "ee": true,
    "tech_change_status": "Not Planned",
    "program_type": "Fixed Wireless and Satellite Upgrade Program",
    "target_eligibility_quarter": "NA"
   }
  },
  {
   "type": "Feature",
   "geometry": {
    "type": "Point",
    "coordinates": [
     152.42762066,
     -24.84922621
    ]
   },
   "properties": {
    "name": "72 HUMMOCK ROAD WINDERMERE 4670",
    "locID": "LOC000065913018",
    "tech": "WIRELESS",
    "upgrade": "NULL_NA",
    "gnaf_pid": "GAQLD158871591",
    "ee": true,
    "tech_change_status": "Not Planned",
    "program_type": "Fixed Wireless and Satellite Upgrade Program",
    "target_eligibility_quarter": "NA"
   }
  },
  {
   "type": "Feature",
   "geometry": {
    "type": "Point",
    "coordinates": [
     152.45350508,
     -24.86300322
    ]
   },
   "properties": {
    "name": "205 INNES PARK ROAD WINDERMERE 4670",
    "locID": "LOC000064507303",
    "tech": "WIRELESS",
    "upgrade": "NULL_NA",
    "gnaf_pid": "GAQLD158874257",
    "ee": true,
    "tech_change_status": "Not Planned",
    "program_type": "Fixed Wireless and Satellite Upgrade Program",
    "target_eligibility_quarter": "NA"
   }
  },
  {
   "type": "Feature",
   "geometry": {
    "type": "Point",
    "coordinates": [
     152.43508535,
     -24.85755777
    ]
   },
   "properties": {
    "name": "173 HUMMOCK ROAD WINDERMERE 4670",
    "locID": "LOC000026653838",
    "tech": "WIRELESS",
    "upgrade": "NULL_NA",
    "gnaf_pid": "GAQLD158874258",
    "ee": true,
    "tech_change_status": "Not Planned",
    "program_type": "Fixed Wireless and Satellite Upgrade Program",
    "target_eligibility_quarter": "NA"
   }
  },
  {
   "type": "Feature",
   "geometry": {
    "type": "Point",
    "coordinates": [
     152.42780345,
     -24.84879334
    ]
   },
   "properties": {
    "name": "70 HUMMOCK ROAD WINDERMERE 4670",
    "locID": "LOC000087627539",
    "tech": "WIRELESS",
    "upgrade": "NULL_NA",
    "gnaf_pid": "GAQLD158874259",
    "ee": true,
    "tech_change_status": "Not Planned",
    "program_type": "Fixed Wireless and Satellite Upgrade Program",
    "target_eligibility_quarter": "NA"
   }
  },
  {
   "type": "Feature",
   "geometry": {
    "type": "Point",
    "coordinates": [
     152.4321013,
     -24.85702261
    ]
   },
   "properties": {
    "name": "169 HUMMOCK ROAD WINDERMERE 4670",
    "locID": "LOC000005048937",
    "tech": "WIRELESS",
    "upgrade": "NULL_NA",
    "gnaf_pid": "GAQLD158874260",
    "ee": true,
    "tech_change_status": "Not Planned",
    "program_type": "Fixed Wireless and Satellite Upgrade Program",
    "target_eligibility_quarter": "NA"
   }
  },
  {
   "type": "Feature",
   "geometry": {
    "type": "Point",
    "coordinates": [
     152.41405472,
     -24.86393335
    ]
   },
   "properties": {
    "name": "71 HEIDKES ROAD WINDERMERE 4670",
    "locID": "LOC000041665930",
    "tech": "WIRELESS",
    "upgrade": "NULL_NA",
    "gnaf_pid": "GAQLD158874961",
    "ee": true,
    "tech_change_status": "Not Planned",
    "program_type": "Fixed Wireless and Satellite Upgrade Program",
    "target_eligibility_quarter": "NA"
   }
  },
  {
   "type": "Feature",
   "geometry": {
    "type": "Point",
    "coordinates": [
     152.41360151,
     -24.85452695
    ]
   },
   "properties": {
    "name": "88 WINDERMERE ROAD WINDERMERE 4670",
    "locID": "LOC000082293370",
    "tech": "WIRELESS",
    "upgrade": "NULL_NA",
    "gnaf_pid": "GAQLD158874966",
    "ee": true,
    "tech_change_status": "Not Planned",
    "program_type": "Fixed Wireless and Satellite Upgrade Program",
    "target_eligibility_quarter": "NA"
   }
  },
  {
   "type": "Feature",
   "geometry": {
    "type": "Point",
    "coordinates": [
     152.41945687,
     -24.85224311
    ]
   },
   "properties": {
    "name": "150 WINDERMERE ROAD WINDERMERE 4670",
    "locID": "LOC000064740104",
    "tech": "WIRELESS",
    "upgrade": "NULL_NA",
    "gnaf_pid": "GAQLD158874967",
    "ee": true,
    "tech_change_status": "Not Planned",
    "program_type": "Fixed Wireless and Satellite Upgrade Program",
    "target_eligibility_quarter": "NA"
   }
  },
  {
   "type": "Feature",
   "geometry": {
    "type": "Point",
    "coordinates": [
     152.41659363,
     -24.87193391
    ]
   },
   "properties": {
    "name": "605 ELLIOTT HEADS ROAD WINDERMERE 4670",
    "locID": "LOC000087131364",
    "tech": "WIRELESS",
    "upgrade": "NULL_NA",
    "gnaf_pid": "GAQLD158874968",
    "ee": true,
    "tech_change_status": "Not Planned",
    "program_type": "Fixed Wireless and Satellite Upgrade Program",
    "target_eligibility_quarter": "NA"
   }
  },
  {
   "type": "Feature",
   "geometry": {
    "type": "Point",
    "coordinates": [
     152.4305523,
     -24.85544271
    ]
   },
   "properties": {
    "name": "144 HUMMOCK ROAD WINDERMERE 4670",
    "locID": "LOC000043683897",
    "tech": "WIRELESS",
    "upgrade": "NULL_NA",
    "gnaf_pid": "GAQLD158880266",
    "ee": true,
    "tech_change_status": "Not Planned",
    "program_type": "Fixed Wireless and Satellite Upgrade Program",
    "target_eligibility_quarter": "NA"
   }
  },
  {
   "type": "Feature",
   "geometry": {
    "type": "Point",
    "coordinates": [
     152.41319577,
     -24.8569311
    ]
   },
   "properties": {
    "name": "LOT 1 WINDERMERE ROAD WINDERMERE 4670",
    "locID": "LOC000086010246",
    "tech": "WIRELESS",
    "upgrade": "NULL_NA",
    "gnaf_pid": "GAQLD158962642",
    "ee": true,
    "tech_change_status": "Not Planned",
    "program_type": "Fixed Wireless and Satellite Upgrade Program",
    "target_eligibility_quarter": "NA"
   }
  },
  {
   "type": "Feature",
   "geometry": {
    "type": "Point",
    "coordinates": [
     152.42657348,
     -24.84958841
    ]
   },
   "properties": {
    "name": "234 WINDERMERE ROAD WINDERMERE 4670",
    "locID": "LOC000029485399",
    "tech": "WIRELESS",
    "upgrade": "NULL_NA",
    "gnaf_pid": "GAQLD160292365",
    "ee": true,
    "tech_change_status": "Not Planned",
    "program_type": "Fixed Wireless and Satellite Upgrade Program",
    "target_eligibility_quarter": "NA"
   }
  },
  {
   "type": "Feature",
   "geometry": {
    "type": "Point",
    "coordinates": [
     152.43072312,
     -24.84771308
    ]
   },
   "properties": {
    "name": "276 WINDERMERE ROAD WINDERMERE 4670",
    "locID": "LOC000050886539",
    "tech": "WIRELESS",
    "upgrade": "NULL_NA",
    "gnaf_pid": "GAQLD160292366",
    "ee": true,
    "tech_change_status": "Not Planned",
    "program_type": "Fixed Wireless and Satellite Upgrade Program",
    "target_eligibility_quarter": "NA"
   }
  },
  {
   "type": "Feature",
   "geometry": {
    "type": "Point",
    "coordinates": [
     152.44533657,
     -24.86327069
    ]
   },
   "properties": {
    "name": "895 ELLIOTT HEADS ROAD WINDERMERE 4670",
    "locID": "LOC000015690867",
    "tech": "WIRELESS",
    "upgrade": "NULL_NA",
    "gnaf_pid": "GAQLD160296985",
    "ee": true,
    "tech_change_status": "Not Planned",
    "program_type": "Fixed Wireless and Satellite Upgrade Program",
    "target_eligibility_quarter": "NA"
   }
  },
  {
   "type": "Feature",
   "geometry": {
    "type": "Point",
    "coordinates": [
     152.42735455,
     -24.85321562
    ]
   },
   "properties": {
    "name": "116 HUMMOCK ROAD WINDERMERE 4670",
    "locID": "LOC000064905679",
    "tech": "WIRELESS",
    "upgrade": "NULL_NA",
    "gnaf_pid": "GAQLD160296989",
    "ee": true,
    "tech_change_status": "Not Planned",
    "program_type": "Fixed Wireless and Satellite Upgrade Program",
    "target_eligibility_quarter": "NA"
   }
  },
  {
   "type": "Feature",
   "geometry": {
    "type": "Point",
    "coordinates": [
     152.44456106,
     -24.86669677
    ]
   },
   "properties": {
    "name": "14 SCHOOL LANE WINDERMERE 4670",
    "locID": "LOC000089840628",
    "tech": "WIRELESS",
    "upgrade": "NULL_NA",
    "gnaf_pid": "GAQLD160297008",
    "ee": true,
    "tech_change_status": "Not Planned",
    "program_type": "Fixed Wireless and Satellite Upgrade Program",
    "target_eligibility_quarter": "NA"
   }
  },
  {
   "type": "Feature",
   "geometry": {
    "type": "Point",
    "coordinates": [
     152.4314643,
     -24.857835
    ]
   },
   "properties": {
    "name": "262 HEIDKES ROAD WINDERMERE 4670",
    "locID": "LOC000094593179",
    "tech": "WIRELESS",
    "upgrade": "NULL_NA",
    "gnaf_pid": "GAQLD160337553",
    "ee": true,
    "tech_change_status": "Not Planned",
    "program_type": "Fixed Wireless and Satellite Upgrade Program",
    "target_eligibility_quarter": "NA"
   }
  },
  {
   "type": "Feature",
   "geometry": {
    "type": "Point",
    "coordinates": [
     152.40947192,
     -24.85982285
    ]
   },
   "properties": {
    "name": "LOT 2 ASHFIELD ROAD WINDERMERE 4670",
    "locID": "LOC000045995472",
    "tech": "WIRELESS",
    "upgrade": "NULL_NA",
    "gnaf_pid": "GAQLD161053653",
    "ee": true,
    "tech_change_status": "Not Planned",
    "program_type": "Fixed Wireless and Satellite Upgrade Program",
    "target_eligibility_quarter": "NA"
   }
  },
  {
   "type": "Feature",
   "geometry": {
    "type": "Point",
    "coordinates": [
     152.46069717,
     -24.85212511
    ]
   },
   "properties": {
    "name": "LOT 13 BACK WINDERMERE ROAD WINDERMERE 4670",
    "locID": "LOC000076568193",
    "tech": "FTTN",
    "upgrade": "NULL_NA",
    "gnaf_pid": "GAQLD161055921",
    "ee": true,
    "tech_change_status": "Not Planned"
   }
  },
  {
   "type": "Feature",
   "geometry": {
    "type": "Point",
    "coordinates": [
     152.46169999,
     -24.85654044
    ]
   },
   "properties": {
    "name": "LOT 14 BACK WINDERMERE ROAD WINDERMERE 4670",
    "locID": "LOC000072743158",
    "tech": "FTTN",
    "upgrade": "NULL_NA",
    "gnaf_pid": "GAQLD161055922",
    "ee": true,
    "tech_change_status": "Not Planned"
   }
  },
  {
   "type": "Feature",
   "geometry": {
    "type": "Point",
    "coordinates": [
     152.45846966,
     -24.85707387
    ]
   },
   "properties": {
    "name": "LOT 15 BACK WINDERMERE ROAD WINDERMERE 4670",
    "locID": "LOC000056508280",
    "tech": "FTTN",
    "upgrade": "NULL_NA",
    "gnaf_pid": "GAQLD161055923",
    "ee": true,
    "tech_change_status": "Not Planned"
   }
  },
  {
   "type": "Feature",
   "geometry": {
    "type": "Point",
    "coordinates": [
     152.45583245,
     -24.85751265
    ]
   },
   "properties": {
    "name": "LOT 16 BACK WINDERMERE ROAD WINDERMERE 4670",
    "locID": "LOC000041552306",
    "tech": "FTTN",
    "upgrade": "NULL_NA",
    "gnaf_pid": "GAQLD161055924",
    "ee": true,
    "tech_change_status": "Not Planned"
   }
  },
  {
   "type": "Feature",
   "geometry": {
    "type": "Point",
    "coordinates": [
     152.45275857,
     -24.85674398
    ]
   },
   "properties": {
    "name": "LOT 17 BACK WINDERMERE ROAD WINDERMERE 4670",
    "locID": "LOC000090146173",
    "tech": "FTTN",
    "upgrade": "NULL_NA",
    "gnaf_pid": "GAQLD161055925",
    "ee": true,
    "tech_change_status": "Not Planned"
   }
  },
  {
   "type": "Feature",
   "geometry": {
    "type": "Point",
    "coordinates": [
     152.45723055,
     -24.85377134
    ]
   },
   "properties": {
    "name": "LOT 1 BACK WINDERMERE ROAD WINDERMERE 4670",
    "locID": "LOC000061227575",
    "tech": "FTTN",
    "upgrade": "NULL_NA",
    "gnaf_pid": "GAQLD161055926",
    "ee": true,
    "tech_change_status": "Not Planned"
   }
  },
  {
   "type": "Feature",
   "geometry": {
    "type": "Point",
    "coordinates": [
     152.41829742,
     -24.87210786
    ]
   },
   "properties": {
    "name": "LOT 1 ELLIOTT HEADS ROAD WINDERMERE 4670",
    "locID": "LOC000096535398",
    "tech": "WIRELESS",
    "upgrade": "NULL_NA",
    "gnaf_pid": "GAQLD161138127",
    "ee": true,
    "tech_change_status": "Not Planned",
    "program_type": "Fixed Wireless and Satellite Upgrade Program",
    "target_eligibility_quarter": "NA"
   }
  },
  {
   "type": "Feature",
   "geometry": {
    "type": "Point",
    "coordinates": [
     152.44252387,
     -24.85985856
    ]
   },
   "properties": {
    "name": "LOT 2 ELLIOTT HEADS ROAD WINDERMERE 4670",
    "locID": "LOC000027665504",
    "tech": "WIRELESS",
    "upgrade": "NULL_NA",
    "gnaf_pid": "GAQLD161138128",
    "ee": true,
    "tech_change_status": "Not Planned",
    "program_type": "Fixed Wireless and Satellite Upgrade Program",
    "target_eligibility_quarter": "NA"
   }
  },
  {
   "type": "Feature",
   "geometry": {
    "type": "Point",
    "coordinates": [
     152.41389149,
     -24.87164082
    ]
   },
   "properties": {
    "name": "LOT 6 ELLIOTT HEADS ROAD WINDERMERE 4670",
    "locID": "LOC000175901620",
    "tech": "WIRELESS",
    "upgrade": "NULL_NA",
    "gnaf_pid": "GAQLD161138129",
    "ee": true,
    "tech_change_status": "Not Planned",
    "program_type": "Fixed Wireless and Satellite Upgrade Program",
    "target_eligibility_quarter": "NA"
   }
  },
  {
   "type": "Feature",
   "geometry": {
    "type": "Point",
    "coordinates": [
     152.41203113,
     -24.86371706
    ]
   },
   "properties": {
    "name": "LOT 2 HEIDKES ROAD WINDERMERE 4670",
    "locID": "LOC000013416438",
    "tech": "WIRELESS",
    "upgrade": "NULL_NA",
    "gnaf_pid": "GAQLD161176363",
    "ee": true,
    "tech_change_status": "Not Planned",
    "program_type": "Fixed Wireless and Satellite Upgrade Program",
    "target_eligibility_quarter": "NA"
   }
  },
  {
   "type": "Feature",
   "geometry": {
    "type": "Point",
    "coordinates": [
     152.42732935,
     -24.85070848
    ]
   },
   "properties": {
    "name": "LOT 2 HUMMOCK ROAD WINDERMERE 4670",
    "locID": "LOC000046048497",
    "tech": "WIRELESS",
    "upgrade": "NULL_NA",
    "gnaf_pid": "GAQLD161184450",
    "ee": true,
    "tech_change_status": "Not Planned",
    "program_type": "Fixed Wireless and Satellite Upgrade Program",
    "target_eligibility_quarter": "NA"
   }
  },
  {
   "type": "Feature",
   "geometry": {
    "type": "Point",
    "coordinates": [
     152.45155428,
     -24.86237502
    ]
   },
   "properties": {
    "name": "LOT 1 INNES PARK ROAD WINDERMERE 4670",
    "locID": "LOC000061227575",
    "tech": "FTTN",
    "upgrade": "NULL_NA",
    "gnaf_pid": "GAQLD161186509",
    "ee": true,
    "tech_change_status": "Not Planned"
   }
  },
  {
   "type": "Feature",
   "geometry": {
    "type": "Point",
    "coordinates": [
     152.4495583,
     -24.86257275
    ]
   },
   "properties": {
    "name": "LOT 47 INNES PARK ROAD WINDERMERE 4670",
    "locID": "LOC000024113739",
    "tech": "WIRELESS",
    "upgrade": "NULL_NA",
    "gnaf_pid": "GAQLD161186510",
    "ee": true,
    "tech_change_status": "Not Planned",
    "program_type": "Fixed Wireless and Satellite Upgrade Program",
    "target_eligibility_quarter": "NA"
   }
  },
  {
   "type": "Feature",
   "geometry": {
    "type": "Point",
    "coordinates": [
     152.45105775,
     -24.85074071
    ]
   },
   "properties": {
    "name": "LOT 10 WINDERMERE ROAD WINDERMERE 4670",
    "locID": "LOC000100223430",
    "tech": "WIRELESS",
    "upgrade": "NULL_NA",
    "gnaf_pid": "GAQLD161356098",
    "ee": true,
    "tech_change_status": "Not Planned",
    "program_type": "Fixed Wireless and Satellite Upgrade Program",
    "target_eligibility_quarter": "NA"
   }
  },
  {
   "type": "Feature",
   "geometry": {
    "type": "Point",
    "coordinates": [
     152.45666153,
     -24.85207341
    ]
   },
   "properties": {
    "name": "LOT 12 WINDERMERE ROAD WINDERMERE 4670",
    "locID": "LOC000069724877",
    "tech": "FTTN",
    "upgrade": "NULL_NA",
    "gnaf_pid": "GAQLD161356100",
    "ee": true,
    "tech_change_status": "Not Planned"
   }
  },
  {
   "type": "Feature",
   "geometry": {
    "type": "Point",
    "coordinates": [
     152.45080685,
     -24.85448112
    ]
   },
   "properties": {
    "name": "LOT 21 WINDERMERE ROAD WINDERMERE 4670",
    "locID": "LOC000100652472",
    "tech": "WIRELESS",
    "upgrade": "NULL_NA",
    "gnaf_pid": "GAQLD161356101",
    "ee": true,
    "tech_change_status": "Not Planned",
    "program_type": "Fixed Wireless and Satellite Upgrade Program",
    "target_eligibility_quarter": "NA"
   }
  },
  {
   "type": "Feature",
   "geometry": {
    "type": "Point",
    "coordinates": [
     152.41889743,
     -24.85543946
    ]
   },
   "properties": {
    "name": "LOT 2 WINDERMERE ROAD WINDERMERE 4670",
    "locID": "LOC000073315589",
    "tech": "WIRELESS",
    "upgrade": "NULL_NA",
    "gnaf_pid": "GAQLD161356102",
    "ee": true,
    "tech_change_status": "Not Planned",
    "program_type": "Fixed Wireless and Satellite Upgrade Program",
    "target_eligibility_quarter": "NA"
   }
  },
  {
   "type": "Feature",
   "geometry": {
    "type": "Point",
    "coordinates": [
     152.45402173,
     -24.85069289
    ]
   },
   "properties": {
    "name": "LOT 3 WINDERMERE ROAD WINDERMERE 4670",
    "locID": "LOC000029485399",
    "tech": "WIRELESS",
    "upgrade": "NULL_NA",
    "gnaf_pid": "GAQLD161356103",
    "ee": true,
    "tech_change_status": "Not Planned",
    "program_type": "Fixed Wireless and Satellite Upgrade Program",
    "target_eligibility_quarter": "NA"
   }
  },
  {
   "type": "Feature",
   "geometry": {
    "type": "Point",
    "coordinates": [
     152.43665899,
     -24.86159576
    ]
   },
   "properties": {
    "name": "LOT 66 ELLIOTT HEADS ROAD WINDERMERE 4670",
    "locID": "LOC000149273953",
    "tech": "WIRELESS",
    "upgrade": "NULL_NA",
    "gnaf_pid": "GAQLD161435135",
    "ee": true,
    "tech_change_status": "Not Planned",
    "program_type": "Fixed Wireless and Satellite Upgrade Program",
    "target_eligibility_quarter": "NA"
   }
  },
  {
   "type": "Feature",
   "geometry": {
    "type": "Point",
    "coordinates": [
     152.42753094,
     -24.85678881
    ]
   },
   "properties": {
    "name": "LOT 5 HEIDKES ROAD WINDERMERE 4670",
    "locID": "LOC000069963209",
    "tech": "WIRELESS",
    "upgrade": "NULL_NA",
    "gnaf_pid": "GAQLD161439571",
    "ee": true,
    "tech_change_status": "Not Planned",
    "program_type": "Fixed Wireless and Satellite Upgrade Program",
    "target_eligibility_quarter": "NA"
   }
  },
  {
   "type": "Feature",
   "geometry": {
    "type": "Point",
    "coordinates": [
     152.45776332,
     -24.84946445
    ]
   },
   "properties": {
    "name": "568 WINDERMERE ROAD WINDERMERE 4670",
    "locID": "LOC000003337421",
    "tech": "WIRELESS",
    "upgrade": "NULL_NA",
    "gnaf_pid": "GAQLD162207919",
    "ee": true,
    "tech_change_status": "Not Planned",
    "program_type": "Fixed Wireless and Satellite Upgrade Program",
    "target_eligibility_quarter": "NA"
   }
  },
  {
   "type": "Feature",
   "geometry": {
    "type": "Point",
    "coordinates": [
     152.41414886,
     -24.86692141
    ]
   },
   "properties": {
    "name": "58 HEIDKES ROAD WINDERMERE 4670",
    "locID": "LOC000069963209",
    "tech": "WIRELESS",
    "upgrade": "NULL_NA",
    "gnaf_pid": "GAQLD162286581",
    "ee": true,
    "tech_change_status": "Not Planned",
    "program_type": "Fixed Wireless and Satellite Upgrade Program",
    "target_eligibility_quarter": "NA"
   }
  },
  {
   "type": "Feature",
   "geometry": {
    "type": "Point",
    "coordinates": [
     152.44199211,
     -24.86628232
    ]
   },
   "properties": {
    "name": "68 SCHOOL LANE WINDERMERE 4670",
    "locID": "LOC000003415619",
    "tech": "WIRELESS",
    "upgrade": "NULL_NA",
    "gnaf_pid": "GAQLD162521631",
    "ee": true,
    "tech_change_status": "Not Planned",
    "program_type": "Fixed Wireless and Satellite Upgrade Program",
    "target_eligibility_quarter": "NA"
   }
  },
  {
   "type": "Feature",
   "geometry": {
    "type": "Point",
    "coordinates": [
     152.40778448,
     -24.86684236
    ]
   },
   "properties": {
    "name": "146 ASHFIELD ROAD WINDERMERE 4670",
    "locID": "LOC000091208928",
    "tech": "WIRELESS",
    "upgrade": "NULL_NA",
    "gnaf_pid": "GAQLD162622010",
    "ee": true,
    "tech_change_status": "Not Planned",
    "program_type": "Fixed Wireless and Satellite Upgrade Program",
    "target_eligibility_quarter": "NA"
   }
  },
  {
   "type": "Feature",
   "geometry": {
    "type": "Point",
    "coordinates": [
     152.40778448,
     -24.86684236
    ]
   },
   "properties": {
    "name": "274 ASHFIELD ROAD WINDERMERE 4670",
    "locID": "LOC000128839617",
    "tech": "WIRELESS",
    "upgrade": "NULL_NA",
    "gnaf_pid": "GAQLD162622011",
    "ee": true,
    "tech_change_status": "Not Planned",
    "program_type": "Fixed Wireless and Satellite Upgrade Program",
    "target_eligibility_quarter": "NA"
   }
  },
  {
   "type": "Feature",
   "geometry": {
    "type": "Point",
    "coordinates": [
     152.4362449,
     -24.86628135
    ]
   },
   "properties": {
    "name": "281 HUMMOCK ROAD WINDERMERE 4670",
    "locID": "LOC000107011815",
    "tech": "WIRELESS",
    "upgrade": "NULL_NA",
    "gnaf_pid": "GAQLD162699270",
    "ee": true,
    "tech_change_status": "Not Planned",
    "program_type": "Fixed Wireless and Satellite Upgrade Program",
    "target_eligibility_quarter": "NA"
   }
  },
  {
   "type": "Feature",
   "geometry": {
    "type": "Point",
    "coordinates": [
     152.43260701,
     -24.84671957
    ]
   },
   "properties": {
    "name": "242 WINDERMERE ROAD WINDERMERE 4670",
    "locID": "LOC000089521777",
    "tech": "FTTP",
    "upgrade": "NULL_NA",
    "gnaf_pid": "GAQLD162949356",
    "ee": true,
    "program_type": "On-Demand N2P SDU/MDU Simple",
    "target_eligibility_quarter": "NA"
   }
  },
  {
   "type": "Feature",
   "geometry": {
    "type": "Point",
    "coordinates": [
     152.41238665,
     -24.86766292
    ]
   },
   "properties": {
    "name": "38 HEIDKES ROAD WINDERMERE 4670",
    "locID": "LOC000013416438",
    "tech": "WIRELESS",
    "upgrade": "NULL_NA",
    "gnaf_pid": "GAQLD163022719",
    "ee": true,
    "tech_change_status": "Not Planned",
    "program_type": "Fixed Wireless and Satellite Upgrade Program",
    "target_eligibility_quarter": "NA"
   }
  },
  {
   "type": "Feature",
   "geometry": {
    "type": "Point",
    "coordinates": [
     152.43738271,
     -24.84764824
    ]
   },
   "properties": {
    "name": "LOT 5 WINDERMERE ROAD WINDERMERE 4670",
    "locID": "LOC000006623252",
    "tech": "WIRELESS",
    "upgrade": "NULL_NA",
    "gnaf_pid": "GAQLD163060479",
    "ee": true,
    "tech_change_status": "Not Planned",
    "program_type": "Fixed Wireless and Satellite Upgrade Program",
    "target_eligibility_quarter": "NA"
   }
  },
  {
   "type": "Feature",
   "geometry": {
    "type": "Point",
    "coordinates": [
     152.44200977,
     -24.85289247
    ]
   },
   "properties": {
    "name": "LOT 6 WINDERMERE ROAD WINDERMERE 4670",
    "locID": "LOC000064013632",
    "tech": "WIRELESS",
    "upgrade": "NULL_NA",
    "gnaf_pid": "GAQLD163060480",
    "ee": true,
    "tech_change_status": "Not Planned",
    "program_type": "Fixed Wireless and Satellite Upgrade Program",
    "target_eligibility_quarter": "NA"
   }
  },
  {
   "type": "Feature",
   "geometry": {
    "type": "Point",
    "coordinates": [
     152.41139134,
     -24.86806192
    ]
   },
   "properties": {
    "name": "22 HEIDKES ROAD WINDERMERE 4670",
    "locID": "LOC000111759998",
    "tech": "WIRELESS",
    "upgrade": "NULL_NA",
    "gnaf_pid": "GAQLD163295501",
    "ee": true,
    "tech_change_status": "Not Planned",
    "program_type": "Fixed Wireless and Satellite Upgrade Program",
    "target_eligibility_quarter": "NA"
   }
  },
  {
   "type": "Feature",
   "geometry": {
    "type": "Point",
    "coordinates": [
     152.42070464,
     -24.85174482
    ]
   },
   "properties": {
    "name": "172 WINDERMERE ROAD WINDERMERE 4670",
    "locID": "LOC000025635373",
    "tech": "FTTP",
    "upgrade": "NULL_NA",
    "gnaf_pid": "GAQLD424998132",
    "ee": true
   }
  },
  {
   "type": "Feature",
   "geometry": {
    "type": "Point",
    "coordinates": [
     152.43499018,
     -24.84948058
    ]
   },
   "properties": {
    "name": "332 WINDERMERE ROAD WINDERMERE 4670",
    "locID": "LOC000116053496",
    "tech": "FTTN",
    "upgrade": "FTTP",
    "gnaf_pid": "GAQLD425221206",
    "ee": true,
    "tech_change_status": "Eligible to Order",
    "program_type": "On-Demand N2P SDU/MDU Simple",
    "target_eligibility_quarter": "NA"
   }
  },
  {
   "type": "Feature",
   "geometry": {
    "type": "Point",
    "coordinates": [
     152.4216405,
     -24.86778275
    ]
   },
   "properties": {
    "name": "667 ELLIOTT HEADS ROAD WINDERMERE 4670",
    "locID": "LOC000149273953",
    "tech": "WIRELESS",
    "upgrade": "NULL_NA",
    "gnaf_pid": "GAQLD425262853",
    "ee": true,
    "tech_change_status": "Not Planned",
    "program_type": "Fixed Wireless and Satellite Upgrade Program",
    "target_eligibility_quarter": "NA"
   }
  },
  {
   "type": "Feature",
   "geometry": {
    "type": "Point",
    "coordinates": [
     152.41746037,
     -24.86657321
    ]
   },
   "properties": {
    "name": "LOT 11 ELLIOTT HEADS ROAD WINDERMERE 4670",
    "locID": "LOC000076330590",
    "tech": "FTTN",
    "upgrade": "FTTP_SA",
    "gnaf_pid": "GAQLD425406988",
    "ee": true,
    "tech_change_status": "Eligible to Order",
    "program_type": "On-Demand N2P SDU/MDU Simple",
    "target_eligibility_quarter": "NA"
   }
  },
  {
   "type": "Feature",
   "geometry": {
    "type": "Point",
    "coordinates": [
     152.44238353,
     -24.86806067
    ]
   },
   "properties": {
    "name": "LOT 4 SCHOOL LANE WINDERMERE 4670",
    "locID": "LOC000089840628",
    "tech": "WIRELESS",
    "upgrade": "NULL_NA",
    "gnaf_pid": "GAQLD425770983",
    "ee": true,
    "tech_change_status": "Not Planned",
    "program_type": "Fixed Wireless and Satellite Upgrade Program",
    "target_eligibility_quarter": "NA"
   }
  },
  {
   "type": "Feature",
   "geometry": {
    "type": "Point",
    "coordinates": [
     152.44052055,
     -24.86771196
    ]
   },
   "properties": {
    "name": "LOT 2 SCHOOL LANE WINDERMERE 4670",
    "locID": "LOC000089840628",
    "tech": "WIRELESS",
    "upgrade": "NULL_NA",
    "gnaf_pid": "GAQLD719331965",
    "ee": true,
    "tech_change_status": "Not Planned",
    "program_type": "Fixed Wireless and Satellite Upgrade Program",
    "target_eligibility_quarter": "NA"
   }
  }
 ]
}