{
 "type": "FeatureCollection",
 "generated": "2025-06-15T07:47:33.113410",
 "suburb": "YULEBA",
 "features": [
  {
   "type": "Feature",
   "geometry": {
    "type": "Point",
    "coordinates": [
     149.39430079,
     -26.61741351
    ]
   },
   "properties": {
    "name": "LOT 2 WARREGO HIGHWAY YULEBA 4427",
    "locID": "LOC100071909375",
    "tech": "NULL",
    "upgrade": "NULL_NA",
    "gnaf_pid": "GAQLD155510302",
    "ee": false,
    "tech_change_status": "Not Planned"
   }
  },
  {
   "type": "Feature",
   "geometry": {
    "type": "Point",
    "coordinates": [
     149.38211149,
     -26.61668413
    ]
   },
   "properties": {
    "name": "LOT 909 DRURY STREET YULEBA 4427",
    "locID": "LOC000051067088",
    "tech": "SATELLITE",
    "upgrade": "NULL_NA",
    "gnaf_pid": "GAQLD156028925",
    "ee": false,
    "tech_change_status": "Not Planned"
   }
  },
  {
   "type": "Feature",
   "geometry": {
    "type": "Point",
    "coordinates": [
     149.38510171,
     -26.6127269
    ]
   },
   "properties": {
    "name": "LOT 2 GARDEN STREET YULEBA 4427",
    "locID": "LOC000114473773",
    "tech": "SATELLITE",
    "upgrade": "NULL_NA",
    "gnaf_pid": "GAQLD156028927",
    "ee": false,
    "tech_change_status": "Not Planned"
   }
  },
  {
   "type": "Feature",
   "geometry": {
    "type": "Point",
    "coordinates": [
     149.43311433,
     -26.61956659
    ]
   },
   "properties": {
    "name": "LOT 138 WARREGO HIGHWAY YULEBA 4427",
    "locID": "LOC000148088337",
    "tech": "NULL",
    "upgrade": "NULL_NA",
    "gnaf_pid": "GAQLD156092219",
    "ee": false,
    "tech_change_status": "Not Planned"
   }
  },
  {
   "type": "Feature",
   "geometry": {
    "type": "Point",
    "coordinates": [
     149.37928279,
     -26.62771732
    ]
   },
   "properties": {
    "name": "LOT 302 PERRY STREET YULEBA 4427",
    "locID": "LOC000091137071",
    "tech": "NULL",
    "upgrade": "NULL_NA",
    "gnaf_pid": "GAQLD156092225",
    "ee": false,
    "tech_change_status": "Not Planned"
   }
  },
  {
   "type": "Feature",
   "geometry": {
    "type": "Point",
    "coordinates": [
     149.38176931,
     -26.62018185
    ]
   },
   "properties": {
    "name": "2 SCOTT STREET YULEBA 4427",
    "locID": "LOC000024488923",
    "tech": "NULL",
    "upgrade": "NULL_NA",
    "gnaf_pid": "GAQLD158914973",
    "ee": false,
    "tech_change_status": "Not Planned"
   }
  },
  {
   "type": "Feature",
   "geometry": {
    "type": "Point",
    "coordinates": [
     149.38438179,
     -26.61492825
    ]
   },
   "properties": {
    "name": "6 CREEK STREET YULEBA 4427",
    "locID": "LOC100071909525",
    "tech": "NULL",
    "upgrade": "NULL_NA",
    "gnaf_pid": "GAQLD158922157",
    "ee": false,
    "tech_change_status": "Not Planned"
   }
  },
  {
   "type": "Feature",
   "geometry": {
    "type": "Point",
    "coordinates": [
     149.38284106,
     -26.6165871
    ]
   },
   "properties": {
    "name": "21 CREEK STREET YULEBA 4427",
    "locID": "LOC000030225515",
    "tech": "NULL",
    "upgrade": "NULL_NA",
    "gnaf_pid": "GAQLD158922158",
    "ee": false,
    "tech_change_status": "Not Planned"
   }
  },
  {
   "type": "Feature",
   "geometry": {
    "type": "Point",
    "coordinates": [
     149.38271169,
     -26.6147385
    ]
   },
   "properties": {
    "name": "20 PERRY STREET YULEBA 4427",
    "locID": "LOC000040515736",
    "tech": "NULL",
    "upgrade": "NULL_NA",
    "gnaf_pid": "GAQLD158923038",
    "ee": false,
    "tech_change_status": "Not Planned"
   }
  },
  {
   "type": "Feature",
   "geometry": {
    "type": "Point",
    "coordinates": [
     149.37995823,
     -26.6137001
    ]
   },
   "properties": {
    "name": "LOT 405 FLINDERS STREET YULEBA 4427",
    "locID": "LOC000128073096",
    "tech": "NULL",
    "upgrade": "NULL_NA",
    "gnaf_pid": "GAQLD158963589",
    "ee": false,
    "tech_change_status": "Not Planned"
   }
  },
  {
   "type": "Feature",
   "geometry": {
    "type": "Point",
    "coordinates": [
     149.38125435,
     -26.61425351
    ]
   },
   "properties": {
    "name": "15 PERRY STREET YULEBA 4427",
    "locID": "LOC000072596238",
    "tech": "NULL",
    "upgrade": "NULL_NA",
    "gnaf_pid": "GAQLD159950630",
    "ee": false,
    "tech_change_status": "Not Planned"
   }
  },
  {
   "type": "Feature",
   "geometry": {
    "type": "Point",
    "coordinates": [
     149.38344294,
     -26.6124808
    ]
   },
   "properties": {
    "name": "8 PERRY STREET YULEBA 4427",
    "locID": "LOC000043642853",
    "tech": "SATELLITE",
    "upgrade": "NULL_NA",
    "gnaf_pid": "GAQLD160710792",
    "ee": false,
    "tech_change_status": "Not Planned"
   }
  },
  {
   "type": "Feature",
   "geometry": {
    "type": "Point",
    "coordinates": [
     149.38432067,
     -26.61600394
    ]
   },
   "properties": {
    "name": "LOT 278 BEDWELL STREET YULEBA 4427",
    "locID": "LOC000087925665",
    "tech": "NULL",
    "upgrade": "NULL_NA",
    "gnaf_pid": "GAQLD161063072",
    "ee": false,
    "tech_change_status": "Not Planned"
   }
  },
  {
   "type": "Feature",
   "geometry": {
    "type": "Point",
    "coordinates": [
     149.37505674,
     -26.61424567
    ]
   },
   "properties": {
    "name": "LOT 42 COOK STREET YULEBA 4427",
    "locID": "LOC000128072775",
    "tech": "NULL",
    "upgrade": "NULL_NA",
    "gnaf_pid": "GAQLD161109040",
    "ee": false,
    "tech_change_status": "Not Planned"
   }
  },
  {
   "type": "Feature",
   "geometry": {
    "type": "Point",
    "coordinates": [
     149.38006448,
     -26.61335554
    ]
   },
   "properties": {
    "name": "LOT 404 FLINDERS STREET YULEBA 4427",
    "locID": "LOC000059724460",
    "tech": "NULL",
    "upgrade": "NULL_NA",
    "gnaf_pid": "GAQLD161149828",
    "ee": false,
    "tech_change_status": "Not Planned"
   }
  },
  {
   "type": "Feature",
   "geometry": {
    "type": "Point",
    "coordinates": [
     149.37984911,
     -26.61404973
    ]
   },
   "properties": {
    "name": "LOT 406 FLINDERS STREET YULEBA 4427",
    "locID": "LOC000059724460",
    "tech": "NULL",
    "upgrade": "NULL_NA",
    "gnaf_pid": "GAQLD161149829",
    "ee": false,
    "tech_change_status": "Not Planned"
   }
  },
  {
   "type": "Feature",
   "geometry": {
    "type": "Point",
    "coordinates": [
     149.37973995,
     -26.61439937
    ]
   },
   "properties": {
    "name": "LOT 407 FLINDERS STREET YULEBA 4427",
    "locID": "LOC000059724460",
    "tech": "NULL",
    "upgrade": "NULL_NA",
    "gnaf_pid": "GAQLD161149830",
    "ee": false,
    "tech_change_status": "Not Planned"
   }
  },
  {
   "type": "Feature",
   "geometry": {
    "type": "Point",
    "coordinates": [
     149.37943807,
     -26.6153472
    ]
   },
   "properties": {
    "name": "LOT 702 FLINDERS STREET YULEBA 4427",
    "locID": "LOC000059724460",
    "tech": "NULL",
    "upgrade": "NULL_NA",
    "gnaf_pid": "GAQLD161149833",
    "ee": false,
    "tech_change_status": "Not Planned"
   }
  },
  {
   "type": "Feature",
   "geometry": {
    "type": "Point",
    "coordinates": [
     149.37933373,
     -26.61569995
    ]
   },
   "properties": {
    "name": "LOT 703 FLINDERS STREET YULEBA 4427",
    "locID": "LOC000059724460",
    "tech": "NULL",
    "upgrade": "NULL_NA",
    "gnaf_pid": "GAQLD161149834",
    "ee": false,
    "tech_change_status": "Not Planned"
   }
  },
  {
   "type": "Feature",
   "geometry": {
    "type": "Point",
    "coordinates": [
     149.37922456,
     -26.61604945
    ]
   },
   "properties": {
    "name": "LOT 704 FLINDERS STREET YULEBA 4427",
    "locID": "LOC000059724460",
    "tech": "NULL",
    "upgrade": "NULL_NA",
    "gnaf_pid": "GAQLD161149835",
    "ee": false,
    "tech_change_status": "Not Planned"
   }
  },
  {
   "type": "Feature",
   "geometry": {
    "type": "Point",
    "coordinates": [
     149.3851522,
     -26.61325578
    ]
   },
   "properties": {
    "name": "LOT 1 GARDEN STREET YULEBA 4427",
    "locID": "LOC000114473773",
    "tech": "SATELLITE",
    "upgrade": "NULL_NA",
    "gnaf_pid": "GAQLD161154928",
    "ee": false,
    "tech_change_status": "Not Planned"
   }
  },
  {
   "type": "Feature",
   "geometry": {
    "type": "Point",
    "coordinates": [
     149.38766055,
     -26.61340459
    ]
   },
   "properties": {
    "name": "LOT 204 GARDEN STREET YULEBA 4427",
    "locID": "LOC000114473773",
    "tech": "SATELLITE",
    "upgrade": "NULL_NA",
    "gnaf_pid": "GAQLD161154929",
    "ee": false,
    "tech_change_status": "Not Planned"
   }
  },
  {
   "type": "Feature",
   "geometry": {
    "type": "Point",
    "coordinates": [
     149.39556313,
     -26.63765635
    ]
   },
   "properties": {
    "name": "LOT 41 MOONGOOL ROAD YULEBA 4427",
    "locID": "LOC000128052255",
    "tech": "NULL",
    "upgrade": "NULL_NA",
    "gnaf_pid": "GAQLD161242516",
    "ee": false,
    "tech_change_status": "Not Planned"
   }
  },
  {
   "type": "Feature",
   "geometry": {
    "type": "Point",
    "coordinates": [
     149.38093411,
     -26.6158214
    ]
   },
   "properties": {
    "name": "LOT 1 PERRY STREET YULEBA 4427",
    "locID": "LOC100071909427",
    "tech": "NULL",
    "upgrade": "NULL_NA",
    "gnaf_pid": "GAQLD161275828",
    "ee": false,
    "tech_change_status": "Not Planned"
   }
  },
  {
   "type": "Feature",
   "geometry": {
    "type": "Point",
    "coordinates": [
     149.3818306,
     -26.61944617
    ]
   },
   "properties": {
    "name": "LOT 2 PERRY STREET YULEBA 4427",
    "locID": "LOC100071909462",
    "tech": "NULL",
    "upgrade": "NULL_NA",
    "gnaf_pid": "GAQLD161275832",
    "ee": false,
    "tech_change_status": "Not Planned"
   }
  },
  {
   "type": "Feature",
   "geometry": {
    "type": "Point",
    "coordinates": [
     149.38621356,
     -26.61165458
    ]
   },
   "properties": {
    "name": "LOT 1 ROMA STREET YULEBA 4427",
    "locID": "LOC100030664646",
    "tech": "NULL",
    "upgrade": "NULL_NA",
    "gnaf_pid": "GAQLD161294651",
    "ee": false,
    "tech_change_status": "Not Planned"
   }
  },
  {
   "type": "Feature",
   "geometry": {
    "type": "Point",
    "coordinates": [
     149.3869052,
     -26.61322144
    ]
   },
   "properties": {
    "name": "LOT 202 ROMA STREET YULEBA 4427",
    "locID": "LOC000103450418",
    "tech": "NULL",
    "upgrade": "NULL_NA",
    "gnaf_pid": "GAQLD161294652",
    "ee": false,
    "tech_change_status": "Not Planned"
   }
  },
  {
   "type": "Feature",
   "geometry": {
    "type": "Point",
    "coordinates": [
     149.3872941,
     -26.6133202
    ]
   },
   "properties": {
    "name": "LOT 203 ROMA STREET YULEBA 4427",
    "locID": "LOC000103450418",
    "tech": "NULL",
    "upgrade": "NULL_NA",
    "gnaf_pid": "GAQLD161294653",
    "ee": false,
    "tech_change_status": "Not Planned"
   }
  },
  {
   "type": "Feature",
   "geometry": {
    "type": "Point",
    "coordinates": [
     149.37784317,
     -26.61944278
    ]
   },
   "properties": {
    "name": "LOT 2 SCOTT STREET YULEBA 4427",
    "locID": "LOC000024488923",
    "tech": "NULL",
    "upgrade": "NULL_NA",
    "gnaf_pid": "GAQLD161303595",
    "ee": false,
    "tech_change_status": "Not Planned"
   }
  },
  {
   "type": "Feature",
   "geometry": {
    "type": "Point",
    "coordinates": [
     149.38651631,
     -26.61312269
    ]
   },
   "properties": {
    "name": "LOT 201 STATION STREET YULEBA 4427",
    "locID": "LOC000025411445",
    "tech": "SATELLITE",
    "upgrade": "NULL_NA",
    "gnaf_pid": "GAQLD161317112",
    "ee": false,
    "tech_change_status": "Not Planned"
   }
  },
  {
   "type": "Feature",
   "geometry": {
    "type": "Point",
    "coordinates": [
     149.44385575,
     -26.61384168
    ]
   },
   "properties": {
    "name": "LOT 103 WARREGO HIGHWAY YULEBA 4427",
    "locID": "LOC000128055584",
    "tech": "NULL",
    "upgrade": "NULL_NA",
    "gnaf_pid": "GAQLD161346654",
    "ee": false,
    "tech_change_status": "Not Planned"
   }
  },
  {
   "type": "Feature",
   "geometry": {
    "type": "Point",
    "coordinates": [
     149.35825594,
     -26.59251192
    ]
   },
   "properties": {
    "name": "LOT 128 WARREGO HIGHWAY YULEBA 4427",
    "locID": "LOC000148088337",
    "tech": "NULL",
    "upgrade": "NULL_NA",
    "gnaf_pid": "GAQLD161346672",
    "ee": false,
    "tech_change_status": "Not Planned"
   }
  },
  {
   "type": "Feature",
   "geometry": {
    "type": "Point",
    "coordinates": [
     149.4189968,
     -26.61945819
    ]
   },
   "properties": {
    "name": "LOT 139 WARREGO HIGHWAY YULEBA 4427",
    "locID": "LOC000148088337",
    "tech": "NULL",
    "upgrade": "NULL_NA",
    "gnaf_pid": "GAQLD161346674",
    "ee": false,
    "tech_change_status": "Not Planned"
   }
  },
  {
   "type": "Feature",
   "geometry": {
    "type": "Point",
    "coordinates": [
     149.38962401,
     -26.59379946
    ]
   },
   "properties": {
    "name": "LOT 158 WARREGO HIGHWAY YULEBA 4427",
    "locID": "LOC000148088337",
    "tech": "NULL",
    "upgrade": "NULL_NA",
    "gnaf_pid": "GAQLD161346676",
    "ee": false,
    "tech_change_status": "Not Planned"
   }
  },
  {
   "type": "Feature",
   "geometry": {
    "type": "Point",
    "coordinates": [
     149.35898138,
     -26.5890357
    ]
   },
   "properties": {
    "name": "LOT 171 WARREGO HIGHWAY YULEBA 4427",
    "locID": "LOC000148088337",
    "tech": "NULL",
    "upgrade": "NULL_NA",
    "gnaf_pid": "GAQLD161346677",
    "ee": false,
    "tech_change_status": "Not Planned"
   }
  },
  {
   "type": "Feature",
   "geometry": {
    "type": "Point",
    "coordinates": [
     149.39460533,
     -26.61596454
    ]
   },
   "properties": {
    "name": "LOT 1 WARREGO HIGHWAY YULEBA 4427",
    "locID": "LOC000128055584",
    "tech": "NULL",
    "upgrade": "NULL_NA",
    "gnaf_pid": "GAQLD161346681",
    "ee": false,
    "tech_change_status": "Not Planned"
   }
  },
  {
   "type": "Feature",
   "geometry": {
    "type": "Point",
    "coordinates": [
     149.3602383,
     -26.58022659
    ]
   },
   "properties": {
    "name": "LOT 213 WARREGO HIGHWAY YULEBA 4427",
    "locID": "LOC000148088337",
    "tech": "NULL",
    "upgrade": "NULL_NA",
    "gnaf_pid": "GAQLD161346683",
    "ee": false,
    "tech_change_status": "Not Planned"
   }
  },
  {
   "type": "Feature",
   "geometry": {
    "type": "Point",
    "coordinates": [
     149.36891914,
     -26.5815449
    ]
   },
   "properties": {
    "name": "LOT 227 WARREGO HIGHWAY YULEBA 4427",
    "locID": "LOC000148088337",
    "tech": "NULL",
    "upgrade": "NULL_NA",
    "gnaf_pid": "GAQLD161346685",
    "ee": false,
    "tech_change_status": "Not Planned"
   }
  },
  {
   "type": "Feature",
   "geometry": {
    "type": "Point",
    "coordinates": [
     149.37625011,
     -26.58361133
    ]
   },
   "properties": {
    "name": "LOT 236 WARREGO HIGHWAY YULEBA 4427",
    "locID": "LOC000148088337",
    "tech": "NULL",
    "upgrade": "NULL_NA",
    "gnaf_pid": "GAQLD161346687",
    "ee": false,
    "tech_change_status": "Not Planned"
   }
  },
  {
   "type": "Feature",
   "geometry": {
    "type": "Point",
    "coordinates": [
     149.38058369,
     -26.58306436
    ]
   },
   "properties": {
    "name": "LOT 266 WARREGO HIGHWAY YULEBA 4427",
    "locID": "LOC000148088337",
    "tech": "NULL",
    "upgrade": "NULL_NA",
    "gnaf_pid": "GAQLD161346691",
    "ee": false,
    "tech_change_status": "Not Planned"
   }
  },
  {
   "type": "Feature",
   "geometry": {
    "type": "Point",
    "coordinates": [
     149.40025032,
     -26.60697421
    ]
   },
   "properties": {
    "name": "LOT 267 WARREGO HIGHWAY YULEBA 4427",
    "locID": "LOC000148088337",
    "tech": "NULL",
    "upgrade": "NULL_NA",
    "gnaf_pid": "GAQLD161346692",
    "ee": false,
    "tech_change_status": "Not Planned"
   }
  },
  {
   "type": "Feature",
   "geometry": {
    "type": "Point",
    "coordinates": [
     149.3949912,
     -26.60359886
    ]
   },
   "properties": {
    "name": "LOT 268 WARREGO HIGHWAY YULEBA 4427",
    "locID": "LOC000148088337",
    "tech": "NULL",
    "upgrade": "NULL_NA",
    "gnaf_pid": "GAQLD161346693",
    "ee": false,
    "tech_change_status": "Not Planned"
   }
  },
  {
   "type": "Feature",
   "geometry": {
    "type": "Point",
    "coordinates": [
     149.39998402,
     -26.60936704
    ]
   },
   "properties": {
    "name": "LOT 274 WARREGO HIGHWAY YULEBA 4427",
    "locID": "LOC000148088337",
    "tech": "NULL",
    "upgrade": "NULL_NA",
    "gnaf_pid": "GAQLD161346697",
    "ee": false,
    "tech_change_status": "Not Planned"
   }
  },
  {
   "type": "Feature",
   "geometry": {
    "type": "Point",
    "coordinates": [
     149.39935609,
     -26.61166599
    ]
   },
   "properties": {
    "name": "LOT 275 WARREGO HIGHWAY YULEBA 4427",
    "locID": "LOC000148088337",
    "tech": "NULL",
    "upgrade": "NULL_NA",
    "gnaf_pid": "GAQLD161346698",
    "ee": false,
    "tech_change_status": "Not Planned"
   }
  },
  {
   "type": "Feature",
   "geometry": {
    "type": "Point",
    "coordinates": [
     149.38820333,
     -26.62629437
    ]
   },
   "properties": {
    "name": "LOT 282 WARREGO HIGHWAY YULEBA 4427",
    "locID": "LOC000128064806",
    "tech": "WIRELESS",
    "upgrade": "NULL_NA",
    "gnaf_pid": "GAQLD161346700",
    "ee": true,
    "tech_change_status": "Not Planned",
    "program_type": "Fixed Wireless and Satellite Upgrade Program",
    "target_eligibility_quarter": "NA"
   }
  },
  {
   "type": "Feature",
   "geometry": {
    "type": "Point",
    "coordinates": [
     149.35334715,
     -26.62365852
    ]
   },
   "properties": {
    "name": "LOT 287 WARREGO HIGHWAY YULEBA 4427",
    "locID": "LOC000148088337",
    "tech": "NULL",
    "upgrade": "NULL_NA",
    "gnaf_pid": "GAQLD161346701",
    "ee": false,
    "tech_change_status": "Not Planned"
   }
  },
  {
   "type": "Feature",
   "geometry": {
    "type": "Point",
    "coordinates": [
     149.36854298,
     -26.61249463
    ]
   },
   "properties": {
    "name": "LOT 288 WARREGO HIGHWAY YULEBA 4427",
    "locID": "LOC000148088337",
    "tech": "NULL",
    "upgrade": "NULL_NA",
    "gnaf_pid": "GAQLD161346702",
    "ee": false,
    "tech_change_status": "Not Planned"
   }
  },
  {
   "type": "Feature",
   "geometry": {
    "type": "Point",
    "coordinates": [
     149.3875287,
     -26.62118685
    ]
   },
   "properties": {
    "name": "LOT 297 WARREGO HIGHWAY YULEBA 4427",
    "locID": "LOC000148088337",
    "tech": "NULL",
    "upgrade": "NULL_NA",
    "gnaf_pid": "GAQLD161346704",
    "ee": false,
    "tech_change_status": "Not Planned"
   }
  },
  {
   "type": "Feature",
   "geometry": {
    "type": "Point",
    "coordinates": [
     149.38617105,
     -26.6172953
    ]
   },
   "properties": {
    "name": "LOT 301 WARREGO HIGHWAY YULEBA 4427",
    "locID": "LOC000148088337",
    "tech": "NULL",
    "upgrade": "NULL_NA",
    "gnaf_pid": "GAQLD161346707",
    "ee": false,
    "tech_change_status": "Not Planned"
   }
  },
  {
   "type": "Feature",
   "geometry": {
    "type": "Point",
    "coordinates": [
     149.36335317,
     -26.6014475
    ]
   },
   "properties": {
    "name": "LOT 42 WARREGO HIGHWAY YULEBA 4427",
    "locID": "LOC000148362345",
    "tech": "NULL",
    "upgrade": "NULL_NA",
    "gnaf_pid": "GAQLD161346716",
    "ee": false,
    "tech_change_status": "Not Planned"
   }
  },
  {
   "type": "Feature",
   "geometry": {
    "type": "Point",
    "coordinates": [
     149.41643076,
     -26.61475514
    ]
   },
   "properties": {
    "name": "LOT 43 WARREGO HIGHWAY YULEBA 4427",
    "locID": "LOC100071909404",
    "tech": "NULL",
    "upgrade": "NULL_NA",
    "gnaf_pid": "GAQLD161346717",
    "ee": false,
    "tech_change_status": "Not Planned"
   }
  },
  {
   "type": "Feature",
   "geometry": {
    "type": "Point",
    "coordinates": [
     149.41262701,
     -26.59927727
    ]
   },
   "properties": {
    "name": "LOT 462 WARREGO HIGHWAY YULEBA 4427",
    "locID": "LOC000148088337",
    "tech": "NULL",
    "upgrade": "NULL_NA",
    "gnaf_pid": "GAQLD161346718",
    "ee": false,
    "tech_change_status": "Not Planned"
   }
  },
  {
   "type": "Feature",
   "geometry": {
    "type": "Point",
    "coordinates": [
     149.39206202,
     -26.61547088
    ]
   },
   "properties": {
    "name": "LOT 4 WARREGO HIGHWAY YULEBA 4427",
    "locID": "LOC000128055584",
    "tech": "NULL",
    "upgrade": "NULL_NA",
    "gnaf_pid": "GAQLD161346720",
    "ee": false,
    "tech_change_status": "Not Planned"
   }
  },
  {
   "type": "Feature",
   "geometry": {
    "type": "Point",
    "coordinates": [
     149.37957978,
     -26.6100953
    ]
   },
   "properties": {
    "name": "LOT 501 WARREGO HIGHWAY YULEBA 4427",
    "locID": "LOC000148088337",
    "tech": "NULL",
    "upgrade": "NULL_NA",
    "gnaf_pid": "GAQLD161346721",
    "ee": false,
    "tech_change_status": "Not Planned"
   }
  },
  {
   "type": "Feature",
   "geometry": {
    "type": "Point",
    "coordinates": [
     149.38013952,
     -26.61023439
    ]
   },
   "properties": {
    "name": "LOT 502 WARREGO HIGHWAY YULEBA 4427",
    "locID": "LOC000148088337",
    "tech": "NULL",
    "upgrade": "NULL_NA",
    "gnaf_pid": "GAQLD161346722",
    "ee": false,
    "tech_change_status": "Not Planned"
   }
  },
  {
   "type": "Feature",
   "geometry": {
    "type": "Point",
    "coordinates": [
     149.38058039,
     -26.61033858
    ]
   },
   "properties": {
    "name": "LOT 503 WARREGO HIGHWAY YULEBA 4427",
    "locID": "LOC000148088337",
    "tech": "NULL",
    "upgrade": "NULL_NA",
    "gnaf_pid": "GAQLD161346723",
    "ee": false,
    "tech_change_status": "Not Planned"
   }
  },
  {
   "type": "Feature",
   "geometry": {
    "type": "Point",
    "coordinates": [
     149.38150635,
     -26.61034417
    ]
   },
   "properties": {
    "name": "LOT 504 WARREGO HIGHWAY YULEBA 4427",
    "locID": "LOC000148088337",
    "tech": "NULL",
    "upgrade": "NULL_NA",
    "gnaf_pid": "GAQLD161346724",
    "ee": false,
    "tech_change_status": "Not Planned"
   }
  },
  {
   "type": "Feature",
   "geometry": {
    "type": "Point",
    "coordinates": [
     149.3770089,
     -26.60945058
    ]
   },
   "properties": {
    "name": "LOT 602 WARREGO HIGHWAY YULEBA 4427",
    "locID": "LOC000148088337",
    "tech": "NULL",
    "upgrade": "NULL_NA",
    "gnaf_pid": "GAQLD161346737",
    "ee": false,
    "tech_change_status": "Not Planned"
   }
  },
  {
   "type": "Feature",
   "geometry": {
    "type": "Point",
    "coordinates": [
     149.37779931,
     -26.6096457
    ]
   },
   "properties": {
    "name": "LOT 603 WARREGO HIGHWAY YULEBA 4427",
    "locID": "LOC000148088337",
    "tech": "NULL",
    "upgrade": "NULL_NA",
    "gnaf_pid": "GAQLD161346738",
    "ee": false,
    "tech_change_status": "Not Planned"
   }
  },
  {
   "type": "Feature",
   "geometry": {
    "type": "Point",
    "coordinates": [
     149.37856577,
     -26.60984728
    ]
   },
   "properties": {
    "name": "LOT 604 WARREGO HIGHWAY YULEBA 4427",
    "locID": "LOC000036754604",
    "tech": "FTTP",
    "upgrade": "NULL_NA",
    "gnaf_pid": "GAQLD161346739",
    "ee": true
   }
  },
  {
   "type": "Feature",
   "geometry": {
    "type": "Point",
    "coordinates": [
     149.37321722,
     -26.60848182
    ]
   },
   "properties": {
    "name": "LOT 701 WARREGO HIGHWAY YULEBA 4427",
    "locID": "LOC000148088337",
    "tech": "NULL",
    "upgrade": "NULL_NA",
    "gnaf_pid": "GAQLD161346749",
    "ee": false,
    "tech_change_status": "Not Planned"
   }
  },
  {
   "type": "Feature",
   "geometry": {
    "type": "Point",
    "coordinates": [
     149.38200609,
     -26.61216984
    ]
   },
   "properties": {
    "name": "LOT 9 WARREGO HIGHWAY YULEBA 4427",
    "locID": "LOC100071909399",
    "tech": "SATELLITE",
    "upgrade": "NULL_NA",
    "gnaf_pid": "GAQLD161346762",
    "ee": false,
    "tech_change_status": "Not Planned"
   }
  },
  {
   "type": "Feature",
   "geometry": {
    "type": "Point",
    "coordinates": [
     149.34589389,
     -26.62336785
    ]
   },
   "properties": {
    "name": "LOT 108 YULEBA SURAT ROAD YULEBA 4427",
    "locID": "LOC000148363423",
    "tech": "NULL",
    "upgrade": "NULL_NA",
    "gnaf_pid": "GAQLD161363280",
    "ee": false,
    "tech_change_status": "Not Planned"
   }
  },
  {
   "type": "Feature",
   "geometry": {
    "type": "Point",
    "coordinates": [
     149.41861976,
     -26.64371687
    ]
   },
   "properties": {
    "name": "LOT 111 YULEBA SURAT ROAD YULEBA 4427",
    "locID": "LOC000148363423",
    "tech": "NULL",
    "upgrade": "NULL_NA",
    "gnaf_pid": "GAQLD161363281",
    "ee": false,
    "tech_change_status": "Not Planned"
   }
  },
  {
   "type": "Feature",
   "geometry": {
    "type": "Point",
    "coordinates": [
     149.40037999,
     -26.64348614
    ]
   },
   "properties": {
    "name": "LOT 121 YULEBA SURAT ROAD YULEBA 4427",
    "locID": "LOC000148363423",
    "tech": "NULL",
    "upgrade": "NULL_NA",
    "gnaf_pid": "GAQLD161363282",
    "ee": false,
    "tech_change_status": "Not Planned"
   }
  },
  {
   "type": "Feature",
   "geometry": {
    "type": "Point",
    "coordinates": [
     149.40900602,
     -26.64286032
    ]
   },
   "properties": {
    "name": "LOT 135 YULEBA SURAT ROAD YULEBA 4427",
    "locID": "LOC000148363423",
    "tech": "NULL",
    "upgrade": "NULL_NA",
    "gnaf_pid": "GAQLD161363284",
    "ee": false,
    "tech_change_status": "Not Planned"
   }
  },
  {
   "type": "Feature",
   "geometry": {
    "type": "Point",
    "coordinates": [
     149.40931254,
     -26.64739283
    ]
   },
   "properties": {
    "name": "LOT 136 YULEBA SURAT ROAD YULEBA 4427",
    "locID": "LOC000148363423",
    "tech": "NULL",
    "upgrade": "NULL_NA",
    "gnaf_pid": "GAQLD161363285",
    "ee": false,
    "tech_change_status": "Not Planned"
   }
  },
  {
   "type": "Feature",
   "geometry": {
    "type": "Point",
    "coordinates": [
     149.36605741,
     -26.62155186
    ]
   },
   "properties": {
    "name": "LOT 289 YULEBA SURAT ROAD YULEBA 4427",
    "locID": "LOC000070325916",
    "tech": "WIRELESS",
    "upgrade": "NULL_NA",
    "gnaf_pid": "GAQLD161363286",
    "ee": false,
    "tech_change_status": "Not Planned",
    "program_type": "Fixed Wireless and Satellite Upgrade Program",
    "target_eligibility_quarter": "NA"
   }
  },
  {
   "type": "Feature",
   "geometry": {
    "type": "Point",
    "coordinates": [
     149.36637101,
     -26.62795873
    ]
   },
   "properties": {
    "name": "LOT 290 YULEBA SURAT ROAD YULEBA 4427",
    "locID": "LOC000070325916",
    "tech": "WIRELESS",
    "upgrade": "NULL_NA",
    "gnaf_pid": "GAQLD161363287",
    "ee": false,
    "tech_change_status": "Not Planned",
    "program_type": "Fixed Wireless and Satellite Upgrade Program",
    "target_eligibility_quarter": "NA"
   }
  },
  {
   "type": "Feature",
   "geometry": {
    "type": "Point",
    "coordinates": [
     149.35956437,
     -26.63180223
    ]
   },
   "properties": {
    "name": "LOT 291 YULEBA SURAT ROAD YULEBA 4427",
    "locID": "LOC000070325916",
    "tech": "WIRELESS",
    "upgrade": "NULL_NA",
    "gnaf_pid": "GAQLD161363288",
    "ee": false,
    "tech_change_status": "Not Planned",
    "program_type": "Fixed Wireless and Satellite Upgrade Program",
    "target_eligibility_quarter": "NA"
   }
  },
  {
   "type": "Feature",
   "geometry": {
    "type": "Point",
    "coordinates": [
     149.36869764,
     -26.63839304
    ]
   },
   "properties": {
    "name": "LOT 293 YULEBA SURAT ROAD YULEBA 4427",
    "locID": "LOC000070325916",
    "tech": "WIRELESS",
    "upgrade": "NULL_NA",
    "gnaf_pid": "GAQLD161363290",
    "ee": false,
    "tech_change_status": "Not Planned",
    "program_type": "Fixed Wireless and Satellite Upgrade Program",
    "target_eligibility_quarter": "NA"
   }
  },
  {
   "type": "Feature",
   "geometry": {
    "type": "Point",
    "coordinates": [
     149.37638524,
     -26.64247812
    ]
   },
   "properties": {
    "name": "LOT 294 YULEBA SURAT ROAD YULEBA 4427",
    "locID": "LOC000070325916",
    "tech": "WIRELESS",
    "upgrade": "NULL_NA",
    "gnaf_pid": "GAQLD161363291",
    "ee": false,
    "tech_change_status": "Not Planned",
    "program_type": "Fixed Wireless and Satellite Upgrade Program",
    "target_eligibility_quarter": "NA"
   }
  },
  {
   "type": "Feature",
   "geometry": {
    "type": "Point",
    "coordinates": [
     149.37879489,
     -26.63630185
    ]
   },
   "properties": {
    "name": "LOT 295 YULEBA SURAT ROAD YULEBA 4427",
    "locID": "LOC000070325916",
    "tech": "WIRELESS",
    "upgrade": "NULL_NA",
    "gnaf_pid": "GAQLD161363292",
    "ee": false,
    "tech_change_status": "Not Planned",
    "program_type": "Fixed Wireless and Satellite Upgrade Program",
    "target_eligibility_quarter": "NA"
   }
  },
  {
   "type": "Feature",
   "geometry": {
    "type": "Point",
    "coordinates": [
     149.37921847,
     -26.63021774
    ]
   },
   "properties": {
    "name": "LOT 296 YULEBA SURAT ROAD YULEBA 4427",
    "locID": "LOC000070325916",
    "tech": "WIRELESS",
    "upgrade": "NULL_NA",
    "gnaf_pid": "GAQLD161363293",
    "ee": false,
    "tech_change_status": "Not Planned",
    "program_type": "Fixed Wireless and Satellite Upgrade Program",
    "target_eligibility_quarter": "NA"
   }
  },
  {
   "type": "Feature",
   "geometry": {
    "type": "Point",
    "coordinates": [
     149.36382548,
     -26.62358402
    ]
   },
   "properties": {
    "name": "LOT 31 YULEBA SURAT ROAD YULEBA 4427",
    "locID": "LOC000148363423",
    "tech": "NULL",
    "upgrade": "NULL_NA",
    "gnaf_pid": "GAQLD161363294",
    "ee": false,
    "tech_change_status": "Not Planned"
   }
  },
  {
   "type": "Feature",
   "geometry": {
    "type": "Point",
    "coordinates": [
     149.37238759,
     -26.63063087
    ]
   },
   "properties": {
    "name": "LOT 35 YULEBA SURAT ROAD YULEBA 4427",
    "locID": "LOC000148363423",
    "tech": "NULL",
    "upgrade": "NULL_NA",
    "gnaf_pid": "GAQLD161363295",
    "ee": false,
    "tech_change_status": "Not Planned"
   }
  },
  {
   "type": "Feature",
   "geometry": {
    "type": "Point",
    "coordinates": [
     149.39141037,
     -26.61871929
    ]
   },
   "properties": {
    "name": "LOT 3 YULEBA SURAT ROAD YULEBA 4427",
    "locID": "LOC000148363423",
    "tech": "NULL",
    "upgrade": "NULL_NA",
    "gnaf_pid": "GAQLD161363296",
    "ee": false,
    "tech_change_status": "Not Planned"
   }
  },
  {
   "type": "Feature",
   "geometry": {
    "type": "Point",
    "coordinates": [
     149.39221132,
     -26.61892157
    ]
   },
   "properties": {
    "name": "LOT 4 YULEBA SURAT ROAD YULEBA 4427",
    "locID": "LOC000148363423",
    "tech": "NULL",
    "upgrade": "NULL_NA",
    "gnaf_pid": "GAQLD161363297",
    "ee": false,
    "tech_change_status": "Not Planned"
   }
  },
  {
   "type": "Feature",
   "geometry": {
    "type": "Point",
    "coordinates": [
     149.403809,
     -26.62986008
    ]
   },
   "properties": {
    "name": "LOT 76 YULEBA SURAT ROAD YULEBA 4427",
    "locID": "LOC000148363423",
    "tech": "NULL",
    "upgrade": "NULL_NA",
    "gnaf_pid": "GAQLD161363298",
    "ee": false,
    "tech_change_status": "Not Planned"
   }
  },
  {
   "type": "Feature",
   "geometry": {
    "type": "Point",
    "coordinates": [
     149.41490487,
     -26.6435161
    ]
   },
   "properties": {
    "name": "LOT 77 YULEBA SURAT ROAD YULEBA 4427",
    "locID": "LOC000148363423",
    "tech": "NULL",
    "upgrade": "NULL_NA",
    "gnaf_pid": "GAQLD161363299",
    "ee": false,
    "tech_change_status": "Not Planned"
   }
  },
  {
   "type": "Feature",
   "geometry": {
    "type": "Point",
    "coordinates": [
     149.39052535,
     -26.64432315
    ]
   },
   "properties": {
    "name": "LOT 96 YULEBA SURAT ROAD YULEBA 4427",
    "locID": "LOC000148363423",
    "tech": "NULL",
    "upgrade": "NULL_NA",
    "gnaf_pid": "GAQLD161363300",
    "ee": false,
    "tech_change_status": "Not Planned"
   }
  },
  {
   "type": "Feature",
   "geometry": {
    "type": "Point",
    "coordinates": [
     149.37640946,
     -26.61495146
    ]
   },
   "properties": {
    "name": "17 BASS STREET YULEBA 4427",
    "locID": "LOC000090230086",
    "tech": "NULL",
    "upgrade": "NULL_NA",
    "gnaf_pid": "GAQLD161364620",
    "ee": false,
    "tech_change_status": "Not Planned"
   }
  },
  {
   "type": "Feature",
   "geometry": {
    "type": "Point",
    "coordinates": [
     149.37628152,
     -26.61531238
    ]
   },
   "properties": {
    "name": "19 BASS STREET YULEBA 4427",
    "locID": "LOC000052515452",
    "tech": "NULL",
    "upgrade": "NULL_NA",
    "gnaf_pid": "GAQLD161364621",
    "ee": false,
    "tech_change_status": "Not Planned"
   }
  },
  {
   "type": "Feature",
   "geometry": {
    "type": "Point",
    "coordinates": [
     149.38300764,
     -26.61606131
    ]
   },
   "properties": {
    "name": "17 CREEK STREET YULEBA 4427",
    "locID": "LOC000016741164",
    "tech": "NULL",
    "upgrade": "NULL_NA",
    "gnaf_pid": "GAQLD161365959",
    "ee": false,
    "tech_change_status": "Not Planned"
   }
  },
  {
   "type": "Feature",
   "geometry": {
    "type": "Point",
    "coordinates": [
     149.38108145,
     -26.62000802
    ]
   },
   "properties": {
    "name": "36 PERRY STREET YULEBA 4427",
    "locID": "LOC000035424501",
    "tech": "NULL",
    "upgrade": "NULL_NA",
    "gnaf_pid": "GAQLD161370684",
    "ee": false,
    "tech_change_status": "Not Planned"
   }
  },
  {
   "type": "Feature",
   "geometry": {
    "type": "Point",
    "coordinates": [
     149.37948751,
     -26.61285812
    ]
   },
   "properties": {
    "name": "50 STEPHENSON STREET YULEBA 4427",
    "locID": "LOC000016634745",
    "tech": "SATELLITE",
    "upgrade": "NULL_NA",
    "gnaf_pid": "GAQLD161380804",
    "ee": false,
    "tech_change_status": "Not Planned"
   }
  },
  {
   "type": "Feature",
   "geometry": {
    "type": "Point",
    "coordinates": [
     149.38273447,
     -26.61684097
    ]
   },
   "properties": {
    "name": "23 CREEK STREET YULEBA 4427",
    "locID": "LOC000016128990",
    "tech": "NULL",
    "upgrade": "NULL_NA",
    "gnaf_pid": "GAQLD161653951",
    "ee": false,
    "tech_change_status": "Not Planned"
   }
  },
  {
   "type": "Feature",
   "geometry": {
    "type": "Point",
    "coordinates": [
     149.37739986,
     -26.61483479
    ]
   },
   "properties": {
    "name": "14 BASS STREET YULEBA 4427",
    "locID": "LOC000078587951",
    "tech": "SATELLITE",
    "upgrade": "NULL_NA",
    "gnaf_pid": "GAQLD161775545",
    "ee": false,
    "tech_change_status": "Not Planned"
   }
  },
  {
   "type": "Feature",
   "geometry": {
    "type": "Point",
    "coordinates": [
     149.37798391,
     -26.61498254
    ]
   },
   "properties": {
    "name": "13 BANKS STREET YULEBA 4427",
    "locID": "LOC000093294667",
    "tech": "NULL",
    "upgrade": "NULL_NA",
    "gnaf_pid": "GAQLD162081142",
    "ee": false,
    "tech_change_status": "Not Planned"
   }
  },
  {
   "type": "Feature",
   "geometry": {
    "type": "Point",
    "coordinates": [
     149.37663233,
     -26.61359667
    ]
   },
   "properties": {
    "name": "29 BEDWELL STREET YULEBA 4427",
    "locID": "LOC000087925665",
    "tech": "NULL",
    "upgrade": "NULL_NA",
    "gnaf_pid": "GAQLD162081378",
    "ee": false,
    "tech_change_status": "Not Planned"
   }
  },
  {
   "type": "Feature",
   "geometry": {
    "type": "Point",
    "coordinates": [
     149.38608368,
     -26.61476494
    ]
   },
   "properties": {
    "name": "12 STEPHENSON STREET YULEBA 4427",
    "locID": "LOC000019050176",
    "tech": "NULL",
    "upgrade": "NULL_NA",
    "gnaf_pid": "GAQLD162095171",
    "ee": false,
    "tech_change_status": "Not Planned"
   }
  },
  {
   "type": "Feature",
   "geometry": {
    "type": "Point",
    "coordinates": [
     149.38381232,
     -26.61398318
    ]
   },
   "properties": {
    "name": "24 STEPHENSON STREET YULEBA 4427",
    "locID": "LOC000046820925",
    "tech": "NULL",
    "upgrade": "NULL_NA",
    "gnaf_pid": "GAQLD162095172",
    "ee": false,
    "tech_change_status": "Not Planned"
   }
  },
  {
   "type": "Feature",
   "geometry": {
    "type": "Point",
    "coordinates": [
     149.38418307,
     -26.61557908
    ]
   },
   "properties": {
    "name": "12 CREEK STREET YULEBA 4427",
    "locID": "LOC000062536343",
    "tech": "NULL",
    "upgrade": "NULL_NA",
    "gnaf_pid": "GAQLD162213082",
    "ee": false,
    "tech_change_status": "Not Planned"
   }
  },
  {
   "type": "Feature",
   "geometry": {
    "type": "Point",
    "coordinates": [
     149.38331873,
     -26.61537027
    ]
   },
   "properties": {
    "name": "13 CREEK STREET YULEBA 4427",
    "locID": "LOC000048543485",
    "tech": "SATELLITE",
    "upgrade": "NULL_NA",
    "gnaf_pid": "GAQLD162213083",
    "ee": false,
    "tech_change_status": "Not Planned"
   }
  },
  {
   "type": "Feature",
   "geometry": {
    "type": "Point",
    "coordinates": [
     149.38382497,
     -26.61289702
    ]
   },
   "properties": {
    "name": "24 GARDEN STREET YULEBA 4427",
    "locID": "LOC000057352907",
    "tech": "NULL",
    "upgrade": "NULL_NA",
    "gnaf_pid": "GAQLD162214818",
    "ee": false,
    "tech_change_status": "Not Planned"
   }
  },
  {
   "type": "Feature",
   "geometry": {
    "type": "Point",
    "coordinates": [
     149.38278123,
     -26.61451952
    ]
   },
   "properties": {
    "name": "18 PERRY STREET YULEBA 4427",
    "locID": "LOC000097625886",
    "tech": "NULL",
    "upgrade": "NULL_NA",
    "gnaf_pid": "GAQLD162220694",
    "ee": false,
    "tech_change_status": "Not Planned"
   }
  },
  {
   "type": "Feature",
   "geometry": {
    "type": "Point",
    "coordinates": [
     149.38108318,
     -26.6161414
    ]
   },
   "properties": {
    "name": "23 PERRY STREET YULEBA 4427",
    "locID": "LOC000073604141",
    "tech": "NULL",
    "upgrade": "NULL_NA",
    "gnaf_pid": "GAQLD162220695",
    "ee": false,
    "tech_change_status": "Not Planned"
   }
  },
  {
   "type": "Feature",
   "geometry": {
    "type": "Point",
    "coordinates": [
     149.38386764,
     -26.61192513
    ]
   },
   "properties": {
    "name": "22 ROMA STREET YULEBA 4427",
    "locID": "LOC000103450418",
    "tech": "NULL",
    "upgrade": "NULL_NA",
    "gnaf_pid": "GAQLD162221639",
    "ee": false,
    "tech_change_status": "Not Planned"
   }
  },
  {
   "type": "Feature",
   "geometry": {
    "type": "Point",
    "coordinates": [
     149.38094217,
     -26.61323315
    ]
   },
   "properties": {
    "name": "44 STEPHENSON STREET YULEBA 4427",
    "locID": "LOC000011714901",
    "tech": "NULL",
    "upgrade": "NULL_NA",
    "gnaf_pid": "GAQLD162222591",
    "ee": false,
    "tech_change_status": "Not Planned"
   }
  },
  {
   "type": "Feature",
   "geometry": {
    "type": "Point",
    "coordinates": [
     149.37880406,
     -26.61269089
    ]
   },
   "properties": {
    "name": "52 STEPHENSON STREET YULEBA 4427",
    "locID": "LOC000099078019",
    "tech": "NULL",
    "upgrade": "NULL_NA",
    "gnaf_pid": "GAQLD162222592",
    "ee": false,
    "tech_change_status": "Not Planned"
   }
  },
  {
   "type": "Feature",
   "geometry": {
    "type": "Point",
    "coordinates": [
     149.37780816,
     -26.61353308
    ]
   },
   "properties": {
    "name": "8 BASS STREET YULEBA 4427",
    "locID": "LOC000065671358",
    "tech": "NULL",
    "upgrade": "NULL_NA",
    "gnaf_pid": "GAQLD162313743",
    "ee": false,
    "tech_change_status": "Not Planned"
   }
  },
  {
   "type": "Feature",
   "geometry": {
    "type": "Point",
    "coordinates": [
     149.38308033,
     -26.61582265
    ]
   },
   "properties": {
    "name": "15 CREEK STREET YULEBA 4427",
    "locID": "LOC000043165862",
    "tech": "NULL",
    "upgrade": "NULL_NA",
    "gnaf_pid": "GAQLD162372576",
    "ee": false,
    "tech_change_status": "Not Planned"
   }
  },
  {
   "type": "Feature",
   "geometry": {
    "type": "Point",
    "coordinates": [
     149.38292309,
     -26.61632501
    ]
   },
   "properties": {
    "name": "19 CREEK STREET YULEBA 4427",
    "locID": "LOC000049132182",
    "tech": "NULL",
    "upgrade": "NULL_NA",
    "gnaf_pid": "GAQLD162372577",
    "ee": false,
    "tech_change_status": "Not Planned"
   }
  },
  {
   "type": "Feature",
   "geometry": {
    "type": "Point",
    "coordinates": [
     149.37618419,
     -26.61562041
    ]
   },
   "properties": {
    "name": "21 DRURY STREET YULEBA 4427",
    "locID": "LOC000070713182",
    "tech": "NULL",
    "upgrade": "NULL_NA",
    "gnaf_pid": "GAQLD162372959",
    "ee": false,
    "tech_change_status": "Not Planned"
   }
  },
  {
   "type": "Feature",
   "geometry": {
    "type": "Point",
    "coordinates": [
     149.37826503,
     -26.6140305
    ]
   },
   "properties": {
    "name": "21 BEDWELL STREET YULEBA 4427",
    "locID": "LOC000098630609",
    "tech": "SATELLITE",
    "upgrade": "NULL_NA",
    "gnaf_pid": "GAQLD162451117",
    "ee": false,
    "tech_change_status": "Not Planned"
   }
  },
  {
   "type": "Feature",
   "geometry": {
    "type": "Point",
    "coordinates": [
     149.37992302,
     -26.61648281
    ]
   },
   "properties": {
    "name": "13 DRURY STREET YULEBA 4427",
    "locID": "LOC000051067088",
    "tech": "SATELLITE",
    "upgrade": "NULL_NA",
    "gnaf_pid": "GAQLD162452907",
    "ee": false,
    "tech_change_status": "Not Planned"
   }
  },
  {
   "type": "Feature",
   "geometry": {
    "type": "Point",
    "coordinates": [
     149.38356949,
     -26.61213369
    ]
   },
   "properties": {
    "name": "4 PERRY STREET YULEBA 4427",
    "locID": "LOC000093166741",
    "tech": "NULL",
    "upgrade": "NULL_NA",
    "gnaf_pid": "GAQLD162457464",
    "ee": false,
    "tech_change_status": "Not Planned"
   }
  },
  {
   "type": "Feature",
   "geometry": {
    "type": "Point",
    "coordinates": [
     149.38542351,
     -26.61452482
    ]
   },
   "properties": {
    "name": "14 STEPHENSON STREET YULEBA 4427",
    "locID": "LOC000060555170",
    "tech": "NULL",
    "upgrade": "NULL_NA",
    "gnaf_pid": "GAQLD162459045",
    "ee": false,
    "tech_change_status": "Not Planned"
   }
  },
  {
   "type": "Feature",
   "geometry": {
    "type": "Point",
    "coordinates": [
     149.38361401,
     -26.61400198
    ]
   },
   "properties": {
    "name": "26 STEPHENSON STREET YULEBA 4427",
    "locID": "LOC000015302339",
    "tech": "NULL",
    "upgrade": "NULL_NA",
    "gnaf_pid": "GAQLD162459046",
    "ee": false,
    "tech_change_status": "Not Planned"
   }
  },
  {
   "type": "Feature",
   "geometry": {
    "type": "Point",
    "coordinates": [
     149.37864161,
     -26.615902
    ]
   },
   "properties": {
    "name": "18 BANKS STREET YULEBA 4427",
    "locID": "LOC000023374318",
    "tech": "NULL",
    "upgrade": "NULL_NA",
    "gnaf_pid": "GAQLD162613249",
    "ee": false,
    "tech_change_status": "Not Planned"
   }
  },
  {
   "type": "Feature",
   "geometry": {
    "type": "Point",
    "coordinates": [
     149.38147312,
     -26.61555715
    ]
   },
   "properties": {
    "name": "19 PERRY STREET YULEBA 4427",
    "locID": "LOC000043366117",
    "tech": "SATELLITE",
    "upgrade": "NULL_NA",
    "gnaf_pid": "GAQLD162619402",
    "ee": false,
    "tech_change_status": "Not Planned"
   }
  },
  {
   "type": "Feature",
   "geometry": {
    "type": "Point",
    "coordinates": [
     149.38099587,
     -26.61640215
    ]
   },
   "properties": {
    "name": "25 PERRY STREET YULEBA 4427",
    "locID": "LOC000091137071",
    "tech": "NULL",
    "upgrade": "NULL_NA",
    "gnaf_pid": "GAQLD162703525",
    "ee": false,
    "tech_change_status": "Not Planned"
   }
  },
  {
   "type": "Feature",
   "geometry": {
    "type": "Point",
    "coordinates": [
     149.38431958,
     -26.61514208
    ]
   },
   "properties": {
    "name": "8 CREEK STREET YULEBA 4427",
    "locID": "LOC000062009640",
    "tech": "NULL",
    "upgrade": "NULL_NA",
    "gnaf_pid": "GAQLD163021481",
    "ee": false,
    "tech_change_status": "Not Planned"
   }
  },
  {
   "type": "Feature",
   "geometry": {
    "type": "Point",
    "coordinates": [
     149.37769879,
     -26.61388249
    ]
   },
   "properties": {
    "name": "23 BEDWELL STREET YULEBA 4427",
    "locID": "LOC000095310419",
    "tech": "NULL",
    "upgrade": "NULL_NA",
    "gnaf_pid": "GAQLD163060990",
    "ee": false,
    "tech_change_status": "Not Planned"
   }
  },
  {
   "type": "Feature",
   "geometry": {
    "type": "Point",
    "coordinates": [
     149.37702131,
     -26.61369391
    ]
   },
   "properties": {
    "name": "25 BEDWELL STREET YULEBA 4427",
    "locID": "LOC000054016865",
    "tech": "NULL",
    "upgrade": "NULL_NA",
    "gnaf_pid": "GAQLD163060992",
    "ee": false,
    "tech_change_status": "Not Planned"
   }
  },
  {
   "type": "Feature",
   "geometry": {
    "type": "Point",
    "coordinates": [
     149.38424465,
     -26.61536602
    ]
   },
   "properties": {
    "name": "10 CREEK STREET YULEBA 4427",
    "locID": "LOC000020030688",
    "tech": "NULL",
    "upgrade": "NULL_NA",
    "gnaf_pid": "GAQLD163061694",
    "ee": false,
    "tech_change_status": "Not Planned"
   }
  },
  {
   "type": "Feature",
   "geometry": {
    "type": "Point",
    "coordinates": [
     149.38020446,
     -26.61620001
    ]
   },
   "properties": {
    "name": "20 FLINDERS STREET YULEBA 4427",
    "locID": "LOC000004544653",
    "tech": "NULL",
    "upgrade": "NULL_NA",
    "gnaf_pid": "GAQLD163062084",
    "ee": false,
    "tech_change_status": "Not Planned"
   }
  },
  {
   "type": "Feature",
   "geometry": {
    "type": "Point",
    "coordinates": [
     149.39759561,
     -26.62062299
    ]
   },
   "properties": {
    "name": "109 FORESTRY ROAD YULEBA 4427",
    "locID": "LOC000009449875",
    "tech": "NULL",
    "upgrade": "NULL_NA",
    "gnaf_pid": "GAQLD163062090",
    "ee": false,
    "tech_change_status": "Not Planned"
   }
  },
  {
   "type": "Feature",
   "geometry": {
    "type": "Point",
    "coordinates": [
     149.38349789,
     -26.61230642
    ]
   },
   "properties": {
    "name": "6 PERRY STREET YULEBA 4427",
    "locID": "LOC000007543294",
    "tech": "NULL",
    "upgrade": "NULL_NA",
    "gnaf_pid": "GAQLD163064454",
    "ee": false,
    "tech_change_status": "Not Planned"
   }
  },
  {
   "type": "Feature",
   "geometry": {
    "type": "Point",
    "coordinates": [
     149.38125435,
     -26.61425351
    ]
   },
   "properties": {
    "name": "9-17 PERRY STREET YULEBA 4427",
    "locID": "LOC000020918433",
    "tech": "NULL",
    "upgrade": "NULL_NA",
    "gnaf_pid": "GAQLD163064455",
    "ee": false,
    "tech_change_status": "Not Planned"
   }
  },
  {
   "type": "Feature",
   "geometry": {
    "type": "Point",
    "coordinates": [
     149.37969023,
     -26.61990461
    ]
   },
   "properties": {
    "name": "8 SCOTT STREET YULEBA 4427",
    "locID": "LOC000081995434",
    "tech": "NULL",
    "upgrade": "NULL_NA",
    "gnaf_pid": "GAQLD163064865",
    "ee": false,
    "tech_change_status": "Not Planned"
   }
  },
  {
   "type": "Feature",
   "geometry": {
    "type": "Point",
    "coordinates": [
     149.38444801,
     -26.61427951
    ]
   },
   "properties": {
    "name": "20 STEPHENSON STREET YULEBA 4427",
    "locID": "LOC000014216239",
    "tech": "NULL",
    "upgrade": "NULL_NA",
    "gnaf_pid": "GAQLD163065117",
    "ee": false,
    "tech_change_status": "Not Planned"
   }
  },
  {
   "type": "Feature",
   "geometry": {
    "type": "Point",
    "coordinates": [
     149.38143099,
     -26.61334891
    ]
   },
   "properties": {
    "name": "40 STEPHENSON STREET YULEBA 4427",
    "locID": "LOC000097297455",
    "tech": "NULL",
    "upgrade": "NULL_NA",
    "gnaf_pid": "GAQLD163065118",
    "ee": false,
    "tech_change_status": "Not Planned"
   }
  },
  {
   "type": "Feature",
   "geometry": {
    "type": "Point",
    "coordinates": [
     149.36285098,
     -26.60598972
    ]
   },
   "properties": {
    "name": "43516 WARREGO HIGHWAY YULEBA 4427",
    "locID": "LOC000021699566",
    "tech": "NULL",
    "upgrade": "NULL_NA",
    "gnaf_pid": "GAQLD163065469",
    "ee": false,
    "tech_change_status": "Not Planned"
   }
  },
  {
   "type": "Feature",
   "geometry": {
    "type": "Point",
    "coordinates": [
     149.3328708,
     -26.60908508
    ]
   },
   "properties": {
    "name": "43935 WARREGO HIGHWAY YULEBA 4427",
    "locID": "LOC000077666172",
    "tech": "NULL",
    "upgrade": "NULL_NA",
    "gnaf_pid": "GAQLD163065470",
    "ee": false,
    "tech_change_status": "Not Planned"
   }
  },
  {
   "type": "Feature",
   "geometry": {
    "type": "Point",
    "coordinates": [
     149.38478313,
     -26.61436725
    ]
   },
   "properties": {
    "name": "18 STEPHENSON STREET YULEBA 4427",
    "locID": "LOC000034378986",
    "tech": "NULL",
    "upgrade": "NULL_NA",
    "gnaf_pid": "GAQLD163229481",
    "ee": false,
    "tech_change_status": "Not Planned"
   }
  },
  {
   "type": "Feature",
   "geometry": {
    "type": "Point",
    "coordinates": [
     149.37729037,
     -26.61518478
    ]
   },
   "properties": {
    "name": "16 BASS STREET YULEBA 4427",
    "locID": "LOC000128066464",
    "tech": "NULL",
    "upgrade": "NULL_NA",
    "gnaf_pid": "GAQLD425045217",
    "ee": false,
    "tech_change_status": "Not Planned"
   }
  },
  {
   "type": "Feature",
   "geometry": {
    "type": "Point",
    "coordinates": [
     149.3778813,
     -26.60743357
    ]
   },
   "properties": {
    "name": "LOT 10 MOSSVALE ROAD YULEBA 4427",
    "locID": "LOC000150211385",
    "tech": "NULL",
    "upgrade": "NULL_NA",
    "gnaf_pid": "GAQLD425127435",
    "ee": false,
    "tech_change_status": "Not Planned"
   }
  },
  {
   "type": "Feature",
   "geometry": {
    "type": "Point",
    "coordinates": [
     149.37729841,
     -26.60730314
    ]
   },
   "properties": {
    "name": "LOT 11 MOSSVALE ROAD YULEBA 4427",
    "locID": "LOC000150211385",
    "tech": "NULL",
    "upgrade": "NULL_NA",
    "gnaf_pid": "GAQLD425127436",
    "ee": false,
    "tech_change_status": "Not Planned"
   }
  },
  {
   "type": "Feature",
   "geometry": {
    "type": "Point",
    "coordinates": [
     149.37671084,
     -26.60715446
    ]
   },
   "properties": {
    "name": "LOT 12 MOSSVALE ROAD YULEBA 4427",
    "locID": "LOC000150211385",
    "tech": "NULL",
    "upgrade": "NULL_NA",
    "gnaf_pid": "GAQLD425127437",
    "ee": false,
    "tech_change_status": "Not Planned"
   }
  },
  {
   "type": "Feature",
   "geometry": {
    "type": "Point",
    "coordinates": [
     149.37611248,
     -26.60711905
    ]
   },
   "properties": {
    "name": "LOT 13 MOSSVALE ROAD YULEBA 4427",
    "locID": "LOC000150211385",
    "tech": "NULL",
    "upgrade": "NULL_NA",
    "gnaf_pid": "GAQLD425127440",
    "ee": false,
    "tech_change_status": "Not Planned"
   }
  },
  {
   "type": "Feature",
   "geometry": {
    "type": "Point",
    "coordinates": [
     149.3755152,
     -26.60699098
    ]
   },
   "properties": {
    "name": "LOT 14 MOSSVALE ROAD YULEBA 4427",
    "locID": "LOC000150211385",
    "tech": "NULL",
    "upgrade": "NULL_NA",
    "gnaf_pid": "GAQLD425127445",
    "ee": false,
    "tech_change_status": "Not Planned"
   }
  },
  {
   "type": "Feature",
   "geometry": {
    "type": "Point",
    "coordinates": [
     149.37419019,
     -26.60494027
    ]
   },
   "properties": {
    "name": "LOT 15 MOSSVALE ROAD YULEBA 4427",
    "locID": "LOC000150211385",
    "tech": "NULL",
    "upgrade": "NULL_NA",
    "gnaf_pid": "GAQLD425127454",
    "ee": false,
    "tech_change_status": "Not Planned"
   }
  },
  {
   "type": "Feature",
   "geometry": {
    "type": "Point",
    "coordinates": [
     149.37449384,
     -26.60637981
    ]
   },
   "properties": {
    "name": "LOT 16 MOSSVALE ROAD YULEBA 4427",
    "locID": "LOC000150211385",
    "tech": "NULL",
    "upgrade": "NULL_NA",
    "gnaf_pid": "GAQLD425127455",
    "ee": false,
    "tech_change_status": "Not Planned"
   }
  },
  {
   "type": "Feature",
   "geometry": {
    "type": "Point",
    "coordinates": [
     149.37394345,
     -26.60741676
    ]
   },
   "properties": {
    "name": "LOT 17 MOSSVALE ROAD YULEBA 4427",
    "locID": "LOC000150211385",
    "tech": "NULL",
    "upgrade": "NULL_NA",
    "gnaf_pid": "GAQLD425127457",
    "ee": false,
    "tech_change_status": "Not Planned"
   }
  },
  {
   "type": "Feature",
   "geometry": {
    "type": "Point",
    "coordinates": [
     149.37965877,
     -26.58724122
    ]
   },
   "properties": {
    "name": "LOT 242 MOSSVALE ROAD YULEBA 4427",
    "locID": "LOC000150211385",
    "tech": "NULL",
    "upgrade": "NULL_NA",
    "gnaf_pid": "GAQLD425127460",
    "ee": false,
    "tech_change_status": "Not Planned"
   }
  },
  {
   "type": "Feature",
   "geometry": {
    "type": "Point",
    "coordinates": [
     149.38292406,
     -26.5911537
    ]
   },
   "properties": {
    "name": "LOT 248 MOSSVALE ROAD YULEBA 4427",
    "locID": "LOC000150211385",
    "tech": "NULL",
    "upgrade": "NULL_NA",
    "gnaf_pid": "GAQLD425127461",
    "ee": false,
    "tech_change_status": "Not Planned"
   }
  },
  {
   "type": "Feature",
   "geometry": {
    "type": "Point",
    "coordinates": [
     149.38562772,
     -26.58704058
    ]
   },
   "properties": {
    "name": "LOT 255 MOSSVALE ROAD YULEBA 4427",
    "locID": "LOC000150211385",
    "tech": "NULL",
    "upgrade": "NULL_NA",
    "gnaf_pid": "GAQLD425127462",
    "ee": false,
    "tech_change_status": "Not Planned"
   }
  },
  {
   "type": "Feature",
   "geometry": {
    "type": "Point",
    "coordinates": [
     149.38414513,
     -26.61023007
    ]
   },
   "properties": {
    "name": "LOT 299 MOSSVALE ROAD YULEBA 4427",
    "locID": "LOC000150211385",
    "tech": "NULL",
    "upgrade": "NULL_NA",
    "gnaf_pid": "GAQLD425127463",
    "ee": false,
    "tech_change_status": "Not Planned"
   }
  },
  {
   "type": "Feature",
   "geometry": {
    "type": "Point",
    "coordinates": [
     149.38315003,
     -26.60978349
    ]
   },
   "properties": {
    "name": "LOT 4 MOSSVALE ROAD YULEBA 4427",
    "locID": "LOC000150211385",
    "tech": "NULL",
    "upgrade": "NULL_NA",
    "gnaf_pid": "GAQLD425127465",
    "ee": false,
    "tech_change_status": "Not Planned"
   }
  },
  {
   "type": "Feature",
   "geometry": {
    "type": "Point",
    "coordinates": [
     149.382507,
     -26.60911294
    ]
   },
   "properties": {
    "name": "LOT 5 MOSSVALE ROAD YULEBA 4427",
    "locID": "LOC000150211385",
    "tech": "NULL",
    "upgrade": "NULL_NA",
    "gnaf_pid": "GAQLD425127467",
    "ee": false,
    "tech_change_status": "Not Planned"
   }
  },
  {
   "type": "Feature",
   "geometry": {
    "type": "Point",
    "coordinates": [
     149.3805519,
     -26.60908768
    ]
   },
   "properties": {
    "name": "LOT 7 MOSSVALE ROAD YULEBA 4427",
    "locID": "LOC000150211385",
    "tech": "NULL",
    "upgrade": "NULL_NA",
    "gnaf_pid": "GAQLD425127471",
    "ee": false,
    "tech_change_status": "Not Planned"
   }
  },
  {
   "type": "Feature",
   "geometry": {
    "type": "Point",
    "coordinates": [
     149.37884765,
     -26.60852639
    ]
   },
   "properties": {
    "name": "LOT 8 MOSSVALE ROAD YULEBA 4427",
    "locID": "LOC000150211385",
    "tech": "NULL",
    "upgrade": "NULL_NA",
    "gnaf_pid": "GAQLD425127474",
    "ee": false,
    "tech_change_status": "Not Planned"
   }
  },
  {
   "type": "Feature",
   "geometry": {
    "type": "Point",
    "coordinates": [
     149.37868544,
     -26.60710058
    ]
   },
   "properties": {
    "name": "LOT 9 MOSSVALE ROAD YULEBA 4427",
    "locID": "LOC000150211385",
    "tech": "NULL",
    "upgrade": "NULL_NA",
    "gnaf_pid": "GAQLD425127478",
    "ee": false,
    "tech_change_status": "Not Planned"
   }
  },
  {
   "type": "Feature",
   "geometry": {
    "type": "Point",
    "coordinates": [
     149.38383437,
     -26.6161952
    ]
   },
   "properties": {
    "name": "2 BEDWELL STREET YULEBA 4427",
    "locID": "LOC000087925665",
    "tech": "NULL",
    "upgrade": "NULL_NA",
    "gnaf_pid": "GAQLD425142239",
    "ee": false,
    "tech_change_status": "Not Planned"
   }
  },
  {
   "type": "Feature",
   "geometry": {
    "type": "Point",
    "coordinates": [
     149.35837469,
     -26.61322353
    ]
   },
   "properties": {
    "name": "151 MASSON LANE YULEBA 4427",
    "locID": "LOC000150211411",
    "tech": "SATELLITE",
    "upgrade": "NULL_NA",
    "gnaf_pid": "GAQLD425144694",
    "ee": false,
    "tech_change_status": "Not Planned"
   }
  },
  {
   "type": "Feature",
   "geometry": {
    "type": "Point",
    "coordinates": [
     149.3765249,
     -26.61461101
    ]
   },
   "properties": {
    "name": "15 BASS STREET YULEBA 4427",
    "locID": "LOC000128066673",
    "tech": "NULL",
    "upgrade": "NULL_NA",
    "gnaf_pid": "GAQLD425249293",
    "ee": false,
    "tech_change_status": "Not Planned"
   }
  },
  {
   "type": "Feature",
   "geometry": {
    "type": "Point",
    "coordinates": [
     149.37179977,
     -26.60898331
    ]
   },
   "properties": {
    "name": "18 WARREGO HIGHWAY YULEBA 4427",
    "locID": "LOC100071909375",
    "tech": "NULL",
    "upgrade": "NULL_NA",
    "gnaf_pid": "GAQLD425252981",
    "ee": false,
    "tech_change_status": "Not Planned"
   }
  },
  {
   "type": "Feature",
   "geometry": {
    "type": "Point",
    "coordinates": [
     149.37743186,
     -26.61049875
    ]
   },
   "properties": {
    "name": "43386 WARREGO HIGHWAY YULEBA 4427",
    "locID": "LOC100071909399",
    "tech": "SATELLITE",
    "upgrade": "NULL_NA",
    "gnaf_pid": "GAQLD425252983",
    "ee": false,
    "tech_change_status": "Not Planned"
   }
  },
  {
   "type": "Feature",
   "geometry": {
    "type": "Point",
    "coordinates": [
     149.37623046,
     -26.60925224
    ]
   },
   "properties": {
    "name": "2 BURKE STREET YULEBA 4427",
    "locID": "LOC000157376344",
    "tech": "SATELLITE",
    "upgrade": "NULL_NA",
    "gnaf_pid": "GAQLD425261235",
    "ee": false,
    "tech_change_status": "Not Planned"
   }
  },
  {
   "type": "Feature",
   "geometry": {
    "type": "Point",
    "coordinates": [
     149.41042257,
     -26.60814309
    ]
   },
   "properties": {
    "name": "43084 WARREGO HIGHWAY YULEBA 4427",
    "locID": "LOC000148361871",
    "tech": "SATELLITE",
    "upgrade": "NULL_NA",
    "gnaf_pid": "GAQLD425383759",
    "ee": false,
    "tech_change_status": "Not Planned"
   }
  },
  {
   "type": "Feature",
   "geometry": {
    "type": "Point",
    "coordinates": [
     149.4263968,
     -26.62634411
    ]
   },
   "properties": {
    "name": "42843 WARREGO HIGHWAY YULEBA 4427",
    "locID": "LOC000148362345",
    "tech": "NULL",
    "upgrade": "NULL_NA",
    "gnaf_pid": "GAQLD425411651",
    "ee": false,
    "tech_change_status": "Not Planned"
   }
  },
  {
   "type": "Feature",
   "geometry": {
    "type": "Point",
    "coordinates": [
     149.395989,
     -26.62955176
    ]
   },
   "properties": {
    "name": "171 FORESTRY ROAD YULEBA 4427",
    "locID": "LOC000148362724",
    "tech": "NULL",
    "upgrade": "NULL_NA",
    "gnaf_pid": "GAQLD425475293",
    "ee": false,
    "tech_change_status": "Not Planned"
   }
  },
  {
   "type": "Feature",
   "geometry": {
    "type": "Point",
    "coordinates": [
     149.38418934,
     -26.61718569
    ]
   },
   "properties": {
    "name": "37 MUGGINS LANE YULEBA 4427",
    "locID": "LOC000150211430",
    "tech": "NULL",
    "upgrade": "NULL_NA",
    "gnaf_pid": "GAQLD425477877",
    "ee": false,
    "tech_change_status": "Not Planned"
   }
  },
  {
   "type": "Feature",
   "geometry": {
    "type": "Point",
    "coordinates": [
     149.41150527,
     -26.62421019
    ]
   },
   "properties": {
    "name": "43037 WARREGO HIGHWAY YULEBA 4427",
    "locID": "LOC000148363358",
    "tech": "NULL",
    "upgrade": "NULL_NA",
    "gnaf_pid": "GAQLD425480194",
    "ee": false,
    "tech_change_status": "Not Planned"
   }
  },
  {
   "type": "Feature",
   "geometry": {
    "type": "Point",
    "coordinates": [
     149.33624964,
     -26.59462156
    ]
   },
   "properties": {
    "name": "43760 WARREGO HIGHWAY YULEBA 4427",
    "locID": "LOC000148088337",
    "tech": "NULL",
    "upgrade": "NULL_NA",
    "gnaf_pid": "GAQLD425480196",
    "ee": false,
    "tech_change_status": "Not Planned"
   }
  },
  {
   "type": "Feature",
   "geometry": {
    "type": "Point",
    "coordinates": [
     149.39108042,
     -26.59335824
    ]
   },
   "properties": {
    "name": "229 YULEBA TAROOM ROAD YULEBA 4427",
    "locID": "LOC000148073457",
    "tech": "NULL",
    "upgrade": "NULL_NA",
    "gnaf_pid": "GAQLD425480583",
    "ee": false,
    "tech_change_status": "Not Planned"
   }
  },
  {
   "type": "Feature",
   "geometry": {
    "type": "Point",
    "coordinates": [
     149.38486005,
     -26.61369232
    ]
   },
   "properties": {
    "name": "17-19 STEPHENSON STREET YULEBA 4427",
    "locID": "LOC000025411445",
    "tech": "SATELLITE",
    "upgrade": "NULL_NA",
    "gnaf_pid": "GAQLD425499651",
    "ee": false,
    "tech_change_status": "Not Planned"
   }
  },
  {
   "type": "Feature",
   "geometry": {
    "type": "Point",
    "coordinates": [
     149.38394241,
     -26.61400364
    ]
   },
   "properties": {
    "name": "22 STEPHENSON STREET YULEBA 4427",
    "locID": "LOC100069547979",
    "tech": "SATELLITE",
    "upgrade": "NULL_NA",
    "gnaf_pid": "GAQLD425499653",
    "ee": false,
    "tech_change_status": "Not Planned"
   }
  },
  {
   "type": "Feature",
   "geometry": {
    "type": "Point",
    "coordinates": [
     149.38331012,
     -26.61396363
    ]
   },
   "properties": {
    "name": "28 STEPHENSON STREET YULEBA 4427",
    "locID": "LOC000128082395",
    "tech": "NULL",
    "upgrade": "NULL_NA",
    "gnaf_pid": "GAQLD425499655",
    "ee": false,
    "tech_change_status": "Not Planned"
   }
  },
  {
   "type": "Feature",
   "geometry": {
    "type": "Point",
    "coordinates": [
     149.38728716,
     -26.61492904
    ]
   },
   "properties": {
    "name": "2 STEPHENSON STREET YULEBA 4427",
    "locID": "LOC000128082369",
    "tech": "NULL",
    "upgrade": "NULL_NA",
    "gnaf_pid": "GAQLD425499656",
    "ee": false,
    "tech_change_status": "Not Planned"
   }
  },
  {
   "type": "Feature",
   "geometry": {
    "type": "Point",
    "coordinates": [
     149.38123338,
     -26.61330682
    ]
   },
   "properties": {
    "name": "42 STEPHENSON STREET YULEBA 4427",
    "locID": "LOC000128082369",
    "tech": "NULL",
    "upgrade": "NULL_NA",
    "gnaf_pid": "GAQLD425499662",
    "ee": false,
    "tech_change_status": "Not Planned"
   }
  },
  {
   "type": "Feature",
   "geometry": {
    "type": "Point",
    "coordinates": [
     149.38026502,
     -26.61305352
    ]
   },
   "properties": {
    "name": "46 STEPHENSON STREET YULEBA 4427",
    "locID": "LOC100071909443",
    "tech": "NULL",
    "upgrade": "NULL_NA",
    "gnaf_pid": "GAQLD425499663",
    "ee": false,
    "tech_change_status": "Not Planned"
   }
  },
  {
   "type": "Feature",
   "geometry": {
    "type": "Point",
    "coordinates": [
     149.38699193,
     -26.6148554
    ]
   },
   "properties": {
    "name": "4 STEPHENSON STREET YULEBA 4427",
    "locID": "LOC000016634745",
    "tech": "SATELLITE",
    "upgrade": "NULL_NA",
    "gnaf_pid": "GAQLD425499665",
    "ee": false,
    "tech_change_status": "Not Planned"
   }
  },
  {
   "type": "Feature",
   "geometry": {
    "type": "Point",
    "coordinates": [
     149.37802644,
     -26.61249397
    ]
   },
   "properties": {
    "name": "56 STEPHENSON STREET YULEBA 4427",
    "locID": "LOC000128082557",
    "tech": "NULL",
    "upgrade": "NULL_NA",
    "gnaf_pid": "GAQLD425499667",
    "ee": false,
    "tech_change_status": "Not Planned"
   }
  },
  {
   "type": "Feature",
   "geometry": {
    "type": "Point",
    "coordinates": [
     149.37517776,
     -26.61389446
    ]
   },
   "properties": {
    "name": "32 BEDWELL STREET YULEBA 4427",
    "locID": "LOC100077645532",
    "tech": "NULL",
    "upgrade": "NULL_NA",
    "gnaf_pid": "GAQLD425644350",
    "ee": false,
    "tech_change_status": "Not Planned"
   }
  },
  {
   "type": "Feature",
   "geometry": {
    "type": "Point",
    "coordinates": [
     149.37912782,
     -26.61635271
    ]
   },
   "properties": {
    "name": "19 FLINDERS STREET YULEBA 4427",
    "locID": "LOC000059724460",
    "tech": "NULL",
    "upgrade": "NULL_NA",
    "gnaf_pid": "GAQLD719171232",
    "ee": false,
    "tech_change_status": "Not Planned"
   }
  },
  {
   "type": "Feature",
   "geometry": {
    "type": "Point",
    "coordinates": [
     149.39660033,
     -26.64064152
    ]
   },
   "properties": {
    "name": "1184 MOONGOOL ROAD YULEBA 4427",
    "locID": "LOC000143014570",
    "tech": "SATELLITE",
    "upgrade": "NULL_NA",
    "gnaf_pid": "GAQLD719175142",
    "ee": false,
    "tech_change_status": "Not Planned"
   }
  },
  {
   "type": "Feature",
   "geometry": {
    "type": "Point",
    "coordinates": [
     149.38697349,
     -26.6078189
    ]
   },
   "properties": {
    "name": "LOT 44 YULEBA TAROOM ROAD YULEBA 4427",
    "locID": "LOC000128083292",
    "tech": "NULL",
    "upgrade": "NULL_NA",
    "gnaf_pid": "GAQLD719340977",
    "ee": false,
    "tech_change_status": "Not Planned"
   }
  },
  {
   "type": "Feature",
   "geometry": {
    "type": "Point",
    "coordinates": [
     149.38263654,
     -26.61494373
    ]
   },
   "properties": {
    "name": "22 PERRY STREET YULEBA 4427",
    "locID": "LOC000085839829",
    "tech": "NULL",
    "upgrade": "NULL_NA",
    "gnaf_pid": "GAQLD719477139",
    "ee": false,
    "tech_change_status": "Not Planned"
   }
  },
  {
   "type": "Feature",
   "geometry": {
    "type": "Point",
    "coordinates": [
     149.3768268,
     -26.61364528
    ]
   },
   "properties": {
    "name": "27 BEDWELL STREET YULEBA 4427",
    "locID": "LOC100078022573",
    "tech": "NULL",
    "upgrade": "NULL_NA",
    "gnaf_pid": "GAQLD719960463",
    "ee": false,
    "tech_change_status": "Not Planned"
   }
  },
  {
   "type": "Feature",
   "geometry": {
    "type": "Point",
    "coordinates": [
     149.38256028,
     -26.61204489
    ]
   },
   "properties": {
    "name": "3 PERRY STREET YULEBA 4427",
    "locID": "LOC000035424501",
    "tech": "NULL",
    "upgrade": "NULL_NA",
    "gnaf_pid": "GAQLD719960479",
    "ee": false,
    "tech_change_status": "Not Planned"
   }
  },
  {
   "type": "Feature",
   "geometry": {
    "type": "Point",
    "coordinates": [
     149.37870826,
     -26.621057
    ]
   },
   "properties": {
    "name": "44 FLINDERS STREET YULEBA 4427",
    "locID": "LOC000059724460",
    "tech": "NULL",
    "upgrade": "NULL_NA",
    "gnaf_pid": "GAQLD719960507",
    "ee": false,
    "tech_change_status": "Not Planned"
   }
  },
  {
   "type": "Feature",
   "geometry": {
    "type": "Point",
    "coordinates": [
     149.38522468,
     -26.61231977
    ]
   },
   "properties": {
    "name": "16 ROMA STREET YULEBA 4427",
    "locID": "LOC100030664646",
    "tech": "NULL",
    "upgrade": "NULL_NA",
    "gnaf_pid": "GAQLD719960543",
    "ee": false,
    "tech_change_status": "Not Planned"
   }
  },
  {
   "type": "Feature",
   "geometry": {
    "type": "Point",
    "coordinates": [
     149.38261557,
     -26.61159826
    ]
   },
   "properties": {
    "name": "1 PERRY STREET YULEBA 4427",
    "locID": "LOC100071909427",
    "tech": "NULL",
    "upgrade": "NULL_NA",
    "gnaf_pid": "GAQLD719960645",
    "ee": false,
    "tech_change_status": "Not Planned"
   }
  },
  {
   "type": "Feature",
   "geometry": {
    "type": "Point",
    "coordinates": [
     149.38108606,
     -26.61545794
    ]
   },
   "properties": {
    "name": "10 BEDWELL STREET YULEBA 4427",
    "locID": "LOC100086209883",
    "tech": "NULL",
    "upgrade": "NULL_NA",
    "gnaf_pid": "GAQLD719960667",
    "ee": false,
    "tech_change_status": "Not Planned"
   }
  },
  {
   "type": "Feature",
   "geometry": {
    "type": "Point",
    "coordinates": [
     149.38583514,
     -26.61234227
    ]
   },
   "properties": {
    "name": "1 STATION STREET YULEBA 4427",
    "locID": "LOC000025411445",
    "tech": "SATELLITE",
    "upgrade": "NULL_NA",
    "gnaf_pid": "GAQLD719960736",
    "ee": false,
    "tech_change_status": "Not Planned"
   }
  },
  {
   "type": "Feature",
   "geometry": {
    "type": "Point",
    "coordinates": [
     149.38121443,
     -26.61931122
    ]
   },
   "properties": {
    "name": "34 PERRY STREET YULEBA 4427",
    "locID": "LOC000193007537",
    "tech": "NULL",
    "upgrade": "NULL_NA",
    "gnaf_pid": "GAQLD719960829",
    "ee": false,
    "tech_change_status": "Not Planned"
   }
  },
  {
   "type": "Feature",
   "geometry": {
    "type": "Point",
    "coordinates": [
     149.37971868,
     -26.62051685
    ]
   },
   "properties": {
    "name": "39 PERRY STREET YULEBA 4427",
    "locID": "LOC000128076000",
    "tech": "NULL",
    "upgrade": "NULL_NA",
    "gnaf_pid": "GAQLD719960836",
    "ee": false,
    "tech_change_status": "Not Planned"
   }
  },
  {
   "type": "Feature",
   "geometry": {
    "type": "Point",
    "coordinates": [
     149.37643949,
     -26.61421293
    ]
   },
   "properties": {
    "name": "28 BEDWELL STREET YULEBA 4427",
    "locID": "LOC100086209910",
    "tech": "NULL",
    "upgrade": "NULL_NA",
    "gnaf_pid": "GAQLD719960862",
    "ee": false,
    "tech_change_status": "Not Planned"
   }
  },
  {
   "type": "Feature",
   "geometry": {
    "type": "Point",
    "coordinates": [
     149.3779175,
     -26.61318364
    ]
   },
   "properties": {
    "name": "6 BASS STREET YULEBA 4427",
    "locID": "LOC100086209923",
    "tech": "NULL",
    "upgrade": "NULL_NA",
    "gnaf_pid": "GAQLD719960978",
    "ee": false,
    "tech_change_status": "Not Planned"
   }
  },
  {
   "type": "Feature",
   "geometry": {
    "type": "Point",
    "coordinates": [
     149.38337034,
     -26.61490272
    ]
   },
   "properties": {
    "name": "9 CREEK STREET YULEBA 4427",
    "locID": "LOC000002656404",
    "tech": "NULL",
    "upgrade": "NULL_NA",
    "gnaf_pid": "GAQLD719961056",
    "ee": false,
    "tech_change_status": "Not Planned"
   }
  },
  {
   "type": "Feature",
   "geometry": {
    "type": "Point",
    "coordinates": [
     149.37955207,
     -26.61500092
    ]
   },
   "properties": {
    "name": "16 BEDWELL STREET YULEBA 4427",
    "locID": "LOC100079778659",
    "tech": "NULL",
    "upgrade": "NULL_NA",
    "gnaf_pid": "GAQLD719961077",
    "ee": false,
    "tech_change_status": "Not Planned"
   }
  },
  {
   "type": "Feature",
   "geometry": {
    "type": "Point",
    "coordinates": [
     149.38797937,
     -26.61297933
    ]
   },
   "properties": {
    "name": "4 ROMA STREET YULEBA 4427",
    "locID": "LOC000103450418",
    "tech": "NULL",
    "upgrade": "NULL_NA",
    "gnaf_pid": "GAQLD719961121",
    "ee": false,
    "tech_change_status": "Not Planned"
   }
  },
  {
   "type": "Feature",
   "geometry": {
    "type": "Point",
    "coordinates": [
     149.38146085,
     -26.62116949
    ]
   },
   "properties": {
    "name": "33 CREEK STREET YULEBA 4427",
    "locID": "LOC100071909525",
    "tech": "NULL",
    "upgrade": "NULL_NA",
    "gnaf_pid": "GAQLD719961167",
    "ee": false,
    "tech_change_status": "Not Planned"
   }
  },
  {
   "type": "Feature",
   "geometry": {
    "type": "Point",
    "coordinates": [
     149.383786,
     -26.61428167
    ]
   },
   "properties": {
    "name": "3 CREEK STREET YULEBA 4427",
    "locID": "LOC100071909525",
    "tech": "NULL",
    "upgrade": "NULL_NA",
    "gnaf_pid": "GAQLD719961184",
    "ee": false,
    "tech_change_status": "Not Planned"
   }
  },
  {
   "type": "Feature",
   "geometry": {
    "type": "Point",
    "coordinates": [
     149.38351427,
     -26.61443766
    ]
   },
   "properties": {
    "name": "5 CREEK STREET YULEBA 4427",
    "locID": "LOC100078022600",
    "tech": "NULL",
    "upgrade": "NULL_NA",
    "gnaf_pid": "GAQLD719961185",
    "ee": false,
    "tech_change_status": "Not Planned"
   }
  },
  {
   "type": "Feature",
   "geometry": {
    "type": "Point",
    "coordinates": [
     149.3745944,
     -26.61374689
    ]
   },
   "properties": {
    "name": "34 BEDWELL STREET YULEBA 4427",
    "locID": "LOC000169535479",
    "tech": "SATELLITE",
    "upgrade": "NULL_NA",
    "gnaf_pid": "GAQLD719961257",
    "ee": false,
    "tech_change_status": "Not Planned"
   }
  },
  {
   "type": "Feature",
   "geometry": {
    "type": "Point",
    "coordinates": [
     149.38269266,
     -26.61423
    ]
   },
   "properties": {
    "name": "16 PERRY STREET YULEBA 4427",
    "locID": "LOC000128076000",
    "tech": "NULL",
    "upgrade": "NULL_NA",
    "gnaf_pid": "GAQLD719961405",
    "ee": false,
    "tech_change_status": "Not Planned"
   }
  },
  {
   "type": "Feature",
   "geometry": {
    "type": "Point",
    "coordinates": [
     149.38069222,
     -26.6153583
    ]
   },
   "properties": {
    "name": "12 BEDWELL STREET YULEBA 4427",
    "locID": "LOC000033383938",
    "tech": "SATELLITE",
    "upgrade": "NULL_NA",
    "gnaf_pid": "GAQLD719961406",
    "ee": false,
    "tech_change_status": "Not Planned"
   }
  },
  {
   "type": "Feature",
   "geometry": {
    "type": "Point",
    "coordinates": [
     149.38132276,
     -26.61591969
    ]
   },
   "properties": {
    "name": "21 PERRY STREET YULEBA 4427",
    "locID": "LOC100071909462",
    "tech": "NULL",
    "upgrade": "NULL_NA",
    "gnaf_pid": "GAQLD719961425",
    "ee": false,
    "tech_change_status": "Not Planned"
   }
  },
  {
   "type": "Feature",
   "geometry": {
    "type": "Point",
    "coordinates": [
     149.38226704,
     -26.61615908
    ]
   },
   "properties": {
    "name": "30 PERRY STREET YULEBA 4427",
    "locID": "LOC100078022644",
    "tech": "NULL",
    "upgrade": "NULL_NA",
    "gnaf_pid": "GAQLD719961595",
    "ee": false,
    "tech_change_status": "Not Planned"
   }
  },
  {
   "type": "Feature",
   "geometry": {
    "type": "Point",
    "coordinates": [
     149.38343607,
     -26.61468623
    ]
   },
   "properties": {
    "name": "7 CREEK STREET YULEBA 4427",
    "locID": "LOC100086210612",
    "tech": "NULL",
    "upgrade": "NULL_NA",
    "gnaf_pid": "GAQLD719961678",
    "ee": false,
    "tech_change_status": "Not Planned"
   }
  },
  {
   "type": "Feature",
   "geometry": {
    "type": "Point",
    "coordinates": [
     149.37766735,
     -26.61598577
    ]
   },
   "properties": {
    "name": "19 BANKS STREET YULEBA 4427",
    "locID": "LOC100086210649",
    "tech": "NULL",
    "upgrade": "NULL_NA",
    "gnaf_pid": "GAQLD719961694",
    "ee": false,
    "tech_change_status": "Not Planned"
   }
  },
  {
   "type": "Feature",
   "geometry": {
    "type": "Point",
    "coordinates": [
     149.37948043,
     -26.61320773
    ]
   },
   "properties": {
    "name": "4 BANKS STREET YULEBA 4427",
    "locID": "LOC000093294667",
    "tech": "NULL",
    "upgrade": "NULL_NA",
    "gnaf_pid": "GAQLD719961721",
    "ee": false,
    "tech_change_status": "Not Planned"
   }
  },
  {
   "type": "Feature",
   "geometry": {
    "type": "Point",
    "coordinates": [
     149.37892493,
     -26.6202667
    ]
   },
   "properties": {
    "name": "40 FLINDERS STREET YULEBA 4427",
    "locID": "LOC000128073096",
    "tech": "NULL",
    "upgrade": "NULL_NA",
    "gnaf_pid": "GAQLD719961725",
    "ee": false,
    "tech_change_status": "Not Planned"
   }
  },
  {
   "type": "Feature",
   "geometry": {
    "type": "Point",
    "coordinates": [
     149.37802178,
     -26.61284256
    ]
   },
   "properties": {
    "name": "4 BASS STREET YULEBA 4427",
    "locID": "LOC000065671358",
    "tech": "NULL",
    "upgrade": "NULL_NA",
    "gnaf_pid": "GAQLD719961727",
    "ee": false,
    "tech_change_status": "Not Planned"
   }
  },
  {
   "type": "Feature",
   "geometry": {
    "type": "Point",
    "coordinates": [
     149.38251917,
     -26.61516789
    ]
   },
   "properties": {
    "name": "24 PERRY STREET YULEBA 4427",
    "locID": "LOC100086211236",
    "tech": "NULL",
    "upgrade": "NULL_NA",
    "gnaf_pid": "GAQLD719961937",
    "ee": false,
    "tech_change_status": "Not Planned"
   }
  },
  {
   "type": "Feature",
   "geometry": {
    "type": "Point",
    "coordinates": [
     149.38939824,
     -26.61847992
    ]
   },
   "properties": {
    "name": "LOT 1 MUGGINS LANE YULEBA 4427",
    "locID": "LOC000150211430",
    "tech": "NULL",
    "upgrade": "NULL_NA",
    "gnaf_pid": "GAQLD720375713",
    "ee": false,
    "tech_change_status": "Not Planned"
   }
  }
 ]
}